{
  "type": "FeatureCollection",
  "features": [
    {
      "type": "Feature",
      "geometry": {
        "type": "LineString",
        "coordinates": [
          [
            107.6041077,
            -6.920785
          ],
          [
            107.6038284,
            -6.9207532
          ],
          [
            107.6034762,
            -6.9207089
          ],
          [
            107.603136,
            -6.9206667
          ],
          [
            107.6022266,
            -6.9205616
          ],
          [
            107.6021366,
            -6.9205489
          ]
        ]
      },
      "properties": {
        "id": 4567664,
        "avgspeed": "30",
        "highway": "primary",
        "lanes": "2",
        "name": "Jalan Jendral Sudirman",
        "name:etymology:wikidata": "Q2367329",
        "name:etymology:wikipedia": "id:Soedirman",
        "oneway": "yes",
        "sidewalk": "separate",
        "surface": "asphalt"
      }
    },
    {
      "type": "Feature",
      "geometry": {
        "type": "LineString",
        "coordinates": [
          [
            107.5749738,
            -6.9155723
          ],
          [
            107.5750195,
            -6.915401
          ],
          [
            107.5751229,
            -6.9150685
          ],
          [
            107.5753136,
            -6.9144895
          ]
        ]
      },
      "properties": {
        "id": 4567682,
        "avgspeed": "25",
        "driving_side": "right",
        "highway": "primary",
        "lanes": "2",
        "name": "Jalan Elang",
        "oneway": "yes",
        "ref": "11",
        "surface": "paved"
      }
    },
    {
      "type": "Feature",
      "geometry": {
        "type": "LineString",
        "coordinates": [
          [
            107.5741991,
            -6.9172935
          ],
          [
            107.5741057,
            -6.9172433
          ],
          [
            107.5739928,
            -6.9171937
          ],
          [
            107.5739676,
            -6.9171826
          ],
          [
            107.5739351,
            -6.917172
          ],
          [
            107.5737577,
            -6.9170672
          ],
          [
            107.57361,
            -6.916953
          ],
          [
            107.5735023,
            -6.9168687
          ],
          [
            107.5731624,
            -6.916607
          ],
          [
            107.5730285,
            -6.9164995
          ],
          [
            107.5725721,
            -6.916133
          ]
        ]
      },
      "properties": {
        "id": 4567685,
        "avgspeed": "30",
        "destination:lanes": "Cijerah;Cigondewah;Melong|Kebon Kopi;Cimindi;Cimahi",
        "highway": "trunk",
        "lanes": "2",
        "name": "Jalan Jendral Sudirman",
        "name:etymology:wikidata": "Q2367329",
        "name:etymology:wikipedia": "id:Soedirman",
        "oneway": "yes",
        "ref": "11",
        "surface": "asphalt",
        "turn:lanes": "left|through"
      }
    },
    {
      "type": "Feature",
      "geometry": {
        "type": "LineString",
        "coordinates": [
          [
            107.6562379,
            -6.9021633
          ],
          [
            107.6561678,
            -6.9021519
          ],
          [
            107.6560981,
            -6.9021454
          ],
          [
            107.6557174,
            -6.902134
          ]
        ]
      },
      "properties": {
        "id": 239944112,
        "avgspeed": "30",
        "destination:lanes": "Cicadas|Padasuka;Cikutra",
        "highway": "trunk",
        "lanes": "2",
        "name": "Jalan Jenderal Ahmad Yani",
        "name:etymology:wikidata": "Q2992817",
        "name:etymology:wikipedia": "id:Ahmad Yani",
        "oneway": "yes",
        "turn:lanes": "slight_left;through|through"
      }
    },
    {
      "type": "Feature",
      "geometry": {
        "type": "LineString",
        "coordinates": [
          [
            107.6445308,
            -6.9080265
          ],
          [
            107.644457,
            -6.9080919
          ],
          [
            107.6444319,
            -6.9081142
          ],
          [
            107.6437989,
            -6.9084471
          ]
        ]
      },
      "properties": {
        "id": 244698818,
        "destination": "Jakarta;Antapani;Kiaracondong;Binong",
        "highway": "primary",
        "lanes": "2",
        "name": "Jalan Jenderal Ahmad Yani",
        "name:etymology:wikidata": "Q2992817",
        "name:etymology:wikipedia": "id:Ahmad Yani",
        "oneway": "yes"
      }
    },
    {
      "type": "Feature",
      "geometry": {
        "type": "LineString",
        "coordinates": [
          [
            107.6445308,
            -6.9080265
          ],
          [
            107.6447525,
            -6.9079094
          ],
          [
            107.6449366,
            -6.9078121
          ],
          [
            107.64542,
            -6.9075568
          ],
          [
            107.6456577,
            -6.907431
          ],
          [
            107.645715,
            -6.9074007
          ],
          [
            107.6457789,
            -6.9073672
          ],
          [
            107.6458575,
            -6.9073247
          ],
          [
            107.6459395,
            -6.9072816
          ],
          [
            107.6462819,
            -6.9071016
          ],
          [
            107.6465653,
            -6.9069518
          ],
          [
            107.6469168,
            -6.9067662
          ],
          [
            107.6469532,
            -6.906747
          ],
          [
            107.6470598,
            -6.9066907
          ],
          [
            107.6473416,
            -6.906544
          ],
          [
            107.6473541,
            -6.9065376
          ]
        ]
      },
      "properties": {
        "id": 244799595,
        "highway": "primary",
        "lanes": "2",
        "name": "Jalan Jenderal Ahmad Yani",
        "name:etymology:wikidata": "Q2992817",
        "name:etymology:wikipedia": "id:Ahmad Yani",
        "oneway": "no"
      }
    },
    {
      "type": "Feature",
      "geometry": {
        "type": "LineString",
        "coordinates": [
          [
            107.5755571,
            -6.9135373
          ],
          [
            107.5754392,
            -6.9138457
          ],
          [
            107.5752572,
            -6.9143562
          ],
          [
            107.5749328,
            -6.9153687
          ],
          [
            107.5748897,
            -6.9155407
          ]
        ]
      },
      "properties": {
        "id": 254609694,
        "access": "yes",
        "bicycle": "yes",
        "bus": "yes",
        "driving_side": "right",
        "foot": "yes",
        "highway": "primary",
        "lanes": "2",
        "name": "Jalan Elang",
        "oneway": "yes",
        "ref": "11"
      }
    },
    {
      "type": "Feature",
      "geometry": {
        "type": "LineString",
        "coordinates": [
          [
            107.6021366,
            -6.9205489
          ],
          [
            107.6020691,
            -6.9205405
          ],
          [
            107.601895,
            -6.920521
          ],
          [
            107.6018084,
            -6.9205114
          ],
          [
            107.6012359,
            -6.9204443
          ],
          [
            107.6009589,
            -6.9204087
          ],
          [
            107.6006504,
            -6.9203693
          ],
          [
            107.6005045,
            -6.9203533
          ],
          [
            107.5998017,
            -6.9202729
          ],
          [
            107.5997457,
            -6.9202665
          ],
          [
            107.5985234,
            -6.9201237
          ],
          [
            107.5984985,
            -6.9201204
          ],
          [
            107.5983366,
            -6.920102
          ]
        ]
      },
      "properties": {
        "id": 318222718,
        "avgspeed": "30",
        "highway": "primary",
        "lanes": "2",
        "name": "Jalan Jendral Sudirman",
        "name:etymology:wikidata": "Q2367329",
        "name:etymology:wikipedia": "id:Soedirman",
        "oneway": "yes",
        "sidewalk": "separate",
        "surface": "asphalt"
      }
    },
    {
      "type": "Feature",
      "geometry": {
        "type": "LineString",
        "coordinates": [
          [
            107.5956582,
            -6.9197825
          ],
          [
            107.5954894,
            -6.9197632
          ],
          [
            107.5951361,
            -6.9197212
          ],
          [
            107.5949783,
            -6.9197019
          ],
          [
            107.5945327,
            -6.9196494
          ],
          [
            107.5938942,
            -6.9195727
          ],
          [
            107.5937471,
            -6.9195544
          ],
          [
            107.5936474,
            -6.9195417
          ],
          [
            107.5930371,
            -6.9194634
          ],
          [
            107.5929358,
            -6.9194498
          ]
        ]
      },
      "properties": {
        "id": 318222720,
        "avgspeed": "30",
        "highway": "primary",
        "lanes": "2",
        "name": "Jalan Jendral Sudirman",
        "name:etymology:wikidata": "Q2367329",
        "name:etymology:wikipedia": "id:Soedirman",
        "oneway": "yes",
        "parking:both": "street_side",
        "parking:left:orientation": "diagonal",
        "parking:right:orientation": "parallel",
        "surface": "asphalt"
      }
    },
    {
      "type": "Feature",
      "geometry": {
        "type": "LineString",
        "coordinates": [
          [
            107.5766159,
            -6.9175515
          ],
          [
            107.5762592,
            -6.9175155
          ],
          [
            107.5760342,
            -6.9174893
          ],
          [
            107.5757932,
            -6.9174613
          ],
          [
            107.5756139,
            -6.9174409
          ],
          [
            107.5754537,
            -6.9174221
          ],
          [
            107.5751233,
            -6.9173833
          ],
          [
            107.5750142,
            -6.9173706
          ],
          [
            107.5747901,
            -6.9173287
          ],
          [
            107.5747047,
            -6.9173134
          ],
          [
            107.5746765,
            -6.9173067
          ],
          [
            107.5745601,
            -6.9172787
          ]
        ]
      },
      "properties": {
        "id": 318231951,
        "destination:lanes": "Holis;Pasir Koja;Caringin;Kopo|Cijerah;Cigondewah;Melong|Kebon Kopi;Cimindi;Cimahi",
        "highway": "trunk",
        "lanes": "3",
        "name": "Jalan Jendral Sudirman",
        "name:etymology:wikidata": "Q2367329",
        "name:etymology:wikipedia": "id:Soedirman",
        "oneway": "yes",
        "surface": "asphalt",
        "turn:lanes": "left|slight_left|slight_left"
      }
    },
    {
      "type": "Feature",
      "geometry": {
        "type": "LineString",
        "coordinates": [
          [
            107.5693569,
            -6.9106219
          ],
          [
            107.5694743,
            -6.9106678
          ],
          [
            107.569668,
            -6.9107436
          ],
          [
            107.5697302,
            -6.910768
          ],
          [
            107.5699681,
            -6.910861
          ],
          [
            107.5701462,
            -6.9109306
          ],
          [
            107.5702926,
            -6.9109879
          ],
          [
            107.5704868,
            -6.9110639
          ],
          [
            107.5705813,
            -6.9111009
          ],
          [
            107.570662,
            -6.9111324
          ],
          [
            107.5710798,
            -6.9112958
          ],
          [
            107.5715519,
            -6.9114805
          ],
          [
            107.5717818,
            -6.9115704
          ],
          [
            107.5718363,
            -6.9115918
          ],
          [
            107.5720087,
            -6.9116592
          ],
          [
            107.5723261,
            -6.9117833
          ],
          [
            107.5725782,
            -6.9118819
          ],
          [
            107.5729282,
            -6.9120185
          ]
        ]
      },
      "properties": {
        "id": 318231952,
        "avgspeed": "30",
        "highway": "trunk",
        "lanes": "3",
        "name": "Jalan Rajawali Barat",
        "oneway": "yes",
        "ref": "11"
      }
    },
    {
      "type": "Feature",
      "geometry": {
        "type": "LineString",
        "coordinates": [
          [
            107.6434964,
            -6.9113612
          ],
          [
            107.6435161,
            -6.9115847
          ],
          [
            107.6435389,
            -6.9119283
          ],
          [
            107.6435633,
            -6.9122449
          ],
          [
            107.6435953,
            -6.9125849
          ],
          [
            107.6436233,
            -6.9128822
          ],
          [
            107.643636,
            -6.9130175
          ]
        ]
      },
      "properties": {
        "id": 318490791,
        "destination:lanes": "Purwakarta;Antapani;Arcamanik|Kiaracondong;Babakan Sari;Binong|Jakarta;Ahmad Yani;Supratman;Riau",
        "foot": "use_sidepath",
        "highway": "primary",
        "lanes": "3",
        "name": "Jalan H. Ibrahim Adjie",
        "old_name": "Jalan Kiaracondong",
        "oneway": "yes",
        "surface": "asphalt",
        "turn:lanes": "slight_left|slight_left;slight_right|slight_right"
      }
    },
    {
      "type": "Feature",
      "geometry": {
        "type": "LineString",
        "coordinates": [
          [
            107.6194592,
            -6.9213499
          ],
          [
            107.6191038,
            -6.9215541
          ],
          [
            107.6187221,
            -6.9217512
          ]
        ]
      },
      "properties": {
        "id": 318729565,
        "avgspeed": "30",
        "destination:lanes": "Sunda;Naripan;Sumbawa;Jawa|Asia Afrika;Lengkong;Alun Alun;Otista|Gatot Subroto;Burangrang;Malabar;Sesko AD",
        "highway": "primary",
        "lanes": "3",
        "name": "Jalan Jenderal Ahmad Yani",
        "name:etymology:wikidata": "Q2992817",
        "name:etymology:wikipedia": "id:Ahmad Yani",
        "oneway": "yes",
        "parking:left": "no",
        "parking:right": "lane",
        "parking:right:orientation": "parallel",
        "surface": "asphalt",
        "turn:lanes": "through|through|through"
      }
    },
    {
      "type": "Feature",
      "geometry": {
        "type": "LineString",
        "coordinates": [
          [
            107.5901619,
            -6.9191118
          ],
          [
            107.5899941,
            -6.9190912
          ],
          [
            107.5890027,
            -6.9189756
          ],
          [
            107.588854,
            -6.9189576
          ],
          [
            107.5883961,
            -6.918904
          ],
          [
            107.5882748,
            -6.9188882
          ],
          [
            107.5879832,
            -6.9188506
          ],
          [
            107.5875374,
            -6.9188022
          ],
          [
            107.5874461,
            -6.9187925
          ],
          [
            107.5872972,
            -6.9187784
          ],
          [
            107.5871809,
            -6.9187671
          ],
          [
            107.5871599,
            -6.9187651
          ],
          [
            107.5869453,
            -6.9187438
          ]
        ]
      },
      "properties": {
        "id": 318891917,
        "avgspeed": "30",
        "highway": "primary",
        "lanes": "3",
        "name": "Jalan Jendral Sudirman",
        "name:etymology:wikidata": "Q2367329",
        "name:etymology:wikipedia": "id:Soedirman",
        "oneway": "yes",
        "surface": "asphalt"
      }
    },
    {
      "type": "Feature",
      "geometry": {
        "type": "LineString",
        "coordinates": [
          [
            107.6064585,
            -6.9210512
          ],
          [
            107.6064357,
            -6.9210487
          ],
          [
            107.6059322,
            -6.9209936
          ],
          [
            107.605075,
            -6.9208966
          ],
          [
            107.6042658,
            -6.9208061
          ],
          [
            107.6042276,
            -6.9208008
          ],
          [
            107.6041077,
            -6.920785
          ]
        ]
      },
      "properties": {
        "id": 319194433,
        "avgspeed": "40",
        "highway": "primary",
        "lanes": "4",
        "maxspeed": "50",
        "name": "Jalan Asia Afrika",
        "oneway": "yes",
        "sidewalk": "separate",
        "surface": "asphalt"
      }
    },
    {
      "type": "Feature",
      "geometry": {
        "type": "LineString",
        "coordinates": [
          [
            107.607195,
            -6.9211421
          ],
          [
            107.6071709,
            -6.9211388
          ],
          [
            107.6071309,
            -6.9211347
          ]
        ]
      },
      "properties": {
        "id": 319194434,
        "avgspeed": "40",
        "bus_bay": "left",
        "highway": "primary",
        "lanes": "4",
        "maxspeed": "50",
        "name": "Jalan Asia Afrika",
        "oneway": "yes",
        "parking:both": "no",
        "sidewalk": "separate",
        "surface": "asphalt"
      }
    },
    {
      "type": "Feature",
      "geometry": {
        "type": "LineString",
        "coordinates": [
          [
            107.6228594,
            -6.9195533
          ],
          [
            107.6224719,
            -6.9197548
          ],
          [
            107.6221779,
            -6.9199012
          ],
          [
            107.6221549,
            -6.9199123
          ],
          [
            107.6220264,
            -6.9199819
          ],
          [
            107.6218618,
            -6.9200705
          ],
          [
            107.621673,
            -6.9201723
          ],
          [
            107.6215708,
            -6.9202248
          ],
          [
            107.6213148,
            -6.9203613
          ],
          [
            107.6211338,
            -6.9204577
          ],
          [
            107.6206442,
            -6.9207187
          ],
          [
            107.6201383,
            -6.9209883
          ],
          [
            107.619912,
            -6.921109
          ],
          [
            107.619848,
            -6.921143
          ],
          [
            107.619832,
            -6.9211515
          ],
          [
            107.6194592,
            -6.9213499
          ]
        ]
      },
      "properties": {
        "id": 319195737,
        "avgspeed": "30",
        "highway": "primary",
        "lanes": "3",
        "lanes:backward": "1",
        "lanes:forward": "2",
        "name": "Jalan Jenderal Ahmad Yani",
        "name:etymology:wikidata": "Q2992817",
        "name:etymology:wikipedia": "id:Ahmad Yani",
        "oneway": "no",
        "surface": "asphalt"
      }
    },
    {
      "type": "Feature",
      "geometry": {
        "type": "LineString",
        "coordinates": [
          [
            107.6557174,
            -6.902134
          ],
          [
            107.6549747,
            -6.9025328
          ],
          [
            107.6549328,
            -6.902555
          ],
          [
            107.6547053,
            -6.9026773
          ]
        ]
      },
      "properties": {
        "id": 320595172,
        "highway": "primary",
        "lanes": "2",
        "name": "Jalan Jenderal Ahmad Yani",
        "name:etymology:wikidata": "Q2992817",
        "name:etymology:wikipedia": "id:Ahmad Yani",
        "oneway": "yes"
      }
    },
    {
      "type": "Feature",
      "geometry": {
        "type": "LineString",
        "coordinates": [
          [
            107.6374221,
            -6.9145133
          ],
          [
            107.6374071,
            -6.9145151
          ]
        ]
      },
      "properties": {
        "id": 320616149,
        "highway": "primary",
        "lanes": "4",
        "name": "Jalan Jakarta",
        "oneway": "yes",
        "oneway:conditional": "no @ (16:00-04:00)"
      }
    },
    {
      "type": "Feature",
      "geometry": {
        "type": "LineString",
        "coordinates": [
          [
            107.6375505,
            -6.9144979
          ],
          [
            107.6374221,
            -6.9145133
          ]
        ]
      },
      "properties": {
        "id": 320616150,
        "bridge": "yes",
        "highway": "primary",
        "lanes": "4",
        "layer": "1",
        "name": "Jalan Jakarta",
        "oneway": "yes",
        "oneway:conditional": "no @ (16:00-04:00)"
      }
    },
    {
      "type": "Feature",
      "geometry": {
        "type": "LineString",
        "coordinates": [
          [
            107.6311335,
            -6.9151604
          ],
          [
            107.6313219,
            -6.9150573
          ],
          [
            107.631392,
            -6.915019
          ],
          [
            107.6314854,
            -6.9149679
          ],
          [
            107.6316428,
            -6.9148818
          ],
          [
            107.6320747,
            -6.9146547
          ],
          [
            107.6322869,
            -6.9145432
          ],
          [
            107.6325601,
            -6.9143996
          ],
          [
            107.6327618,
            -6.9142935
          ],
          [
            107.6327884,
            -6.9142791
          ],
          [
            107.6328365,
            -6.9142566
          ],
          [
            107.6329881,
            -6.9141745
          ],
          [
            107.6332108,
            -6.9140574
          ],
          [
            107.6333413,
            -6.9139888
          ]
        ]
      },
      "properties": {
        "id": 330592464,
        "avgspeed": "30",
        "highway": "primary",
        "lanes": "4",
        "name": "Jalan Jenderal Ahmad Yani",
        "name:etymology:wikidata": "Q2992817",
        "name:etymology:wikipedia": "id:Ahmad Yani",
        "oneway": "no",
        "parking:both": "no",
        "ref": "378",
        "surface": "asphalt"
      }
    },
    {
      "type": "Feature",
      "geometry": {
        "type": "LineString",
        "coordinates": [
          [
            107.6417884,
            -6.9139622
          ],
          [
            107.641697,
            -6.9139738
          ],
          [
            107.6414919,
            -6.9139937
          ],
          [
            107.641334,
            -6.9140119
          ],
          [
            107.6412274,
            -6.9140241
          ],
          [
            107.6410877,
            -6.9140393
          ],
          [
            107.6409956,
            -6.9140515
          ],
          [
            107.6405312,
            -6.9141105
          ],
          [
            107.6404431,
            -6.9141209
          ],
          [
            107.6403048,
            -6.9141385
          ],
          [
            107.6402144,
            -6.914148
          ],
          [
            107.6399554,
            -6.914178
          ],
          [
            107.6398939,
            -6.914186
          ],
          [
            107.6397497,
            -6.9142026
          ],
          [
            107.6394855,
            -6.9142369
          ],
          [
            107.6393217,
            -6.9142593
          ],
          [
            107.6391686,
            -6.914281
          ],
          [
            107.6390956,
            -6.9142912
          ],
          [
            107.6389363,
            -6.9143117
          ],
          [
            107.6388474,
            -6.9143228
          ],
          [
            107.6386441,
            -6.9143525
          ],
          [
            107.6385822,
            -6.9143614
          ],
          [
            107.6385215,
            -6.9143724
          ],
          [
            107.6384678,
            -6.9143807
          ],
          [
            107.6381956,
            -6.9144188
          ],
          [
            107.6379503,
            -6.9144499
          ],
          [
            107.6378321,
            -6.9144641
          ],
          [
            107.6377113,
            -6.9144786
          ],
          [
            107.6376149,
            -6.9144902
          ]
        ]
      },
      "properties": {
        "id": 330594960,
        "highway": "primary",
        "lanes": "4",
        "name": "Jalan Jakarta",
        "oneway": "yes",
        "oneway:conditional": "no @ (16:00-06:00)"
      }
    },
    {
      "type": "Feature",
      "geometry": {
        "type": "LineString",
        "coordinates": [
          [
            107.6373588,
            -6.9145209
          ],
          [
            107.6371438,
            -6.9145467
          ],
          [
            107.6369043,
            -6.9145755
          ],
          [
            107.6368147,
            -6.9145887
          ],
          [
            107.636513,
            -6.914633
          ],
          [
            107.6362469,
            -6.9146627
          ],
          [
            107.6362076,
            -6.9146671
          ],
          [
            107.6361335,
            -6.9146647
          ],
          [
            107.6360082,
            -6.9146453
          ],
          [
            107.6356952,
            -6.9145626
          ],
          [
            107.6356516,
            -6.9145514
          ]
        ]
      },
      "properties": {
        "id": 330635689,
        "highway": "primary",
        "lanes": "4",
        "name": "Jalan Jakarta",
        "oneway": "yes",
        "surface": "asphalt",
        "turn:lanes": "slight_left|through|through|slight_right"
      }
    },
    {
      "type": "Feature",
      "geometry": {
        "type": "LineString",
        "coordinates": [
          [
            107.6290208,
            -6.9162728
          ],
          [
            107.6289251,
            -6.9163216
          ],
          [
            107.6287077,
            -6.9164366
          ],
          [
            107.6286077,
            -6.9164897
          ],
          [
            107.6284319,
            -6.9165831
          ],
          [
            107.6281138,
            -6.9167518
          ],
          [
            107.6274434,
            -6.9171135
          ]
        ]
      },
      "properties": {
        "id": 330853613,
        "avgspeed": "30",
        "highway": "primary",
        "lanes": "4",
        "mapillary": "1466903270562717",
        "name": "Jalan Jenderal Ahmad Yani",
        "name:etymology:wikidata": "Q2992817",
        "name:etymology:wikipedia": "id:Ahmad Yani",
        "oneway": "no",
        "surface": "asphalt"
      }
    },
    {
      "type": "Feature",
      "geometry": {
        "type": "LineString",
        "coordinates": [
          [
            107.6433608,
            -6.9099796
          ],
          [
            107.6434062,
            -6.9104364
          ],
          [
            107.6434211,
            -6.9105823
          ],
          [
            107.6434723,
            -6.9111273
          ],
          [
            107.6434794,
            -6.9112066
          ],
          [
            107.6434964,
            -6.9113612
          ]
        ]
      },
      "properties": {
        "id": 330996291,
        "destination": "Jakarta;Antapani;Kiaracondong;Binong",
        "highway": "primary",
        "lanes": "3",
        "name": "Jalan H. Ibrahim Adjie",
        "note": "Cicadas",
        "old_name": "Jalan Kiaracondong",
        "oneway": "yes",
        "width": "8"
      }
    },
    {
      "type": "Feature",
      "geometry": {
        "type": "LineString",
        "coordinates": [
          [
            107.5708773,
            -6.9135594
          ],
          [
            107.5707008,
            -6.9132508
          ],
          [
            107.5705747,
            -6.9130517
          ],
          [
            107.5703429,
            -6.9126894
          ]
        ]
      },
      "properties": {
        "id": 331148441,
        "highway": "trunk",
        "lanes": "2",
        "name": "Jalan Jendral Sudirman",
        "name:etymology:wikidata": "Q2367329",
        "name:etymology:wikipedia": "id:Soedirman",
        "oneway": "yes",
        "ref": "11"
      }
    },
    {
      "type": "Feature",
      "geometry": {
        "type": "LineString",
        "coordinates": [
          [
            107.6504237,
            -6.9049308
          ],
          [
            107.6505268,
            -6.9048727
          ]
        ]
      },
      "properties": {
        "id": 414435670,
        "bridge": "yes",
        "highway": "primary",
        "lanes": "2",
        "layer": "1",
        "name": "Jalan Jenderal Ahmad Yani",
        "name:etymology:wikidata": "Q2992817",
        "name:etymology:wikipedia": "id:Ahmad Yani",
        "oneway": "no"
      }
    },
    {
      "type": "Feature",
      "geometry": {
        "type": "LineString",
        "coordinates": [
          [
            107.6505268,
            -6.9048727
          ],
          [
            107.6509613,
            -6.904644
          ],
          [
            107.6510558,
            -6.9045991
          ],
          [
            107.6511156,
            -6.9045663
          ],
          [
            107.6512752,
            -6.9044817
          ],
          [
            107.6522601,
            -6.9039596
          ],
          [
            107.6523019,
            -6.9039374
          ],
          [
            107.6532521,
            -6.903436
          ],
          [
            107.6533029,
            -6.9034069
          ],
          [
            107.6537144,
            -6.9031904
          ],
          [
            107.6538132,
            -6.9031384
          ],
          [
            107.65401,
            -6.9030256
          ]
        ]
      },
      "properties": {
        "id": 414435672,
        "highway": "primary",
        "lanes": "2",
        "name": "Jalan Jenderal Ahmad Yani",
        "name:etymology:wikidata": "Q2992817",
        "name:etymology:wikipedia": "id:Ahmad Yani",
        "oneway": "no"
      }
    },
    {
      "type": "Feature",
      "geometry": {
        "type": "LineString",
        "coordinates": [
          [
            107.5869453,
            -6.9187438
          ],
          [
            107.5868128,
            -6.9187411
          ],
          [
            107.5867487,
            -6.918738
          ],
          [
            107.5866461,
            -6.9187467
          ],
          [
            107.5865662,
            -6.9187469
          ]
        ]
      },
      "properties": {
        "id": 492887190,
        "avgspeed": "30",
        "highway": "primary",
        "lanes": "2",
        "name": "Jalan Jendral Sudirman",
        "name:etymology:wikidata": "Q2367329",
        "name:etymology:wikipedia": "id:Soedirman",
        "oneway": "yes",
        "surface": "asphalt"
      }
    },
    {
      "type": "Feature",
      "geometry": {
        "type": "LineString",
        "coordinates": [
          [
            107.6120154,
            -6.9217245
          ],
          [
            107.6118219,
            -6.9217006
          ]
        ]
      },
      "properties": {
        "id": 552308522,
        "avgspeed": "40",
        "cycleway:left": "lane",
        "cycleway:left:lane": "advisory",
        "cycleway:right": "no",
        "highway": "primary",
        "lanes": "4",
        "maxspeed": "50",
        "name": "Jalan Asia Afrika",
        "oneway": "yes",
        "sidewalk": "separate",
        "surface": "asphalt"
      }
    },
    {
      "type": "Feature",
      "geometry": {
        "type": "LineString",
        "coordinates": [
          [
            107.6077961,
            -6.9212245
          ],
          [
            107.6076762,
            -6.9212089
          ],
          [
            107.6075753,
            -6.921193
          ],
          [
            107.6072432,
            -6.9211493
          ],
          [
            107.607195,
            -6.9211421
          ]
        ]
      },
      "properties": {
        "id": 552308523,
        "avgspeed": "40",
        "highway": "primary",
        "lanes": "4",
        "maxspeed": "50",
        "name": "Jalan Asia Afrika",
        "oneway": "yes",
        "parking:both": "no",
        "sidewalk": "separate",
        "surface": "asphalt"
      }
    },
    {
      "type": "Feature",
      "geometry": {
        "type": "LineString",
        "coordinates": [
          [
            107.5957158,
            -6.9197892
          ],
          [
            107.5956582,
            -6.9197825
          ]
        ]
      },
      "properties": {
        "id": 557541289,
        "avgspeed": "30",
        "bridge": "yes",
        "highway": "primary",
        "lanes": "2",
        "layer": "1",
        "name": "Jalan Jendral Sudirman",
        "name:etymology:wikidata": "Q2367329",
        "name:etymology:wikipedia": "id:Soedirman",
        "oneway": "yes",
        "surface": "asphalt"
      }
    },
    {
      "type": "Feature",
      "geometry": {
        "type": "LineString",
        "coordinates": [
          [
            107.597885,
            -6.9200477
          ],
          [
            107.5976547,
            -6.9200188
          ],
          [
            107.5975181,
            -6.9200032
          ],
          [
            107.59729,
            -6.919975
          ],
          [
            107.5972483,
            -6.9199708
          ],
          [
            107.5964708,
            -6.9198754
          ],
          [
            107.595731,
            -6.9197916
          ],
          [
            107.5957158,
            -6.9197892
          ]
        ]
      },
      "properties": {
        "id": 557541290,
        "avgspeed": "30",
        "highway": "primary",
        "lanes": "2",
        "name": "Jalan Jendral Sudirman",
        "name:etymology:wikidata": "Q2367329",
        "name:etymology:wikipedia": "id:Soedirman",
        "oneway": "yes",
        "surface": "asphalt"
      }
    },
    {
      "type": "Feature",
      "geometry": {
        "type": "LineString",
        "coordinates": [
          [
            107.6311335,
            -6.9151604
          ],
          [
            107.6310799,
            -6.915221
          ],
          [
            107.6310034,
            -6.9152615
          ],
          [
            107.6309708,
            -6.9152788
          ],
          [
            107.6308525,
            -6.9153415
          ],
          [
            107.6304185,
            -6.9155713
          ],
          [
            107.6303391,
            -6.9156149
          ]
        ]
      },
      "properties": {
        "id": 558974781,
        "avgspeed": "30",
        "destination:lanes": "Laswi;Lingkar Selatan;Gatot Subroto;Buahbatu|Cikudapateuh;Kosambi;Simpang Lima;Asia Afrika|Riau;Aceh;Taman Pramuka;Ciliwung",
        "highway": "primary",
        "lanes": "3",
        "name": "Jalan Jenderal Ahmad Yani",
        "name:etymology:wikidata": "Q2992817",
        "name:etymology:wikipedia": "id:Ahmad Yani",
        "oneway": "yes",
        "parking:both": "no",
        "ref": "378",
        "surface": "asphalt",
        "turn:lanes": "slight_left;through|through|right"
      }
    },
    {
      "type": "Feature",
      "geometry": {
        "type": "LineString",
        "coordinates": [
          [
            107.6303391,
            -6.9156149
          ],
          [
            107.6301221,
            -6.9157388
          ],
          [
            107.6300714,
            -6.9157678
          ]
        ]
      },
      "properties": {
        "id": 558974782,
        "avgspeed": "30",
        "destination:lanes": "Cikudapateuh;Kosambi;Simpang Lima;Asia Afrika|Cikudapateuh;Kosambi;Simpang Lima;Asia Afrika|Riau;Aceh;Taman Pramuka;Ciliwung",
        "highway": "primary",
        "lanes": "3",
        "name": "Jalan Jenderal Ahmad Yani",
        "name:etymology:wikidata": "Q2992817",
        "name:etymology:wikipedia": "id:Ahmad Yani",
        "oneway": "yes",
        "ref": "378",
        "surface": "asphalt",
        "turn:lanes": "through|through|right"
      }
    },
    {
      "type": "Feature",
      "geometry": {
        "type": "LineString",
        "coordinates": [
          [
            107.6299922,
            -6.9158161
          ],
          [
            107.6299136,
            -6.9158592
          ],
          [
            107.6298144,
            -6.9159137
          ]
        ]
      },
      "properties": {
        "id": 558974783,
        "avgspeed": "30",
        "highway": "primary",
        "lanes": "2",
        "name": "Jalan Jenderal Ahmad Yani",
        "name:etymology:wikidata": "Q2992817",
        "name:etymology:wikipedia": "id:Ahmad Yani",
        "oneway": "yes",
        "surface": "asphalt"
      }
    },
    {
      "type": "Feature",
      "geometry": {
        "type": "LineString",
        "coordinates": [
          [
            107.6298144,
            -6.9159137
          ],
          [
            107.6295503,
            -6.9160568
          ],
          [
            107.629412,
            -6.9161317
          ],
          [
            107.6291688,
            -6.9162635
          ],
          [
            107.6290984,
            -6.9162777
          ],
          [
            107.6290208,
            -6.9162728
          ]
        ]
      },
      "properties": {
        "id": 558974784,
        "avgspeed": "30",
        "highway": "primary",
        "lanes": "2",
        "name": "Jalan Jenderal Ahmad Yani",
        "name:etymology:wikidata": "Q2992817",
        "name:etymology:wikipedia": "id:Ahmad Yani",
        "oneway": "yes",
        "surface": "asphalt"
      }
    },
    {
      "type": "Feature",
      "geometry": {
        "type": "LineString",
        "coordinates": [
          [
            107.6273636,
            -6.9171968
          ],
          [
            107.6270889,
            -6.9173383
          ],
          [
            107.6268861,
            -6.9174463
          ],
          [
            107.6268076,
            -6.9174881
          ],
          [
            107.6266557,
            -6.917569
          ],
          [
            107.6266014,
            -6.9175983
          ],
          [
            107.6263141,
            -6.9177504
          ]
        ]
      },
      "properties": {
        "id": 558974789,
        "avgspeed": "30",
        "highway": "primary",
        "lanes": "2",
        "name": "Jalan Jenderal Ahmad Yani",
        "name:etymology:wikidata": "Q2992817",
        "name:etymology:wikipedia": "id:Ahmad Yani",
        "oneway": "yes",
        "surface": "asphalt"
      }
    },
    {
      "type": "Feature",
      "geometry": {
        "type": "LineString",
        "coordinates": [
          [
            107.6422876,
            -6.9139498
          ],
          [
            107.6421252,
            -6.9139589
          ],
          [
            107.6417884,
            -6.9139622
          ]
        ]
      },
      "properties": {
        "id": 559019369,
        "highway": "primary",
        "lanes": "3",
        "name": "Jalan Jakarta",
        "oneway": "yes"
      }
    },
    {
      "type": "Feature",
      "geometry": {
        "type": "LineString",
        "coordinates": [
          [
            107.6473937,
            -6.9065187
          ],
          [
            107.6474379,
            -6.9064956
          ],
          [
            107.6474992,
            -6.9064635
          ],
          [
            107.6475815,
            -6.9064204
          ],
          [
            107.6478731,
            -6.9062675
          ],
          [
            107.6481705,
            -6.9061111
          ],
          [
            107.6482371,
            -6.9060767
          ],
          [
            107.6483165,
            -6.9060351
          ],
          [
            107.6483897,
            -6.9059946
          ],
          [
            107.6484809,
            -6.905949
          ],
          [
            107.6485698,
            -6.9059024
          ],
          [
            107.6487588,
            -6.9058034
          ],
          [
            107.6488255,
            -6.9057684
          ],
          [
            107.6489439,
            -6.9057063
          ],
          [
            107.6492779,
            -6.9055313
          ],
          [
            107.6494311,
            -6.9054486
          ],
          [
            107.6495236,
            -6.9054025
          ],
          [
            107.6496473,
            -6.9053377
          ],
          [
            107.6496626,
            -6.9053297
          ],
          [
            107.6498165,
            -6.9052493
          ],
          [
            107.6498843,
            -6.9052135
          ],
          [
            107.650154,
            -6.9050722
          ],
          [
            107.650173,
            -6.9050622
          ],
          [
            107.6504237,
            -6.9049308
          ]
        ]
      },
      "properties": {
        "id": 561412375,
        "highway": "primary",
        "lanes": "2",
        "name": "Jalan Jenderal Ahmad Yani",
        "name:etymology:wikidata": "Q2992817",
        "name:etymology:wikipedia": "id:Ahmad Yani",
        "oneway": "no"
      }
    },
    {
      "type": "Feature",
      "geometry": {
        "type": "LineString",
        "coordinates": [
          [
            107.6473541,
            -6.9065376
          ],
          [
            107.6473937,
            -6.9065187
          ]
        ]
      },
      "properties": {
        "id": 561412376,
        "bridge": "yes",
        "highway": "primary",
        "lanes": "2",
        "layer": "1",
        "name": "Jalan Jenderal Ahmad Yani",
        "name:etymology:wikidata": "Q2992817",
        "name:etymology:wikipedia": "id:Ahmad Yani",
        "oneway": "no"
      }
    },
    {
      "type": "Feature",
      "geometry": {
        "type": "LineString",
        "coordinates": [
          [
            107.5715151,
            -6.9146659
          ],
          [
            107.5714243,
            -6.9145091
          ],
          [
            107.571384,
            -6.9144417
          ],
          [
            107.5710851,
            -6.913941
          ],
          [
            107.5709375,
            -6.9136862
          ],
          [
            107.5708773,
            -6.9135594
          ]
        ]
      },
      "properties": {
        "id": 572938671,
        "highway": "trunk",
        "lanes": "2",
        "name": "Jalan Jendral Sudirman",
        "name:etymology:wikidata": "Q2367329",
        "name:etymology:wikipedia": "id:Soedirman",
        "oneway": "yes",
        "ref": "11"
      }
    },
    {
      "type": "Feature",
      "geometry": {
        "type": "LineString",
        "coordinates": [
          [
            107.6435428,
            -6.9085842
          ],
          [
            107.6434582,
            -6.9086288
          ]
        ]
      },
      "properties": {
        "id": 575446803,
        "destination": "Jakarta;Antapani;Kiaracondong;Binong",
        "highway": "primary",
        "lanes": "2",
        "name": "Jalan Jenderal Ahmad Yani",
        "name:etymology:wikidata": "Q2992817",
        "name:etymology:wikipedia": "id:Ahmad Yani",
        "oneway": "yes"
      }
    },
    {
      "type": "Feature",
      "geometry": {
        "type": "LineString",
        "coordinates": [
          [
            107.6432718,
            -6.9087579
          ],
          [
            107.6432638,
            -6.9087792
          ],
          [
            107.6432544,
            -6.9088245
          ],
          [
            107.6432668,
            -6.9090149
          ],
          [
            107.6432951,
            -6.9092189
          ],
          [
            107.6433066,
            -6.9093014
          ],
          [
            107.6433104,
            -6.9093874
          ],
          [
            107.6433049,
            -6.9094542
          ]
        ]
      },
      "properties": {
        "id": 575446804,
        "destination": "Jakarta;Antapani;Kiaracondong;Binong",
        "highway": "primary",
        "lanes": "2",
        "name": "Jalan H. Ibrahim Adjie",
        "old_name": "Jalan Kiaracondong",
        "oneway": "yes",
        "turn:lanes": "through|through"
      }
    },
    {
      "type": "Feature",
      "geometry": {
        "type": "LineString",
        "coordinates": [
          [
            107.5865662,
            -6.9187469
          ],
          [
            107.586377,
            -6.9187222
          ]
        ]
      },
      "properties": {
        "id": 690179093,
        "highway": "primary",
        "lanes": "2",
        "name": "Jalan Jendral Sudirman",
        "name:etymology:wikidata": "Q2367329",
        "name:etymology:wikipedia": "id:Soedirman",
        "oneway": "yes"
      }
    },
    {
      "type": "Feature",
      "geometry": {
        "type": "LineString",
        "coordinates": [
          [
            107.586377,
            -6.9187222
          ],
          [
            107.5863067,
            -6.9187088
          ],
          [
            107.5855207,
            -6.9186023
          ],
          [
            107.5853065,
            -6.918572
          ],
          [
            107.5850994,
            -6.9185436
          ],
          [
            107.5850179,
            -6.9185338
          ]
        ]
      },
      "properties": {
        "id": 704474209,
        "highway": "primary",
        "lanes": "2",
        "name": "Jalan Jendral Sudirman",
        "name:etymology:wikidata": "Q2367329",
        "name:etymology:wikipedia": "id:Soedirman",
        "oneway": "yes",
        "surface": "asphalt"
      }
    },
    {
      "type": "Feature",
      "geometry": {
        "type": "LineString",
        "coordinates": [
          [
            107.6435161,
            -6.9136526
          ],
          [
            107.643488,
            -6.9136797
          ],
          [
            107.6434706,
            -6.9136988
          ],
          [
            107.6434637,
            -6.9137166
          ],
          [
            107.6434595,
            -6.9137474
          ],
          [
            107.6434586,
            -6.9137687
          ],
          [
            107.6434476,
            -6.9137912
          ],
          [
            107.6434317,
            -6.9138202
          ]
        ]
      },
      "properties": {
        "id": 706394527,
        "foot": "no",
        "highway": "primary_link",
        "lanes": "1",
        "oneway": "yes"
      }
    },
    {
      "type": "Feature",
      "geometry": {
        "type": "LineString",
        "coordinates": [
          [
            107.6179492,
            -6.9221334
          ],
          [
            107.6177359,
            -6.9222343
          ]
        ]
      },
      "properties": {
        "id": 769054485,
        "destination": "Asia Afrika;Lengkong;Alun Alun;Otista",
        "foot": "no",
        "highway": "primary",
        "lanes": "2",
        "name": "Jalan Jenderal Ahmad Yani",
        "name:etymology:wikidata": "Q2992817",
        "name:etymology:wikipedia": "id:Ahmad Yani",
        "oneway": "yes",
        "surface": "asphalt",
        "turn": "slight_right"
      }
    },
    {
      "type": "Feature",
      "geometry": {
        "type": "LineString",
        "coordinates": [
          [
            107.6177359,
            -6.9222343
          ],
          [
            107.6176409,
            -6.9222818
          ]
        ]
      },
      "properties": {
        "id": 769054493,
        "destination": "Asia Afrika;Lengkong;Alun Alun;Otista",
        "foot": "no",
        "highway": "primary",
        "lanes": "2",
        "name": "Jalan Jenderal Ahmad Yani",
        "name:etymology:wikidata": "Q2992817",
        "name:etymology:wikipedia": "id:Ahmad Yani",
        "oneway": "yes",
        "surface": "asphalt",
        "turn": "slight_right"
      }
    },
    {
      "type": "Feature",
      "geometry": {
        "type": "LineString",
        "coordinates": [
          [
            107.6187221,
            -6.9217512
          ],
          [
            107.6179492,
            -6.9221334
          ]
        ]
      },
      "properties": {
        "id": 769054494,
        "avgspeed": "30",
        "destination:lanes": "Sunda;Naripan;Sumbawa;Jawa|Asia Afrika;Lengkong;Alun Alun;Otista|Asia Afrika;Lengkong;Alun Alun;Otista|Gatot Subroto;Burangrang;Malabar;Sesko AD",
        "highway": "primary",
        "lanes": "4",
        "name": "Jalan Jenderal Ahmad Yani",
        "name:etymology:wikidata": "Q2992817",
        "name:etymology:wikipedia": "id:Ahmad Yani",
        "oneway": "yes",
        "parking:left": "no",
        "parking:right": "lane",
        "parking:right:orientation": "parallel",
        "ref": "378",
        "surface": "asphalt",
        "turn:lanes": "left|through|through|right"
      }
    },
    {
      "type": "Feature",
      "geometry": {
        "type": "LineString",
        "coordinates": [
          [
            107.6172687,
            -6.9223662
          ],
          [
            107.6170922,
            -6.9223512
          ],
          [
            107.6170153,
            -6.9223417
          ]
        ]
      },
      "properties": {
        "id": 769054496,
        "avgspeed": "40",
        "cycleway:left": "lane",
        "cycleway:left:lane": "advisory",
        "cycleway:right": "no",
        "destination:lanes": "Lengkong;Pungkur;Karapitan;Inggit Ganarsih|Gedung Merdeka;Alun Alun;Otista|Gedung Merdeka;Alun Alun;Otista|Gedung Merdeka;Braga;Suniaraja",
        "highway": "primary",
        "lanes": "4",
        "maxspeed": "50",
        "name": "Jalan Asia Afrika",
        "oneway": "yes",
        "sidewalk": "separate",
        "surface": "asphalt"
      }
    },
    {
      "type": "Feature",
      "geometry": {
        "type": "LineString",
        "coordinates": [
          [
            107.6176409,
            -6.9222818
          ],
          [
            107.6175406,
            -6.9223258
          ],
          [
            107.6174533,
            -6.9223446
          ],
          [
            107.6172687,
            -6.9223662
          ]
        ]
      },
      "properties": {
        "id": 769054497,
        "destination": "Asia Afrika;Lengkong;Alun Alun;Otista",
        "foot": "no",
        "highway": "primary",
        "lanes": "2",
        "name": "Jalan Jenderal Ahmad Yani",
        "name:etymology:wikidata": "Q2992817",
        "name:etymology:wikipedia": "id:Ahmad Yani",
        "oneway": "yes",
        "surface": "asphalt",
        "turn": "slight_right"
      }
    },
    {
      "type": "Feature",
      "geometry": {
        "type": "LineString",
        "coordinates": [
          [
            107.5703429,
            -6.9126894
          ],
          [
            107.5701276,
            -6.9123274
          ],
          [
            107.5698951,
            -6.9119365
          ]
        ]
      },
      "properties": {
        "id": 775848651,
        "highway": "trunk",
        "lanes": "2",
        "name": "Jalan Jendral Sudirman",
        "name:etymology:wikidata": "Q2367329",
        "name:etymology:wikipedia": "id:Soedirman",
        "oneway": "yes",
        "ref": "11"
      }
    },
    {
      "type": "Feature",
      "geometry": {
        "type": "LineString",
        "coordinates": [
          [
            107.643636,
            -6.9130175
          ],
          [
            107.6436086,
            -6.913104
          ],
          [
            107.6436341,
            -6.913395
          ]
        ]
      },
      "properties": {
        "id": 841362072,
        "destination": "Jakarta;Ahmad Yani;Supratman;Riau",
        "foot": "use_sidepath",
        "highway": "primary",
        "lanes": "2",
        "name": "Jalan H. Ibrahim Adjie",
        "old_name": "Jalan Kiaracondong",
        "oneway": "yes"
      }
    },
    {
      "type": "Feature",
      "geometry": {
        "type": "LineString",
        "coordinates": [
          [
            107.6436341,
            -6.913395
          ],
          [
            107.6436179,
            -6.9134822
          ],
          [
            107.64361,
            -6.9135135
          ],
          [
            107.6435938,
            -6.9135535
          ],
          [
            107.643568,
            -6.9135924
          ],
          [
            107.6435352,
            -6.9136306
          ],
          [
            107.6435161,
            -6.9136526
          ]
        ]
      },
      "properties": {
        "id": 841362074,
        "foot": "no",
        "highway": "primary_link",
        "lanes": "1",
        "oneway": "yes",
        "sidewalk": "right"
      }
    },
    {
      "type": "Feature",
      "geometry": {
        "type": "LineString",
        "coordinates": [
          [
            107.6429791,
            -6.9138756
          ],
          [
            107.6422876,
            -6.9139498
          ]
        ]
      },
      "properties": {
        "id": 841362077,
        "highway": "primary",
        "lanes": "2",
        "name": "Jalan Jakarta",
        "oneway": "yes"
      }
    },
    {
      "type": "Feature",
      "geometry": {
        "type": "LineString",
        "coordinates": [
          [
            107.6356516,
            -6.9145514
          ],
          [
            107.6355802,
            -6.9145804
          ],
          [
            107.635421,
            -6.9145413
          ],
          [
            107.6352225,
            -6.9144861
          ],
          [
            107.634859,
            -6.9143394
          ]
        ]
      },
      "properties": {
        "id": 872152156,
        "highway": "primary",
        "lanes": "1",
        "name": "Jalan Jakarta",
        "oneway": "yes",
        "surface": "asphalt"
      }
    },
    {
      "type": "Feature",
      "geometry": {
        "type": "LineString",
        "coordinates": [
          [
            107.6094601,
            -6.9214117
          ],
          [
            107.6092801,
            -6.921392
          ],
          [
            107.6090723,
            -6.9213678
          ],
          [
            107.6088911,
            -6.921347
          ],
          [
            107.6087921,
            -6.9213346
          ],
          [
            107.6082723,
            -6.9212776
          ],
          [
            107.6080497,
            -6.9212529
          ],
          [
            107.6077961,
            -6.9212245
          ]
        ]
      },
      "properties": {
        "id": 955509777,
        "avgspeed": "40",
        "cycleway:left": "lane",
        "cycleway:left:lane": "advisory",
        "cycleway:right": "no",
        "highway": "primary",
        "lanes": "4",
        "maxspeed": "50",
        "name": "Jalan Asia Afrika",
        "oneway": "yes",
        "parking:both": "no",
        "sidewalk": "separate",
        "surface": "asphalt"
      }
    },
    {
      "type": "Feature",
      "geometry": {
        "type": "LineString",
        "coordinates": [
          [
            107.5698951,
            -6.9119365
          ],
          [
            107.5699632,
            -6.911882
          ]
        ]
      },
      "properties": {
        "id": 992205786,
        "destination": "Elang;Garuda;Rajawali;Pajajaran",
        "highway": "trunk_link",
        "lanes": "2",
        "oneway": "yes"
      }
    },
    {
      "type": "Feature",
      "geometry": {
        "type": "LineString",
        "coordinates": [
          [
            107.6437989,
            -6.9084471
          ],
          [
            107.6435428,
            -6.9085842
          ]
        ]
      },
      "properties": {
        "id": 1058854032,
        "destination": "Jakarta;Antapani;Kiaracondong;Binong",
        "highway": "primary",
        "lanes": "2",
        "name": "Jalan Jenderal Ahmad Yani",
        "name:etymology:wikidata": "Q2992817",
        "name:etymology:wikipedia": "id:Ahmad Yani",
        "oneway": "yes"
      }
    },
    {
      "type": "Feature",
      "geometry": {
        "type": "LineString",
        "coordinates": [
          [
            107.5699632,
            -6.911882
          ],
          [
            107.5697698,
            -6.9115795
          ],
          [
            107.5696944,
            -6.9114612
          ],
          [
            107.5694831,
            -6.9111036
          ],
          [
            107.569361,
            -6.9109035
          ],
          [
            107.5693348,
            -6.9108606
          ],
          [
            107.5692858,
            -6.9107802
          ],
          [
            107.5692724,
            -6.9107365
          ],
          [
            107.5692799,
            -6.9106869
          ],
          [
            107.5693001,
            -6.9106543
          ],
          [
            107.5693282,
            -6.9106302
          ],
          [
            107.5693569,
            -6.9106219
          ]
        ]
      },
      "properties": {
        "id": 1061950618,
        "destination": "Elang;Garuda;Rajawali;Pajajaran",
        "highway": "trunk",
        "lanes": "2",
        "name": "Jalan Jendral Sudirman",
        "name:etymology:wikidata": "Q2367329",
        "name:etymology:wikipedia": "id:Soedirman",
        "oneway": "yes",
        "ref": "11"
      }
    },
    {
      "type": "Feature",
      "geometry": {
        "type": "LineString",
        "coordinates": [
          [
            107.5745601,
            -6.9172787
          ],
          [
            107.5745248,
            -6.9173306
          ],
          [
            107.5744751,
            -6.9173693
          ],
          [
            107.5744159,
            -6.9173911
          ]
        ]
      },
      "properties": {
        "id": 1071187430,
        "avgspeed": "15",
        "highway": "trunk",
        "junction": "circular",
        "lanes": "2",
        "name": "Bunderan Cibeureum",
        "ref": "11",
        "turn:lanes": "slight_left|slight_left;slight_right"
      }
    },
    {
      "type": "Feature",
      "geometry": {
        "type": "LineString",
        "coordinates": [
          [
            107.634283,
            -6.9135431
          ],
          [
            107.6342142,
            -6.913577
          ],
          [
            107.6335114,
            -6.9139346
          ],
          [
            107.633493,
            -6.913944
          ]
        ]
      },
      "properties": {
        "id": 1073813687,
        "avgspeed": "30",
        "highway": "primary",
        "lanes": "2",
        "name": "Jalan Jenderal Ahmad Yani",
        "name:etymology:wikidata": "Q2992817",
        "name:etymology:wikipedia": "id:Ahmad Yani",
        "oneway": "yes",
        "ref": "378",
        "surface": "asphalt"
      }
    },
    {
      "type": "Feature",
      "geometry": {
        "type": "LineString",
        "coordinates": [
          [
            107.633493,
            -6.913944
          ],
          [
            107.6334401,
            -6.9139699
          ]
        ]
      },
      "properties": {
        "id": 1110011238,
        "avgspeed": "30",
        "highway": "primary",
        "lanes": "2",
        "name": "Jalan Jenderal Ahmad Yani",
        "name:etymology:wikidata": "Q2992817",
        "name:etymology:wikipedia": "id:Ahmad Yani",
        "oneway": "yes",
        "surface": "asphalt"
      }
    },
    {
      "type": "Feature",
      "geometry": {
        "type": "LineString",
        "coordinates": [
          [
            107.6334401,
            -6.9139699
          ],
          [
            107.6333917,
            -6.9139844
          ],
          [
            107.6333413,
            -6.9139888
          ]
        ]
      },
      "properties": {
        "id": 1110011240,
        "avgspeed": "30",
        "highway": "primary",
        "lanes": "2",
        "name": "Jalan Jenderal Ahmad Yani",
        "name:etymology:wikidata": "Q2992817",
        "name:etymology:wikipedia": "id:Ahmad Yani",
        "oneway": "yes",
        "surface": "asphalt"
      }
    },
    {
      "type": "Feature",
      "geometry": {
        "type": "LineString",
        "coordinates": [
          [
            107.6547053,
            -6.9026773
          ],
          [
            107.654175,
            -6.9029752
          ],
          [
            107.65401,
            -6.9030256
          ]
        ]
      },
      "properties": {
        "id": 1111108402,
        "highway": "primary",
        "lanes": "1",
        "name": "Jalan Jenderal Ahmad Yani",
        "name:etymology:wikidata": "Q2992817",
        "name:etymology:wikipedia": "id:Ahmad Yani",
        "oneway": "yes"
      }
    },
    {
      "type": "Feature",
      "geometry": {
        "type": "LineString",
        "coordinates": [
          [
            107.6434582,
            -6.9086288
          ],
          [
            107.6433268,
            -6.908699
          ],
          [
            107.6432893,
            -6.9087293
          ],
          [
            107.6432718,
            -6.9087579
          ]
        ]
      },
      "properties": {
        "id": 1111141900,
        "destination": "Jakarta;Antapani;Kiaracondong;Binong",
        "highway": "primary",
        "lanes": "2",
        "name": "Jalan Jenderal Ahmad Yani",
        "name:etymology:wikidata": "Q2992817",
        "name:etymology:wikipedia": "id:Ahmad Yani",
        "oneway": "yes",
        "turn:lanes": "left|left"
      }
    },
    {
      "type": "Feature",
      "geometry": {
        "type": "LineString",
        "coordinates": [
          [
            107.6433049,
            -6.9094542
          ],
          [
            107.6433272,
            -6.9096134
          ],
          [
            107.6433608,
            -6.9099796
          ]
        ]
      },
      "properties": {
        "id": 1111154134,
        "destination": "Jakarta;Antapani;Kiaracondong;Binong",
        "highway": "primary",
        "lanes": "3",
        "name": "Jalan H. Ibrahim Adjie",
        "note": "Cicadas",
        "old_name": "Jalan Kiaracondong",
        "oneway": "yes"
      }
    },
    {
      "type": "Feature",
      "geometry": {
        "type": "LineString",
        "coordinates": [
          [
            107.5983366,
            -6.920102
          ],
          [
            107.5982051,
            -6.9200877
          ],
          [
            107.597885,
            -6.9200477
          ]
        ]
      },
      "properties": {
        "id": 1113391469,
        "avgspeed": "30",
        "highway": "primary",
        "lanes": "3",
        "name": "Jalan Jendral Sudirman",
        "name:etymology:wikidata": "Q2367329",
        "name:etymology:wikipedia": "id:Soedirman",
        "oneway": "yes",
        "surface": "asphalt"
      }
    },
    {
      "type": "Feature",
      "geometry": {
        "type": "LineString",
        "coordinates": [
          [
            107.5748897,
            -6.9155407
          ],
          [
            107.5749738,
            -6.9155723
          ]
        ]
      },
      "properties": {
        "id": 1151221548,
        "highway": "residential"
      }
    },
    {
      "type": "Feature",
      "geometry": {
        "type": "LineString",
        "coordinates": [
          [
            107.634859,
            -6.9143394
          ],
          [
            107.6347464,
            -6.9142618
          ],
          [
            107.6346738,
            -6.914201
          ],
          [
            107.634335,
            -6.9135901
          ],
          [
            107.6343263,
            -6.9135745
          ],
          [
            107.634283,
            -6.9135431
          ]
        ]
      },
      "properties": {
        "id": 1151221551,
        "highway": "primary",
        "lanes": "1",
        "name": "Jalan Jakarta",
        "oneway": "yes",
        "surface": "asphalt"
      }
    },
    {
      "type": "Feature",
      "geometry": {
        "type": "LineString",
        "coordinates": [
          [
            107.5742937,
            -6.9173779
          ],
          [
            107.5742396,
            -6.9173432
          ],
          [
            107.5741991,
            -6.9172935
          ]
        ]
      },
      "properties": {
        "id": 1151221561,
        "avgspeed": "15",
        "highway": "trunk",
        "junction": "circular",
        "lanes": "2",
        "name": "Bunderan Cibeureum",
        "ref": "11",
        "turn:lanes": "slight_left;slight_right|slight_right"
      }
    },
    {
      "type": "Feature",
      "geometry": {
        "type": "LineString",
        "coordinates": [
          [
            107.5744159,
            -6.9173911
          ],
          [
            107.5743538,
            -6.9173939
          ],
          [
            107.5742937,
            -6.9173779
          ]
        ]
      },
      "properties": {
        "id": 1151221562,
        "avgspeed": "15",
        "highway": "trunk",
        "junction": "circular",
        "lanes": "2",
        "name": "Bunderan Cibeureum",
        "ref": "11",
        "turn:lanes": "slight_left|slight_left;slight_right"
      }
    },
    {
      "type": "Feature",
      "geometry": {
        "type": "LineString",
        "coordinates": [
          [
            107.6069008,
            -6.9211076
          ],
          [
            107.6066769,
            -6.9210774
          ],
          [
            107.6064585,
            -6.9210512
          ]
        ]
      },
      "properties": {
        "id": 1160629642,
        "avgspeed": "40",
        "highway": "primary",
        "lanes": "4",
        "maxspeed": "50",
        "name": "Jalan Asia Afrika",
        "oneway": "yes",
        "sidewalk": "separate",
        "surface": "asphalt"
      }
    },
    {
      "type": "Feature",
      "geometry": {
        "type": "LineString",
        "coordinates": [
          [
            107.6300714,
            -6.9157678
          ],
          [
            107.6299922,
            -6.9158161
          ]
        ]
      },
      "properties": {
        "id": 1193682140,
        "avgspeed": "30",
        "highway": "primary",
        "lanes": "2",
        "name": "Jalan Jenderal Ahmad Yani",
        "name:etymology:wikidata": "Q2992817",
        "name:etymology:wikipedia": "id:Ahmad Yani",
        "oneway": "yes",
        "ref": "378",
        "surface": "asphalt"
      }
    },
    {
      "type": "Feature",
      "geometry": {
        "type": "LineString",
        "coordinates": [
          [
            107.6563322,
            -6.9022588
          ],
          [
            107.6563227,
            -6.9021785
          ]
        ]
      },
      "properties": {
        "id": 1193893094,
        "access": "destination",
        "highway": "service",
        "oneway": "yes"
      }
    },
    {
      "type": "Feature",
      "geometry": {
        "type": "LineString",
        "coordinates": [
          [
            107.6374071,
            -6.9145151
          ],
          [
            107.6373588,
            -6.9145209
          ]
        ]
      },
      "properties": {
        "id": 1209061171,
        "highway": "primary",
        "lanes": "4",
        "name": "Jalan Jakarta",
        "oneway": "yes",
        "oneway:conditional": "no @ (16:00-04:00)"
      }
    },
    {
      "type": "Feature",
      "geometry": {
        "type": "LineString",
        "coordinates": [
          [
            107.6375655,
            -6.9144961
          ],
          [
            107.6375505,
            -6.9144979
          ]
        ]
      },
      "properties": {
        "id": 1209061172,
        "highway": "primary",
        "lanes": "4",
        "name": "Jalan Jakarta",
        "oneway": "yes",
        "oneway:conditional": "no @ (16:00-06:00)"
      }
    },
    {
      "type": "Feature",
      "geometry": {
        "type": "LineString",
        "coordinates": [
          [
            107.6376149,
            -6.9144902
          ],
          [
            107.6375655,
            -6.9144961
          ]
        ]
      },
      "properties": {
        "id": 1209061174,
        "highway": "primary",
        "lanes": "4",
        "name": "Jalan Jakarta",
        "oneway": "yes",
        "oneway:conditional": "no @ (16:00-06:00)"
      }
    },
    {
      "type": "Feature",
      "geometry": {
        "type": "LineString",
        "coordinates": [
          [
            107.6563227,
            -6.9021785
          ],
          [
            107.6562379,
            -6.9021633
          ]
        ]
      },
      "properties": {
        "id": 1218584482,
        "avgspeed": "30",
        "destination:lanes": "Cicadas|Padasuka;Cikutra",
        "highway": "trunk",
        "lanes": "2",
        "name": "Jalan Jenderal Ahmad Yani",
        "name:etymology:wikidata": "Q2992817",
        "name:etymology:wikipedia": "id:Ahmad Yani",
        "oneway": "yes",
        "turn:lanes": "slight_left;through|through"
      }
    },
    {
      "type": "Feature",
      "geometry": {
        "type": "LineString",
        "coordinates": [
          [
            107.6242238,
            -6.9188675
          ],
          [
            107.6241356,
            -6.9188768
          ]
        ]
      },
      "properties": {
        "id": 1220201477,
        "avgspeed": "30",
        "highway": "primary",
        "lanes": "2",
        "name": "Jalan Jenderal Ahmad Yani",
        "name:etymology:wikidata": "Q2992817",
        "name:etymology:wikipedia": "id:Ahmad Yani",
        "oneway": "yes",
        "surface": "asphalt"
      }
    },
    {
      "type": "Feature",
      "geometry": {
        "type": "LineString",
        "coordinates": [
          [
            107.5929358,
            -6.9194498
          ],
          [
            107.5925279,
            -6.9194043
          ],
          [
            107.5919663,
            -6.9193339
          ],
          [
            107.591735,
            -6.9193056
          ],
          [
            107.5915571,
            -6.9192832
          ],
          [
            107.5908497,
            -6.9191977
          ],
          [
            107.5901619,
            -6.9191118
          ]
        ]
      },
      "properties": {
        "id": 1220577828,
        "avgspeed": "30",
        "highway": "primary",
        "lanes": "3",
        "name": "Jalan Jendral Sudirman",
        "name:etymology:wikidata": "Q2367329",
        "name:etymology:wikipedia": "id:Soedirman",
        "oneway": "yes",
        "surface": "asphalt"
      }
    },
    {
      "type": "Feature",
      "geometry": {
        "type": "LineString",
        "coordinates": [
          [
            107.6247558,
            -6.9185827
          ],
          [
            107.6245415,
            -6.9186929
          ],
          [
            107.6242238,
            -6.9188675
          ]
        ]
      },
      "properties": {
        "id": 1220611590,
        "avgspeed": "30",
        "highway": "primary",
        "lanes": "2",
        "name": "Jalan Jenderal Ahmad Yani",
        "name:etymology:wikidata": "Q2992817",
        "name:etymology:wikipedia": "id:Ahmad Yani",
        "oneway": "yes",
        "surface": "asphalt"
      }
    },
    {
      "type": "Feature",
      "geometry": {
        "type": "LineString",
        "coordinates": [
          [
            107.5729282,
            -6.9120185
          ],
          [
            107.5729439,
            -6.9120247
          ],
          [
            107.573014,
            -6.9120524
          ],
          [
            107.5733246,
            -6.9121739
          ],
          [
            107.5735241,
            -6.9122519
          ],
          [
            107.5736798,
            -6.9123128
          ],
          [
            107.5737227,
            -6.9123296
          ],
          [
            107.5741069,
            -6.9124804
          ],
          [
            107.5746597,
            -6.9126961
          ],
          [
            107.5747971,
            -6.9127499
          ],
          [
            107.5748397,
            -6.9127665
          ],
          [
            107.575213,
            -6.9129126
          ],
          [
            107.5753191,
            -6.9129541
          ],
          [
            107.5753653,
            -6.9129722
          ]
        ]
      },
      "properties": {
        "id": 1221115893,
        "avgspeed": "30",
        "destination:lanes": "Garuda;Pajajaran;Husein Sastranegara;Pasir Kaliki|Rajawali;Ciroyom;Kebonjati;Gardujati|Cijerah;Holis;Cigondewah;Cimahi",
        "highway": "trunk",
        "lanes": "3",
        "name": "Jalan Rajawali Barat",
        "oneway": "yes",
        "ref": "11",
        "turn:lanes": "through|through|right"
      }
    },
    {
      "type": "Feature",
      "geometry": {
        "type": "LineString",
        "coordinates": [
          [
            107.6250751,
            -6.9184012
          ],
          [
            107.6250224,
            -6.9184288
          ],
          [
            107.62493,
            -6.9184772
          ],
          [
            107.6248913,
            -6.9185008
          ],
          [
            107.6247558,
            -6.9185827
          ]
        ]
      },
      "properties": {
        "id": 1223887795,
        "avgspeed": "30",
        "destination:lanes": "Cikudapateuh;Malabar|",
        "highway": "primary",
        "lanes": "2",
        "name": "Jalan Jenderal Ahmad Yani",
        "name:etymology:wikidata": "Q2992817",
        "name:etymology:wikipedia": "id:Ahmad Yani",
        "oneway": "yes",
        "surface": "asphalt",
        "turn:lanes": "sharp_left;through|through"
      }
    },
    {
      "type": "Feature",
      "geometry": {
        "type": "LineString",
        "coordinates": [
          [
            107.6241356,
            -6.9188768
          ],
          [
            107.6239481,
            -6.9189771
          ],
          [
            107.6236923,
            -6.9191175
          ],
          [
            107.6236089,
            -6.9191602
          ],
          [
            107.6235031,
            -6.9192144
          ],
          [
            107.6229041,
            -6.9195297
          ],
          [
            107.6228594,
            -6.9195533
          ]
        ]
      },
      "properties": {
        "id": 1227212726,
        "avgspeed": "30",
        "highway": "primary",
        "lanes": "3",
        "lanes:backward": "1",
        "lanes:forward": "2",
        "name": "Jalan Jenderal Ahmad Yani",
        "name:etymology:wikidata": "Q2992817",
        "name:etymology:wikipedia": "id:Ahmad Yani",
        "oneway": "no",
        "surface": "asphalt"
      }
    },
    {
      "type": "Feature",
      "geometry": {
        "type": "LineString",
        "coordinates": [
          [
            107.6158901,
            -6.9222052
          ],
          [
            107.6150223,
            -6.9220922
          ],
          [
            107.6149247,
            -6.9220785
          ],
          [
            107.6144857,
            -6.9220225
          ],
          [
            107.6143274,
            -6.9220013
          ],
          [
            107.6141864,
            -6.9219849
          ],
          [
            107.6139237,
            -6.921951
          ],
          [
            107.6137712,
            -6.9219312
          ]
        ]
      },
      "properties": {
        "id": 1232501589,
        "avgspeed": "40",
        "cycleway:left": "lane",
        "cycleway:left:lane": "advisory",
        "cycleway:right": "no",
        "destination:lanes": "|||Sa'ad;Veteran",
        "highway": "primary",
        "lanes": "4",
        "maxspeed": "50",
        "name": "Jalan Asia Afrika",
        "oneway": "yes",
        "sidewalk": "separate",
        "surface": "asphalt",
        "turn:lanes": "|||through;right"
      }
    },
    {
      "type": "Feature",
      "geometry": {
        "type": "LineString",
        "coordinates": [
          [
            107.6137712,
            -6.9219312
          ],
          [
            107.6131156,
            -6.9218519
          ],
          [
            107.6130492,
            -6.9218436
          ],
          [
            107.6128352,
            -6.9218192
          ],
          [
            107.6127275,
            -6.9218073
          ],
          [
            107.6127048,
            -6.9218048
          ],
          [
            107.6124983,
            -6.9217818
          ],
          [
            107.6124061,
            -6.9217716
          ],
          [
            107.6121197,
            -6.9217395
          ],
          [
            107.6120154,
            -6.9217245
          ]
        ]
      },
      "properties": {
        "id": 1232501590,
        "avgspeed": "40",
        "cycleway:left": "lane",
        "cycleway:left:lane": "advisory",
        "cycleway:right": "no",
        "destination:lanes": "Lengkong;Pungkur;Karapitan;Inggit Ganarsih|Gedung Merdeka;Alun Alun;Otista|Gedung Merdeka;Alun Alun;Otista|Gedung Merdeka;Braga;Suniaraja",
        "highway": "primary",
        "lanes": "4",
        "maxspeed": "50",
        "name": "Jalan Asia Afrika",
        "oneway": "yes",
        "sidewalk": "separate",
        "surface": "asphalt",
        "turn:lanes": "left|through|through|through"
      }
    },
    {
      "type": "Feature",
      "geometry": {
        "type": "LineString",
        "coordinates": [
          [
            107.6263141,
            -6.9177504
          ],
          [
            107.6261108,
            -6.9178534
          ],
          [
            107.6258818,
            -6.9179768
          ],
          [
            107.6258365,
            -6.9180004
          ],
          [
            107.6251028,
            -6.9183866
          ],
          [
            107.6250751,
            -6.9184012
          ]
        ]
      },
      "properties": {
        "id": 1232507802,
        "avgspeed": "30",
        "destination:lanes": "Cikudapateuh;Malabar|",
        "highway": "primary",
        "lanes": "2",
        "name": "Jalan Jenderal Ahmad Yani",
        "name:etymology:wikidata": "Q2992817",
        "name:etymology:wikipedia": "id:Ahmad Yani",
        "oneway": "yes",
        "surface": "asphalt",
        "turn:lanes": "sharp_left;through|through"
      }
    },
    {
      "type": "Feature",
      "geometry": {
        "type": "LineString",
        "coordinates": [
          [
            107.5781202,
            -6.9176523
          ],
          [
            107.5780899,
            -6.9176631
          ],
          [
            107.5780671,
            -6.9176734
          ],
          [
            107.5780304,
            -6.9176867
          ],
          [
            107.5779981,
            -6.9176886
          ],
          [
            107.5771136,
            -6.9176018
          ],
          [
            107.5770629,
            -6.9175968
          ],
          [
            107.5768354,
            -6.9175724
          ],
          [
            107.5767383,
            -6.9175655
          ]
        ]
      },
      "properties": {
        "id": 1234518448,
        "destination:lanes": "Soekarno Hatta;Cijerah;Cimindi;Cimahi|Elang;Garuda;Rajawali;Pajajaran",
        "highway": "primary",
        "lanes": "2",
        "name": "Jalan Jendral Sudirman",
        "name:etymology:wikidata": "Q2367329",
        "name:etymology:wikipedia": "id:Soedirman",
        "oneway": "yes",
        "surface": "asphalt",
        "turn:lanes": "through|slight_right"
      }
    },
    {
      "type": "Feature",
      "geometry": {
        "type": "LineString",
        "coordinates": [
          [
            107.5850179,
            -6.9185338
          ],
          [
            107.584208,
            -6.9184389
          ],
          [
            107.5840139,
            -6.918418
          ],
          [
            107.5839721,
            -6.918413
          ],
          [
            107.583604,
            -6.9183703
          ],
          [
            107.5833368,
            -6.9183393
          ],
          [
            107.5829636,
            -6.9182959
          ],
          [
            107.5823326,
            -6.9182237
          ],
          [
            107.5819763,
            -6.9181852
          ],
          [
            107.5813282,
            -6.9181174
          ],
          [
            107.5812663,
            -6.9180975
          ],
          [
            107.5812049,
            -6.9180481
          ]
        ]
      },
      "properties": {
        "id": 1234518449,
        "highway": "primary",
        "lanes": "2",
        "name": "Jalan Jendral Sudirman",
        "name:etymology:wikidata": "Q2367329",
        "name:etymology:wikipedia": "id:Soedirman",
        "oneway": "yes",
        "surface": "asphalt"
      }
    },
    {
      "type": "Feature",
      "geometry": {
        "type": "LineString",
        "coordinates": [
          [
            107.5767383,
            -6.9175655
          ],
          [
            107.5766159,
            -6.9175515
          ]
        ]
      },
      "properties": {
        "id": 1234518450,
        "destination": "Soekarno Hatta;Cijerah;Cimindi;Cimahi",
        "highway": "primary",
        "lanes": "2",
        "name": "Jalan Jendral Sudirman",
        "name:etymology:wikidata": "Q2367329",
        "name:etymology:wikipedia": "id:Soedirman",
        "oneway": "yes",
        "surface": "asphalt"
      }
    },
    {
      "type": "Feature",
      "geometry": {
        "type": "LineString",
        "coordinates": [
          [
            107.6563498,
            -6.9023352
          ],
          [
            107.6563322,
            -6.9022588
          ]
        ]
      },
      "properties": {
        "id": 1263079215,
        "access": "destination",
        "bus": "yes",
        "foot": "use_sidepath",
        "highway": "service",
        "minibus": "yes",
        "motorcar": "yes",
        "motorcycle": "yes",
        "oneway": "yes",
        "share_taxi": "yes",
        "taxi": "yes",
        "tourist_bus": "yes"
      }
    },
    {
      "type": "Feature",
      "geometry": {
        "type": "LineString",
        "coordinates": [
          [
            107.6565637,
            -6.902329
          ],
          [
            107.6563498,
            -6.9023352
          ]
        ]
      },
      "properties": {
        "id": 1263079216,
        "access": "destination",
        "bicycle": "use_sidepath",
        "bus": "yes",
        "foot": "use_sidepath",
        "highway": "service",
        "minibus": "yes",
        "oneway": "yes"
      }
    },
    {
      "type": "Feature",
      "geometry": {
        "type": "LineString",
        "coordinates": [
          [
            107.6071309,
            -6.9211347
          ],
          [
            107.6069871,
            -6.9211172
          ],
          [
            107.6069008,
            -6.9211076
          ]
        ]
      },
      "properties": {
        "id": 1279258039,
        "avgspeed": "40",
        "bus_bay": "left",
        "highway": "primary",
        "lanes": "4",
        "maxspeed": "50",
        "name": "Jalan Asia Afrika",
        "oneway": "yes",
        "sidewalk": "separate",
        "surface": "asphalt"
      }
    },
    {
      "type": "Feature",
      "geometry": {
        "type": "LineString",
        "coordinates": [
          [
            107.6274434,
            -6.9171135
          ],
          [
            107.6274142,
            -6.9171591
          ],
          [
            107.6273636,
            -6.9171968
          ]
        ]
      },
      "properties": {
        "id": 1280245515,
        "avgspeed": "30",
        "highway": "primary",
        "lanes": "2",
        "name": "Jalan Jenderal Ahmad Yani",
        "name:etymology:wikidata": "Q2992817",
        "name:etymology:wikipedia": "id:Ahmad Yani",
        "oneway": "yes",
        "surface": "asphalt"
      }
    },
    {
      "type": "Feature",
      "geometry": {
        "type": "LineString",
        "coordinates": [
          [
            107.6434317,
            -6.9138202
          ],
          [
            107.6429791,
            -6.9138756
          ]
        ]
      },
      "properties": {
        "id": 1296453736,
        "highway": "primary",
        "lanes": "2",
        "name": "Jalan Jakarta",
        "oneway": "yes"
      }
    },
    {
      "type": "Feature",
      "geometry": {
        "type": "LineString",
        "coordinates": [
          [
            107.5753136,
            -6.9144895
          ],
          [
            107.5755245,
            -6.9138801
          ],
          [
            107.575723,
            -6.9133498
          ]
        ]
      },
      "properties": {
        "id": 1296460355,
        "avgspeed": "25",
        "driving_side": "right",
        "highway": "primary",
        "lanes": "2",
        "name": "Jalan Elang",
        "oneway": "yes",
        "ref": "11",
        "surface": "paved"
      }
    },
    {
      "type": "Feature",
      "geometry": {
        "type": "LineString",
        "coordinates": [
          [
            107.575721,
            -6.9131092
          ],
          [
            107.5755571,
            -6.9135373
          ]
        ]
      },
      "properties": {
        "id": 1363794525,
        "access": "yes",
        "bicycle": "yes",
        "bus": "yes",
        "driving_side": "right",
        "foot": "yes",
        "highway": "primary",
        "lanes": "2",
        "name": "Jalan Elang",
        "oneway": "yes",
        "ref": "11"
      }
    },
    {
      "type": "Feature",
      "geometry": {
        "type": "LineString",
        "coordinates": [
          [
            107.5725721,
            -6.916133
          ],
          [
            107.5723979,
            -6.9159874
          ],
          [
            107.5723395,
            -6.9159333
          ],
          [
            107.5722759,
            -6.9158629
          ],
          [
            107.5722121,
            -6.9157842
          ],
          [
            107.5721531,
            -6.915707
          ],
          [
            107.5720994,
            -6.9156231
          ],
          [
            107.5720549,
            -6.9155598
          ],
          [
            107.5719123,
            -6.9153326
          ],
          [
            107.5718695,
            -6.9152634
          ],
          [
            107.5717819,
            -6.9151024
          ],
          [
            107.5717255,
            -6.9150035
          ],
          [
            107.5715151,
            -6.9146659
          ]
        ]
      },
      "properties": {
        "id": 1364319041,
        "avgspeed": "30",
        "destination:lanes": "Cijerah;Cigondewah;Melong|Kebon Kopi;Cimindi;Cimahi",
        "highway": "trunk",
        "lanes": "2",
        "name": "Jalan Jendral Sudirman",
        "name:etymology:wikidata": "Q2367329",
        "name:etymology:wikipedia": "id:Soedirman",
        "oneway": "yes",
        "ref": "11",
        "surface": "asphalt",
        "turn:lanes": "left|through"
      }
    },
    {
      "type": "Feature",
      "geometry": {
        "type": "LineString",
        "coordinates": [
          [
            107.5753653,
            -6.9129722
          ],
          [
            107.5754115,
            -6.9129902
          ],
          [
            107.5755013,
            -6.9130253
          ],
          [
            107.575721,
            -6.9131092
          ]
        ]
      },
      "properties": {
        "id": 1364638661,
        "avgspeed": "30",
        "destination:lanes": "Garuda;Pajajaran;Husein Sastranegara;Pasir Kaliki|Rajawali;Ciroyom;Kebonjati;Gardujati|Cijerah;Holis;Cigondewah;Cimahi",
        "highway": "trunk",
        "lanes": "3",
        "name": "Jalan Rajawali Barat",
        "oneway": "yes",
        "ref": "11",
        "turn:lanes": "through|through|right"
      }
    },
    {
      "type": "Feature",
      "geometry": {
        "type": "LineString",
        "coordinates": [
          [
            107.61692,
            -6.9223302
          ],
          [
            107.6168595,
            -6.9223254
          ]
        ]
      },
      "properties": {
        "id": 1445396339,
        "avgspeed": "40",
        "cycleway:left": "lane",
        "cycleway:left:lane": "advisory",
        "cycleway:right": "no",
        "destination:lanes": "Lengkong;Pungkur;Karapitan;Inggit Ganarsih|Gedung Merdeka;Alun Alun;Otista|Gedung Merdeka;Alun Alun;Otista|Gedung Merdeka;Braga;Suniaraja",
        "highway": "primary",
        "lanes": "4",
        "maxspeed": "50",
        "name": "Jalan Asia Afrika",
        "oneway": "yes",
        "sidewalk": "separate",
        "surface": "asphalt"
      }
    },
    {
      "type": "Feature",
      "geometry": {
        "type": "LineString",
        "coordinates": [
          [
            107.6168595,
            -6.9223254
          ],
          [
            107.6167788,
            -6.9223149
          ],
          [
            107.6164075,
            -6.9222701
          ]
        ]
      },
      "properties": {
        "id": 1445396340,
        "avgspeed": "40",
        "cycleway:left": "lane",
        "cycleway:left:lane": "advisory",
        "cycleway:right": "no",
        "destination:lanes": "Lengkong;Pungkur;Karapitan;Inggit Ganarsih|Gedung Merdeka;Alun Alun;Otista|Gedung Merdeka;Alun Alun;Otista|Gedung Merdeka;Braga;Suniaraja",
        "highway": "primary",
        "lanes": "4",
        "maxspeed": "50",
        "name": "Jalan Asia Afrika",
        "oneway": "yes",
        "sidewalk": "separate",
        "surface": "asphalt"
      }
    },
    {
      "type": "Feature",
      "geometry": {
        "type": "LineString",
        "coordinates": [
          [
            107.6164075,
            -6.9222701
          ],
          [
            107.6162578,
            -6.9222486
          ],
          [
            107.6162228,
            -6.9222435
          ],
          [
            107.6160411,
            -6.9222225
          ]
        ]
      },
      "properties": {
        "id": 1445396341,
        "avgspeed": "40",
        "cycleway:left": "lane",
        "cycleway:left:lane": "advisory",
        "cycleway:right": "no",
        "destination:lanes": "Lengkong;Pungkur;Karapitan;Inggit Ganarsih|Gedung Merdeka;Alun Alun;Otista|Gedung Merdeka;Alun Alun;Otista|Gedung Merdeka;Braga;Suniaraja",
        "highway": "primary",
        "lanes": "4",
        "maxspeed": "50",
        "name": "Jalan Asia Afrika",
        "oneway": "yes",
        "sidewalk": "separate",
        "surface": "asphalt"
      }
    },
    {
      "type": "Feature",
      "geometry": {
        "type": "LineString",
        "coordinates": [
          [
            107.6160411,
            -6.9222225
          ],
          [
            107.6158901,
            -6.9222052
          ]
        ]
      },
      "properties": {
        "id": 1445396342,
        "avgspeed": "40",
        "cycleway:left": "lane",
        "cycleway:left:lane": "advisory",
        "cycleway:right": "no",
        "destination:lanes": "Lengkong;Pungkur;Karapitan;Inggit Ganarsih|Gedung Merdeka;Alun Alun;Otista|Gedung Merdeka;Alun Alun;Otista|Gedung Merdeka;Braga;Suniaraja",
        "highway": "primary",
        "lanes": "4",
        "maxspeed": "50",
        "name": "Jalan Asia Afrika",
        "oneway": "yes",
        "sidewalk": "separate",
        "surface": "asphalt"
      }
    },
    {
      "type": "Feature",
      "geometry": {
        "type": "LineString",
        "coordinates": [
          [
            107.6170153,
            -6.9223417
          ],
          [
            107.61692,
            -6.9223302
          ]
        ]
      },
      "properties": {
        "id": 1445396343,
        "avgspeed": "40",
        "cycleway:left": "lane",
        "cycleway:left:lane": "advisory",
        "cycleway:right": "no",
        "destination:lanes": "Lengkong;Pungkur;Karapitan;Inggit Ganarsih|Gedung Merdeka;Alun Alun;Otista|Gedung Merdeka;Alun Alun;Otista|Gedung Merdeka;Braga;Suniaraja",
        "highway": "primary",
        "lanes": "4",
        "maxspeed": "50",
        "name": "Jalan Asia Afrika",
        "oneway": "yes",
        "sidewalk": "separate",
        "surface": "asphalt"
      }
    },
    {
      "type": "Feature",
      "geometry": {
        "type": "LineString",
        "coordinates": [
          [
            107.6098267,
            -6.921461
          ],
          [
            107.6097986,
            -6.9214572
          ],
          [
            107.6094601,
            -6.9214117
          ]
        ]
      },
      "properties": {
        "id": 1445399253,
        "avgspeed": "40",
        "cycleway:left": "lane",
        "cycleway:left:lane": "advisory",
        "cycleway:right": "no",
        "highway": "primary",
        "lanes": "4",
        "maxspeed": "50",
        "name": "Jalan Asia Afrika",
        "oneway": "yes",
        "parking:both": "no",
        "sidewalk": "separate",
        "surface": "asphalt"
      }
    },
    {
      "type": "Feature",
      "geometry": {
        "type": "LineString",
        "coordinates": [
          [
            107.6118219,
            -6.9217006
          ],
          [
            107.6115001,
            -6.9216626
          ],
          [
            107.6114214,
            -6.9216524
          ],
          [
            107.6112374,
            -6.9216318
          ],
          [
            107.6110246,
            -6.9216047
          ],
          [
            107.6108437,
            -6.9215848
          ],
          [
            107.6106307,
            -6.9215569
          ],
          [
            107.6104259,
            -6.9215335
          ],
          [
            107.610212,
            -6.9215095
          ],
          [
            107.6101463,
            -6.9215025
          ],
          [
            107.6099829,
            -6.9214819
          ],
          [
            107.6099373,
            -6.9214762
          ],
          [
            107.6098267,
            -6.921461
          ]
        ]
      },
      "properties": {
        "id": 1445399258,
        "avgspeed": "40",
        "cycleway:left": "lane",
        "cycleway:left:lane": "advisory",
        "cycleway:right": "no",
        "highway": "primary",
        "lanes": "4",
        "maxspeed": "50",
        "name": "Jalan Asia Afrika",
        "oneway": "yes",
        "sidewalk": "separate",
        "surface": "asphalt"
      }
    },
    {
      "type": "Feature",
      "geometry": {
        "type": "LineString",
        "coordinates": [
          [
            107.5812049,
            -6.9180481
          ],
          [
            107.5805863,
            -6.9179704
          ],
          [
            107.5802279,
            -6.9179222
          ],
          [
            107.5798805,
            -6.9178766
          ],
          [
            107.5797208,
            -6.9178564
          ],
          [
            107.5794411,
            -6.9178197
          ],
          [
            107.579301,
            -6.9178011
          ],
          [
            107.5791821,
            -6.917785
          ],
          [
            107.5789586,
            -6.917756
          ],
          [
            107.578869,
            -6.9177435
          ],
          [
            107.5788207,
            -6.9177374
          ],
          [
            107.5787513,
            -6.9177277
          ],
          [
            107.5784389,
            -6.9176895
          ],
          [
            107.5783437,
            -6.9176779
          ],
          [
            107.5782936,
            -6.9176722
          ],
          [
            107.5781202,
            -6.9176523
          ]
        ]
      },
      "properties": {
        "id": 1547660137,
        "highway": "primary",
        "lanes": "3",
        "name": "Jalan Jendral Sudirman",
        "name:etymology:wikidata": "Q2367329",
        "name:etymology:wikipedia": "id:Soedirman",
        "oneway": "no",
        "sidewalk:both": "separate",
        "surface": "asphalt",
        "width": "9.6"
      }
    }
  ]
}