{
  "type": "FeatureCollection",
  "features": [
    {
      "type": "Feature",
      "geometry": {
        "type": "Point",
        "coordinates": [
          107.6290533,
          -6.9840869
        ]
      },
      "properties": {
        "id": 14050080720,
        "bus": "yes",
        "name": "SD Negeri Dayeuhkolot 08, 09, 12",
        "public_transport": "stop_position"
      }
    },
    {
      "type": "Feature",
      "geometry": {
        "type": "Point",
        "coordinates": [
          107.6213965,
          -6.949255
        ]
      },
      "properties": {
        "id": 2744242982,
        "bus": "yes",
        "public_transport": "stop_position"
      }
    }
  ]
}