<?xml version="1.0" encoding="UTF-8"?>
<kml xmlns="http://www.opengis.net/kml/2.2" xmlns:gx="http://www.google.com/kml/ext/2.2">
    <Document id="78845">
        <Style id="78851">
            <LineStyle id="78852">
                <color>ff356615</color>
                <colorMode>normal</colorMode>
                <width>4</width>
            </LineStyle>
        </Style>
        <Style id="78855">
            <LineStyle id="78856">
                <color>ff356615</color>
                <colorMode>normal</colorMode>
                <width>4</width>
            </LineStyle>
        </Style>
        <Style id="78859">
            <LineStyle id="78860">
                <color>ff356615</color>
                <colorMode>normal</colorMode>
                <width>4</width>
            </LineStyle>
        </Style>
        <Style id="78863">
            <LineStyle id="78864">
                <color>ff356615</color>
                <colorMode>normal</colorMode>
                <width>4</width>
            </LineStyle>
        </Style>
        <Style id="78867">
            <LineStyle id="78868">
                <color>ff356615</color>
                <colorMode>normal</colorMode>
                <width>4</width>
            </LineStyle>
        </Style>
        <Style id="78871">
            <LineStyle id="78872">
                <color>ff356615</color>
                <colorMode>normal</colorMode>
                <width>4</width>
            </LineStyle>
        </Style>
        <Style id="78875">
            <LineStyle id="78876">
                <color>ff356615</color>
                <colorMode>normal</colorMode>
                <width>4</width>
            </LineStyle>
        </Style>
        <Style id="78879">
            <LineStyle id="78880">
                <color>ff356615</color>
                <colorMode>normal</colorMode>
                <width>4</width>
            </LineStyle>
        </Style>
        <Style id="78883">
            <LineStyle id="78884">
                <color>ff356615</color>
                <colorMode>normal</colorMode>
                <width>4</width>
            </LineStyle>
        </Style>
        <Style id="78887">
            <LineStyle id="78888">
                <color>ff356615</color>
                <colorMode>normal</colorMode>
                <width>4</width>
            </LineStyle>
        </Style>
        <Style id="78891">
            <LineStyle id="78892">
                <color>ff356615</color>
                <colorMode>normal</colorMode>
                <width>4</width>
            </LineStyle>
        </Style>
        <Style id="78895">
            <LineStyle id="78896">
                <color>ff356615</color>
                <colorMode>normal</colorMode>
                <width>4</width>
            </LineStyle>
        </Style>
        <Style id="78899">
            <LineStyle id="78900">
                <color>ff356615</color>
                <colorMode>normal</colorMode>
                <width>4</width>
            </LineStyle>
        </Style>
        <Style id="78903">
            <LineStyle id="78904">
                <color>ff356615</color>
                <colorMode>normal</colorMode>
                <width>4</width>
            </LineStyle>
        </Style>
        <Style id="78907">
            <LineStyle id="78908">
                <color>ff356615</color>
                <colorMode>normal</colorMode>
                <width>4</width>
            </LineStyle>
        </Style>
        <Style id="78911">
            <LineStyle id="78912">
                <color>ff356615</color>
                <colorMode>normal</colorMode>
                <width>4</width>
            </LineStyle>
        </Style>
        <Style id="78915">
            <LineStyle id="78916">
                <color>ff356615</color>
                <colorMode>normal</colorMode>
                <width>4</width>
            </LineStyle>
        </Style>
        <Style id="78919">
            <LineStyle id="78920">
                <color>ff356615</color>
                <colorMode>normal</colorMode>
                <width>4</width>
            </LineStyle>
        </Style>
        <Style id="78923">
            <LineStyle id="78924">
                <color>ff356615</color>
                <colorMode>normal</colorMode>
                <width>4</width>
            </LineStyle>
        </Style>
        <Style id="78927">
            <LineStyle id="78928">
                <color>ff356615</color>
                <colorMode>normal</colorMode>
                <width>4</width>
            </LineStyle>
        </Style>
        <Style id="78931">
            <LineStyle id="78932">
                <color>ff356615</color>
                <colorMode>normal</colorMode>
                <width>4</width>
            </LineStyle>
        </Style>
        <Style id="78935">
            <LineStyle id="78936">
                <color>ff356615</color>
                <colorMode>normal</colorMode>
                <width>4</width>
            </LineStyle>
        </Style>
        <Style id="78939">
            <LineStyle id="78940">
                <color>ff356615</color>
                <colorMode>normal</colorMode>
                <width>4</width>
            </LineStyle>
        </Style>
        <Style id="78943">
            <LineStyle id="78944">
                <color>ff356615</color>
                <colorMode>normal</colorMode>
                <width>4</width>
            </LineStyle>
        </Style>
        <Style id="78947">
            <LineStyle id="78948">
                <color>ff356615</color>
                <colorMode>normal</colorMode>
                <width>4</width>
            </LineStyle>
        </Style>
        <Style id="78951">
            <LineStyle id="78952">
                <color>ff356615</color>
                <colorMode>normal</colorMode>
                <width>4</width>
            </LineStyle>
        </Style>
        <Style id="78955">
            <LineStyle id="78956">
                <color>ff356615</color>
                <colorMode>normal</colorMode>
                <width>4</width>
            </LineStyle>
        </Style>
        <Style id="78959">
            <LineStyle id="78960">
                <color>ff356615</color>
                <colorMode>normal</colorMode>
                <width>4</width>
            </LineStyle>
        </Style>
        <Style id="78963">
            <LineStyle id="78964">
                <color>ff356615</color>
                <colorMode>normal</colorMode>
                <width>4</width>
            </LineStyle>
        </Style>
        <Style id="78967">
            <LineStyle id="78968">
                <color>ff356615</color>
                <colorMode>normal</colorMode>
                <width>4</width>
            </LineStyle>
        </Style>
        <Style id="78971">
            <LineStyle id="78972">
                <color>ff356615</color>
                <colorMode>normal</colorMode>
                <width>4</width>
            </LineStyle>
        </Style>
        <Style id="78975">
            <LineStyle id="78976">
                <color>ff356615</color>
                <colorMode>normal</colorMode>
                <width>4</width>
            </LineStyle>
        </Style>
        <Style id="78979">
            <LineStyle id="78980">
                <color>ff356615</color>
                <colorMode>normal</colorMode>
                <width>4</width>
            </LineStyle>
        </Style>
        <Style id="78983">
            <LineStyle id="78984">
                <color>ff356615</color>
                <colorMode>normal</colorMode>
                <width>4</width>
            </LineStyle>
        </Style>
        <Style id="78987">
            <LineStyle id="78988">
                <color>ff356615</color>
                <colorMode>normal</colorMode>
                <width>4</width>
            </LineStyle>
        </Style>
        <Style id="78991">
            <LineStyle id="78992">
                <color>ff356615</color>
                <colorMode>normal</colorMode>
                <width>4</width>
            </LineStyle>
        </Style>
        <Style id="78995">
            <LineStyle id="78996">
                <color>ff356615</color>
                <colorMode>normal</colorMode>
                <width>4</width>
            </LineStyle>
        </Style>
        <Style id="78999">
            <LineStyle id="79000">
                <color>ff356615</color>
                <colorMode>normal</colorMode>
                <width>4</width>
            </LineStyle>
        </Style>
        <Style id="79003">
            <LineStyle id="79004">
                <color>ff356615</color>
                <colorMode>normal</colorMode>
                <width>4</width>
            </LineStyle>
        </Style>
        <Style id="79007">
            <LineStyle id="79008">
                <color>ff356615</color>
                <colorMode>normal</colorMode>
                <width>4</width>
            </LineStyle>
        </Style>
        <Style id="79011">
            <LineStyle id="79012">
                <color>ff356615</color>
                <colorMode>normal</colorMode>
                <width>4</width>
            </LineStyle>
        </Style>
        <Style id="79015">
            <LineStyle id="79016">
                <color>ff356615</color>
                <colorMode>normal</colorMode>
                <width>4</width>
            </LineStyle>
        </Style>
        <Style id="79019">
            <LineStyle id="79020">
                <color>ff356615</color>
                <colorMode>normal</colorMode>
                <width>4</width>
            </LineStyle>
        </Style>
        <Style id="79023">
            <LineStyle id="79024">
                <color>ff356615</color>
                <colorMode>normal</colorMode>
                <width>4</width>
            </LineStyle>
        </Style>
        <Style id="79027">
            <LineStyle id="79028">
                <color>ff356615</color>
                <colorMode>normal</colorMode>
                <width>4</width>
            </LineStyle>
        </Style>
        <Style id="79031">
            <LineStyle id="79032">
                <color>ff356615</color>
                <colorMode>normal</colorMode>
                <width>4</width>
            </LineStyle>
        </Style>
        <Style id="79035">
            <LineStyle id="79036">
                <color>ff356615</color>
                <colorMode>normal</colorMode>
                <width>4</width>
            </LineStyle>
        </Style>
        <Style id="79039">
            <LineStyle id="79040">
                <color>ff356615</color>
                <colorMode>normal</colorMode>
                <width>4</width>
            </LineStyle>
        </Style>
        <Style id="79043">
            <LineStyle id="79044">
                <color>ff356615</color>
                <colorMode>normal</colorMode>
                <width>4</width>
            </LineStyle>
        </Style>
        <Style id="79047">
            <LineStyle id="79048">
                <color>ff356615</color>
                <colorMode>normal</colorMode>
                <width>4</width>
            </LineStyle>
        </Style>
        <Style id="79051">
            <LineStyle id="79052">
                <color>ff356615</color>
                <colorMode>normal</colorMode>
                <width>4</width>
            </LineStyle>
        </Style>
        <Style id="79055">
            <LineStyle id="79056">
                <color>ff356615</color>
                <colorMode>normal</colorMode>
                <width>4</width>
            </LineStyle>
        </Style>
        <Style id="79059">
            <LineStyle id="79060">
                <color>ff356615</color>
                <colorMode>normal</colorMode>
                <width>4</width>
            </LineStyle>
        </Style>
        <Style id="79063">
            <LineStyle id="79064">
                <color>ff356615</color>
                <colorMode>normal</colorMode>
                <width>4</width>
            </LineStyle>
        </Style>
        <Style id="79067">
            <LineStyle id="79068">
                <color>ff356615</color>
                <colorMode>normal</colorMode>
                <width>4</width>
            </LineStyle>
        </Style>
        <Style id="79071">
            <LineStyle id="79072">
                <color>ff356615</color>
                <colorMode>normal</colorMode>
                <width>4</width>
            </LineStyle>
        </Style>
        <Style id="79075">
            <LineStyle id="79076">
                <color>ff356615</color>
                <colorMode>normal</colorMode>
                <width>4</width>
            </LineStyle>
        </Style>
        <Style id="79079">
            <LineStyle id="79080">
                <color>ff356615</color>
                <colorMode>normal</colorMode>
                <width>4</width>
            </LineStyle>
        </Style>
        <Style id="79083">
            <LineStyle id="79084">
                <color>ff356615</color>
                <colorMode>normal</colorMode>
                <width>4</width>
            </LineStyle>
        </Style>
        <Style id="79087">
            <LineStyle id="79088">
                <color>ff356615</color>
                <colorMode>normal</colorMode>
                <width>4</width>
            </LineStyle>
        </Style>
        <Style id="79091">
            <LineStyle id="79092">
                <color>ff356615</color>
                <colorMode>normal</colorMode>
                <width>4</width>
            </LineStyle>
        </Style>
        <Style id="79095">
            <LineStyle id="79096">
                <color>ff356615</color>
                <colorMode>normal</colorMode>
                <width>4</width>
            </LineStyle>
        </Style>
        <Style id="79099">
            <LineStyle id="79100">
                <color>ff356615</color>
                <colorMode>normal</colorMode>
                <width>4</width>
            </LineStyle>
        </Style>
        <Style id="79103">
            <LineStyle id="79104">
                <color>ff356615</color>
                <colorMode>normal</colorMode>
                <width>4</width>
            </LineStyle>
        </Style>
        <Style id="79107">
            <LineStyle id="79108">
                <color>ff356615</color>
                <colorMode>normal</colorMode>
                <width>4</width>
            </LineStyle>
        </Style>
        <Style id="79111">
            <LineStyle id="79112">
                <color>ff356615</color>
                <colorMode>normal</colorMode>
                <width>4</width>
            </LineStyle>
        </Style>
        <Style id="79115">
            <LineStyle id="79116">
                <color>ff356615</color>
                <colorMode>normal</colorMode>
                <width>4</width>
            </LineStyle>
        </Style>
        <Style id="79119">
            <LineStyle id="79120">
                <color>ff356615</color>
                <colorMode>normal</colorMode>
                <width>4</width>
            </LineStyle>
        </Style>
        <Style id="79123">
            <LineStyle id="79124">
                <color>ff356615</color>
                <colorMode>normal</colorMode>
                <width>4</width>
            </LineStyle>
        </Style>
        <Style id="79127">
            <LineStyle id="79128">
                <color>ff356615</color>
                <colorMode>normal</colorMode>
                <width>4</width>
            </LineStyle>
        </Style>
        <Style id="79131">
            <LineStyle id="79132">
                <color>ff356615</color>
                <colorMode>normal</colorMode>
                <width>4</width>
            </LineStyle>
        </Style>
        <Style id="79135">
            <LineStyle id="79136">
                <color>ff356615</color>
                <colorMode>normal</colorMode>
                <width>4</width>
            </LineStyle>
        </Style>
        <Style id="79139">
            <LineStyle id="79140">
                <color>ff356615</color>
                <colorMode>normal</colorMode>
                <width>4</width>
            </LineStyle>
        </Style>
        <Style id="79143">
            <LineStyle id="79144">
                <color>ff356615</color>
                <colorMode>normal</colorMode>
                <width>4</width>
            </LineStyle>
        </Style>
        <Style id="79147">
            <LineStyle id="79148">
                <color>ff356615</color>
                <colorMode>normal</colorMode>
                <width>4</width>
            </LineStyle>
        </Style>
        <Style id="79151">
            <LineStyle id="79152">
                <color>ff356615</color>
                <colorMode>normal</colorMode>
                <width>4</width>
            </LineStyle>
        </Style>
        <Style id="79155">
            <LineStyle id="79156">
                <color>ff356615</color>
                <colorMode>normal</colorMode>
                <width>4</width>
            </LineStyle>
        </Style>
        <Style id="79159">
            <LineStyle id="79160">
                <color>ff356615</color>
                <colorMode>normal</colorMode>
                <width>4</width>
            </LineStyle>
        </Style>
        <Style id="79163">
            <LineStyle id="79164">
                <color>ff356615</color>
                <colorMode>normal</colorMode>
                <width>4</width>
            </LineStyle>
        </Style>
        <Style id="79167">
            <LineStyle id="79168">
                <color>ff356615</color>
                <colorMode>normal</colorMode>
                <width>4</width>
            </LineStyle>
        </Style>
        <Style id="79171">
            <LineStyle id="79172">
                <color>ff356615</color>
                <colorMode>normal</colorMode>
                <width>4</width>
            </LineStyle>
        </Style>
        <Style id="79175">
            <LineStyle id="79176">
                <color>ff356615</color>
                <colorMode>normal</colorMode>
                <width>4</width>
            </LineStyle>
        </Style>
        <Style id="79179">
            <LineStyle id="79180">
                <color>ff356615</color>
                <colorMode>normal</colorMode>
                <width>4</width>
            </LineStyle>
        </Style>
        <Style id="79183">
            <LineStyle id="79184">
                <color>ff356615</color>
                <colorMode>normal</colorMode>
                <width>4</width>
            </LineStyle>
        </Style>
        <Style id="79187">
            <LineStyle id="79188">
                <color>ff356615</color>
                <colorMode>normal</colorMode>
                <width>4</width>
            </LineStyle>
        </Style>
        <Style id="79191">
            <LineStyle id="79192">
                <color>ff356615</color>
                <colorMode>normal</colorMode>
                <width>4</width>
            </LineStyle>
        </Style>
        <Style id="79195">
            <LineStyle id="79196">
                <color>ff356615</color>
                <colorMode>normal</colorMode>
                <width>4</width>
            </LineStyle>
        </Style>
        <Style id="79199">
            <LineStyle id="79200">
                <color>ff356615</color>
                <colorMode>normal</colorMode>
                <width>4</width>
            </LineStyle>
        </Style>
        <Style id="79203">
            <LineStyle id="79204">
                <color>ff356615</color>
                <colorMode>normal</colorMode>
                <width>4</width>
            </LineStyle>
        </Style>
        <Style id="79207">
            <LineStyle id="79208">
                <color>ff356615</color>
                <colorMode>normal</colorMode>
                <width>4</width>
            </LineStyle>
        </Style>
        <Style id="79211">
            <LineStyle id="79212">
                <color>ff356615</color>
                <colorMode>normal</colorMode>
                <width>4</width>
            </LineStyle>
        </Style>
        <Style id="79215">
            <LineStyle id="79216">
                <color>ff356615</color>
                <colorMode>normal</colorMode>
                <width>4</width>
            </LineStyle>
        </Style>
        <Style id="79219">
            <IconStyle id="79220">
                <colorMode>normal</colorMode>
                <scale>1</scale>
                <heading>0</heading>
                <Icon id="79221">
                    <href>http://maps.google.com/mapfiles/kml/pushpin/ylw-pushpin.png</href>
                </Icon>
            </IconStyle>
        </Style>
        <Style id="79224">
            <IconStyle id="79225">
                <colorMode>normal</colorMode>
                <scale>1</scale>
                <heading>0</heading>
                <Icon id="79226">
                    <href>http://maps.google.com/mapfiles/kml/pushpin/ylw-pushpin.png</href>
                </Icon>
            </IconStyle>
        </Style>
        <ExtendedData>
            <Data name="route-name">
                <value>010: Cicaheum → Cileunyi</value>
            </Data>
            <Data name="source">
                <value>Transport for Bandung</value>
            </Data>
        </ExtendedData>
        <Placemark id="78850">
            <name>Jalan Abdul Haris Nasution</name>
            <styleUrl>#78851</styleUrl>
            <LineString id="78849">
                <coordinates>107.713642,-6.931656,0.0 107.7135608,-6.9316361,0.0 107.7134679,-6.931607,0.0 107.7133783,-6.931568,0.0 107.7132823,-6.9315111,0.0 107.7131664,-6.9314439,0.0 107.7129924,-6.9313164,0.0 107.7129059,-6.9312326,0.0 107.7128285,-6.9311385,0.0 107.7127799,-6.9310665,0.0 107.7127256,-6.9309615,0.0 107.7126092,-6.9307285,0.0 107.7125695,-6.930649,0.0 107.7123462,-6.9302127,0.0 107.7122556,-6.9300335,0.0 107.7121931,-6.929892,0.0 107.7121855,-6.929877,0.0 107.7119967,-6.9294743,0.0 107.7118609,-6.9291887,0.0 107.7118278,-6.9291134,0.0 107.7117984,-6.9290507,0.0 107.7116604,-6.928757,0.0 107.7113962,-6.9281945,0.0 107.7112515,-6.9278637,0.0 107.711222,-6.9277829,0.0</coordinates>
            </LineString>
        </Placemark>
        <Placemark id="78854">
            <name>Jalan Raya Cileunyi</name>
            <styleUrl>#78855</styleUrl>
            <LineString id="78853">
                <coordinates>107.7528851,-6.9391361,0.0 107.7530294,-6.9390441,0.0 107.7537452,-6.938697,0.0 107.7540066,-6.9385699,0.0 107.7541454,-6.9385016,0.0 107.7544927,-6.9383149,0.0 107.7548022,-6.9381645,0.0 107.755132,-6.9380904,0.0 107.7553843,-6.9380561,0.0 107.7558468,-6.9379992,0.0 107.7559524,-6.9379853,0.0 107.7560525,-6.9379722,0.0</coordinates>
            </LineString>
        </Placemark>
        <Placemark id="78858">
            <name>Jalan Raya Cileunyi</name>
            <styleUrl>#78859</styleUrl>
            <LineString id="78857">
                <coordinates>107.7390535,-6.9395348,0.0 107.7394719,-6.9397185,0.0 107.739664,-6.9397854,0.0 107.7397842,-6.9398216,0.0</coordinates>
            </LineString>
        </Placemark>
        <Placemark id="78862">
            <name>Jalan Raya Cibiru</name>
            <styleUrl>#78863</styleUrl>
            <LineString id="78861">
                <coordinates>107.7182965,-6.9349114,0.0 107.718536,-6.934992,0.0 107.7186341,-6.935002,0.0 107.7187224,-6.9349951,0.0 107.7187999,-6.9349793,0.0 107.7190343,-6.9349399,0.0</coordinates>
            </LineString>
        </Placemark>
        <Placemark id="78866">
            <name>Jalan Abdul Haris Nasution</name>
            <styleUrl>#78867</styleUrl>
            <LineString id="78865">
                <coordinates>107.7171463,-6.9344338,0.0 107.7168924,-6.9343331,0.0</coordinates>
            </LineString>
        </Placemark>
        <Placemark id="78870">
            <name>Jalan Raya Cibiru</name>
            <styleUrl>#78871</styleUrl>
            <LineString id="78869">
                <coordinates>107.723025,-6.933527,0.0 107.7236581,-6.9332035,0.0 107.7239735,-6.9330533,0.0 107.7241527,-6.9329826,0.0 107.7242508,-6.9329639,0.0 107.7243536,-6.9329703,0.0 107.7245223,-6.9329888,0.0 107.7246554,-6.9330122,0.0 107.7247929,-6.9330363,0.0 107.7250475,-6.9330943,0.0 107.7253078,-6.9331296,0.0 107.725421,-6.9331288,0.0 107.7256228,-6.9331024,0.0 107.7258154,-6.9330625,0.0 107.725958,-6.9330356,0.0 107.7260557,-6.9330369,0.0 107.7261566,-6.9330411,0.0 107.7262662,-6.9330558,0.0 107.7263304,-6.9330795,0.0 107.7266764,-6.9332179,0.0 107.7269811,-6.9333597,0.0 107.7273996,-6.9335849,0.0 107.7277625,-6.9338098,0.0 107.7279053,-6.9339437,0.0 107.7279922,-6.9340554,0.0 107.7280582,-6.9341494,0.0 107.7281157,-6.9342553,0.0 107.7281681,-6.9344058,0.0 107.7282015,-6.9346302,0.0 107.7282133,-6.9347685,0.0 107.7282361,-6.9352455,0.0 107.7282392,-6.9353708,0.0 107.7282655,-6.935551,0.0</coordinates>
            </LineString>
        </Placemark>
        <Placemark id="78874">
            <name>Jalan Sindangsari</name>
            <styleUrl>#78875</styleUrl>
            <LineString id="78873">
                <coordinates>107.7567382,-6.9389134,0.0 107.7567739,-6.9390766,0.0 107.7568577,-6.9394912,0.0 107.7569138,-6.9398023,0.0 107.756922,-6.9400445,0.0 107.7568884,-6.9402795,0.0 107.7567934,-6.9405329,0.0 107.7566826,-6.9407282,0.0 107.7565267,-6.9409422,0.0 107.7563528,-6.9411132,0.0 107.756136,-6.9412518,0.0 107.7560908,-6.941275,0.0 107.7560052,-6.9413191,0.0 107.755796,-6.9414221,0.0 107.7557485,-6.9414449,0.0 107.7556492,-6.9414928,0.0</coordinates>
            </LineString>
        </Placemark>
        <Placemark id="78878">
            <name>Jalan Raya Cileunyi</name>
            <styleUrl>#78879</styleUrl>
            <LineString id="78877">
                <coordinates>107.7523492,-6.9395225,0.0 107.7522994,-6.9395756,0.0 107.7522538,-6.9396339,0.0 107.7521865,-6.9397272,0.0 107.7521106,-6.9398122,0.0 107.7520239,-6.9398717,0.0 107.7519327,-6.939914,0.0 107.7518448,-6.9399409,0.0 107.7517633,-6.9399613,0.0 107.7517158,-6.9399731,0.0 107.7513485,-6.9400136,0.0 107.750995,-6.9400491,0.0 107.7504316,-6.9401054,0.0</coordinates>
            </LineString>
        </Placemark>
        <Placemark id="78882">
            <name>Jalan Abdul Haris Nasution</name>
            <styleUrl>#78883</styleUrl>
            <LineString id="78881">
                <coordinates>107.6731822,-6.9049099,0.0 107.6730663,-6.9049324,0.0 107.6729204,-6.9049231,0.0 107.6727971,-6.9048983,0.0 107.6726502,-6.9048495,0.0 107.6725166,-6.9047911,0.0 107.6723982,-6.9047336,0.0 107.672335,-6.9046989,0.0 107.6721798,-6.9046133,0.0 107.6720002,-6.9045193,0.0 107.6718533,-6.9044513,0.0 107.6718052,-6.9044291,0.0 107.671782,-6.9044186,0.0 107.6717285,-6.9043943,0.0 107.6714589,-6.9042963,0.0 107.6713547,-6.9042719,0.0 107.6712605,-6.9042516,0.0 107.671153,-6.9042417,0.0 107.6710571,-6.9042413,0.0 107.6709567,-6.9042404,0.0 107.6707829,-6.9042441,0.0</coordinates>
            </LineString>
        </Placemark>
        <Placemark id="78886">
            <name>Jalan Abdul Haris Nasution</name>
            <styleUrl>#78887</styleUrl>
            <LineString id="78885">
                <coordinates>107.6981324,-6.9140614,0.0 107.6978409,-6.9140523,0.0 107.6977578,-6.9140498,0.0 107.6967586,-6.91402,0.0 107.6966396,-6.9139937,0.0 107.6955657,-6.9136497,0.0 107.6953324,-6.913575,0.0 107.6950984,-6.9135008,0.0 107.6950575,-6.9134879,0.0 107.6940999,-6.9131835,0.0 107.6940118,-6.9131572,0.0 107.6939237,-6.9131308,0.0 107.6938253,-6.9131006,0.0 107.6937275,-6.9130705,0.0 107.6932002,-6.9128981,0.0 107.6925681,-6.9126992,0.0 107.6922664,-6.9126036,0.0</coordinates>
            </LineString>
        </Placemark>
        <Placemark id="78890">
            <name>Jalan Raya Jatinangor</name>
            <styleUrl>#78891</styleUrl>
            <LineString id="78889">
                <coordinates>107.7560525,-6.9379722,0.0 107.7561506,-6.9379649,0.0 107.7562158,-6.9379626,0.0 107.7562801,-6.9379625,0.0 107.7563472,-6.9379656,0.0 107.7563973,-6.9379697,0.0 107.7564309,-6.9379772,0.0 107.7564642,-6.9379908,0.0 107.7564899,-6.9380083,0.0 107.7565168,-6.9380327,0.0 107.7565403,-6.9380671,0.0 107.7565644,-6.9381218,0.0 107.7565818,-6.9381773,0.0 107.756603,-6.938276,0.0</coordinates>
            </LineString>
        </Placemark>
        <Placemark id="78894">
            <name>Jalan Raya Cileunyi</name>
            <styleUrl>#78895</styleUrl>
            <LineString id="78893">
                <coordinates>107.7397842,-6.9398216,0.0 107.739903,-6.939838,0.0 107.7403212,-6.9398889,0.0 107.7407799,-6.9399173,0.0 107.7409253,-6.939924,0.0 107.7410652,-6.9399329,0.0 107.7412317,-6.9399255,0.0 107.7414809,-6.9399233,0.0 107.7417444,-6.9399106,0.0 107.7420817,-6.9398929,0.0 107.7422768,-6.9398804,0.0 107.7424401,-6.9398636,0.0 107.7424547,-6.9398622,0.0 107.7427168,-6.9398367,0.0 107.7431702,-6.9397674,0.0 107.7433402,-6.9397414,0.0 107.7434862,-6.9397136,0.0 107.7436525,-6.939687,0.0 107.7439546,-6.9396264,0.0 107.7441015,-6.9395952,0.0 107.7442261,-6.9395641,0.0 107.7449661,-6.939345,0.0 107.7450174,-6.9393297,0.0 107.7452545,-6.939259,0.0 107.7455016,-6.9391937,0.0 107.7456618,-6.9391704,0.0 107.7457714,-6.9391668,0.0 107.7458779,-6.9391646,0.0 107.7469027,-6.9391292,0.0 107.7474006,-6.9390782,0.0 107.7478357,-6.9389813,0.0 107.748109,-6.9389402,0.0 107.7483221,-6.9389596,0.0 107.7484847,-6.9389978,0.0 107.7485751,-6.9390297,0.0 107.7487399,-6.9391219,0.0 107.7489106,-6.9392402,0.0</coordinates>
            </LineString>
        </Placemark>
        <Placemark id="78898">
            <name>Jalan Abdul Haris Nasution</name>
            <styleUrl>#78899</styleUrl>
            <LineString id="78897">
                <coordinates>107.7171463,-6.9344338,0.0 107.7173252,-6.9345195,0.0 107.717689,-6.9346997,0.0 107.7177552,-6.9347327,0.0</coordinates>
            </LineString>
        </Placemark>
        <Placemark id="78902">
            <name>Jalan Abdul Haris Nasution</name>
            <styleUrl>#78903</styleUrl>
            <LineString id="78901">
                <coordinates>107.6669959,-6.9041686,0.0 107.6668942,-6.9041612,0.0</coordinates>
            </LineString>
        </Placemark>
        <Placemark id="78906">
            <name>Jalan Abdul Haris Nasution</name>
            <styleUrl>#78907</styleUrl>
            <LineString id="78905">
                <coordinates>107.6668942,-6.9041612,0.0 107.6668619,-6.9041587,0.0 107.6668426,-6.9041581,0.0 107.6668057,-6.9041559,0.0 107.6667063,-6.9041501,0.0 107.6666336,-6.9041465,0.0 107.6662245,-6.9041035,0.0 107.6659777,-6.9040789,0.0 107.6656526,-6.9040466,0.0 107.6654785,-6.9040293,0.0 107.6653806,-6.9040176,0.0 107.6653339,-6.9040128,0.0 107.6652717,-6.9040063,0.0 107.6650321,-6.9039795,0.0 107.6649569,-6.9039704,0.0 107.664911,-6.903966,0.0 107.6647137,-6.9039446,0.0 107.6644048,-6.9039111,0.0 107.6642495,-6.9038943,0.0 107.6638979,-6.9038599,0.0 107.6637771,-6.9038469,0.0 107.6629487,-6.9037576,0.0 107.6628717,-6.9037486,0.0 107.6625205,-6.9037038,0.0 107.6624107,-6.9036934,0.0 107.6623517,-6.9036867,0.0 107.6618122,-6.9036241,0.0 107.6616711,-6.9035965,0.0 107.6615175,-6.9035395,0.0 107.6614385,-6.9034891,0.0 107.6613446,-6.9034118,0.0 107.6612417,-6.903307,0.0 107.6611816,-6.9032348,0.0</coordinates>
            </LineString>
        </Placemark>
        <Placemark id="78910">
            <name>Jalan Abdul Haris Nasution</name>
            <styleUrl>#78911</styleUrl>
            <LineString id="78909">
                <coordinates>107.6794782,-6.9049937,0.0 107.6794622,-6.9049915,0.0 107.6793999,-6.9049829,0.0</coordinates>
            </LineString>
        </Placemark>
        <Placemark id="78914">
            <name>Jalan Abdul Haris Nasution</name>
            <styleUrl>#78915</styleUrl>
            <LineString id="78913">
                <coordinates>107.6820608,-6.90548,0.0 107.6818657,-6.905397,0.0 107.6815606,-6.9053016,0.0 107.6813524,-6.9052663,0.0 107.6812596,-6.9052518,0.0 107.6812141,-6.9052443,0.0 107.681059,-6.9052186,0.0 107.6809974,-6.9052105,0.0 107.6802772,-6.9051106,0.0 107.6802419,-6.9051046,0.0</coordinates>
            </LineString>
        </Placemark>
        <Placemark id="78918">
            <name>Jalan Abdul Haris Nasution</name>
            <styleUrl>#78919</styleUrl>
            <LineString id="78917">
                <coordinates>107.6886554,-6.9089512,0.0 107.6884956,-6.9087587,0.0</coordinates>
            </LineString>
        </Placemark>
        <Placemark id="78922">
            <name>Jalan Abdul Haris Nasution</name>
            <styleUrl>#78923</styleUrl>
            <LineString id="78921">
                <coordinates>107.6884956,-6.9087587,0.0 107.6884665,-6.9087231,0.0 107.6883751,-6.9086112,0.0 107.6883498,-6.9085803,0.0 107.6882509,-6.9084646,0.0 107.6881997,-6.9084047,0.0 107.6881669,-6.9083663,0.0 107.6881296,-6.9083276,0.0 107.6879166,-6.9081066,0.0 107.6878856,-6.9080779,0.0 107.6878604,-6.9080595,0.0 107.6877557,-6.9079872,0.0 107.687718,-6.9079611,0.0 107.6875495,-6.9078678,0.0 107.6872801,-6.9077377,0.0 107.6871903,-6.9076995,0.0 107.686994,-6.9076223,0.0 107.6869035,-6.9075861,0.0 107.6867495,-6.907525,0.0 107.6866954,-6.9075035,0.0 107.6864696,-6.9074116,0.0 107.6861292,-6.9072788,0.0</coordinates>
            </LineString>
        </Placemark>
        <Placemark id="78926">
            <name>Jalan Abdul Haris Nasution</name>
            <styleUrl>#78927</styleUrl>
            <LineString id="78925">
                <coordinates>107.6605793,-6.9024754,0.0 107.6604879,-6.9023953,0.0 107.6604098,-6.9023387,0.0 107.6603407,-6.9023021,0.0 107.6602817,-6.9022811,0.0 107.6602364,-6.9022721,0.0 107.6602053,-6.9022701,0.0 107.6598571,-6.902257,0.0</coordinates>
            </LineString>
        </Placemark>
        <Placemark id="78930">
            <name>Jalan Jenderal Ahmad Yani</name>
            <styleUrl>#78931</styleUrl>
            <LineString id="78929">
                <coordinates>107.6567969,-6.9021302,0.0 107.6571681,-6.9021368,0.0</coordinates>
            </LineString>
        </Placemark>
        <Placemark id="78934">
            <name>Jalan Jenderal Ahmad Yani</name>
            <styleUrl>#78935</styleUrl>
            <LineString id="78933">
                <coordinates>107.6593864,-6.9022105,0.0 107.6595127,-6.9022119,0.0</coordinates>
            </LineString>
        </Placemark>
        <Placemark id="78938">
            <name>Jalan Jenderal Ahmad Yani</name>
            <styleUrl>#78939</styleUrl>
            <LineString id="78937">
                <coordinates>107.6595127,-6.9022119,0.0 107.6595339,-6.9022128,0.0 107.6596886,-6.902217,0.0</coordinates>
            </LineString>
        </Placemark>
        <Placemark id="78942">
            <name>Jalan Abdul Haris Nasution</name>
            <styleUrl>#78943</styleUrl>
            <LineString id="78941">
                <coordinates>107.6605793,-6.9024754,0.0 107.6608071,-6.902754,0.0 107.6609212,-6.9028936,0.0 107.6611816,-6.9032348,0.0</coordinates>
            </LineString>
        </Placemark>
        <Placemark id="78946">
            <name>Jalan Abdul Haris Nasution</name>
            <styleUrl>#78947</styleUrl>
            <LineString id="78945">
                <coordinates>107.6895516,-6.9103253,0.0 107.689292,-6.9099117,0.0 107.6891272,-6.9096584,0.0 107.6889856,-6.9094288,0.0 107.6889178,-6.9093232,0.0 107.6888218,-6.9091822,0.0 107.6886554,-6.9089512,0.0</coordinates>
            </LineString>
        </Placemark>
        <Placemark id="78950">
            <name>Jalan Abdul Haris Nasution</name>
            <styleUrl>#78951</styleUrl>
            <LineString id="78949">
                <coordinates>107.6915575,-6.9123564,0.0 107.6914788,-6.9123269,0.0 107.691339,-6.9122714,0.0</coordinates>
            </LineString>
        </Placemark>
        <Placemark id="78954">
            <name>Jalan Abdul Haris Nasution</name>
            <styleUrl>#78955</styleUrl>
            <LineString id="78953">
                <coordinates>107.6993869,-6.9140921,0.0 107.6994303,-6.9140621,0.0 107.7000628,-6.9140688,0.0</coordinates>
            </LineString>
        </Placemark>
        <Placemark id="78958">
            <name>Jalan Abdul Haris Nasution</name>
            <styleUrl>#78959</styleUrl>
            <LineString id="78957">
                <coordinates>107.7056976,-6.9169875,0.0 107.7054128,-6.9167045,0.0 107.7052708,-6.9165634,0.0 107.7050975,-6.9163917,0.0 107.7050462,-6.9163418,0.0 107.7048634,-6.9161551,0.0</coordinates>
            </LineString>
        </Placemark>
        <Placemark id="78962">
            <name>Jalan Abdul Haris Nasution</name>
            <styleUrl>#78963</styleUrl>
            <LineString id="78961">
                <coordinates>107.7079278,-6.9189447,0.0 107.7078778,-6.9188991,0.0</coordinates>
            </LineString>
        </Placemark>
        <Placemark id="78966">
            <name>Jalan Jenderal Ahmad Yani</name>
            <styleUrl>#78967</styleUrl>
            <LineString id="78965">
                <coordinates>107.6576312,-6.9021501,0.0 107.6581299,-6.9021692,0.0 107.6587729,-6.9021961,0.0 107.6593864,-6.9022105,0.0</coordinates>
            </LineString>
        </Placemark>
        <Placemark id="78970">
            <name>Jalan Jenderal Ahmad Yani</name>
            <styleUrl>#78971</styleUrl>
            <LineString id="78969">
                <coordinates>107.6596886,-6.902217,0.0 107.6597252,-6.9022186,0.0 107.6598571,-6.902257,0.0</coordinates>
            </LineString>
        </Placemark>
        <Placemark id="78974">
            <name>Jalan Raya Cinunuk</name>
            <styleUrl>#78975</styleUrl>
            <LineString id="78973">
                <coordinates>107.7320931,-6.9375862,0.0 107.731784,-6.9374545,0.0 107.7314043,-6.9372927,0.0 107.7312919,-6.9372449,0.0 107.7312064,-6.9372085,0.0 107.7305951,-6.936948,0.0 107.7305396,-6.9369244,0.0 107.7302076,-6.936783,0.0 107.7294939,-6.9364789,0.0 107.7294236,-6.936449,0.0 107.7293518,-6.9364184,0.0</coordinates>
            </LineString>
        </Placemark>
        <Placemark id="78978">
            <name>Route Segment</name>
            <styleUrl>#78979</styleUrl>
            <LineString id="78977">
                <coordinates>107.7556492,-6.9414928,0.0 107.7552967,-6.9416394,0.0 107.7552505,-6.941653,0.0 107.7551746,-6.9416676,0.0 107.7551045,-6.9416724,0.0 107.7550401,-6.9416707,0.0 107.7549761,-6.9416613,0.0 107.7549133,-6.9416448,0.0 107.7548624,-6.9416249,0.0 107.754808,-6.9415951,0.0 107.7547449,-6.9415507,0.0</coordinates>
            </LineString>
        </Placemark>
        <Placemark id="78982">
            <name>Route Segment</name>
            <styleUrl>#78983</styleUrl>
            <LineString id="78981">
                <coordinates>107.7547449,-6.9415507,0.0 107.7546238,-6.9414254,0.0 107.7544909,-6.9412837,0.0 107.7544152,-6.9412021,0.0 107.7543297,-6.9411117,0.0 107.7540569,-6.9408199,0.0</coordinates>
            </LineString>
        </Placemark>
        <Placemark id="78986">
            <name>Jalan Raya Cileunyi</name>
            <styleUrl>#78987</styleUrl>
            <LineString id="78985">
                <coordinates>107.7523492,-6.9395225,0.0 107.7526199,-6.9393176,0.0 107.7528851,-6.9391361,0.0</coordinates>
            </LineString>
        </Placemark>
        <Placemark id="78990">
            <name>Jalan Raya Cinunuk</name>
            <styleUrl>#78991</styleUrl>
            <LineString id="78989">
                <coordinates>107.7390535,-6.9395348,0.0 107.7389687,-6.9394813,0.0 107.7387776,-6.9393506,0.0 107.7385978,-6.9392284,0.0 107.7382961,-6.9390222,0.0 107.7382297,-6.938995,0.0 107.7379672,-6.9388898,0.0 107.737817,-6.9388449,0.0 107.7376781,-6.9388327,0.0 107.737516,-6.9388319,0.0 107.7371691,-6.9388386,0.0 107.7370849,-6.9388394,0.0 107.7368363,-6.9388168,0.0 107.7365725,-6.9387777,0.0 107.7362807,-6.9387344,0.0 107.7357811,-6.9386603,0.0 107.735642,-6.9386406,0.0 107.7355504,-6.9386254,0.0 107.7352546,-6.9385894,0.0 107.7348465,-6.9385336,0.0 107.7346907,-6.9385075,0.0 107.7343569,-6.9384683,0.0 107.7342305,-6.9384377,0.0 107.7340425,-6.9383832,0.0 107.734009,-6.9383702,0.0 107.7337174,-6.9382545,0.0 107.7335845,-6.9382017,0.0 107.7334646,-6.9381536,0.0 107.733388,-6.9381228,0.0 107.732788,-6.937882,0.0 107.7324882,-6.9377532,0.0 107.7322724,-6.9376624,0.0</coordinates>
            </LineString>
        </Placemark>
        <Placemark id="78994">
            <name>Jalan Jenderal Ahmad Yani</name>
            <styleUrl>#78995</styleUrl>
            <LineString id="78993">
                <coordinates>107.6571681,-6.9021368,0.0 107.6576312,-6.9021501,0.0</coordinates>
            </LineString>
        </Placemark>
        <Placemark id="78998">
            <name>Jalan Raya Cinunuk</name>
            <styleUrl>#78999</styleUrl>
            <LineString id="78997">
                <coordinates>107.7282655,-6.935551,0.0 107.7283014,-6.9357074,0.0 107.7283213,-6.9357859,0.0 107.7283492,-6.9358544,0.0 107.7283974,-6.9359209,0.0 107.7284533,-6.9359783,0.0 107.7285144,-6.9360335,0.0 107.7285839,-6.9360832,0.0 107.7286135,-6.9361042,0.0 107.7288601,-6.936221,0.0 107.7291448,-6.9363331,0.0</coordinates>
            </LineString>
        </Placemark>
        <Placemark id="79002">
            <name>Jalan Abdul Haris Nasution</name>
            <styleUrl>#79003</styleUrl>
            <LineString id="79001">
                <coordinates>107.7140726,-6.931769,0.0 107.7138518,-6.9317116,0.0 107.7137735,-6.9316908,0.0 107.713642,-6.931656,0.0</coordinates>
            </LineString>
        </Placemark>
        <Placemark id="79006">
            <name>Jalan Abdul Haris Nasution</name>
            <styleUrl>#79007</styleUrl>
            <LineString id="79005">
                <coordinates>107.7144361,-6.931864,0.0 107.7142619,-6.9318193,0.0 107.7140726,-6.931769,0.0</coordinates>
            </LineString>
        </Placemark>
        <Placemark id="79010">
            <name>Jalan Abdul Haris Nasution</name>
            <styleUrl>#79011</styleUrl>
            <LineString id="79009">
                <coordinates>107.7105801,-6.9252094,0.0 107.7104613,-6.9246918,0.0 107.7104008,-6.9244232,0.0</coordinates>
            </LineString>
        </Placemark>
        <Placemark id="79014">
            <name>Jalan Abdul Haris Nasution</name>
            <styleUrl>#79015</styleUrl>
            <LineString id="79013">
                <coordinates>107.7107212,-6.9257995,0.0 107.7106403,-6.9254613,0.0 107.7106107,-6.9253373,0.0 107.7105932,-6.9252642,0.0 107.7105801,-6.9252094,0.0</coordinates>
            </LineString>
        </Placemark>
        <Placemark id="79018">
            <name>Jalan Abdul Haris Nasution</name>
            <styleUrl>#79019</styleUrl>
            <LineString id="79017">
                <coordinates>107.709518,-6.92122,0.0 107.7094462,-6.9210883,0.0 107.7094253,-6.921055,0.0 107.7093494,-6.9209338,0.0 107.7092562,-6.9208004,0.0 107.7090082,-6.9204451,0.0 107.7087709,-6.9201014,0.0 107.7086976,-6.9199992,0.0 107.7084015,-6.9195643,0.0</coordinates>
            </LineString>
        </Placemark>
        <Placemark id="79022">
            <name>Jalan Abdul Haris Nasution</name>
            <styleUrl>#79023</styleUrl>
            <LineString id="79021">
                <coordinates>107.6993869,-6.9140921,0.0 107.6988139,-6.9140772,0.0 107.6987736,-6.9140758,0.0 107.6985678,-6.9140743,0.0 107.6985267,-6.9140727,0.0 107.698183,-6.9140629,0.0 107.6981324,-6.9140614,0.0</coordinates>
            </LineString>
        </Placemark>
        <Placemark id="79026">
            <name>Jalan Abdul Haris Nasution</name>
            <styleUrl>#79027</styleUrl>
            <LineString id="79025">
                <coordinates>107.7000628,-6.9140688,0.0 107.7008525,-6.9140887,0.0 107.7011598,-6.9141026,0.0</coordinates>
            </LineString>
        </Placemark>
        <Placemark id="79030">
            <name>Jalan Abdul Haris Nasution</name>
            <styleUrl>#79031</styleUrl>
            <LineString id="79029">
                <coordinates>107.7011598,-6.9141026,0.0 107.7014577,-6.9141179,0.0 107.7019022,-6.9141367,0.0 107.7020204,-6.9141417,0.0</coordinates>
            </LineString>
        </Placemark>
        <Placemark id="79034">
            <name>Jalan Abdul Haris Nasution</name>
            <styleUrl>#79035</styleUrl>
            <LineString id="79033">
                <coordinates>107.7027899,-6.914196,0.0 107.7028255,-6.9142064,0.0 107.7029436,-6.9142538,0.0 107.7031033,-6.9143708,0.0 107.7031981,-6.9144625,0.0 107.7032497,-6.91455,0.0</coordinates>
            </LineString>
        </Placemark>
        <Placemark id="79038">
            <name>Jalan Abdul Haris Nasution</name>
            <styleUrl>#79039</styleUrl>
            <LineString id="79037">
                <coordinates>107.7020204,-6.9141417,0.0 107.702153,-6.9141473,0.0 107.7025037,-6.9141712,0.0 107.7026869,-6.9141869,0.0</coordinates>
            </LineString>
        </Placemark>
        <Placemark id="79042">
            <name>Jalan Abdul Haris Nasution</name>
            <styleUrl>#79043</styleUrl>
            <LineString id="79041">
                <coordinates>107.7048634,-6.9161551,0.0 107.7043264,-6.9156376,0.0 107.7040709,-6.9153827,0.0 107.7036729,-6.9149857,0.0 107.7036141,-6.9149341,0.0 107.703496,-6.9148064,0.0 107.7033907,-6.9146967,0.0 107.7032497,-6.91455,0.0</coordinates>
            </LineString>
        </Placemark>
        <Placemark id="79046">
            <name>Jalan Abdul Haris Nasution</name>
            <styleUrl>#79047</styleUrl>
            <LineString id="79045">
                <coordinates>107.7067293,-6.9179466,0.0 107.7065296,-6.9177637,0.0 107.7064347,-6.9176769,0.0 107.7062418,-6.9175011,0.0 107.7061287,-6.9173978,0.0 107.7058757,-6.9171667,0.0 107.7056976,-6.9169875,0.0</coordinates>
            </LineString>
        </Placemark>
        <Placemark id="79050">
            <name>Jalan Abdul Haris Nasution</name>
            <styleUrl>#79051</styleUrl>
            <LineString id="79049">
                <coordinates>107.7068787,-6.9180851,0.0 107.7067293,-6.9179466,0.0</coordinates>
            </LineString>
        </Placemark>
        <Placemark id="79054">
            <name>Jalan Abdul Haris Nasution</name>
            <styleUrl>#79055</styleUrl>
            <LineString id="79053">
                <coordinates>107.7078778,-6.9188991,0.0 107.707791,-6.9188223,0.0 107.7071451,-6.9183004,0.0 107.7070805,-6.9182482,0.0 107.7068787,-6.9180851,0.0</coordinates>
            </LineString>
        </Placemark>
        <Placemark id="79058">
            <name>Jalan Abdul Haris Nasution</name>
            <styleUrl>#79059</styleUrl>
            <LineString id="79057">
                <coordinates>107.7084015,-6.9195643,0.0 107.7082731,-6.9193617,0.0 107.708098,-6.9191234,0.0 107.7080033,-6.9190238,0.0 107.7079599,-6.9189731,0.0 107.7079278,-6.9189447,0.0</coordinates>
            </LineString>
        </Placemark>
        <Placemark id="79062">
            <name>Jalan Abdul Haris Nasution</name>
            <styleUrl>#79063</styleUrl>
            <LineString id="79061">
                <coordinates>107.7100539,-6.9230708,0.0 107.7100385,-6.9230012,0.0 107.7099123,-6.9224691,0.0 107.7098211,-6.9221498,0.0 107.7097628,-6.9219556,0.0 107.7097203,-6.9218105,0.0 107.709674,-6.9216526,0.0 107.7096109,-6.9214795,0.0 107.709518,-6.92122,0.0</coordinates>
            </LineString>
        </Placemark>
        <Placemark id="79066">
            <name>Jalan Abdul Haris Nasution</name>
            <styleUrl>#79067</styleUrl>
            <LineString id="79065">
                <coordinates>107.7104008,-6.9244232,0.0 107.7102908,-6.9239559,0.0 107.7101956,-6.9235898,0.0 107.7101091,-6.9232574,0.0 107.7100664,-6.9231129,0.0 107.7100539,-6.9230708,0.0</coordinates>
            </LineString>
        </Placemark>
        <Placemark id="79070">
            <name>Jalan Abdul Haris Nasution</name>
            <styleUrl>#79071</styleUrl>
            <LineString id="79069">
                <coordinates>107.7108174,-6.926202,0.0 107.7108057,-6.9261531,0.0 107.7107744,-6.9260219,0.0 107.7107398,-6.9258776,0.0 107.7107212,-6.9257995,0.0</coordinates>
            </LineString>
        </Placemark>
        <Placemark id="79074">
            <name>Jalan Abdul Haris Nasution</name>
            <styleUrl>#79075</styleUrl>
            <LineString id="79073">
                <coordinates>107.711222,-6.9277829,0.0 107.7111382,-6.9275533,0.0 107.7110629,-6.9272747,0.0 107.7110373,-6.9271888,0.0 107.7110298,-6.92715,0.0</coordinates>
            </LineString>
        </Placemark>
        <Placemark id="79078">
            <name>Jalan Abdul Haris Nasution</name>
            <styleUrl>#79079</styleUrl>
            <LineString id="79077">
                <coordinates>107.7110298,-6.92715,0.0 107.7109746,-6.9268971,0.0 107.7108912,-6.9265281,0.0 107.7108296,-6.9262557,0.0 107.7108174,-6.926202,0.0</coordinates>
            </LineString>
        </Placemark>
        <Placemark id="79082">
            <name>Jalan Abdul Haris Nasution</name>
            <styleUrl>#79083</styleUrl>
            <LineString id="79081">
                <coordinates>107.6707829,-6.9042441,0.0 107.6704035,-6.9042416,0.0 107.6703958,-6.9042415,0.0 107.6703697,-6.9042409,0.0 107.6698686,-6.90423,0.0 107.6697908,-6.9042283,0.0 107.6696962,-6.9042263,0.0 107.6695292,-6.9042216,0.0 107.6694301,-6.9042204,0.0 107.6693203,-6.904218,0.0 107.669297,-6.904218,0.0 107.6682617,-6.9042099,0.0 107.6679175,-6.9042041,0.0 107.6674966,-6.904197,0.0 107.6673559,-6.9041911,0.0 107.6672663,-6.9041863,0.0 107.6671896,-6.904182,0.0 107.6670084,-6.9041694,0.0 107.6669959,-6.9041686,0.0</coordinates>
            </LineString>
        </Placemark>
        <Placemark id="79086">
            <name>Jalan Abdul Haris Nasution</name>
            <styleUrl>#79087</styleUrl>
            <LineString id="79085">
                <coordinates>107.6776188,-6.9047757,0.0 107.6768299,-6.9047612,0.0 107.6767644,-6.904761,0.0 107.6766915,-6.9047603,0.0 107.6762912,-6.9047592,0.0 107.6761879,-6.9047512,0.0 107.6761367,-6.9047453,0.0 107.6760408,-6.9047386,0.0 107.6759315,-6.904729,0.0 107.6758598,-6.9047223,0.0 107.6757646,-6.9047133,0.0 107.6756859,-6.9047059,0.0 107.6754896,-6.9046807,0.0</coordinates>
            </LineString>
        </Placemark>
        <Placemark id="79090">
            <name>Jalan Abdul Haris Nasution</name>
            <styleUrl>#79091</styleUrl>
            <LineString id="79089">
                <coordinates>107.6754896,-6.9046807,0.0 107.6752663,-6.9046521,0.0 107.6750782,-6.9046278,0.0 107.6750423,-6.9046232,0.0 107.6750064,-6.9046182,0.0 107.674919,-6.904606,0.0 107.674832,-6.9045989,0.0 107.674651,-6.9045858,0.0 107.6744895,-6.9045944,0.0 107.6743694,-6.9046205,0.0 107.6742699,-6.9046459,0.0 107.6742142,-6.9046579,0.0 107.6739286,-6.9047317,0.0 107.6737776,-6.904767,0.0 107.6735618,-6.9048174,0.0 107.6734145,-6.9048521,0.0 107.6731822,-6.9049099,0.0</coordinates>
            </LineString>
        </Placemark>
        <Placemark id="79094">
            <name>Jalan Abdul Haris Nasution</name>
            <styleUrl>#79095</styleUrl>
            <LineString id="79093">
                <coordinates>107.6793999,-6.9049829,0.0 107.6793873,-6.9049801,0.0 107.6788554,-6.904916,0.0 107.6786894,-6.904896,0.0 107.6782995,-6.9048547,0.0 107.6780053,-6.9048194,0.0 107.677838,-6.904799,0.0 107.6776188,-6.9047757,0.0</coordinates>
            </LineString>
        </Placemark>
        <Placemark id="79098">
            <name>Jalan Abdul Haris Nasution</name>
            <styleUrl>#79099</styleUrl>
            <LineString id="79097">
                <coordinates>107.6802419,-6.9051046,0.0 107.6795138,-6.9049983,0.0 107.6794782,-6.9049937,0.0</coordinates>
            </LineString>
        </Placemark>
        <Placemark id="79102">
            <name>Jalan Abdul Haris Nasution</name>
            <styleUrl>#79103</styleUrl>
            <LineString id="79101">
                <coordinates>107.6853357,-6.9069314,0.0 107.6843353,-6.9065056,0.0 107.6841297,-6.9064181,0.0 107.684105,-6.9064076,0.0 107.6837696,-6.9062623,0.0 107.6835798,-6.9061801,0.0 107.6833223,-6.9060645,0.0 107.6828062,-6.9058327,0.0 107.6821902,-6.9055473,0.0 107.6821363,-6.9055223,0.0 107.6820608,-6.90548,0.0</coordinates>
            </LineString>
        </Placemark>
        <Placemark id="79106">
            <name>Jalan Abdul Haris Nasution</name>
            <styleUrl>#79107</styleUrl>
            <LineString id="79105">
                <coordinates>107.6861292,-6.9072788,0.0 107.6860885,-6.9072625,0.0 107.6859727,-6.9072111,0.0 107.685821,-6.9071438,0.0 107.6856912,-6.907087,0.0 107.6853357,-6.9069314,0.0</coordinates>
            </LineString>
        </Placemark>
        <Placemark id="79110">
            <name>Jalan Abdul Haris Nasution</name>
            <styleUrl>#79111</styleUrl>
            <LineString id="79109">
                <coordinates>107.6904642,-6.9114295,0.0 107.6902863,-6.9112063,0.0 107.6898481,-6.9107388,0.0 107.6897602,-6.910638,0.0</coordinates>
            </LineString>
        </Placemark>
        <Placemark id="79114">
            <name>Jalan Abdul Haris Nasution</name>
            <styleUrl>#79115</styleUrl>
            <LineString id="79113">
                <coordinates>107.6910003,-6.9120482,0.0 107.6904642,-6.9114295,0.0</coordinates>
            </LineString>
        </Placemark>
        <Placemark id="79118">
            <name>Jalan Abdul Haris Nasution</name>
            <styleUrl>#79119</styleUrl>
            <LineString id="79117">
                <coordinates>107.691339,-6.9122714,0.0 107.6910003,-6.9120482,0.0</coordinates>
            </LineString>
        </Placemark>
        <Placemark id="79122">
            <name>Jalan Abdul Haris Nasution</name>
            <styleUrl>#79123</styleUrl>
            <LineString id="79121">
                <coordinates>107.6922664,-6.9126036,0.0 107.6921235,-6.912553,0.0 107.6917134,-6.9124105,0.0 107.6915575,-6.9123564,0.0</coordinates>
            </LineString>
        </Placemark>
        <Placemark id="79126">
            <name>Jalan Raya Cibiru</name>
            <styleUrl>#79127</styleUrl>
            <LineString id="79125">
                <coordinates>107.7178073,-6.9347559,0.0 107.7181983,-6.934877,0.0 107.7182965,-6.9349114,0.0</coordinates>
            </LineString>
        </Placemark>
        <Placemark id="79130">
            <name>Jalan Raya Cibiru</name>
            <styleUrl>#79131</styleUrl>
            <LineString id="79129">
                <coordinates>107.7190343,-6.9349399,0.0 107.719576,-6.9348234,0.0 107.7197006,-6.9348205,0.0</coordinates>
            </LineString>
        </Placemark>
        <Placemark id="79134">
            <name>Jalan Abdul Haris Nasution</name>
            <styleUrl>#79135</styleUrl>
            <LineString id="79133">
                <coordinates>107.6897602,-6.910638,0.0 107.6896681,-6.9104993,0.0 107.6895516,-6.9103253,0.0</coordinates>
            </LineString>
        </Placemark>
        <Placemark id="79138">
            <name>Jalan Sindangsari</name>
            <styleUrl>#79139</styleUrl>
            <LineString id="79137">
                <coordinates>107.756603,-6.938276,0.0 107.7566936,-6.9387104,0.0 107.7567119,-6.9387919,0.0 107.7567382,-6.9389134,0.0</coordinates>
            </LineString>
        </Placemark>
        <Placemark id="79142">
            <name>Jalan Raya Cileunyi</name>
            <styleUrl>#79143</styleUrl>
            <LineString id="79141">
                <coordinates>107.7501915,-6.9400812,0.0 107.7504316,-6.9401054,0.0</coordinates>
            </LineString>
        </Placemark>
        <Placemark id="79146">
            <name>Jalan Raya Cileunyi</name>
            <styleUrl>#79147</styleUrl>
            <LineString id="79145">
                <coordinates>107.7489106,-6.9392402,0.0 107.7497545,-6.939944,0.0 107.7498735,-6.940004,0.0</coordinates>
            </LineString>
        </Placemark>
        <Placemark id="79150">
            <name>Jalan Raya Cileunyi</name>
            <styleUrl>#79151</styleUrl>
            <LineString id="79149">
                <coordinates>107.7498735,-6.940004,0.0 107.7499963,-6.9400502,0.0 107.7501915,-6.9400812,0.0</coordinates>
            </LineString>
        </Placemark>
        <Placemark id="79154">
            <name>Jalan Abdul Haris Nasution</name>
            <styleUrl>#79155</styleUrl>
            <LineString id="79153">
                <coordinates>107.7026869,-6.9141869,0.0 107.7027899,-6.914196,0.0</coordinates>
            </LineString>
        </Placemark>
        <Placemark id="79158">
            <name>Jalan Raya Cinunuk</name>
            <styleUrl>#79159</styleUrl>
            <LineString id="79157">
                <coordinates>107.7322323,-6.9376474,0.0 107.732179,-6.9376234,0.0</coordinates>
            </LineString>
        </Placemark>
        <Placemark id="79162">
            <name>Jalan Raya Cinunuk</name>
            <styleUrl>#79163</styleUrl>
            <LineString id="79161">
                <coordinates>107.732179,-6.9376234,0.0 107.7321361,-6.9376048,0.0 107.7320931,-6.9375862,0.0</coordinates>
            </LineString>
        </Placemark>
        <Placemark id="79166">
            <name>Jalan Raya Cinunuk</name>
            <styleUrl>#79167</styleUrl>
            <LineString id="79165">
                <coordinates>107.7291448,-6.9363331,0.0 107.7292319,-6.936367,0.0</coordinates>
            </LineString>
        </Placemark>
        <Placemark id="79170">
            <name>Jalan Raya Cinunuk</name>
            <styleUrl>#79171</styleUrl>
            <LineString id="79169">
                <coordinates>107.7292319,-6.936367,0.0 107.7292686,-6.9363857,0.0 107.7293518,-6.9364184,0.0</coordinates>
            </LineString>
        </Placemark>
        <Placemark id="79174">
            <name>Jalan Abdul Haris Nasution</name>
            <styleUrl>#79175</styleUrl>
            <LineString id="79173">
                <coordinates>107.7157864,-6.9324104,0.0 107.7157786,-6.9324011,0.0</coordinates>
            </LineString>
        </Placemark>
        <Placemark id="79178">
            <name>Jalan Abdul Haris Nasution</name>
            <styleUrl>#79179</styleUrl>
            <LineString id="79177">
                <coordinates>107.7157786,-6.9324011,0.0 107.7157619,-6.9323861,0.0 107.7157532,-6.9323756,0.0 107.715715,-6.9323492,0.0 107.7156419,-6.9322979,0.0 107.7154877,-6.9322269,0.0 107.7150804,-6.9320683,0.0 107.7147971,-6.9319602,0.0 107.7144361,-6.931864,0.0</coordinates>
            </LineString>
        </Placemark>
        <Placemark id="79182">
            <name>Jalan Abdul Haris Nasution</name>
            <styleUrl>#79183</styleUrl>
            <LineString id="79181">
                <coordinates>107.7163132,-6.9335177,0.0 107.7162048,-6.9332581,0.0 107.7160864,-6.9329795,0.0 107.71606,-6.9329174,0.0 107.7159624,-6.9327255,0.0 107.7158508,-6.9324896,0.0 107.7158334,-6.9324655,0.0 107.7158159,-6.9324414,0.0 107.715812,-6.9324371,0.0 107.7157864,-6.9324104,0.0</coordinates>
            </LineString>
        </Placemark>
        <Placemark id="79186">
            <name>Bunderan Cibiru</name>
            <styleUrl>#79187</styleUrl>
            <LineString id="79185">
                <coordinates>107.7177552,-6.9347327,0.0 107.7178073,-6.9347559,0.0</coordinates>
            </LineString>
        </Placemark>
        <Placemark id="79190">
            <name>Route Segment</name>
            <styleUrl>#79191</styleUrl>
            <LineString id="79189">
                <coordinates>107.7540569,-6.9408199,0.0 107.7538374,-6.9405922,0.0 107.753818,-6.940561,0.0 107.7537775,-6.9405013,0.0 107.7537453,-6.9404081,0.0</coordinates>
            </LineString>
        </Placemark>
        <Placemark id="79194">
            <name>Jalan Raya Cinunuk</name>
            <styleUrl>#79195</styleUrl>
            <LineString id="79193">
                <coordinates>107.7322724,-6.9376624,0.0 107.7322323,-6.9376474,0.0</coordinates>
            </LineString>
        </Placemark>
        <Placemark id="79198">
            <name>Jalan Abdul Haris Nasution</name>
            <styleUrl>#79199</styleUrl>
            <LineString id="79197">
                <coordinates>107.716645,-6.9341714,0.0 107.7165819,-6.9340902,0.0 107.7165159,-6.9339808,0.0 107.7163829,-6.9336847,0.0 107.7163132,-6.9335177,0.0</coordinates>
            </LineString>
        </Placemark>
        <Placemark id="79202">
            <name>Jalan Abdul Haris Nasution</name>
            <styleUrl>#79203</styleUrl>
            <LineString id="79201">
                <coordinates>107.7168924,-6.9343331,0.0 107.7168218,-6.9343013,0.0 107.7166946,-6.9342108,0.0 107.716645,-6.9341714,0.0</coordinates>
            </LineString>
        </Placemark>
        <Placemark id="79206">
            <name>Jalan Abdul Haris Nasution</name>
            <styleUrl>#79207</styleUrl>
            <LineString id="79205">
                <coordinates>107.7197006,-6.9348205,0.0 107.7198341,-6.9347993,0.0 107.7199175,-6.934786,0.0 107.7202866,-6.9347224,0.0 107.7203229,-6.9347131,0.0 107.7203848,-6.9347037,0.0 107.7207772,-6.9346359,0.0 107.7209059,-6.9345961,0.0 107.7211706,-6.9344846,0.0 107.7211896,-6.9344756,0.0 107.7214743,-6.9343315,0.0 107.7215528,-6.9342906,0.0 107.7217658,-6.9341795,0.0 107.7219508,-6.9340884,0.0</coordinates>
            </LineString>
        </Placemark>
        <Placemark id="79210">
            <name>Jalan Raya Cibiru</name>
            <styleUrl>#79211</styleUrl>
            <LineString id="79209">
                <coordinates>107.7219508,-6.9340884,0.0 107.7220243,-6.9340522,0.0</coordinates>
            </LineString>
        </Placemark>
        <Placemark id="79214">
            <name>Jalan Raya Cibiru</name>
            <styleUrl>#79215</styleUrl>
            <LineString id="79213">
                <coordinates>107.7220243,-6.9340522,0.0 107.722282,-6.9339252,0.0 107.7225917,-6.9337598,0.0 107.7226921,-6.9337043,0.0 107.723025,-6.933527,0.0</coordinates>
            </LineString>
        </Placemark>
        <Placemark id="79218">
            <name>Seberang Terminal Cicaheum</name>
            <styleUrl>#79219</styleUrl>
            <Point id="79217">
                <coordinates>107.6567969,-6.9021302,0.0</coordinates>
            </Point>
        </Placemark>
        <Placemark id="79223">
            <name>Pasar Cileunyi</name>
            <styleUrl>#79224</styleUrl>
            <Point id="79222">
                <coordinates>107.7537453,-6.9404081,0.0</coordinates>
            </Point>
        </Placemark>
    </Document>
</kml>
