<?xml version="1.0" encoding="UTF-8"?>
<kml xmlns="http://www.opengis.net/kml/2.2" xmlns:gx="http://www.google.com/kml/ext/2.2">
    <Document id="78990">
        <Style id="78996">
            <IconStyle id="78997">
                <colorMode>normal</colorMode>
                <scale>1</scale>
                <heading>0</heading>
                <Icon id="78998">
                    <href>http://maps.google.com/mapfiles/kml/pushpin/ylw-pushpin.png</href>
                </Icon>
            </IconStyle>
        </Style>
        <Style id="79001">
            <IconStyle id="79002">
                <colorMode>normal</colorMode>
                <scale>1</scale>
                <heading>0</heading>
                <Icon id="79003">
                    <href>http://maps.google.com/mapfiles/kml/pushpin/ylw-pushpin.png</href>
                </Icon>
            </IconStyle>
        </Style>
        <Style id="79006">
            <LineStyle id="79007">
                <color>ff356615</color>
                <colorMode>normal</colorMode>
                <width>4</width>
            </LineStyle>
        </Style>
        <Style id="79010">
            <LineStyle id="79011">
                <color>ff356615</color>
                <colorMode>normal</colorMode>
                <width>4</width>
            </LineStyle>
        </Style>
        <Style id="79014">
            <LineStyle id="79015">
                <color>ff356615</color>
                <colorMode>normal</colorMode>
                <width>4</width>
            </LineStyle>
        </Style>
        <Style id="79018">
            <LineStyle id="79019">
                <color>ff356615</color>
                <colorMode>normal</colorMode>
                <width>4</width>
            </LineStyle>
        </Style>
        <Style id="79022">
            <LineStyle id="79023">
                <color>ff356615</color>
                <colorMode>normal</colorMode>
                <width>4</width>
            </LineStyle>
        </Style>
        <Style id="79026">
            <LineStyle id="79027">
                <color>ff356615</color>
                <colorMode>normal</colorMode>
                <width>4</width>
            </LineStyle>
        </Style>
        <Style id="79030">
            <LineStyle id="79031">
                <color>ff356615</color>
                <colorMode>normal</colorMode>
                <width>4</width>
            </LineStyle>
        </Style>
        <Style id="79034">
            <LineStyle id="79035">
                <color>ff356615</color>
                <colorMode>normal</colorMode>
                <width>4</width>
            </LineStyle>
        </Style>
        <Style id="79038">
            <LineStyle id="79039">
                <color>ff356615</color>
                <colorMode>normal</colorMode>
                <width>4</width>
            </LineStyle>
        </Style>
        <Style id="79042">
            <LineStyle id="79043">
                <color>ff356615</color>
                <colorMode>normal</colorMode>
                <width>4</width>
            </LineStyle>
        </Style>
        <Style id="79046">
            <LineStyle id="79047">
                <color>ff356615</color>
                <colorMode>normal</colorMode>
                <width>4</width>
            </LineStyle>
        </Style>
        <Style id="79050">
            <LineStyle id="79051">
                <color>ff356615</color>
                <colorMode>normal</colorMode>
                <width>4</width>
            </LineStyle>
        </Style>
        <Style id="79054">
            <LineStyle id="79055">
                <color>ff356615</color>
                <colorMode>normal</colorMode>
                <width>4</width>
            </LineStyle>
        </Style>
        <Style id="79058">
            <LineStyle id="79059">
                <color>ff356615</color>
                <colorMode>normal</colorMode>
                <width>4</width>
            </LineStyle>
        </Style>
        <Style id="79062">
            <LineStyle id="79063">
                <color>ff356615</color>
                <colorMode>normal</colorMode>
                <width>4</width>
            </LineStyle>
        </Style>
        <Style id="79066">
            <LineStyle id="79067">
                <color>ff356615</color>
                <colorMode>normal</colorMode>
                <width>4</width>
            </LineStyle>
        </Style>
        <Style id="79070">
            <LineStyle id="79071">
                <color>ff356615</color>
                <colorMode>normal</colorMode>
                <width>4</width>
            </LineStyle>
        </Style>
        <Style id="79074">
            <LineStyle id="79075">
                <color>ff356615</color>
                <colorMode>normal</colorMode>
                <width>4</width>
            </LineStyle>
        </Style>
        <Style id="79078">
            <LineStyle id="79079">
                <color>ff356615</color>
                <colorMode>normal</colorMode>
                <width>4</width>
            </LineStyle>
        </Style>
        <Style id="79082">
            <LineStyle id="79083">
                <color>ff356615</color>
                <colorMode>normal</colorMode>
                <width>4</width>
            </LineStyle>
        </Style>
        <Style id="79086">
            <LineStyle id="79087">
                <color>ff356615</color>
                <colorMode>normal</colorMode>
                <width>4</width>
            </LineStyle>
        </Style>
        <Style id="79090">
            <LineStyle id="79091">
                <color>ff356615</color>
                <colorMode>normal</colorMode>
                <width>4</width>
            </LineStyle>
        </Style>
        <Style id="79094">
            <LineStyle id="79095">
                <color>ff356615</color>
                <colorMode>normal</colorMode>
                <width>4</width>
            </LineStyle>
        </Style>
        <Style id="79098">
            <LineStyle id="79099">
                <color>ff356615</color>
                <colorMode>normal</colorMode>
                <width>4</width>
            </LineStyle>
        </Style>
        <Style id="79102">
            <LineStyle id="79103">
                <color>ff356615</color>
                <colorMode>normal</colorMode>
                <width>4</width>
            </LineStyle>
        </Style>
        <Style id="79106">
            <LineStyle id="79107">
                <color>ff356615</color>
                <colorMode>normal</colorMode>
                <width>4</width>
            </LineStyle>
        </Style>
        <Style id="79110">
            <LineStyle id="79111">
                <color>ff356615</color>
                <colorMode>normal</colorMode>
                <width>4</width>
            </LineStyle>
        </Style>
        <Style id="79114">
            <LineStyle id="79115">
                <color>ff356615</color>
                <colorMode>normal</colorMode>
                <width>4</width>
            </LineStyle>
        </Style>
        <Style id="79118">
            <LineStyle id="79119">
                <color>ff356615</color>
                <colorMode>normal</colorMode>
                <width>4</width>
            </LineStyle>
        </Style>
        <Style id="79122">
            <LineStyle id="79123">
                <color>ff356615</color>
                <colorMode>normal</colorMode>
                <width>4</width>
            </LineStyle>
        </Style>
        <Style id="79126">
            <LineStyle id="79127">
                <color>ff356615</color>
                <colorMode>normal</colorMode>
                <width>4</width>
            </LineStyle>
        </Style>
        <Style id="79130">
            <LineStyle id="79131">
                <color>ff356615</color>
                <colorMode>normal</colorMode>
                <width>4</width>
            </LineStyle>
        </Style>
        <Style id="79134">
            <LineStyle id="79135">
                <color>ff356615</color>
                <colorMode>normal</colorMode>
                <width>4</width>
            </LineStyle>
        </Style>
        <Style id="79138">
            <LineStyle id="79139">
                <color>ff356615</color>
                <colorMode>normal</colorMode>
                <width>4</width>
            </LineStyle>
        </Style>
        <Style id="79142">
            <LineStyle id="79143">
                <color>ff356615</color>
                <colorMode>normal</colorMode>
                <width>4</width>
            </LineStyle>
        </Style>
        <Style id="79146">
            <LineStyle id="79147">
                <color>ff356615</color>
                <colorMode>normal</colorMode>
                <width>4</width>
            </LineStyle>
        </Style>
        <Style id="79150">
            <LineStyle id="79151">
                <color>ff356615</color>
                <colorMode>normal</colorMode>
                <width>4</width>
            </LineStyle>
        </Style>
        <Style id="79154">
            <LineStyle id="79155">
                <color>ff356615</color>
                <colorMode>normal</colorMode>
                <width>4</width>
            </LineStyle>
        </Style>
        <Style id="79158">
            <LineStyle id="79159">
                <color>ff356615</color>
                <colorMode>normal</colorMode>
                <width>4</width>
            </LineStyle>
        </Style>
        <Style id="79162">
            <LineStyle id="79163">
                <color>ff356615</color>
                <colorMode>normal</colorMode>
                <width>4</width>
            </LineStyle>
        </Style>
        <Style id="79166">
            <LineStyle id="79167">
                <color>ff356615</color>
                <colorMode>normal</colorMode>
                <width>4</width>
            </LineStyle>
        </Style>
        <Style id="79170">
            <LineStyle id="79171">
                <color>ff356615</color>
                <colorMode>normal</colorMode>
                <width>4</width>
            </LineStyle>
        </Style>
        <Style id="79174">
            <LineStyle id="79175">
                <color>ff356615</color>
                <colorMode>normal</colorMode>
                <width>4</width>
            </LineStyle>
        </Style>
        <Style id="79178">
            <LineStyle id="79179">
                <color>ff356615</color>
                <colorMode>normal</colorMode>
                <width>4</width>
            </LineStyle>
        </Style>
        <Style id="79182">
            <LineStyle id="79183">
                <color>ff356615</color>
                <colorMode>normal</colorMode>
                <width>4</width>
            </LineStyle>
        </Style>
        <Style id="79186">
            <LineStyle id="79187">
                <color>ff356615</color>
                <colorMode>normal</colorMode>
                <width>4</width>
            </LineStyle>
        </Style>
        <Style id="79190">
            <LineStyle id="79191">
                <color>ff356615</color>
                <colorMode>normal</colorMode>
                <width>4</width>
            </LineStyle>
        </Style>
        <Style id="79194">
            <LineStyle id="79195">
                <color>ff356615</color>
                <colorMode>normal</colorMode>
                <width>4</width>
            </LineStyle>
        </Style>
        <Style id="79198">
            <LineStyle id="79199">
                <color>ff356615</color>
                <colorMode>normal</colorMode>
                <width>4</width>
            </LineStyle>
        </Style>
        <Style id="79202">
            <LineStyle id="79203">
                <color>ff356615</color>
                <colorMode>normal</colorMode>
                <width>4</width>
            </LineStyle>
        </Style>
        <Style id="79206">
            <LineStyle id="79207">
                <color>ff356615</color>
                <colorMode>normal</colorMode>
                <width>4</width>
            </LineStyle>
        </Style>
        <Style id="79210">
            <LineStyle id="79211">
                <color>ff356615</color>
                <colorMode>normal</colorMode>
                <width>4</width>
            </LineStyle>
        </Style>
        <Style id="79214">
            <LineStyle id="79215">
                <color>ff356615</color>
                <colorMode>normal</colorMode>
                <width>4</width>
            </LineStyle>
        </Style>
        <Style id="79218">
            <LineStyle id="79219">
                <color>ff356615</color>
                <colorMode>normal</colorMode>
                <width>4</width>
            </LineStyle>
        </Style>
        <Style id="79222">
            <LineStyle id="79223">
                <color>ff356615</color>
                <colorMode>normal</colorMode>
                <width>4</width>
            </LineStyle>
        </Style>
        <Style id="79226">
            <LineStyle id="79227">
                <color>ff356615</color>
                <colorMode>normal</colorMode>
                <width>4</width>
            </LineStyle>
        </Style>
        <Style id="79230">
            <LineStyle id="79231">
                <color>ff356615</color>
                <colorMode>normal</colorMode>
                <width>4</width>
            </LineStyle>
        </Style>
        <Style id="79234">
            <LineStyle id="79235">
                <color>ff356615</color>
                <colorMode>normal</colorMode>
                <width>4</width>
            </LineStyle>
        </Style>
        <Style id="79238">
            <LineStyle id="79239">
                <color>ff356615</color>
                <colorMode>normal</colorMode>
                <width>4</width>
            </LineStyle>
        </Style>
        <Style id="79242">
            <LineStyle id="79243">
                <color>ff356615</color>
                <colorMode>normal</colorMode>
                <width>4</width>
            </LineStyle>
        </Style>
        <Style id="79246">
            <LineStyle id="79247">
                <color>ff356615</color>
                <colorMode>normal</colorMode>
                <width>4</width>
            </LineStyle>
        </Style>
        <Style id="79250">
            <LineStyle id="79251">
                <color>ff356615</color>
                <colorMode>normal</colorMode>
                <width>4</width>
            </LineStyle>
        </Style>
        <Style id="79254">
            <LineStyle id="79255">
                <color>ff356615</color>
                <colorMode>normal</colorMode>
                <width>4</width>
            </LineStyle>
        </Style>
        <Style id="79258">
            <LineStyle id="79259">
                <color>ff356615</color>
                <colorMode>normal</colorMode>
                <width>4</width>
            </LineStyle>
        </Style>
        <Style id="79262">
            <LineStyle id="79263">
                <color>ff356615</color>
                <colorMode>normal</colorMode>
                <width>4</width>
            </LineStyle>
        </Style>
        <Style id="79266">
            <LineStyle id="79267">
                <color>ff356615</color>
                <colorMode>normal</colorMode>
                <width>4</width>
            </LineStyle>
        </Style>
        <Style id="79270">
            <LineStyle id="79271">
                <color>ff356615</color>
                <colorMode>normal</colorMode>
                <width>4</width>
            </LineStyle>
        </Style>
        <Style id="79274">
            <LineStyle id="79275">
                <color>ff356615</color>
                <colorMode>normal</colorMode>
                <width>4</width>
            </LineStyle>
        </Style>
        <Style id="79278">
            <LineStyle id="79279">
                <color>ff356615</color>
                <colorMode>normal</colorMode>
                <width>4</width>
            </LineStyle>
        </Style>
        <Style id="79282">
            <LineStyle id="79283">
                <color>ff356615</color>
                <colorMode>normal</colorMode>
                <width>4</width>
            </LineStyle>
        </Style>
        <Style id="79286">
            <LineStyle id="79287">
                <color>ff356615</color>
                <colorMode>normal</colorMode>
                <width>4</width>
            </LineStyle>
        </Style>
        <Style id="79290">
            <LineStyle id="79291">
                <color>ff356615</color>
                <colorMode>normal</colorMode>
                <width>4</width>
            </LineStyle>
        </Style>
        <Style id="79294">
            <LineStyle id="79295">
                <color>ff356615</color>
                <colorMode>normal</colorMode>
                <width>4</width>
            </LineStyle>
        </Style>
        <Style id="79298">
            <LineStyle id="79299">
                <color>ff356615</color>
                <colorMode>normal</colorMode>
                <width>4</width>
            </LineStyle>
        </Style>
        <Style id="79302">
            <LineStyle id="79303">
                <color>ff356615</color>
                <colorMode>normal</colorMode>
                <width>4</width>
            </LineStyle>
        </Style>
        <Style id="79306">
            <LineStyle id="79307">
                <color>ff356615</color>
                <colorMode>normal</colorMode>
                <width>4</width>
            </LineStyle>
        </Style>
        <Style id="79310">
            <LineStyle id="79311">
                <color>ff356615</color>
                <colorMode>normal</colorMode>
                <width>4</width>
            </LineStyle>
        </Style>
        <Style id="79314">
            <LineStyle id="79315">
                <color>ff356615</color>
                <colorMode>normal</colorMode>
                <width>4</width>
            </LineStyle>
        </Style>
        <Style id="79318">
            <LineStyle id="79319">
                <color>ff356615</color>
                <colorMode>normal</colorMode>
                <width>4</width>
            </LineStyle>
        </Style>
        <Style id="79322">
            <LineStyle id="79323">
                <color>ff356615</color>
                <colorMode>normal</colorMode>
                <width>4</width>
            </LineStyle>
        </Style>
        <Style id="79326">
            <LineStyle id="79327">
                <color>ff356615</color>
                <colorMode>normal</colorMode>
                <width>4</width>
            </LineStyle>
        </Style>
        <Style id="79330">
            <LineStyle id="79331">
                <color>ff356615</color>
                <colorMode>normal</colorMode>
                <width>4</width>
            </LineStyle>
        </Style>
        <ExtendedData>
            <Data name="route-name">
                <value>010: Cileunyi → Cicaheum</value>
            </Data>
            <Data name="source">
                <value>Transport for Bandung</value>
            </Data>
        </ExtendedData>
        <Placemark id="78995">
            <name>Pasar Cileunyi</name>
            <styleUrl>#78996</styleUrl>
            <Point id="78994">
                <coordinates>107.7537453,-6.9404081,0.0</coordinates>
            </Point>
        </Placemark>
        <Placemark id="79000">
            <name>Depan Terminal Cicaheum</name>
            <styleUrl>#79001</styleUrl>
            <Point id="78999">
                <coordinates>107.6568007,-6.9022123,0.0</coordinates>
            </Point>
        </Placemark>
        <Placemark id="79005">
            <name>Jalan Abdul Haris Nasution</name>
            <styleUrl>#79006</styleUrl>
            <LineString id="79004">
                <coordinates>107.713642,-6.931656,0.0 107.7135608,-6.9316361,0.0 107.7134679,-6.931607,0.0 107.7133783,-6.931568,0.0 107.7132823,-6.9315111,0.0 107.7131664,-6.9314439,0.0 107.7129924,-6.9313164,0.0 107.7129059,-6.9312326,0.0 107.7128285,-6.9311385,0.0 107.7127799,-6.9310665,0.0 107.7127256,-6.9309615,0.0 107.7126092,-6.9307285,0.0 107.7125695,-6.930649,0.0 107.7123462,-6.9302127,0.0 107.7122556,-6.9300335,0.0 107.7121931,-6.929892,0.0 107.7121855,-6.929877,0.0 107.7119967,-6.9294743,0.0 107.7118609,-6.9291887,0.0 107.7118278,-6.9291134,0.0 107.7117984,-6.9290507,0.0 107.7116604,-6.928757,0.0 107.7113962,-6.9281945,0.0 107.7112515,-6.9278637,0.0 107.711222,-6.9277829,0.0</coordinates>
            </LineString>
        </Placemark>
        <Placemark id="79009">
            <name>Jalan Abdul Haris Nasution</name>
            <styleUrl>#79010</styleUrl>
            <LineString id="79008">
                <coordinates>107.7171463,-6.9344338,0.0 107.7168924,-6.9343331,0.0</coordinates>
            </LineString>
        </Placemark>
        <Placemark id="79013">
            <name>Jalan Raya Cibiru</name>
            <styleUrl>#79014</styleUrl>
            <LineString id="79012">
                <coordinates>107.723025,-6.933527,0.0 107.7236581,-6.9332035,0.0 107.7239735,-6.9330533,0.0 107.7241527,-6.9329826,0.0 107.7242508,-6.9329639,0.0 107.7243536,-6.9329703,0.0 107.7245223,-6.9329888,0.0 107.7246554,-6.9330122,0.0 107.7247929,-6.9330363,0.0 107.7250475,-6.9330943,0.0 107.7253078,-6.9331296,0.0 107.725421,-6.9331288,0.0 107.7256228,-6.9331024,0.0 107.7258154,-6.9330625,0.0 107.725958,-6.9330356,0.0 107.7260557,-6.9330369,0.0 107.7261566,-6.9330411,0.0 107.7262662,-6.9330558,0.0 107.7263304,-6.9330795,0.0 107.7266764,-6.9332179,0.0 107.7269811,-6.9333597,0.0 107.7273996,-6.9335849,0.0 107.7277625,-6.9338098,0.0 107.7279053,-6.9339437,0.0 107.7279922,-6.9340554,0.0 107.7280582,-6.9341494,0.0 107.7281157,-6.9342553,0.0 107.7281681,-6.9344058,0.0 107.7282015,-6.9346302,0.0 107.7282133,-6.9347685,0.0 107.7282361,-6.9352455,0.0 107.7282392,-6.9353708,0.0 107.7282655,-6.935551,0.0</coordinates>
            </LineString>
        </Placemark>
        <Placemark id="79017">
            <name>Jalan Raya Cileunyi</name>
            <styleUrl>#79018</styleUrl>
            <LineString id="79016">
                <coordinates>107.7523492,-6.9395225,0.0 107.7522994,-6.9395756,0.0 107.7522538,-6.9396339,0.0 107.7521865,-6.9397272,0.0 107.7521106,-6.9398122,0.0 107.7520239,-6.9398717,0.0 107.7519327,-6.939914,0.0 107.7518448,-6.9399409,0.0 107.7517633,-6.9399613,0.0 107.7517158,-6.9399731,0.0 107.7513485,-6.9400136,0.0 107.750995,-6.9400491,0.0 107.7504316,-6.9401054,0.0</coordinates>
            </LineString>
        </Placemark>
        <Placemark id="79021">
            <name>Jalan Abdul Haris Nasution</name>
            <styleUrl>#79022</styleUrl>
            <LineString id="79020">
                <coordinates>107.6731822,-6.9049099,0.0 107.6730663,-6.9049324,0.0 107.6729204,-6.9049231,0.0 107.6727971,-6.9048983,0.0 107.6726502,-6.9048495,0.0 107.6725166,-6.9047911,0.0 107.6723982,-6.9047336,0.0 107.672335,-6.9046989,0.0 107.6721798,-6.9046133,0.0 107.6720002,-6.9045193,0.0 107.6718533,-6.9044513,0.0 107.6718052,-6.9044291,0.0 107.671782,-6.9044186,0.0 107.6717285,-6.9043943,0.0 107.6714589,-6.9042963,0.0 107.6713547,-6.9042719,0.0 107.6712605,-6.9042516,0.0 107.671153,-6.9042417,0.0 107.6710571,-6.9042413,0.0 107.6709567,-6.9042404,0.0 107.6707829,-6.9042441,0.0</coordinates>
            </LineString>
        </Placemark>
        <Placemark id="79025">
            <name>Jalan Abdul Haris Nasution</name>
            <styleUrl>#79026</styleUrl>
            <LineString id="79024">
                <coordinates>107.6981324,-6.9140614,0.0 107.6978409,-6.9140523,0.0 107.6977578,-6.9140498,0.0 107.6967586,-6.91402,0.0 107.6966396,-6.9139937,0.0 107.6955657,-6.9136497,0.0 107.6953324,-6.913575,0.0 107.6950984,-6.9135008,0.0 107.6950575,-6.9134879,0.0 107.6940999,-6.9131835,0.0 107.6940118,-6.9131572,0.0 107.6939237,-6.9131308,0.0 107.6938253,-6.9131006,0.0 107.6937275,-6.9130705,0.0 107.6932002,-6.9128981,0.0 107.6925681,-6.9126992,0.0 107.6922664,-6.9126036,0.0</coordinates>
            </LineString>
        </Placemark>
        <Placemark id="79029">
            <name>Jalan Jenderal Ahmad Yani</name>
            <styleUrl>#79030</styleUrl>
            <LineString id="79028">
                <coordinates>107.6593809,-6.9022862,0.0 107.6593327,-6.9022852,0.0 107.6591741,-6.9022823,0.0 107.6591239,-6.9022819,0.0 107.6589763,-6.9022795,0.0 107.6586773,-6.9022663,0.0 107.6581206,-6.9022388,0.0 107.657628,-6.9022233,0.0 107.6573116,-6.9022128,0.0</coordinates>
            </LineString>
        </Placemark>
        <Placemark id="79033">
            <name>Route Segment</name>
            <styleUrl>#79034</styleUrl>
            <LineString id="79032">
                <coordinates>107.7537453,-6.9404081,0.0 107.7537018,-6.9402543,0.0 107.7536586,-6.9401195,0.0 107.7536284,-6.9400362,0.0 107.7536203,-6.9400138,0.0 107.7535735,-6.93994,0.0 107.7535061,-6.9398592,0.0 107.7534342,-6.9398036,0.0 107.7529385,-6.9394875,0.0</coordinates>
            </LineString>
        </Placemark>
        <Placemark id="79037">
            <name>Jalan Raya Percobaan</name>
            <styleUrl>#79038</styleUrl>
            <LineString id="79036">
                <coordinates>107.7504316,-6.9401054,0.0 107.7502266,-6.9401323,0.0 107.7498523,-6.9401685,0.0 107.7493347,-6.9401945,0.0 107.749089,-6.9402068,0.0 107.7488602,-6.94022,0.0 107.7477654,-6.9403218,0.0 107.7474234,-6.9403429,0.0 107.7469648,-6.9403925,0.0 107.7466329,-6.9404267,0.0 107.7465803,-6.9404322,0.0 107.7463931,-6.9404554,0.0 107.7460165,-6.9405094,0.0 107.7453742,-6.9406046,0.0 107.7445209,-6.9407367,0.0 107.7442299,-6.9407794,0.0 107.7439338,-6.9408208,0.0 107.7438789,-6.940831,0.0 107.7438095,-6.9408418,0.0 107.7437478,-6.9408514,0.0 107.7433835,-6.9409071,0.0 107.7433688,-6.9409112,0.0 107.7432576,-6.9409284,0.0 107.7428908,-6.9409757,0.0 107.742792,-6.9409854,0.0 107.7423753,-6.9410449,0.0 107.7422272,-6.9410473,0.0 107.7417784,-6.9410802,0.0 107.7416633,-6.9410798,0.0 107.7415298,-6.9410708,0.0 107.7413965,-6.9410487,0.0 107.7411013,-6.9409402,0.0 107.7409915,-6.9408764,0.0 107.7407944,-6.94077,0.0 107.7406615,-6.9406829,0.0 107.7405167,-6.9405808,0.0</coordinates>
            </LineString>
        </Placemark>
        <Placemark id="79041">
            <name>Jalan Raya Percobaan</name>
            <styleUrl>#79042</styleUrl>
            <LineString id="79040">
                <coordinates>107.7396846,-6.9399765,0.0 107.7395983,-6.9399233,0.0 107.7393831,-6.9397851,0.0 107.7391715,-6.939632,0.0 107.7390535,-6.9395348,0.0</coordinates>
            </LineString>
        </Placemark>
        <Placemark id="79045">
            <name>Jalan Raya Cibiru</name>
            <styleUrl>#79046</styleUrl>
            <LineString id="79044">
                <coordinates>107.7190202,-6.9350439,0.0 107.7188839,-6.9351052,0.0 107.7187197,-6.9351655,0.0 107.7186276,-6.9351862,0.0 107.7185425,-6.9352053,0.0 107.7182706,-6.9352223,0.0</coordinates>
            </LineString>
        </Placemark>
        <Placemark id="79049">
            <name>Bunderan Cibiru</name>
            <styleUrl>#79050</styleUrl>
            <LineString id="79048">
                <coordinates>107.717711,-6.9352563,0.0 107.7176555,-6.9352554,0.0 107.7175989,-6.9352461,0.0 107.7175398,-6.935223,0.0 107.7174866,-6.9351847,0.0 107.7174442,-6.9351348,0.0 107.7174152,-6.9350763,0.0 107.7174013,-6.9350125,0.0 107.7174033,-6.9349473,0.0 107.7174158,-6.9348982,0.0</coordinates>
            </LineString>
        </Placemark>
        <Placemark id="79053">
            <name>Jalan Abdul Haris Nasution</name>
            <styleUrl>#79054</styleUrl>
            <LineString id="79052">
                <coordinates>107.6669959,-6.9041686,0.0 107.6668942,-6.9041612,0.0</coordinates>
            </LineString>
        </Placemark>
        <Placemark id="79057">
            <name>Jalan Abdul Haris Nasution</name>
            <styleUrl>#79058</styleUrl>
            <LineString id="79056">
                <coordinates>107.6668942,-6.9041612,0.0 107.6668619,-6.9041587,0.0 107.6668426,-6.9041581,0.0 107.6668057,-6.9041559,0.0 107.6667063,-6.9041501,0.0 107.6666336,-6.9041465,0.0 107.6662245,-6.9041035,0.0 107.6659777,-6.9040789,0.0 107.6656526,-6.9040466,0.0 107.6654785,-6.9040293,0.0 107.6653806,-6.9040176,0.0 107.6653339,-6.9040128,0.0 107.6652717,-6.9040063,0.0 107.6650321,-6.9039795,0.0 107.6649569,-6.9039704,0.0 107.664911,-6.903966,0.0 107.6647137,-6.9039446,0.0 107.6644048,-6.9039111,0.0 107.6642495,-6.9038943,0.0 107.6638979,-6.9038599,0.0 107.6637771,-6.9038469,0.0 107.6629487,-6.9037576,0.0 107.6628717,-6.9037486,0.0 107.6625205,-6.9037038,0.0 107.6624107,-6.9036934,0.0 107.6623517,-6.9036867,0.0 107.6618122,-6.9036241,0.0 107.6616711,-6.9035965,0.0 107.6615175,-6.9035395,0.0 107.6614385,-6.9034891,0.0 107.6613446,-6.9034118,0.0 107.6612417,-6.903307,0.0 107.6611816,-6.9032348,0.0</coordinates>
            </LineString>
        </Placemark>
        <Placemark id="79061">
            <name>Jalan Abdul Haris Nasution</name>
            <styleUrl>#79062</styleUrl>
            <LineString id="79060">
                <coordinates>107.6794782,-6.9049937,0.0 107.6794622,-6.9049915,0.0 107.6793999,-6.9049829,0.0</coordinates>
            </LineString>
        </Placemark>
        <Placemark id="79065">
            <name>Jalan Abdul Haris Nasution</name>
            <styleUrl>#79066</styleUrl>
            <LineString id="79064">
                <coordinates>107.6820608,-6.90548,0.0 107.6818657,-6.905397,0.0 107.6815606,-6.9053016,0.0 107.6813524,-6.9052663,0.0 107.6812596,-6.9052518,0.0 107.6812141,-6.9052443,0.0 107.681059,-6.9052186,0.0 107.6809974,-6.9052105,0.0 107.6802772,-6.9051106,0.0 107.6802419,-6.9051046,0.0</coordinates>
            </LineString>
        </Placemark>
        <Placemark id="79069">
            <name>Jalan Jenderal Ahmad Yani</name>
            <styleUrl>#79070</styleUrl>
            <LineString id="79068">
                <coordinates>107.6595113,-6.9022876,0.0 107.6593809,-6.9022862,0.0</coordinates>
            </LineString>
        </Placemark>
        <Placemark id="79073">
            <name>Jalan Jenderal Ahmad Yani</name>
            <styleUrl>#79074</styleUrl>
            <LineString id="79072">
                <coordinates>107.6598571,-6.902257,0.0 107.6597146,-6.9022892,0.0 107.6595403,-6.9022891,0.0 107.6595113,-6.9022876,0.0</coordinates>
            </LineString>
        </Placemark>
        <Placemark id="79077">
            <name>Jalan Abdul Haris Nasution</name>
            <styleUrl>#79078</styleUrl>
            <LineString id="79076">
                <coordinates>107.6886554,-6.9089512,0.0 107.6884956,-6.9087587,0.0</coordinates>
            </LineString>
        </Placemark>
        <Placemark id="79081">
            <name>Jalan Abdul Haris Nasution</name>
            <styleUrl>#79082</styleUrl>
            <LineString id="79080">
                <coordinates>107.6884956,-6.9087587,0.0 107.6884665,-6.9087231,0.0 107.6883751,-6.9086112,0.0 107.6883498,-6.9085803,0.0 107.6882509,-6.9084646,0.0 107.6881997,-6.9084047,0.0 107.6881669,-6.9083663,0.0 107.6881296,-6.9083276,0.0 107.6879166,-6.9081066,0.0 107.6878856,-6.9080779,0.0 107.6878604,-6.9080595,0.0 107.6877557,-6.9079872,0.0 107.687718,-6.9079611,0.0 107.6875495,-6.9078678,0.0 107.6872801,-6.9077377,0.0 107.6871903,-6.9076995,0.0 107.6870374,-6.9076394,0.0 107.686994,-6.9076223,0.0 107.6867571,-6.9075283,0.0 107.6867495,-6.907525,0.0 107.6866954,-6.9075035,0.0 107.6864696,-6.9074116,0.0 107.6861292,-6.9072788,0.0</coordinates>
            </LineString>
        </Placemark>
        <Placemark id="79085">
            <name>Jalan Abdul Haris Nasution</name>
            <styleUrl>#79086</styleUrl>
            <LineString id="79084">
                <coordinates>107.6605793,-6.9024754,0.0 107.6604879,-6.9023953,0.0 107.6604098,-6.9023387,0.0 107.6603407,-6.9023021,0.0 107.6602817,-6.9022811,0.0 107.6602364,-6.9022721,0.0 107.6602053,-6.9022701,0.0 107.6598571,-6.902257,0.0</coordinates>
            </LineString>
        </Placemark>
        <Placemark id="79089">
            <name>Jalan Abdul Haris Nasution</name>
            <styleUrl>#79090</styleUrl>
            <LineString id="79088">
                <coordinates>107.6605793,-6.9024754,0.0 107.6608071,-6.902754,0.0 107.6609212,-6.9028936,0.0 107.6611816,-6.9032348,0.0</coordinates>
            </LineString>
        </Placemark>
        <Placemark id="79093">
            <name>Jalan Abdul Haris Nasution</name>
            <styleUrl>#79094</styleUrl>
            <LineString id="79092">
                <coordinates>107.6895516,-6.9103253,0.0 107.689292,-6.9099117,0.0 107.6891272,-6.9096584,0.0 107.6889856,-6.9094288,0.0 107.6889178,-6.9093232,0.0 107.6888218,-6.9091822,0.0 107.6886554,-6.9089512,0.0</coordinates>
            </LineString>
        </Placemark>
        <Placemark id="79097">
            <name>Jalan Abdul Haris Nasution</name>
            <styleUrl>#79098</styleUrl>
            <LineString id="79096">
                <coordinates>107.6915575,-6.9123564,0.0 107.6914788,-6.9123269,0.0 107.691339,-6.9122714,0.0</coordinates>
            </LineString>
        </Placemark>
        <Placemark id="79101">
            <name>Jalan Abdul Haris Nasution</name>
            <styleUrl>#79102</styleUrl>
            <LineString id="79100">
                <coordinates>107.7032497,-6.91455,0.0 107.7031568,-6.9144994,0.0 107.7030871,-6.9144355,0.0 107.7029483,-6.914327,0.0 107.7028081,-6.9142652,0.0 107.7024501,-6.9142212,0.0 107.7020229,-6.9141985,0.0</coordinates>
            </LineString>
        </Placemark>
        <Placemark id="79105">
            <name>Jalan Abdul Haris Nasution</name>
            <styleUrl>#79106</styleUrl>
            <LineString id="79104">
                <coordinates>107.7056976,-6.9169875,0.0 107.7054128,-6.9167045,0.0 107.7052708,-6.9165634,0.0 107.7050975,-6.9163917,0.0 107.7050462,-6.9163418,0.0 107.7048634,-6.9161551,0.0</coordinates>
            </LineString>
        </Placemark>
        <Placemark id="79109">
            <name>Jalan Abdul Haris Nasution</name>
            <styleUrl>#79110</styleUrl>
            <LineString id="79108">
                <coordinates>107.7079211,-6.9189354,0.0 107.707853,-6.9188738,0.0</coordinates>
            </LineString>
        </Placemark>
        <Placemark id="79113">
            <name>Jalan Jenderal Ahmad Yani</name>
            <styleUrl>#79114</styleUrl>
            <LineString id="79112">
                <coordinates>107.6571633,-6.9022188,0.0 107.6568007,-6.9022123,0.0</coordinates>
            </LineString>
        </Placemark>
        <Placemark id="79117">
            <name>Jalan Raya Cinunuk</name>
            <styleUrl>#79118</styleUrl>
            <LineString id="79116">
                <coordinates>107.7320931,-6.9375862,0.0 107.731784,-6.9374545,0.0 107.7314043,-6.9372927,0.0 107.7312919,-6.9372449,0.0 107.7312064,-6.9372085,0.0 107.7305951,-6.936948,0.0 107.7305396,-6.9369244,0.0 107.7302076,-6.936783,0.0 107.7294939,-6.9364789,0.0 107.7294236,-6.936449,0.0 107.7293518,-6.9364184,0.0</coordinates>
            </LineString>
        </Placemark>
        <Placemark id="79121">
            <name>Route Segment</name>
            <styleUrl>#79122</styleUrl>
            <LineString id="79120">
                <coordinates>107.7529385,-6.9394875,0.0 107.752835,-6.9394422,0.0 107.7527709,-6.939425,0.0 107.7527099,-6.9394155,0.0 107.7526477,-6.9394142,0.0 107.7525737,-6.9394237,0.0 107.752502,-6.9394461,0.0 107.752425,-6.9394784,0.0 107.7523492,-6.9395225,0.0</coordinates>
            </LineString>
        </Placemark>
        <Placemark id="79125">
            <name>Jalan Raya Cibiru</name>
            <styleUrl>#79126</styleUrl>
            <LineString id="79124">
                <coordinates>107.7197006,-6.9348205,0.0 107.7196001,-6.9348593,0.0 107.7193031,-6.9349392,0.0 107.7190202,-6.9350439,0.0</coordinates>
            </LineString>
        </Placemark>
        <Placemark id="79129">
            <name>Jalan Raya Cinunuk</name>
            <styleUrl>#79130</styleUrl>
            <LineString id="79128">
                <coordinates>107.7390535,-6.9395348,0.0 107.7389687,-6.9394813,0.0 107.7387776,-6.9393506,0.0 107.7385978,-6.9392284,0.0 107.7382961,-6.9390222,0.0 107.7382297,-6.938995,0.0 107.7379672,-6.9388898,0.0 107.737817,-6.9388449,0.0 107.7376781,-6.9388327,0.0 107.737516,-6.9388319,0.0 107.7371691,-6.9388386,0.0 107.7370849,-6.9388394,0.0 107.7368363,-6.9388168,0.0 107.7365725,-6.9387777,0.0 107.7362807,-6.9387344,0.0 107.7357811,-6.9386603,0.0 107.735642,-6.9386406,0.0 107.7355504,-6.9386254,0.0 107.7352546,-6.9385894,0.0 107.7348465,-6.9385336,0.0 107.7346907,-6.9385075,0.0 107.7343569,-6.9384683,0.0 107.7342305,-6.9384377,0.0 107.7340425,-6.9383832,0.0 107.734009,-6.9383702,0.0 107.7337174,-6.9382545,0.0 107.7335845,-6.9382017,0.0 107.7334646,-6.9381536,0.0 107.733388,-6.9381228,0.0 107.732788,-6.937882,0.0 107.7324882,-6.9377532,0.0 107.7322724,-6.9376624,0.0</coordinates>
            </LineString>
        </Placemark>
        <Placemark id="79133">
            <name>Jalan Raya Cinunuk</name>
            <styleUrl>#79134</styleUrl>
            <LineString id="79132">
                <coordinates>107.7282655,-6.935551,0.0 107.7283014,-6.9357074,0.0 107.7283213,-6.9357859,0.0 107.7283492,-6.9358544,0.0 107.7283974,-6.9359209,0.0 107.7284533,-6.9359783,0.0 107.7285144,-6.9360335,0.0 107.7285839,-6.9360832,0.0 107.7286135,-6.9361042,0.0 107.7288601,-6.936221,0.0 107.7291448,-6.9363331,0.0</coordinates>
            </LineString>
        </Placemark>
        <Placemark id="79137">
            <name>Jalan Abdul Haris Nasution</name>
            <styleUrl>#79138</styleUrl>
            <LineString id="79136">
                <coordinates>107.7140726,-6.931769,0.0 107.7138518,-6.9317116,0.0 107.7137735,-6.9316908,0.0 107.713642,-6.931656,0.0</coordinates>
            </LineString>
        </Placemark>
        <Placemark id="79141">
            <name>Jalan Abdul Haris Nasution</name>
            <styleUrl>#79142</styleUrl>
            <LineString id="79140">
                <coordinates>107.7144361,-6.931864,0.0 107.7142619,-6.9318193,0.0 107.7140726,-6.931769,0.0</coordinates>
            </LineString>
        </Placemark>
        <Placemark id="79145">
            <name>Jalan Abdul Haris Nasution</name>
            <styleUrl>#79146</styleUrl>
            <LineString id="79144">
                <coordinates>107.7105801,-6.9252094,0.0 107.7104613,-6.9246918,0.0 107.7104008,-6.9244232,0.0</coordinates>
            </LineString>
        </Placemark>
        <Placemark id="79149">
            <name>Jalan Abdul Haris Nasution</name>
            <styleUrl>#79150</styleUrl>
            <LineString id="79148">
                <coordinates>107.7107212,-6.9257995,0.0 107.7106403,-6.9254613,0.0 107.7106107,-6.9253373,0.0 107.7105932,-6.9252642,0.0 107.7105801,-6.9252094,0.0</coordinates>
            </LineString>
        </Placemark>
        <Placemark id="79153">
            <name>Jalan Abdul Haris Nasution</name>
            <styleUrl>#79154</styleUrl>
            <LineString id="79152">
                <coordinates>107.709518,-6.92122,0.0 107.7094462,-6.9210883,0.0 107.7094253,-6.921055,0.0 107.7093494,-6.9209338,0.0 107.7092562,-6.9208004,0.0 107.7090082,-6.9204451,0.0 107.7087709,-6.9201014,0.0 107.7086872,-6.9199779,0.0 107.7084978,-6.9197048,0.0 107.7084015,-6.9195643,0.0</coordinates>
            </LineString>
        </Placemark>
        <Placemark id="79157">
            <name>Jalan Abdul Haris Nasution</name>
            <styleUrl>#79158</styleUrl>
            <LineString id="79156">
                <coordinates>107.6993869,-6.9140921,0.0 107.6988139,-6.9140772,0.0 107.6987736,-6.9140758,0.0 107.6985678,-6.9140743,0.0 107.6985267,-6.9140727,0.0 107.698183,-6.9140629,0.0 107.6981324,-6.9140614,0.0</coordinates>
            </LineString>
        </Placemark>
        <Placemark id="79161">
            <name>Jalan Abdul Haris Nasution</name>
            <styleUrl>#79162</styleUrl>
            <LineString id="79160">
                <coordinates>107.7011554,-6.9141654,0.0 107.7007442,-6.9141513,0.0</coordinates>
            </LineString>
        </Placemark>
        <Placemark id="79165">
            <name>Jalan Abdul Haris Nasution</name>
            <styleUrl>#79166</styleUrl>
            <LineString id="79164">
                <coordinates>107.7007442,-6.9141513,0.0 107.7000087,-6.914134,0.0 107.6994319,-6.914122,0.0 107.6993869,-6.9140921,0.0</coordinates>
            </LineString>
        </Placemark>
        <Placemark id="79169">
            <name>Jalan Abdul Haris Nasution</name>
            <styleUrl>#79170</styleUrl>
            <LineString id="79168">
                <coordinates>107.7020229,-6.9141985,0.0 107.7017701,-6.9141965,0.0 107.7015059,-6.9141839,0.0 107.7013998,-6.9141805,0.0 107.7012141,-6.9141675,0.0 107.7011554,-6.9141654,0.0</coordinates>
            </LineString>
        </Placemark>
        <Placemark id="79173">
            <name>Jalan Abdul Haris Nasution</name>
            <styleUrl>#79174</styleUrl>
            <LineString id="79172">
                <coordinates>107.7048634,-6.9161551,0.0 107.7043264,-6.9156376,0.0 107.7040709,-6.9153827,0.0 107.7036729,-6.9149857,0.0 107.7036141,-6.9149341,0.0 107.703496,-6.9148064,0.0 107.7033907,-6.9146967,0.0 107.7032497,-6.91455,0.0</coordinates>
            </LineString>
        </Placemark>
        <Placemark id="79177">
            <name>Jalan Abdul Haris Nasution</name>
            <styleUrl>#79178</styleUrl>
            <LineString id="79176">
                <coordinates>107.7067293,-6.9179466,0.0 107.7065296,-6.9177637,0.0 107.7064347,-6.9176769,0.0 107.7062418,-6.9175011,0.0 107.7061287,-6.9173978,0.0 107.7058757,-6.9171667,0.0 107.7056976,-6.9169875,0.0</coordinates>
            </LineString>
        </Placemark>
        <Placemark id="79181">
            <name>Jalan Abdul Haris Nasution</name>
            <styleUrl>#79182</styleUrl>
            <LineString id="79180">
                <coordinates>107.7068787,-6.9180851,0.0 107.7067293,-6.9179466,0.0</coordinates>
            </LineString>
        </Placemark>
        <Placemark id="79185">
            <name>Jalan Abdul Haris Nasution</name>
            <styleUrl>#79186</styleUrl>
            <LineString id="79184">
                <coordinates>107.707853,-6.9188738,0.0 107.707791,-6.9188223,0.0 107.7071451,-6.9183004,0.0 107.7070805,-6.9182482,0.0 107.7068787,-6.9180851,0.0</coordinates>
            </LineString>
        </Placemark>
        <Placemark id="79189">
            <name>Jalan Abdul Haris Nasution</name>
            <styleUrl>#79190</styleUrl>
            <LineString id="79188">
                <coordinates>107.7084015,-6.9195643,0.0 107.7082731,-6.9193617,0.0 107.708098,-6.9191234,0.0 107.7080033,-6.9190238,0.0 107.7079599,-6.9189731,0.0 107.7079211,-6.9189354,0.0</coordinates>
            </LineString>
        </Placemark>
        <Placemark id="79193">
            <name>Jalan Abdul Haris Nasution</name>
            <styleUrl>#79194</styleUrl>
            <LineString id="79192">
                <coordinates>107.7100539,-6.9230708,0.0 107.7100385,-6.9230012,0.0 107.7099123,-6.9224691,0.0 107.7098211,-6.9221498,0.0 107.7097628,-6.9219556,0.0 107.7097203,-6.9218105,0.0 107.709674,-6.9216526,0.0 107.7096109,-6.9214795,0.0 107.709518,-6.92122,0.0</coordinates>
            </LineString>
        </Placemark>
        <Placemark id="79197">
            <name>Jalan Abdul Haris Nasution</name>
            <styleUrl>#79198</styleUrl>
            <LineString id="79196">
                <coordinates>107.7104008,-6.9244232,0.0 107.7102908,-6.9239559,0.0 107.7101956,-6.9235898,0.0 107.7101091,-6.9232574,0.0 107.7100664,-6.9231129,0.0 107.7100539,-6.9230708,0.0</coordinates>
            </LineString>
        </Placemark>
        <Placemark id="79201">
            <name>Jalan Abdul Haris Nasution</name>
            <styleUrl>#79202</styleUrl>
            <LineString id="79200">
                <coordinates>107.7108174,-6.926202,0.0 107.7108057,-6.9261531,0.0 107.7107744,-6.9260219,0.0 107.7107398,-6.9258776,0.0 107.7107212,-6.9257995,0.0</coordinates>
            </LineString>
        </Placemark>
        <Placemark id="79205">
            <name>Jalan Abdul Haris Nasution</name>
            <styleUrl>#79206</styleUrl>
            <LineString id="79204">
                <coordinates>107.711222,-6.9277829,0.0 107.7111382,-6.9275533,0.0 107.7110629,-6.9272747,0.0 107.7110373,-6.9271888,0.0 107.7110298,-6.92715,0.0</coordinates>
            </LineString>
        </Placemark>
        <Placemark id="79209">
            <name>Jalan Abdul Haris Nasution</name>
            <styleUrl>#79210</styleUrl>
            <LineString id="79208">
                <coordinates>107.7110298,-6.92715,0.0 107.7109746,-6.9268971,0.0 107.7108912,-6.9265281,0.0 107.7108296,-6.9262557,0.0 107.7108174,-6.926202,0.0</coordinates>
            </LineString>
        </Placemark>
        <Placemark id="79213">
            <name>Jalan Jenderal Ahmad Yani</name>
            <styleUrl>#79214</styleUrl>
            <LineString id="79212">
                <coordinates>107.6573116,-6.9022128,0.0 107.6572534,-6.9022149,0.0</coordinates>
            </LineString>
        </Placemark>
        <Placemark id="79217">
            <name>Jalan Abdul Haris Nasution</name>
            <styleUrl>#79218</styleUrl>
            <LineString id="79216">
                <coordinates>107.6707829,-6.9042441,0.0 107.6704035,-6.9042416,0.0 107.6703958,-6.9042415,0.0 107.6703697,-6.9042409,0.0 107.6698686,-6.90423,0.0 107.6697908,-6.9042283,0.0 107.6696962,-6.9042263,0.0 107.6695292,-6.9042216,0.0 107.6694301,-6.9042204,0.0 107.6693203,-6.904218,0.0 107.669297,-6.904218,0.0 107.6682617,-6.9042099,0.0 107.6679175,-6.9042041,0.0 107.6674966,-6.904197,0.0 107.6673559,-6.9041911,0.0 107.6672663,-6.9041863,0.0 107.6671896,-6.904182,0.0 107.6670084,-6.9041694,0.0 107.6669959,-6.9041686,0.0</coordinates>
            </LineString>
        </Placemark>
        <Placemark id="79221">
            <name>Jalan Abdul Haris Nasution</name>
            <styleUrl>#79222</styleUrl>
            <LineString id="79220">
                <coordinates>107.6776188,-6.9047757,0.0 107.6768299,-6.9047612,0.0 107.6767644,-6.904761,0.0 107.6766915,-6.9047603,0.0 107.6762912,-6.9047592,0.0 107.6761879,-6.9047512,0.0 107.6761367,-6.9047453,0.0 107.6760408,-6.9047386,0.0 107.6759315,-6.904729,0.0 107.6758598,-6.9047223,0.0 107.6757646,-6.9047133,0.0 107.6756859,-6.9047059,0.0 107.6754896,-6.9046807,0.0</coordinates>
            </LineString>
        </Placemark>
        <Placemark id="79225">
            <name>Jalan Abdul Haris Nasution</name>
            <styleUrl>#79226</styleUrl>
            <LineString id="79224">
                <coordinates>107.6754896,-6.9046807,0.0 107.6752663,-6.9046521,0.0 107.6750782,-6.9046278,0.0 107.6750423,-6.9046232,0.0 107.6750064,-6.9046182,0.0 107.674919,-6.904606,0.0 107.674832,-6.9045989,0.0 107.674651,-6.9045858,0.0 107.6744895,-6.9045944,0.0 107.6743694,-6.9046205,0.0 107.6742699,-6.9046459,0.0 107.6742142,-6.9046579,0.0 107.6739286,-6.9047317,0.0 107.6737776,-6.904767,0.0 107.6735618,-6.9048174,0.0 107.6734145,-6.9048521,0.0 107.6731822,-6.9049099,0.0</coordinates>
            </LineString>
        </Placemark>
        <Placemark id="79229">
            <name>Jalan Abdul Haris Nasution</name>
            <styleUrl>#79230</styleUrl>
            <LineString id="79228">
                <coordinates>107.6793999,-6.9049829,0.0 107.6793873,-6.9049801,0.0 107.6788554,-6.904916,0.0 107.6786894,-6.904896,0.0 107.6782995,-6.9048547,0.0 107.6780053,-6.9048194,0.0 107.677838,-6.904799,0.0 107.6776188,-6.9047757,0.0</coordinates>
            </LineString>
        </Placemark>
        <Placemark id="79233">
            <name>Jalan Abdul Haris Nasution</name>
            <styleUrl>#79234</styleUrl>
            <LineString id="79232">
                <coordinates>107.6802419,-6.9051046,0.0 107.6795138,-6.9049983,0.0 107.6794782,-6.9049937,0.0</coordinates>
            </LineString>
        </Placemark>
        <Placemark id="79237">
            <name>Jalan Abdul Haris Nasution</name>
            <styleUrl>#79238</styleUrl>
            <LineString id="79236">
                <coordinates>107.6853357,-6.9069314,0.0 107.6843353,-6.9065056,0.0 107.6841297,-6.9064181,0.0 107.684105,-6.9064076,0.0 107.6837696,-6.9062623,0.0 107.6835798,-6.9061801,0.0 107.6833223,-6.9060645,0.0 107.6828062,-6.9058327,0.0 107.6821902,-6.9055473,0.0 107.6821363,-6.9055223,0.0 107.6820608,-6.90548,0.0</coordinates>
            </LineString>
        </Placemark>
        <Placemark id="79241">
            <name>Jalan Abdul Haris Nasution</name>
            <styleUrl>#79242</styleUrl>
            <LineString id="79240">
                <coordinates>107.6861292,-6.9072788,0.0 107.6860885,-6.9072625,0.0 107.6859727,-6.9072111,0.0 107.685821,-6.9071438,0.0 107.6856912,-6.907087,0.0 107.6853357,-6.9069314,0.0</coordinates>
            </LineString>
        </Placemark>
        <Placemark id="79245">
            <name>Jalan Abdul Haris Nasution</name>
            <styleUrl>#79246</styleUrl>
            <LineString id="79244">
                <coordinates>107.6904642,-6.9114295,0.0 107.6902863,-6.9112063,0.0 107.6898481,-6.9107388,0.0 107.6897602,-6.910638,0.0</coordinates>
            </LineString>
        </Placemark>
        <Placemark id="79249">
            <name>Jalan Abdul Haris Nasution</name>
            <styleUrl>#79250</styleUrl>
            <LineString id="79248">
                <coordinates>107.6910003,-6.9120482,0.0 107.6904642,-6.9114295,0.0</coordinates>
            </LineString>
        </Placemark>
        <Placemark id="79253">
            <name>Jalan Abdul Haris Nasution</name>
            <styleUrl>#79254</styleUrl>
            <LineString id="79252">
                <coordinates>107.691339,-6.9122714,0.0 107.6910003,-6.9120482,0.0</coordinates>
            </LineString>
        </Placemark>
        <Placemark id="79257">
            <name>Jalan Abdul Haris Nasution</name>
            <styleUrl>#79258</styleUrl>
            <LineString id="79256">
                <coordinates>107.6922664,-6.9126036,0.0 107.6921235,-6.912553,0.0 107.6917134,-6.9124105,0.0 107.6915575,-6.9123564,0.0</coordinates>
            </LineString>
        </Placemark>
        <Placemark id="79261">
            <name>Jalan Abdul Haris Nasution</name>
            <styleUrl>#79262</styleUrl>
            <LineString id="79260">
                <coordinates>107.7174158,-6.9348982,0.0 107.7174174,-6.9348393,0.0 107.7174116,-6.9347807,0.0 107.7173996,-6.9347289,0.0 107.7173983,-6.9347233,0.0 107.7173778,-6.934668,0.0 107.7173504,-6.9346157,0.0 107.7173189,-6.9345702,0.0 107.7172822,-6.9345287,0.0 107.7172408,-6.9344918,0.0 107.7171953,-6.93446,0.0 107.7171463,-6.9344338,0.0</coordinates>
            </LineString>
        </Placemark>
        <Placemark id="79265">
            <name>Jalan Abdul Haris Nasution</name>
            <styleUrl>#79266</styleUrl>
            <LineString id="79264">
                <coordinates>107.6897602,-6.910638,0.0 107.6896681,-6.9104993,0.0 107.6895516,-6.9103253,0.0</coordinates>
            </LineString>
        </Placemark>
        <Placemark id="79269">
            <name>Jalan Raya Percobaan</name>
            <styleUrl>#79270</styleUrl>
            <LineString id="79268">
                <coordinates>107.7405167,-6.9405808,0.0 107.7402056,-6.940358,0.0 107.7396846,-6.9399765,0.0</coordinates>
            </LineString>
        </Placemark>
        <Placemark id="79273">
            <name>Jalan Raya Cinunuk</name>
            <styleUrl>#79274</styleUrl>
            <LineString id="79272">
                <coordinates>107.7322323,-6.9376474,0.0 107.732179,-6.9376234,0.0</coordinates>
            </LineString>
        </Placemark>
        <Placemark id="79277">
            <name>Jalan Raya Cinunuk</name>
            <styleUrl>#79278</styleUrl>
            <LineString id="79276">
                <coordinates>107.732179,-6.9376234,0.0 107.7321361,-6.9376048,0.0 107.7320931,-6.9375862,0.0</coordinates>
            </LineString>
        </Placemark>
        <Placemark id="79281">
            <name>Jalan Raya Cinunuk</name>
            <styleUrl>#79282</styleUrl>
            <LineString id="79280">
                <coordinates>107.7291448,-6.9363331,0.0 107.7292319,-6.936367,0.0</coordinates>
            </LineString>
        </Placemark>
        <Placemark id="79285">
            <name>Jalan Raya Cinunuk</name>
            <styleUrl>#79286</styleUrl>
            <LineString id="79284">
                <coordinates>107.7292319,-6.936367,0.0 107.7292686,-6.9363857,0.0 107.7293518,-6.9364184,0.0</coordinates>
            </LineString>
        </Placemark>
        <Placemark id="79289">
            <name>Jalan Abdul Haris Nasution</name>
            <styleUrl>#79290</styleUrl>
            <LineString id="79288">
                <coordinates>107.7157864,-6.9324104,0.0 107.7157786,-6.9324011,0.0</coordinates>
            </LineString>
        </Placemark>
        <Placemark id="79293">
            <name>Jalan Abdul Haris Nasution</name>
            <styleUrl>#79294</styleUrl>
            <LineString id="79292">
                <coordinates>107.7157786,-6.9324011,0.0 107.7157619,-6.9323861,0.0 107.7157532,-6.9323756,0.0 107.715715,-6.9323492,0.0 107.7156419,-6.9322979,0.0 107.7154877,-6.9322269,0.0 107.7150804,-6.9320683,0.0 107.7147971,-6.9319602,0.0 107.7144361,-6.931864,0.0</coordinates>
            </LineString>
        </Placemark>
        <Placemark id="79297">
            <name>Jalan Jenderal Ahmad Yani</name>
            <styleUrl>#79298</styleUrl>
            <LineString id="79296">
                <coordinates>107.6572534,-6.9022149,0.0 107.6571633,-6.9022188,0.0</coordinates>
            </LineString>
        </Placemark>
        <Placemark id="79301">
            <name>Jalan Abdul Haris Nasution</name>
            <styleUrl>#79302</styleUrl>
            <LineString id="79300">
                <coordinates>107.7163132,-6.9335177,0.0 107.7162048,-6.9332581,0.0 107.7160864,-6.9329795,0.0 107.71606,-6.9329174,0.0 107.7159624,-6.9327255,0.0 107.7158508,-6.9324896,0.0 107.7158334,-6.9324655,0.0 107.7158159,-6.9324414,0.0 107.715812,-6.9324371,0.0 107.7157864,-6.9324104,0.0</coordinates>
            </LineString>
        </Placemark>
        <Placemark id="79305">
            <name>Jalan Raya Cinunuk</name>
            <styleUrl>#79306</styleUrl>
            <LineString id="79304">
                <coordinates>107.7322724,-6.9376624,0.0 107.7322323,-6.9376474,0.0</coordinates>
            </LineString>
        </Placemark>
        <Placemark id="79309">
            <name>Jalan Raya Cibiru</name>
            <styleUrl>#79310</styleUrl>
            <LineString id="79308">
                <coordinates>107.7182706,-6.9352223,0.0 107.7179056,-6.9352441,0.0 107.717711,-6.9352563,0.0</coordinates>
            </LineString>
        </Placemark>
        <Placemark id="79313">
            <name>Jalan Abdul Haris Nasution</name>
            <styleUrl>#79314</styleUrl>
            <LineString id="79312">
                <coordinates>107.716645,-6.9341714,0.0 107.7165819,-6.9340902,0.0 107.7165159,-6.9339808,0.0 107.7163829,-6.9336847,0.0 107.7163132,-6.9335177,0.0</coordinates>
            </LineString>
        </Placemark>
        <Placemark id="79317">
            <name>Jalan Abdul Haris Nasution</name>
            <styleUrl>#79318</styleUrl>
            <LineString id="79316">
                <coordinates>107.7168924,-6.9343331,0.0 107.7168218,-6.9343013,0.0 107.7166946,-6.9342108,0.0 107.716645,-6.9341714,0.0</coordinates>
            </LineString>
        </Placemark>
        <Placemark id="79321">
            <name>Jalan Abdul Haris Nasution</name>
            <styleUrl>#79322</styleUrl>
            <LineString id="79320">
                <coordinates>107.7197006,-6.9348205,0.0 107.7198341,-6.9347993,0.0 107.7199175,-6.934786,0.0 107.7202866,-6.9347224,0.0 107.7203229,-6.9347131,0.0 107.7203848,-6.9347037,0.0 107.7207772,-6.9346359,0.0 107.7209059,-6.9345961,0.0 107.7211706,-6.9344846,0.0 107.7211896,-6.9344756,0.0 107.7214743,-6.9343315,0.0 107.7215528,-6.9342906,0.0 107.7217658,-6.9341795,0.0 107.7219508,-6.9340884,0.0</coordinates>
            </LineString>
        </Placemark>
        <Placemark id="79325">
            <name>Jalan Raya Cibiru</name>
            <styleUrl>#79326</styleUrl>
            <LineString id="79324">
                <coordinates>107.7219508,-6.9340884,0.0 107.7220243,-6.9340522,0.0</coordinates>
            </LineString>
        </Placemark>
        <Placemark id="79329">
            <name>Jalan Raya Cibiru</name>
            <styleUrl>#79330</styleUrl>
            <LineString id="79328">
                <coordinates>107.7220243,-6.9340522,0.0 107.722282,-6.9339252,0.0 107.7225917,-6.9337598,0.0 107.7226921,-6.9337043,0.0 107.723025,-6.933527,0.0</coordinates>
            </LineString>
        </Placemark>
    </Document>
</kml>
