<?xml version="1.0" encoding="UTF-8"?>
<kml xmlns="http://www.opengis.net/kml/2.2" xmlns:gx="http://www.google.com/kml/ext/2.2">
    <Document id="26817">
        <Style id="26823">
            <IconStyle id="26824">
                <colorMode>normal</colorMode>
                <scale>1</scale>
                <heading>0</heading>
                <Icon id="26825">
                    <href>http://maps.google.com/mapfiles/kml/pushpin/ylw-pushpin.png</href>
                </Icon>
            </IconStyle>
        </Style>
        <Style id="26828">
            <IconStyle id="26829">
                <colorMode>normal</colorMode>
                <scale>1</scale>
                <heading>0</heading>
                <Icon id="26830">
                    <href>http://maps.google.com/mapfiles/kml/pushpin/ylw-pushpin.png</href>
                </Icon>
            </IconStyle>
        </Style>
        <Style id="26833">
            <LineStyle id="26834">
                <color>ff00F2FF</color>
                <colorMode>normal</colorMode>
                <width>4</width>
            </LineStyle>
        </Style>
        <Style id="26837">
            <LineStyle id="26838">
                <color>ff00F2FF</color>
                <colorMode>normal</colorMode>
                <width>4</width>
            </LineStyle>
        </Style>
        <Style id="26841">
            <LineStyle id="26842">
                <color>ff00F2FF</color>
                <colorMode>normal</colorMode>
                <width>4</width>
            </LineStyle>
        </Style>
        <Style id="26845">
            <LineStyle id="26846">
                <color>ff00F2FF</color>
                <colorMode>normal</colorMode>
                <width>4</width>
            </LineStyle>
        </Style>
        <Style id="26849">
            <LineStyle id="26850">
                <color>ff00F2FF</color>
                <colorMode>normal</colorMode>
                <width>4</width>
            </LineStyle>
        </Style>
        <Style id="26853">
            <LineStyle id="26854">
                <color>ff00F2FF</color>
                <colorMode>normal</colorMode>
                <width>4</width>
            </LineStyle>
        </Style>
        <Style id="26857">
            <LineStyle id="26858">
                <color>ff00F2FF</color>
                <colorMode>normal</colorMode>
                <width>4</width>
            </LineStyle>
        </Style>
        <Style id="26861">
            <LineStyle id="26862">
                <color>ff00F2FF</color>
                <colorMode>normal</colorMode>
                <width>4</width>
            </LineStyle>
        </Style>
        <Style id="26865">
            <LineStyle id="26866">
                <color>ff00F2FF</color>
                <colorMode>normal</colorMode>
                <width>4</width>
            </LineStyle>
        </Style>
        <Style id="26869">
            <LineStyle id="26870">
                <color>ff00F2FF</color>
                <colorMode>normal</colorMode>
                <width>4</width>
            </LineStyle>
        </Style>
        <Style id="26873">
            <LineStyle id="26874">
                <color>ff00F2FF</color>
                <colorMode>normal</colorMode>
                <width>4</width>
            </LineStyle>
        </Style>
        <Style id="26877">
            <LineStyle id="26878">
                <color>ff00F2FF</color>
                <colorMode>normal</colorMode>
                <width>4</width>
            </LineStyle>
        </Style>
        <Style id="26881">
            <LineStyle id="26882">
                <color>ff00F2FF</color>
                <colorMode>normal</colorMode>
                <width>4</width>
            </LineStyle>
        </Style>
        <Style id="26885">
            <LineStyle id="26886">
                <color>ff00F2FF</color>
                <colorMode>normal</colorMode>
                <width>4</width>
            </LineStyle>
        </Style>
        <Style id="26889">
            <LineStyle id="26890">
                <color>ff00F2FF</color>
                <colorMode>normal</colorMode>
                <width>4</width>
            </LineStyle>
        </Style>
        <Style id="26893">
            <LineStyle id="26894">
                <color>ff00F2FF</color>
                <colorMode>normal</colorMode>
                <width>4</width>
            </LineStyle>
        </Style>
        <Style id="26897">
            <LineStyle id="26898">
                <color>ff00F2FF</color>
                <colorMode>normal</colorMode>
                <width>4</width>
            </LineStyle>
        </Style>
        <Style id="26901">
            <LineStyle id="26902">
                <color>ff00F2FF</color>
                <colorMode>normal</colorMode>
                <width>4</width>
            </LineStyle>
        </Style>
        <Style id="26905">
            <LineStyle id="26906">
                <color>ff00F2FF</color>
                <colorMode>normal</colorMode>
                <width>4</width>
            </LineStyle>
        </Style>
        <Style id="26909">
            <LineStyle id="26910">
                <color>ff00F2FF</color>
                <colorMode>normal</colorMode>
                <width>4</width>
            </LineStyle>
        </Style>
        <Style id="26913">
            <LineStyle id="26914">
                <color>ff00F2FF</color>
                <colorMode>normal</colorMode>
                <width>4</width>
            </LineStyle>
        </Style>
        <Style id="26917">
            <LineStyle id="26918">
                <color>ff00F2FF</color>
                <colorMode>normal</colorMode>
                <width>4</width>
            </LineStyle>
        </Style>
        <Style id="26921">
            <LineStyle id="26922">
                <color>ff00F2FF</color>
                <colorMode>normal</colorMode>
                <width>4</width>
            </LineStyle>
        </Style>
        <Style id="26925">
            <LineStyle id="26926">
                <color>ff00F2FF</color>
                <colorMode>normal</colorMode>
                <width>4</width>
            </LineStyle>
        </Style>
        <Style id="26929">
            <LineStyle id="26930">
                <color>ff00F2FF</color>
                <colorMode>normal</colorMode>
                <width>4</width>
            </LineStyle>
        </Style>
        <Style id="26933">
            <LineStyle id="26934">
                <color>ff00F2FF</color>
                <colorMode>normal</colorMode>
                <width>4</width>
            </LineStyle>
        </Style>
        <Style id="26937">
            <LineStyle id="26938">
                <color>ff00F2FF</color>
                <colorMode>normal</colorMode>
                <width>4</width>
            </LineStyle>
        </Style>
        <Style id="26941">
            <LineStyle id="26942">
                <color>ff00F2FF</color>
                <colorMode>normal</colorMode>
                <width>4</width>
            </LineStyle>
        </Style>
        <Style id="26945">
            <LineStyle id="26946">
                <color>ff00F2FF</color>
                <colorMode>normal</colorMode>
                <width>4</width>
            </LineStyle>
        </Style>
        <Style id="26949">
            <LineStyle id="26950">
                <color>ff00F2FF</color>
                <colorMode>normal</colorMode>
                <width>4</width>
            </LineStyle>
        </Style>
        <Style id="26953">
            <LineStyle id="26954">
                <color>ff00F2FF</color>
                <colorMode>normal</colorMode>
                <width>4</width>
            </LineStyle>
        </Style>
        <Style id="26957">
            <LineStyle id="26958">
                <color>ff00F2FF</color>
                <colorMode>normal</colorMode>
                <width>4</width>
            </LineStyle>
        </Style>
        <Style id="26961">
            <LineStyle id="26962">
                <color>ff00F2FF</color>
                <colorMode>normal</colorMode>
                <width>4</width>
            </LineStyle>
        </Style>
        <Style id="26965">
            <LineStyle id="26966">
                <color>ff00F2FF</color>
                <colorMode>normal</colorMode>
                <width>4</width>
            </LineStyle>
        </Style>
        <Style id="26969">
            <LineStyle id="26970">
                <color>ff00F2FF</color>
                <colorMode>normal</colorMode>
                <width>4</width>
            </LineStyle>
        </Style>
        <Style id="26973">
            <LineStyle id="26974">
                <color>ff00F2FF</color>
                <colorMode>normal</colorMode>
                <width>4</width>
            </LineStyle>
        </Style>
        <Style id="26977">
            <LineStyle id="26978">
                <color>ff00F2FF</color>
                <colorMode>normal</colorMode>
                <width>4</width>
            </LineStyle>
        </Style>
        <Style id="26981">
            <LineStyle id="26982">
                <color>ff00F2FF</color>
                <colorMode>normal</colorMode>
                <width>4</width>
            </LineStyle>
        </Style>
        <Style id="26985">
            <LineStyle id="26986">
                <color>ff00F2FF</color>
                <colorMode>normal</colorMode>
                <width>4</width>
            </LineStyle>
        </Style>
        <Style id="26989">
            <LineStyle id="26990">
                <color>ff00F2FF</color>
                <colorMode>normal</colorMode>
                <width>4</width>
            </LineStyle>
        </Style>
        <Style id="26993">
            <LineStyle id="26994">
                <color>ff00F2FF</color>
                <colorMode>normal</colorMode>
                <width>4</width>
            </LineStyle>
        </Style>
        <Style id="26997">
            <LineStyle id="26998">
                <color>ff00F2FF</color>
                <colorMode>normal</colorMode>
                <width>4</width>
            </LineStyle>
        </Style>
        <Style id="27001">
            <LineStyle id="27002">
                <color>ff00F2FF</color>
                <colorMode>normal</colorMode>
                <width>4</width>
            </LineStyle>
        </Style>
        <Style id="27005">
            <LineStyle id="27006">
                <color>ff00F2FF</color>
                <colorMode>normal</colorMode>
                <width>4</width>
            </LineStyle>
        </Style>
        <Style id="27009">
            <LineStyle id="27010">
                <color>ff00F2FF</color>
                <colorMode>normal</colorMode>
                <width>4</width>
            </LineStyle>
        </Style>
        <Style id="27013">
            <LineStyle id="27014">
                <color>ff00F2FF</color>
                <colorMode>normal</colorMode>
                <width>4</width>
            </LineStyle>
        </Style>
        <Style id="27017">
            <LineStyle id="27018">
                <color>ff00F2FF</color>
                <colorMode>normal</colorMode>
                <width>4</width>
            </LineStyle>
        </Style>
        <Style id="27021">
            <LineStyle id="27022">
                <color>ff00F2FF</color>
                <colorMode>normal</colorMode>
                <width>4</width>
            </LineStyle>
        </Style>
        <Style id="27025">
            <LineStyle id="27026">
                <color>ff00F2FF</color>
                <colorMode>normal</colorMode>
                <width>4</width>
            </LineStyle>
        </Style>
        <Style id="27029">
            <LineStyle id="27030">
                <color>ff00F2FF</color>
                <colorMode>normal</colorMode>
                <width>4</width>
            </LineStyle>
        </Style>
        <Style id="27033">
            <LineStyle id="27034">
                <color>ff00F2FF</color>
                <colorMode>normal</colorMode>
                <width>4</width>
            </LineStyle>
        </Style>
        <Style id="27037">
            <LineStyle id="27038">
                <color>ff00F2FF</color>
                <colorMode>normal</colorMode>
                <width>4</width>
            </LineStyle>
        </Style>
        <Style id="27041">
            <LineStyle id="27042">
                <color>ff00F2FF</color>
                <colorMode>normal</colorMode>
                <width>4</width>
            </LineStyle>
        </Style>
        <Style id="27045">
            <LineStyle id="27046">
                <color>ff00F2FF</color>
                <colorMode>normal</colorMode>
                <width>4</width>
            </LineStyle>
        </Style>
        <Style id="27049">
            <LineStyle id="27050">
                <color>ff00F2FF</color>
                <colorMode>normal</colorMode>
                <width>4</width>
            </LineStyle>
        </Style>
        <Style id="27053">
            <LineStyle id="27054">
                <color>ff00F2FF</color>
                <colorMode>normal</colorMode>
                <width>4</width>
            </LineStyle>
        </Style>
        <Style id="27057">
            <LineStyle id="27058">
                <color>ff00F2FF</color>
                <colorMode>normal</colorMode>
                <width>4</width>
            </LineStyle>
        </Style>
        <Style id="27061">
            <LineStyle id="27062">
                <color>ff00F2FF</color>
                <colorMode>normal</colorMode>
                <width>4</width>
            </LineStyle>
        </Style>
        <Style id="27065">
            <LineStyle id="27066">
                <color>ff00F2FF</color>
                <colorMode>normal</colorMode>
                <width>4</width>
            </LineStyle>
        </Style>
        <Style id="27069">
            <LineStyle id="27070">
                <color>ff00F2FF</color>
                <colorMode>normal</colorMode>
                <width>4</width>
            </LineStyle>
        </Style>
        <Style id="27073">
            <LineStyle id="27074">
                <color>ff00F2FF</color>
                <colorMode>normal</colorMode>
                <width>4</width>
            </LineStyle>
        </Style>
        <Style id="27077">
            <LineStyle id="27078">
                <color>ff00F2FF</color>
                <colorMode>normal</colorMode>
                <width>4</width>
            </LineStyle>
        </Style>
        <Style id="27081">
            <LineStyle id="27082">
                <color>ff00F2FF</color>
                <colorMode>normal</colorMode>
                <width>4</width>
            </LineStyle>
        </Style>
        <Style id="27085">
            <LineStyle id="27086">
                <color>ff00F2FF</color>
                <colorMode>normal</colorMode>
                <width>4</width>
            </LineStyle>
        </Style>
        <Style id="27089">
            <LineStyle id="27090">
                <color>ff00F2FF</color>
                <colorMode>normal</colorMode>
                <width>4</width>
            </LineStyle>
        </Style>
        <Style id="27093">
            <LineStyle id="27094">
                <color>ff00F2FF</color>
                <colorMode>normal</colorMode>
                <width>4</width>
            </LineStyle>
        </Style>
        <Style id="27097">
            <LineStyle id="27098">
                <color>ff00F2FF</color>
                <colorMode>normal</colorMode>
                <width>4</width>
            </LineStyle>
        </Style>
        <Style id="27101">
            <LineStyle id="27102">
                <color>ff00F2FF</color>
                <colorMode>normal</colorMode>
                <width>4</width>
            </LineStyle>
        </Style>
        <Style id="27105">
            <LineStyle id="27106">
                <color>ff00F2FF</color>
                <colorMode>normal</colorMode>
                <width>4</width>
            </LineStyle>
        </Style>
        <Style id="27109">
            <LineStyle id="27110">
                <color>ff00F2FF</color>
                <colorMode>normal</colorMode>
                <width>4</width>
            </LineStyle>
        </Style>
        <Style id="27113">
            <LineStyle id="27114">
                <color>ff00F2FF</color>
                <colorMode>normal</colorMode>
                <width>4</width>
            </LineStyle>
        </Style>
        <Style id="27117">
            <LineStyle id="27118">
                <color>ff00F2FF</color>
                <colorMode>normal</colorMode>
                <width>4</width>
            </LineStyle>
        </Style>
        <Style id="27121">
            <LineStyle id="27122">
                <color>ff00F2FF</color>
                <colorMode>normal</colorMode>
                <width>4</width>
            </LineStyle>
        </Style>
        <Style id="27125">
            <LineStyle id="27126">
                <color>ff00F2FF</color>
                <colorMode>normal</colorMode>
                <width>4</width>
            </LineStyle>
        </Style>
        <Style id="27129">
            <LineStyle id="27130">
                <color>ff00F2FF</color>
                <colorMode>normal</colorMode>
                <width>4</width>
            </LineStyle>
        </Style>
        <Style id="27133">
            <LineStyle id="27134">
                <color>ff00F2FF</color>
                <colorMode>normal</colorMode>
                <width>4</width>
            </LineStyle>
        </Style>
        <Style id="27137">
            <LineStyle id="27138">
                <color>ff00F2FF</color>
                <colorMode>normal</colorMode>
                <width>4</width>
            </LineStyle>
        </Style>
        <Style id="27141">
            <LineStyle id="27142">
                <color>ff00F2FF</color>
                <colorMode>normal</colorMode>
                <width>4</width>
            </LineStyle>
        </Style>
        <Style id="27145">
            <LineStyle id="27146">
                <color>ff00F2FF</color>
                <colorMode>normal</colorMode>
                <width>4</width>
            </LineStyle>
        </Style>
        <Style id="27149">
            <LineStyle id="27150">
                <color>ff00F2FF</color>
                <colorMode>normal</colorMode>
                <width>4</width>
            </LineStyle>
        </Style>
        <Style id="27153">
            <LineStyle id="27154">
                <color>ff00F2FF</color>
                <colorMode>normal</colorMode>
                <width>4</width>
            </LineStyle>
        </Style>
        <Style id="27157">
            <LineStyle id="27158">
                <color>ff00F2FF</color>
                <colorMode>normal</colorMode>
                <width>4</width>
            </LineStyle>
        </Style>
        <Style id="27161">
            <LineStyle id="27162">
                <color>ff00F2FF</color>
                <colorMode>normal</colorMode>
                <width>4</width>
            </LineStyle>
        </Style>
        <Style id="27165">
            <LineStyle id="27166">
                <color>ff00F2FF</color>
                <colorMode>normal</colorMode>
                <width>4</width>
            </LineStyle>
        </Style>
        <Style id="27169">
            <LineStyle id="27170">
                <color>ff00F2FF</color>
                <colorMode>normal</colorMode>
                <width>4</width>
            </LineStyle>
        </Style>
        <Style id="27173">
            <LineStyle id="27174">
                <color>ff00F2FF</color>
                <colorMode>normal</colorMode>
                <width>4</width>
            </LineStyle>
        </Style>
        <Style id="27177">
            <LineStyle id="27178">
                <color>ff00F2FF</color>
                <colorMode>normal</colorMode>
                <width>4</width>
            </LineStyle>
        </Style>
        <Style id="27181">
            <LineStyle id="27182">
                <color>ff00F2FF</color>
                <colorMode>normal</colorMode>
                <width>4</width>
            </LineStyle>
        </Style>
        <Style id="27185">
            <LineStyle id="27186">
                <color>ff00F2FF</color>
                <colorMode>normal</colorMode>
                <width>4</width>
            </LineStyle>
        </Style>
        <Style id="27189">
            <LineStyle id="27190">
                <color>ff00F2FF</color>
                <colorMode>normal</colorMode>
                <width>4</width>
            </LineStyle>
        </Style>
        <Style id="27193">
            <LineStyle id="27194">
                <color>ff00F2FF</color>
                <colorMode>normal</colorMode>
                <width>4</width>
            </LineStyle>
        </Style>
        <Style id="27197">
            <LineStyle id="27198">
                <color>ff00F2FF</color>
                <colorMode>normal</colorMode>
                <width>4</width>
            </LineStyle>
        </Style>
        <Style id="27201">
            <LineStyle id="27202">
                <color>ff00F2FF</color>
                <colorMode>normal</colorMode>
                <width>4</width>
            </LineStyle>
        </Style>
        <Style id="27205">
            <LineStyle id="27206">
                <color>ff00F2FF</color>
                <colorMode>normal</colorMode>
                <width>4</width>
            </LineStyle>
        </Style>
        <Style id="27209">
            <LineStyle id="27210">
                <color>ff00F2FF</color>
                <colorMode>normal</colorMode>
                <width>4</width>
            </LineStyle>
        </Style>
        <Style id="27213">
            <LineStyle id="27214">
                <color>ff00F2FF</color>
                <colorMode>normal</colorMode>
                <width>4</width>
            </LineStyle>
        </Style>
        <Style id="27217">
            <LineStyle id="27218">
                <color>ff00F2FF</color>
                <colorMode>normal</colorMode>
                <width>4</width>
            </LineStyle>
        </Style>
        <Style id="27221">
            <LineStyle id="27222">
                <color>ff00F2FF</color>
                <colorMode>normal</colorMode>
                <width>4</width>
            </LineStyle>
        </Style>
        <Style id="27225">
            <LineStyle id="27226">
                <color>ff00F2FF</color>
                <colorMode>normal</colorMode>
                <width>4</width>
            </LineStyle>
        </Style>
        <Style id="27229">
            <LineStyle id="27230">
                <color>ff00F2FF</color>
                <colorMode>normal</colorMode>
                <width>4</width>
            </LineStyle>
        </Style>
        <Style id="27233">
            <LineStyle id="27234">
                <color>ff00F2FF</color>
                <colorMode>normal</colorMode>
                <width>4</width>
            </LineStyle>
        </Style>
        <Style id="27237">
            <LineStyle id="27238">
                <color>ff00F2FF</color>
                <colorMode>normal</colorMode>
                <width>4</width>
            </LineStyle>
        </Style>
        <Style id="27241">
            <LineStyle id="27242">
                <color>ff00F2FF</color>
                <colorMode>normal</colorMode>
                <width>4</width>
            </LineStyle>
        </Style>
        <Style id="27245">
            <LineStyle id="27246">
                <color>ff00F2FF</color>
                <colorMode>normal</colorMode>
                <width>4</width>
            </LineStyle>
        </Style>
        <Style id="27249">
            <LineStyle id="27250">
                <color>ff00F2FF</color>
                <colorMode>normal</colorMode>
                <width>4</width>
            </LineStyle>
        </Style>
        <Style id="27253">
            <LineStyle id="27254">
                <color>ff00F2FF</color>
                <colorMode>normal</colorMode>
                <width>4</width>
            </LineStyle>
        </Style>
        <Style id="27257">
            <LineStyle id="27258">
                <color>ff00F2FF</color>
                <colorMode>normal</colorMode>
                <width>4</width>
            </LineStyle>
        </Style>
        <Style id="27261">
            <LineStyle id="27262">
                <color>ff00F2FF</color>
                <colorMode>normal</colorMode>
                <width>4</width>
            </LineStyle>
        </Style>
        <ExtendedData>
            <Data name="route-name">
                <value>01A: Abdul Muis → Cicaheum via Binong</value>
            </Data>
            <Data name="source">
                <value>Transport for Bandung</value>
            </Data>
        </ExtendedData>
        <Placemark id="26822">
            <name>Terminal Abdul Muis/Kebon Kalapa</name>
            <styleUrl>#26823</styleUrl>
            <Point id="26821">
                <coordinates>107.6058322,-6.9276428,0.0</coordinates>
            </Point>
        </Placemark>
        <Placemark id="26827">
            <name>Terminal Angkot Cicaheum</name>
            <styleUrl>#26828</styleUrl>
            <Point id="26826">
                <coordinates>107.6562486,-6.9024172,0.0</coordinates>
            </Point>
        </Placemark>
        <Placemark id="26832">
            <name>Jalan PH. H. Mustofa</name>
            <styleUrl>#26833</styleUrl>
            <LineString id="26831">
                <coordinates>107.6370818,-6.8984481,0.0 107.637183,-6.8984713,0.0 107.6373036,-6.8984993,0.0 107.63734,-6.8985077,0.0 107.6374067,-6.8985235,0.0 107.6375247,-6.8985515,0.0 107.6376569,-6.8985829,0.0 107.6378565,-6.8986302,0.0 107.6379062,-6.898642,0.0 107.6379805,-6.8986596,0.0 107.6380614,-6.8986788,0.0 107.6382004,-6.8987117,0.0 107.6383016,-6.8987357,0.0 107.6385967,-6.8988043,0.0 107.6389496,-6.8988893,0.0 107.6392578,-6.8989624,0.0 107.6394338,-6.8990042,0.0 107.639528,-6.8990264,0.0 107.639689,-6.8990635,0.0 107.6397992,-6.8990899,0.0 107.6398962,-6.8991138,0.0 107.6399762,-6.8991322,0.0 107.640051,-6.8991472,0.0 107.6404383,-6.8992417,0.0 107.6405323,-6.8992646,0.0 107.6407134,-6.8993075,0.0 107.6407662,-6.89932,0.0 107.6408435,-6.8993384,0.0 107.6412764,-6.899441,0.0 107.641347,-6.8994578,0.0 107.6415516,-6.8995076,0.0 107.6416085,-6.8995205,0.0 107.6416794,-6.8995366,0.0 107.6416949,-6.8995403,0.0 107.6417385,-6.8995506,0.0 107.6417839,-6.8995613,0.0</coordinates>
            </LineString>
        </Placemark>
        <Placemark id="26836">
            <name>Jalan Turangga</name>
            <styleUrl>#26837</styleUrl>
            <LineString id="26835">
                <coordinates>107.6348227,-6.9321233,0.0 107.6349144,-6.9317675,0.0 107.6349593,-6.9315874,0.0 107.6349787,-6.9315093,0.0 107.6349977,-6.9314343,0.0 107.6350129,-6.931374,0.0 107.6350713,-6.9311431,0.0 107.6350864,-6.931084,0.0 107.6351532,-6.9308208,0.0 107.6352273,-6.9305365,0.0 107.6353063,-6.9302285,0.0 107.635324,-6.930155,0.0 107.6353583,-6.9300131,0.0</coordinates>
            </LineString>
        </Placemark>
        <Placemark id="26840">
            <name>Jalan Mochammad Ramdhan</name>
            <styleUrl>#26841</styleUrl>
            <LineString id="26839">
                <coordinates>107.6149248,-6.9325064,0.0 107.6150464,-6.9323211,0.0 107.6152226,-6.9320956,0.0</coordinates>
            </LineString>
        </Placemark>
        <Placemark id="26844">
            <name>Jalan PH. H. Mustofa</name>
            <styleUrl>#26845</styleUrl>
            <LineString id="26843">
                <coordinates>107.643667,-6.8999883,0.0 107.6437562,-6.9000026,0.0</coordinates>
            </LineString>
        </Placemark>
        <Placemark id="26848">
            <name>Jalan PH. H. Mustofa</name>
            <styleUrl>#26849</styleUrl>
            <LineString id="26847">
                <coordinates>107.6437562,-6.9000026,0.0 107.6437845,-6.9000071,0.0 107.6438196,-6.9000127,0.0</coordinates>
            </LineString>
        </Placemark>
        <Placemark id="26852">
            <name>Jalan Jenderal Gatot Subroto</name>
            <styleUrl>#26853</styleUrl>
            <LineString id="26851">
                <coordinates>107.636589,-6.9279454,0.0 107.6366637,-6.9279864,0.0 107.6366923,-6.9280016,0.0 107.6368005,-6.9280587,0.0 107.6370469,-6.9281952,0.0 107.6373057,-6.9283272,0.0 107.6374286,-6.9283966,0.0 107.6377538,-6.928582,0.0 107.6380006,-6.92873,0.0 107.6380529,-6.9287646,0.0 107.6381119,-6.9288006,0.0 107.6381689,-6.9288432,0.0 107.6382687,-6.9289281,0.0 107.6384491,-6.9290817,0.0 107.6386831,-6.9293013,0.0 107.6389116,-6.9295348,0.0 107.6391119,-6.9297496,0.0</coordinates>
            </LineString>
        </Placemark>
        <Placemark id="26856">
            <name>Jalan Balonggede</name>
            <styleUrl>#26857</styleUrl>
            <LineString id="26855">
                <coordinates>107.6071391,-6.9258274,0.0 107.6070558,-6.9274889,0.0</coordinates>
            </LineString>
        </Placemark>
        <Placemark id="26860">
            <name>Jalan Mochammad Ramdhan</name>
            <styleUrl>#26861</styleUrl>
            <LineString id="26859">
                <coordinates>107.6153893,-6.9318779,0.0 107.6155386,-6.9316906,0.0</coordinates>
            </LineString>
        </Placemark>
        <Placemark id="26864">
            <name>Jalan Kyai Haji Ahmad Dahlan</name>
            <styleUrl>#26865</styleUrl>
            <LineString id="26863">
                <coordinates>107.6181273,-6.9318132,0.0 107.6182444,-6.9316927,0.0 107.6183599,-6.9316133,0.0 107.6185305,-6.9315221,0.0 107.6187946,-6.9314272,0.0 107.619075,-6.931384,0.0 107.6192569,-6.9313802,0.0</coordinates>
            </LineString>
        </Placemark>
        <Placemark id="26868">
            <name>Jalan Brigjend. Katamso</name>
            <styleUrl>#26869</styleUrl>
            <LineString id="26867">
                <coordinates>107.6299279,-6.9064699,0.0 107.6300708,-6.9063971,0.0 107.6302217,-6.9063503,0.0 107.6303214,-6.9063283,0.0</coordinates>
            </LineString>
        </Placemark>
        <Placemark id="26872">
            <name>Jalan Supratman</name>
            <styleUrl>#26873</styleUrl>
            <LineString id="26871">
                <coordinates>107.6332282,-6.9117173,0.0 107.6331856,-6.9116524,0.0 107.6329432,-6.9112851,0.0 107.6328915,-6.9112089,0.0 107.6322045,-6.910162,0.0 107.6319439,-6.9097596,0.0 107.6317344,-6.9094313,0.0 107.6315704,-6.9091771,0.0 107.6314866,-6.9090452,0.0 107.6312417,-6.9086675,0.0 107.6311208,-6.9084816,0.0 107.6310204,-6.9083285,0.0 107.6309112,-6.9081623,0.0 107.6307619,-6.9079442,0.0 107.6306223,-6.907732,0.0</coordinates>
            </LineString>
        </Placemark>
        <Placemark id="26876">
            <name>Jalan Pungkur</name>
            <styleUrl>#26877</styleUrl>
            <LineString id="26875">
                <coordinates>107.6149248,-6.9325064,0.0 107.6143118,-6.9323443,0.0 107.6141925,-6.932314,0.0 107.6137848,-6.9322069,0.0 107.6137396,-6.9321929,0.0 107.6134671,-6.9321058,0.0 107.6133184,-6.9320339,0.0 107.6131833,-6.9319686,0.0 107.613062,-6.9318895,0.0 107.6129795,-6.9318313,0.0 107.6124017,-6.9313355,0.0</coordinates>
            </LineString>
        </Placemark>
        <Placemark id="26880">
            <name>Jalan Palasari</name>
            <styleUrl>#26881</styleUrl>
            <LineString id="26879">
                <coordinates>107.622434,-6.9309756,0.0 107.6223798,-6.9311705,0.0 107.6222917,-6.9314875,0.0 107.6221815,-6.9318636,0.0 107.6220445,-6.9323308,0.0 107.6219116,-6.9328188,0.0</coordinates>
            </LineString>
        </Placemark>
        <Placemark id="26884">
            <name>Jalan Lodaya</name>
            <styleUrl>#26885</styleUrl>
            <LineString id="26883">
                <coordinates>107.622434,-6.9309756,0.0 107.6226407,-6.931064,0.0 107.6227405,-6.9311066,0.0 107.6228866,-6.9311691,0.0 107.6229314,-6.9311882,0.0 107.6229672,-6.9312035,0.0 107.6233795,-6.9313797,0.0 107.6234448,-6.9314076,0.0 107.6240705,-6.931675,0.0 107.6241025,-6.9316887,0.0 107.6243775,-6.9318062,0.0 107.6244842,-6.9318518,0.0 107.6246625,-6.9319336,0.0 107.625024,-6.9320993,0.0 107.6252034,-6.9321877,0.0</coordinates>
            </LineString>
        </Placemark>
        <Placemark id="26888">
            <name>Jalan Kyai Haji Ahmad Dahlan</name>
            <styleUrl>#26889</styleUrl>
            <LineString id="26887">
                <coordinates>107.6192569,-6.9313802,0.0 107.6195403,-6.9314027,0.0 107.6198275,-6.9314581,0.0 107.6200483,-6.9315397,0.0 107.6202525,-6.9316471,0.0 107.6203316,-6.9317067,0.0 107.6204269,-6.9317785,0.0</coordinates>
            </LineString>
        </Placemark>
        <Placemark id="26892">
            <name>Jalan Pahlawan</name>
            <styleUrl>#26893</styleUrl>
            <LineString id="26891">
                <coordinates>107.6350549,-6.9019378,0.0 107.6348987,-6.9016374,0.0 107.6348128,-6.9014729,0.0 107.634484,-6.9008227,0.0 107.6343436,-6.9005363,0.0 107.6342539,-6.9003269,0.0 107.6342453,-6.9003068,0.0 107.634226,-6.9002535,0.0 107.634169,-6.9000823,0.0 107.6341191,-6.8999094,0.0 107.6340678,-6.8997079,0.0 107.6340457,-6.8996181,0.0 107.6340202,-6.8994968,0.0 107.6339954,-6.8993522,0.0 107.6339847,-6.8991547,0.0 107.6339826,-6.8991154,0.0 107.6339837,-6.8989889,0.0 107.6339842,-6.8989336,0.0 107.6339847,-6.8988729,0.0 107.6340079,-6.8985508,0.0 107.6340622,-6.8982024,0.0 107.634127,-6.8979661,0.0 107.6341816,-6.8977908,0.0</coordinates>
            </LineString>
        </Placemark>
        <Placemark id="26896">
            <name>Jalan Lauk Emas</name>
            <styleUrl>#26897</styleUrl>
            <LineString id="26895">
                <coordinates>107.6160965,-6.9300966,0.0 107.6163175,-6.9301757,0.0 107.6164624,-6.9302033,0.0 107.6165483,-6.9302196,0.0 107.6168106,-6.9302256,0.0 107.61707,-6.9301863,0.0</coordinates>
            </LineString>
        </Placemark>
        <Placemark id="26900">
            <name>Jalan Dewi Sartika</name>
            <styleUrl>#26901</styleUrl>
            <LineString id="26899">
                <coordinates>107.6059454,-6.9273849,0.0 107.6059791,-6.9270185,0.0 107.6059757,-6.9268782,0.0 107.6059805,-6.9267319,0.0 107.6059951,-6.9265345,0.0 107.6060102,-6.926383,0.0 107.6060764,-6.9256868,0.0</coordinates>
            </LineString>
        </Placemark>
        <Placemark id="26904">
            <name>Jalan PH. H. Mustofa</name>
            <styleUrl>#26905</styleUrl>
            <LineString id="26903">
                <coordinates>107.6434139,-6.8999482,0.0 107.6435297,-6.8999663,0.0 107.6436124,-6.8999796,0.0 107.643667,-6.8999883,0.0</coordinates>
            </LineString>
        </Placemark>
        <Placemark id="26908">
            <name>Jalan Supratman</name>
            <styleUrl>#26909</styleUrl>
            <LineString id="26907">
                <coordinates>107.6300738,-6.9068822,0.0 107.6299247,-6.9066444,0.0 107.629845,-6.9065172,0.0</coordinates>
            </LineString>
        </Placemark>
        <Placemark id="26912">
            <name>Jalan Pungkur</name>
            <styleUrl>#26913</styleUrl>
            <LineString id="26911">
                <coordinates>107.6124017,-6.9313355,0.0 107.61187,-6.9308162,0.0 107.6116302,-6.9305815,0.0 107.6116186,-6.9305702,0.0 107.6106762,-6.929646,0.0 107.6105504,-6.9295269,0.0 107.6104487,-6.929424,0.0 107.6100312,-6.9290167,0.0 107.6094207,-6.928383,0.0 107.6093404,-6.9283054,0.0 107.608899,-6.9278672,0.0 107.6088347,-6.9278033,0.0 107.6087019,-6.927694,0.0 107.6085694,-6.9276437,0.0 107.608453,-6.9276268,0.0 107.6079082,-6.9275733,0.0 107.6078124,-6.9275639,0.0 107.6075592,-6.927539,0.0 107.6070558,-6.9274889,0.0</coordinates>
            </LineString>
        </Placemark>
        <Placemark id="26916">
            <name>Jalan R.A.A. Martanegara</name>
            <styleUrl>#26917</styleUrl>
            <LineString id="26915">
                <coordinates>107.6272158,-6.9330278,0.0 107.6277229,-6.9331834,0.0 107.6277833,-6.9331991,0.0 107.6278437,-6.9332148,0.0 107.6282092,-6.9333101,0.0 107.6288528,-6.9334603,0.0 107.6290573,-6.933508,0.0 107.6292413,-6.933555,0.0 107.6297626,-6.9336792,0.0 107.6306127,-6.9338832,0.0 107.6310515,-6.9339821,0.0 107.6313521,-6.9340498,0.0 107.6314371,-6.9340689,0.0 107.6321764,-6.9342353,0.0 107.6325931,-6.9343034,0.0</coordinates>
            </LineString>
        </Placemark>
        <Placemark id="26920">
            <name>Jalan PH. H. Mustofa</name>
            <styleUrl>#26921</styleUrl>
            <LineString id="26919">
                <coordinates>107.6438196,-6.9000127,0.0 107.6439328,-6.9000256,0.0 107.643984,-6.9000314,0.0 107.6442214,-6.9000581,0.0 107.6446479,-6.9001485,0.0 107.6446782,-6.9001599,0.0 107.6448952,-6.9002413,0.0 107.6449808,-6.9002743,0.0 107.6452068,-6.9003719,0.0 107.6452442,-6.900388,0.0 107.6452841,-6.9004052,0.0 107.6453987,-6.9004547,0.0 107.6455117,-6.9005103,0.0 107.6455998,-6.9005537,0.0 107.6457674,-6.9006362,0.0 107.6458421,-6.900673,0.0 107.6461092,-6.9008033,0.0 107.6461914,-6.9008434,0.0 107.6463329,-6.9009168,0.0 107.6464296,-6.900967,0.0 107.6469046,-6.9012136,0.0 107.6469293,-6.9012264,0.0 107.6474504,-6.9014584,0.0 107.6477192,-6.901552,0.0 107.6478569,-6.9015852,0.0 107.6480152,-6.9016027,0.0 107.6481316,-6.9016115,0.0 107.6484583,-6.9016362,0.0 107.6485627,-6.9016441,0.0 107.6490533,-6.9016812,0.0 107.6491826,-6.901691,0.0 107.6497732,-6.9017359,0.0 107.6500375,-6.9017541,0.0 107.650317,-6.9017942,0.0 107.6505985,-6.9018158,0.0 107.65075,-6.9018006,0.0</coordinates>
            </LineString>
        </Placemark>
        <Placemark id="26924">
            <name>Jalan Sadakeling</name>
            <styleUrl>#26925</styleUrl>
            <LineString id="26923">
                <coordinates>107.61707,-6.9301863,0.0 107.6171074,-6.9303882,0.0 107.6171605,-6.9305861,0.0 107.6172291,-6.9307792,0.0 107.6173128,-6.9309664,0.0 107.617411,-6.9311464,0.0 107.6174984,-6.9312843,0.0 107.617656,-6.9314894,0.0 107.617959,-6.9317935,0.0</coordinates>
            </LineString>
        </Placemark>
        <Placemark id="26928">
            <name>Jalan Brigjend. Katamso</name>
            <styleUrl>#26929</styleUrl>
            <LineString id="26927">
                <coordinates>107.6303214,-6.9063283,0.0 107.6303549,-6.9062732,0.0 107.6305171,-6.9060357,0.0 107.6306164,-6.9059132,0.0 107.6306329,-6.9058904,0.0 107.6312587,-6.905028,0.0 107.6316451,-6.9044669,0.0 107.6317894,-6.9042688,0.0 107.6320385,-6.9039297,0.0 107.6321582,-6.903793,0.0 107.6324558,-6.9034531,0.0 107.6329526,-6.9030314,0.0 107.6331455,-6.9029229,0.0</coordinates>
            </LineString>
        </Placemark>
        <Placemark id="26932">
            <name>Jalan Jakarta</name>
            <styleUrl>#26933</styleUrl>
            <LineString id="26931">
                <coordinates>107.6374221,-6.9145133,0.0 107.6374071,-6.9145151,0.0 107.6373588,-6.9145209,0.0</coordinates>
            </LineString>
        </Placemark>
        <Placemark id="26936">
            <name>Jalan Jakarta</name>
            <styleUrl>#26937</styleUrl>
            <LineString id="26935">
                <coordinates>107.6375505,-6.9144979,0.0 107.6374221,-6.9145133,0.0</coordinates>
            </LineString>
        </Placemark>
        <Placemark id="26940">
            <name>Route Segment</name>
            <styleUrl>#26941</styleUrl>
            <LineString id="26939">
                <coordinates>107.6437064,-6.9141291,0.0 107.64364,-6.9139376,0.0 107.6436192,-6.9139023,0.0 107.6436004,-6.9138803,0.0 107.6435804,-6.9138673,0.0 107.6435595,-6.9138537,0.0 107.6434317,-6.9138202,0.0</coordinates>
            </LineString>
        </Placemark>
        <Placemark id="26944">
            <name>Jalan H. Ibrahim Adjie</name>
            <styleUrl>#26945</styleUrl>
            <LineString id="26943">
                <coordinates>107.6444657,-6.9265517,0.0 107.6444244,-6.9252812,0.0 107.6444061,-6.9246399,0.0 107.6443982,-6.9245298,0.0 107.6443956,-6.9244413,0.0 107.6443928,-6.9243799,0.0 107.6443899,-6.9243186,0.0 107.644388,-6.924264,0.0 107.6443857,-6.9242173,0.0 107.6443827,-6.9241638,0.0 107.6443757,-6.9240244,0.0 107.6443679,-6.9238694,0.0 107.6443617,-6.9237462,0.0 107.6443436,-6.9232255,0.0 107.6443266,-6.9228161,0.0 107.6443166,-6.9225944,0.0 107.6442979,-6.9222722,0.0 107.6442877,-6.9220961,0.0 107.6442701,-6.9217938,0.0</coordinates>
            </LineString>
        </Placemark>
        <Placemark id="26948">
            <name>Jalan Lapang Supratman</name>
            <styleUrl>#26949</styleUrl>
            <LineString id="26947">
                <coordinates>107.6306223,-6.907732,0.0 107.6302838,-6.9079553,0.0 107.6301163,-6.9080655,0.0 107.6299488,-6.9081756,0.0 107.6297436,-6.9082432,0.0 107.629633,-6.9082512,0.0 107.6295506,-6.9082404,0.0 107.6294925,-6.9082151,0.0 107.629441,-6.9081795,0.0 107.6293885,-6.9081299,0.0</coordinates>
            </LineString>
        </Placemark>
        <Placemark id="26952">
            <name>Jalan Kautamaan Istri</name>
            <styleUrl>#26953</styleUrl>
            <LineString id="26951">
                <coordinates>107.6060764,-6.9256868,0.0 107.6061459,-6.9256988,0.0 107.6065589,-6.9257695,0.0 107.6067208,-6.9257892,0.0 107.6071391,-6.9258274,0.0</coordinates>
            </LineString>
        </Placemark>
        <Placemark id="26956">
            <name>Jalan Jakarta</name>
            <styleUrl>#26957</styleUrl>
            <LineString id="26955">
                <coordinates>107.6417884,-6.9139622,0.0 107.641697,-6.9139738,0.0 107.6414919,-6.9139937,0.0 107.641334,-6.9140119,0.0 107.6412274,-6.9140241,0.0 107.6410877,-6.9140393,0.0 107.6409956,-6.9140515,0.0 107.6405312,-6.9141105,0.0 107.6404431,-6.9141209,0.0 107.6403048,-6.9141385,0.0 107.6402144,-6.914148,0.0 107.6399554,-6.914178,0.0 107.6398939,-6.914186,0.0 107.6397497,-6.9142026,0.0 107.6394855,-6.9142369,0.0 107.6393217,-6.9142593,0.0 107.6391686,-6.914281,0.0 107.6390956,-6.9142912,0.0 107.6389363,-6.9143117,0.0 107.6388474,-6.9143228,0.0 107.6386441,-6.9143525,0.0 107.6385822,-6.9143614,0.0 107.6385215,-6.9143724,0.0 107.6384678,-6.9143807,0.0 107.6381956,-6.9144188,0.0 107.6379503,-6.9144499,0.0 107.6378321,-6.9144641,0.0 107.6377113,-6.9144786,0.0 107.6376149,-6.9144902,0.0 107.6375655,-6.9144961,0.0 107.6375505,-6.9144979,0.0</coordinates>
            </LineString>
        </Placemark>
        <Placemark id="26960">
            <name>Jalan Brigjend. Katamso</name>
            <styleUrl>#26961</styleUrl>
            <LineString id="26959">
                <coordinates>107.629845,-6.9065172,0.0 107.6299279,-6.9064699,0.0</coordinates>
            </LineString>
        </Placemark>
        <Placemark id="26964">
            <name>Jalan Jakarta</name>
            <styleUrl>#26965</styleUrl>
            <LineString id="26963">
                <coordinates>107.6373588,-6.9145209,0.0 107.6371438,-6.9145467,0.0 107.6369043,-6.9145755,0.0 107.6368147,-6.9145887,0.0 107.636513,-6.914633,0.0 107.6362469,-6.9146627,0.0 107.6362076,-6.9146671,0.0 107.6361335,-6.9146647,0.0 107.6360082,-6.9146453,0.0 107.6357903,-6.914575,0.0</coordinates>
            </LineString>
        </Placemark>
        <Placemark id="26968">
            <name>Jalan Jenderal Gatot Subroto</name>
            <styleUrl>#26969</styleUrl>
            <LineString id="26967">
                <coordinates>107.6428873,-6.9316588,0.0 107.6431304,-6.9317573,0.0</coordinates>
            </LineString>
        </Placemark>
        <Placemark id="26972">
            <name>Jalan Lodaya</name>
            <styleUrl>#26973</styleUrl>
            <LineString id="26971">
                <coordinates>107.6254228,-6.9322425,0.0 107.6255951,-6.9323168,0.0 107.6256023,-6.932323,0.0 107.6256263,-6.9323445,0.0 107.6256947,-6.9324168,0.0</coordinates>
            </LineString>
        </Placemark>
        <Placemark id="26976">
            <name>Jalan Kyai Haji Ahmad Dahlan</name>
            <styleUrl>#26977</styleUrl>
            <LineString id="26975">
                <coordinates>107.6204269,-6.9317785,0.0 107.6207279,-6.9319958,0.0 107.6219116,-6.9328188,0.0</coordinates>
            </LineString>
        </Placemark>
        <Placemark id="26980">
            <name>Jalan Mochammad Ramdhan</name>
            <styleUrl>#26981</styleUrl>
            <LineString id="26979">
                <coordinates>107.6155386,-6.9316906,0.0 107.6156276,-6.9315684,0.0 107.6157026,-6.9314613,0.0 107.6157571,-6.9313657,0.0</coordinates>
            </LineString>
        </Placemark>
        <Placemark id="26984">
            <name>Jalan PH. H. Mustofa</name>
            <styleUrl>#26985</styleUrl>
            <LineString id="26983">
                <coordinates>107.6508611,-6.9018087,0.0 107.6511076,-6.9018211,0.0 107.6512496,-6.9018282,0.0 107.6514575,-6.9018387,0.0 107.6521919,-6.901873,0.0 107.6522785,-6.9018762,0.0 107.6525276,-6.9018908,0.0 107.6526167,-6.9018971,0.0 107.6528084,-6.9019067,0.0</coordinates>
            </LineString>
        </Placemark>
        <Placemark id="26988">
            <name>Jalan Mochammad Ramdhan</name>
            <styleUrl>#26989</styleUrl>
            <LineString id="26987">
                <coordinates>107.6152226,-6.9320956,0.0 107.6153893,-6.9318779,0.0</coordinates>
            </LineString>
        </Placemark>
        <Placemark id="26992">
            <name>Route Segment</name>
            <styleUrl>#26993</styleUrl>
            <LineString id="26991">
                <coordinates>107.6572534,-6.9022149,0.0 107.657269,-6.9022844,0.0 107.6572735,-6.9023547,0.0 107.6572781,-6.9023809,0.0 107.6572814,-6.9024322,0.0 107.6572943,-6.9027453,0.0 107.6572785,-6.9027776,0.0 107.6572637,-6.9027902,0.0 107.6572377,-6.9027953,0.0 107.6562671,-6.9028353,0.0 107.6562486,-6.9024172,0.0</coordinates>
            </LineString>
        </Placemark>
        <Placemark id="26996">
            <name>Jalan Jenderal Ahmad Yani</name>
            <styleUrl>#26997</styleUrl>
            <LineString id="26995">
                <coordinates>107.6561365,-6.9020684,0.0 107.6561617,-6.9020693,0.0 107.6564574,-6.9021108,0.0 107.6566343,-6.9021236,0.0 107.6567969,-6.9021302,0.0</coordinates>
            </LineString>
        </Placemark>
        <Placemark id="27000">
            <name>Jalan Jenderal Ahmad Yani</name>
            <styleUrl>#27001</styleUrl>
            <LineString id="26999">
                <coordinates>107.6567969,-6.9021302,0.0 107.6571681,-6.9021368,0.0</coordinates>
            </LineString>
        </Placemark>
        <Placemark id="27004">
            <name>Jalan PH. H. Mustofa</name>
            <styleUrl>#27005</styleUrl>
            <LineString id="27003">
                <coordinates>107.6528084,-6.9019067,0.0 107.6529821,-6.9018754,0.0 107.6534283,-6.9019038,0.0 107.6535715,-6.9019129,0.0 107.6536634,-6.9019188,0.0 107.6540692,-6.901949,0.0 107.6545235,-6.9019873,0.0 107.6548916,-6.9020103,0.0 107.6551205,-6.9020246,0.0</coordinates>
            </LineString>
        </Placemark>
        <Placemark id="27008">
            <name>Jalan Jakarta</name>
            <styleUrl>#27009</styleUrl>
            <LineString id="27007">
                <coordinates>107.6422876,-6.9139498,0.0 107.6421252,-6.9139589,0.0 107.6417884,-6.9139622,0.0</coordinates>
            </LineString>
        </Placemark>
        <Placemark id="27012">
            <name>Jalan Jenderal Gatot Subroto</name>
            <styleUrl>#27013</styleUrl>
            <LineString id="27011">
                <coordinates>107.6421162,-6.9313798,0.0 107.6421546,-6.9313862,0.0 107.6424299,-6.9314861,0.0 107.6428336,-6.9316382,0.0 107.6428873,-6.9316588,0.0</coordinates>
            </LineString>
        </Placemark>
        <Placemark id="27016">
            <name>Jalan Jenderal Gatot Subroto</name>
            <styleUrl>#27017</styleUrl>
            <LineString id="27015">
                <coordinates>107.6404257,-6.9307319,0.0 107.6405374,-6.9307832,0.0</coordinates>
            </LineString>
        </Placemark>
        <Placemark id="27020">
            <name>Jalan Brigjend. Katamso</name>
            <styleUrl>#27021</styleUrl>
            <LineString id="27019">
                <coordinates>107.6332551,-6.9028646,0.0 107.6333952,-6.9027941,0.0 107.6334718,-6.902753,0.0 107.6337467,-6.9026114,0.0 107.6338639,-6.9025511,0.0 107.6342515,-6.9023515,0.0 107.6346604,-6.9021409,0.0 107.6348067,-6.9020656,0.0 107.6350549,-6.9019378,0.0</coordinates>
            </LineString>
        </Placemark>
        <Placemark id="27024">
            <name>Jalan Brigjend. Katamso</name>
            <styleUrl>#27025</styleUrl>
            <LineString id="27023">
                <coordinates>107.6331455,-6.9029229,0.0 107.6332551,-6.9028646,0.0</coordinates>
            </LineString>
        </Placemark>
        <Placemark id="27028">
            <name>Jalan Lapang Supratman</name>
            <styleUrl>#27029</styleUrl>
            <LineString id="27027">
                <coordinates>107.6293885,-6.9081299,0.0 107.6293159,-6.9080334,0.0 107.6292485,-6.9079205,0.0</coordinates>
            </LineString>
        </Placemark>
        <Placemark id="27032">
            <name>Jalan Jenderal Gatot Subroto</name>
            <styleUrl>#27033</styleUrl>
            <LineString id="27031">
                <coordinates>107.635966,-6.9276578,0.0 107.6355184,-6.9274065,0.0 107.6342519,-6.9267189,0.0 107.633548,-6.9263466,0.0</coordinates>
            </LineString>
        </Placemark>
        <Placemark id="27036">
            <name>Jalan Jenderal Gatot Subroto</name>
            <styleUrl>#27037</styleUrl>
            <LineString id="27035">
                <coordinates>107.6335757,-6.9262906,0.0 107.6340089,-6.9265293,0.0</coordinates>
            </LineString>
        </Placemark>
        <Placemark id="27040">
            <name>Jalan Cikuray</name>
            <styleUrl>#27041</styleUrl>
            <LineString id="27039">
                <coordinates>107.6334031,-6.9262659,0.0 107.633424,-6.926207,0.0</coordinates>
            </LineString>
        </Placemark>
        <Placemark id="27044">
            <name>Jalan Jenderal Gatot Subroto</name>
            <styleUrl>#27045</styleUrl>
            <LineString id="27043">
                <coordinates>107.6405374,-6.9307832,0.0 107.6405609,-6.9307935,0.0 107.6410724,-6.9309989,0.0</coordinates>
            </LineString>
        </Placemark>
        <Placemark id="27048">
            <name>Jalan Jenderal Ahmad Yani</name>
            <styleUrl>#27049</styleUrl>
            <LineString id="27047">
                <coordinates>107.6551205,-6.9020246,0.0 107.6551401,-6.9020243,0.0 107.6552301,-6.9020294,0.0 107.6553398,-6.9020357,0.0</coordinates>
            </LineString>
        </Placemark>
        <Placemark id="27052">
            <name>Jalan H. Ibrahim Adjie</name>
            <styleUrl>#27053</styleUrl>
            <LineString id="27051">
                <coordinates>107.6441408,-6.9193272,0.0 107.6441381,-6.9192711,0.0 107.644128,-6.9190672,0.0 107.6440855,-6.9185996,0.0 107.6440727,-6.9184616,0.0 107.6440177,-6.9178882,0.0 107.6438994,-6.916833,0.0 107.6438819,-6.9165842,0.0 107.6438696,-6.9164357,0.0 107.6438628,-6.916367,0.0 107.6438444,-6.9161586,0.0 107.6438277,-6.9159687,0.0 107.6438209,-6.9158898,0.0 107.6437252,-6.9148646,0.0 107.6437224,-6.9148349,0.0 107.6437294,-6.9147964,0.0 107.6437472,-6.9147194,0.0 107.643757,-6.9146763,0.0</coordinates>
            </LineString>
        </Placemark>
        <Placemark id="27056">
            <name>Jalan Jenderal Gatot Subroto</name>
            <styleUrl>#27057</styleUrl>
            <LineString id="27055">
                <coordinates>107.6393128,-6.9299564,0.0 107.6396736,-6.9302614,0.0 107.6398164,-6.9303695,0.0 107.6399577,-6.9304643,0.0 107.6399986,-6.9304871,0.0 107.6402197,-6.9306103,0.0 107.6403778,-6.9307025,0.0 107.6404257,-6.9307319,0.0</coordinates>
            </LineString>
        </Placemark>
        <Placemark id="27060">
            <name>Jalan H. Ibrahim Adjie</name>
            <styleUrl>#27061</styleUrl>
            <LineString id="27059">
                <coordinates>107.6431304,-6.9317573,0.0 107.6431586,-6.9317203,0.0 107.6435367,-6.9312959,0.0 107.6437964,-6.9309966,0.0 107.6438483,-6.9308789,0.0 107.643882,-6.9307183,0.0 107.6439463,-6.9299218,0.0</coordinates>
            </LineString>
        </Placemark>
        <Placemark id="27064">
            <name>Jalan H. Ibrahim Adjie</name>
            <styleUrl>#27065</styleUrl>
            <LineString id="27063">
                <coordinates>107.6439463,-6.9299218,0.0 107.6439317,-6.9298097,0.0 107.6439344,-6.929653,0.0 107.6439464,-6.9294702,0.0 107.6439645,-6.9293351,0.0 107.6439922,-6.9291998,0.0 107.6440965,-6.9289532,0.0 107.6441455,-6.9288288,0.0 107.64417,-6.9287415,0.0 107.6442064,-6.9286091,0.0 107.6442254,-6.9284438,0.0 107.6442374,-6.9283107,0.0 107.6442459,-6.9279591,0.0 107.6442567,-6.9277157,0.0 107.6442828,-6.9275461,0.0 107.6443294,-6.9273645,0.0 107.644384,-6.9272085,0.0 107.6444091,-6.9271102,0.0 107.6444251,-6.9270482,0.0 107.6444287,-6.9270343,0.0</coordinates>
            </LineString>
        </Placemark>
        <Placemark id="27068">
            <name>Jalan Jakarta</name>
            <styleUrl>#27069</styleUrl>
            <LineString id="27067">
                <coordinates>107.6429791,-6.9138756,0.0 107.6422876,-6.9139498,0.0</coordinates>
            </LineString>
        </Placemark>
        <Placemark id="27072">
            <name>Jalan Jakarta</name>
            <styleUrl>#27073</styleUrl>
            <LineString id="27071">
                <coordinates>107.6353857,-6.9144404,0.0 107.6352711,-6.9144049,0.0 107.6350094,-6.9143201,0.0 107.6348813,-6.9142677,0.0 107.634806,-6.9142244,0.0 107.6347384,-6.9141681,0.0 107.6346739,-6.9140816,0.0 107.6340817,-6.912988,0.0 107.6338607,-6.9126134,0.0 107.6335776,-6.9121582,0.0</coordinates>
            </LineString>
        </Placemark>
        <Placemark id="27076">
            <name>Jalan R.A.A. Martanegara</name>
            <styleUrl>#27077</styleUrl>
            <LineString id="27075">
                <coordinates>107.6257675,-6.932523,0.0 107.6258314,-6.9325903,0.0 107.6258765,-6.9326144,0.0 107.626038,-6.9326675,0.0 107.6261518,-6.9327082,0.0 107.6262334,-6.9327732,0.0</coordinates>
            </LineString>
        </Placemark>
        <Placemark id="27080">
            <name>Jalan Jakarta</name>
            <styleUrl>#27081</styleUrl>
            <LineString id="27079">
                <coordinates>107.6357903,-6.914575,0.0 107.6353857,-6.9144404,0.0</coordinates>
            </LineString>
        </Placemark>
        <Placemark id="27084">
            <name>Jalan Jakarta</name>
            <styleUrl>#27085</styleUrl>
            <LineString id="27083">
                <coordinates>107.6335776,-6.9121582,0.0 107.6334111,-6.9119426,0.0 107.6332282,-6.9117173,0.0</coordinates>
            </LineString>
        </Placemark>
        <Placemark id="27088">
            <name>Jalan R.A.A. Martanegara</name>
            <styleUrl>#27089</styleUrl>
            <LineString id="27087">
                <coordinates>107.6256947,-6.9324168,0.0 107.6257675,-6.932523,0.0</coordinates>
            </LineString>
        </Placemark>
        <Placemark id="27092">
            <name>Jalan Lapang Supratman</name>
            <styleUrl>#27093</styleUrl>
            <LineString id="27091">
                <coordinates>107.6292485,-6.9079205,0.0 107.62923,-6.9078642,0.0 107.6292272,-6.9077795,0.0 107.6292391,-6.9077178,0.0 107.6292929,-6.9076039,0.0 107.6293847,-6.9074925,0.0 107.629504,-6.9073986,0.0 107.6296151,-6.9073236,0.0 107.6297079,-6.907261,0.0 107.6297865,-6.907208,0.0 107.6301321,-6.9069718,0.0</coordinates>
            </LineString>
        </Placemark>
        <Placemark id="27096">
            <name>Jalan H. Ibrahim Adjie</name>
            <styleUrl>#27097</styleUrl>
            <LineString id="27095">
                <coordinates>107.643757,-6.9146763,0.0 107.6437064,-6.9141291,0.0</coordinates>
            </LineString>
        </Placemark>
        <Placemark id="27100">
            <name>Jalan Turangga</name>
            <styleUrl>#27101</styleUrl>
            <LineString id="27099">
                <coordinates>107.6338825,-6.9343972,0.0 107.6339321,-6.9342955,0.0 107.6339467,-6.9342632,0.0 107.6340607,-6.9339893,0.0 107.6341116,-6.9338668,0.0 107.6342774,-6.9335348,0.0 107.6345227,-6.9330865,0.0 107.6345527,-6.9330294,0.0 107.6346375,-6.9328351,0.0 107.6346984,-6.9326057,0.0 107.6348134,-6.9321597,0.0 107.6348227,-6.9321233,0.0</coordinates>
            </LineString>
        </Placemark>
        <Placemark id="27104">
            <name>Jalan Jenderal Gatot Subroto</name>
            <styleUrl>#27105</styleUrl>
            <LineString id="27103">
                <coordinates>107.633548,-6.9263466,0.0 107.6334031,-6.9262659,0.0</coordinates>
            </LineString>
        </Placemark>
        <Placemark id="27108">
            <name>Jalan Jenderal Gatot Subroto</name>
            <styleUrl>#27109</styleUrl>
            <LineString id="27107">
                <coordinates>107.633424,-6.926207,0.0 107.6335757,-6.9262906,0.0</coordinates>
            </LineString>
        </Placemark>
        <Placemark id="27112">
            <name>Jalan Jenderal Gatot Subroto</name>
            <styleUrl>#27113</styleUrl>
            <LineString id="27111">
                <coordinates>107.6392228,-6.9298629,0.0 107.6393128,-6.9299564,0.0</coordinates>
            </LineString>
        </Placemark>
        <Placemark id="27116">
            <name>Jalan Jenderal Gatot Subroto</name>
            <styleUrl>#27117</styleUrl>
            <LineString id="27115">
                <coordinates>107.6391119,-6.9297496,0.0 107.6392228,-6.9298629,0.0</coordinates>
            </LineString>
        </Placemark>
        <Placemark id="27120">
            <name>Jalan Sadakeling</name>
            <styleUrl>#27121</styleUrl>
            <LineString id="27119">
                <coordinates>107.617959,-6.9317935,0.0 107.617994,-6.9318213,0.0 107.6180396,-6.9318293,0.0 107.6181273,-6.9318132,0.0</coordinates>
            </LineString>
        </Placemark>
        <Placemark id="27124">
            <name>Jalan Karapitan</name>
            <styleUrl>#27125</styleUrl>
            <LineString id="27123">
                <coordinates>107.6157571,-6.9313657,0.0 107.6158192,-6.9311439,0.0 107.6158573,-6.9310078,0.0</coordinates>
            </LineString>
        </Placemark>
        <Placemark id="27128">
            <name>Jalan Jenderal Gatot Subroto</name>
            <styleUrl>#27129</styleUrl>
            <LineString id="27127">
                <coordinates>107.6414267,-6.9311304,0.0 107.6414678,-6.9311453,0.0 107.641579,-6.9311846,0.0 107.6418972,-6.9313006,0.0 107.6419659,-6.9313255,0.0 107.6421162,-6.9313798,0.0</coordinates>
            </LineString>
        </Placemark>
        <Placemark id="27132">
            <name>Jalan Jenderal Gatot Subroto</name>
            <styleUrl>#27133</styleUrl>
            <LineString id="27131">
                <coordinates>107.6410724,-6.9309989,0.0 107.6410984,-6.9309977,0.0 107.6412733,-6.9310615,0.0 107.6414123,-6.9311195,0.0 107.6414267,-6.9311304,0.0</coordinates>
            </LineString>
        </Placemark>
        <Placemark id="27136">
            <name>Jalan Jenderal Ahmad Yani</name>
            <styleUrl>#27137</styleUrl>
            <LineString id="27135">
                <coordinates>107.6557405,-6.9020533,0.0 107.6561365,-6.9020684,0.0</coordinates>
            </LineString>
        </Placemark>
        <Placemark id="27140">
            <name>Jalan PH. H. Mustofa</name>
            <styleUrl>#27141</styleUrl>
            <LineString id="27139">
                <coordinates>107.6341816,-6.8977908,0.0 107.6343318,-6.8978054,0.0 107.6344445,-6.8978256,0.0 107.6345958,-6.8978604,0.0 107.6349905,-6.8979512,0.0 107.6353023,-6.8980235,0.0 107.6357319,-6.8981263,0.0 107.6358307,-6.8981511,0.0 107.6360412,-6.8982085,0.0 107.6360827,-6.8982198,0.0 107.6361323,-6.8982307,0.0 107.6362093,-6.8982483,0.0 107.6363508,-6.8982807,0.0 107.6365297,-6.8983213,0.0 107.6367332,-6.8983675,0.0 107.6369176,-6.8984093,0.0 107.6369418,-6.8984148,0.0 107.6369918,-6.8984267,0.0 107.6370818,-6.8984481,0.0</coordinates>
            </LineString>
        </Placemark>
        <Placemark id="27144">
            <name>Jalan Lodaya</name>
            <styleUrl>#27145</styleUrl>
            <LineString id="27143">
                <coordinates>107.6252506,-6.9322109,0.0 107.6253502,-6.9322173,0.0 107.6254228,-6.9322425,0.0</coordinates>
            </LineString>
        </Placemark>
        <Placemark id="27148">
            <name>Jalan Karapitan</name>
            <styleUrl>#27149</styleUrl>
            <LineString id="27147">
                <coordinates>107.6158573,-6.9310078,0.0 107.6159987,-6.9304668,0.0 107.6160678,-6.9302053,0.0 107.6160965,-6.9300966,0.0</coordinates>
            </LineString>
        </Placemark>
        <Placemark id="27152">
            <name>Jalan H. Ibrahim Adjie</name>
            <styleUrl>#27153</styleUrl>
            <LineString id="27151">
                <coordinates>107.6444287,-6.9270343,0.0 107.6444385,-6.9269855,0.0 107.6444491,-6.9269381,0.0</coordinates>
            </LineString>
        </Placemark>
        <Placemark id="27156">
            <name>Jalan H. Ibrahim Adjie</name>
            <styleUrl>#27157</styleUrl>
            <LineString id="27155">
                <coordinates>107.6441491,-6.9195253,0.0 107.6441456,-6.9194414,0.0 107.6441408,-6.9193272,0.0</coordinates>
            </LineString>
        </Placemark>
        <Placemark id="27160">
            <name>Jalan R.A.A. Martanegara</name>
            <styleUrl>#27161</styleUrl>
            <LineString id="27159">
                <coordinates>107.6325931,-6.9343034,0.0 107.632626,-6.9342645,0.0 107.6326614,-6.9342515,0.0 107.6327072,-6.9342443,0.0 107.6327216,-6.934244,0.0 107.6336699,-6.93437,0.0 107.6337971,-6.934385,0.0 107.6338825,-6.9343972,0.0</coordinates>
            </LineString>
        </Placemark>
        <Placemark id="27164">
            <name>Jalan R.A.A. Martanegara</name>
            <styleUrl>#27165</styleUrl>
            <LineString id="27163">
                <coordinates>107.6262334,-6.9327732,0.0 107.6264059,-6.9328203,0.0 107.626494,-6.9328449,0.0 107.6266861,-6.9328918,0.0 107.6267628,-6.9329091,0.0 107.6272158,-6.9330278,0.0</coordinates>
            </LineString>
        </Placemark>
        <Placemark id="27168">
            <name>Jalan H. Ibrahim Adjie</name>
            <styleUrl>#27169</styleUrl>
            <LineString id="27167">
                <coordinates>107.6442126,-6.9206082,0.0 107.6441491,-6.9195253,0.0</coordinates>
            </LineString>
        </Placemark>
        <Placemark id="27172">
            <name>Jalan H. Ibrahim Adjie</name>
            <styleUrl>#27173</styleUrl>
            <LineString id="27171">
                <coordinates>107.6442701,-6.9217938,0.0 107.6442126,-6.9206082,0.0</coordinates>
            </LineString>
        </Placemark>
        <Placemark id="27176">
            <name>Jalan H. Ibrahim Adjie</name>
            <styleUrl>#27177</styleUrl>
            <LineString id="27175">
                <coordinates>107.6444491,-6.9269381,0.0 107.6444587,-6.9268515,0.0 107.6444641,-6.9267038,0.0 107.6444657,-6.9265517,0.0</coordinates>
            </LineString>
        </Placemark>
        <Placemark id="27180">
            <name>Jalan PH. H. Mustofa</name>
            <styleUrl>#27181</styleUrl>
            <LineString id="27179">
                <coordinates>107.65075,-6.9018006,0.0 107.6508611,-6.9018087,0.0</coordinates>
            </LineString>
        </Placemark>
        <Placemark id="27184">
            <name>Jalan PH. H. Mustofa</name>
            <styleUrl>#27185</styleUrl>
            <LineString id="27183">
                <coordinates>107.6417839,-6.8995613,0.0 107.6420026,-6.8996132,0.0 107.6420884,-6.8996335,0.0 107.6421976,-6.8996594,0.0 107.6422944,-6.8996824,0.0 107.6424647,-6.8997229,0.0 107.6426735,-6.8997726,0.0 107.64279,-6.8998003,0.0 107.642932,-6.8998339,0.0 107.6429728,-6.8998436,0.0 107.6431044,-6.8998716,0.0 107.6434139,-6.8999482,0.0</coordinates>
            </LineString>
        </Placemark>
        <Placemark id="27188">
            <name>Jalan Dewi Sartika</name>
            <styleUrl>#27189</styleUrl>
            <LineString id="27187">
                <coordinates>107.6058386,-6.9275637,0.0 107.6058453,-6.9274973,0.0</coordinates>
            </LineString>
        </Placemark>
        <Placemark id="27192">
            <name>Jalan Dewi Sartika</name>
            <styleUrl>#27193</styleUrl>
            <LineString id="27191">
                <coordinates>107.6058453,-6.9274973,0.0 107.6058559,-6.9274746,0.0 107.605878,-6.9274596,0.0 107.6059082,-6.9274425,0.0 107.6059305,-6.9274223,0.0 107.6059373,-6.9274102,0.0 107.6059454,-6.9273849,0.0</coordinates>
            </LineString>
        </Placemark>
        <Placemark id="27196">
            <name>Route Segment</name>
            <styleUrl>#27197</styleUrl>
            <LineString id="27195">
                <coordinates>107.6571681,-6.9021368,0.0 107.6572534,-6.9022149,0.0</coordinates>
            </LineString>
        </Placemark>
        <Placemark id="27200">
            <name>Jalan Jakarta</name>
            <styleUrl>#27201</styleUrl>
            <LineString id="27199">
                <coordinates>107.6434317,-6.9138202,0.0 107.6429791,-6.9138756,0.0</coordinates>
            </LineString>
        </Placemark>
        <Placemark id="27204">
            <name>Jalan Dewi Sartika</name>
            <styleUrl>#27205</styleUrl>
            <LineString id="27203">
                <coordinates>107.6058322,-6.9276428,0.0 107.6058386,-6.9275637,0.0</coordinates>
            </LineString>
        </Placemark>
        <Placemark id="27208">
            <name>Jalan Lodaya</name>
            <styleUrl>#27209</styleUrl>
            <LineString id="27207">
                <coordinates>107.6252034,-6.9321877,0.0 107.6252506,-6.9322109,0.0</coordinates>
            </LineString>
        </Placemark>
        <Placemark id="27212">
            <name>Jalan Jenderal Ahmad Yani</name>
            <styleUrl>#27213</styleUrl>
            <LineString id="27211">
                <coordinates>107.6553398,-6.9020357,0.0 107.6555577,-6.9020453,0.0 107.6557405,-6.9020533,0.0</coordinates>
            </LineString>
        </Placemark>
        <Placemark id="27216">
            <name>Jalan Jenderal Gatot Subroto</name>
            <styleUrl>#27217</styleUrl>
            <LineString id="27215">
                <coordinates>107.6340089,-6.9265293,0.0 107.6342187,-6.9266405,0.0 107.6347544,-6.9269243,0.0</coordinates>
            </LineString>
        </Placemark>
        <Placemark id="27220">
            <name>Jalan Jenderal Gatot Subroto</name>
            <styleUrl>#27221</styleUrl>
            <LineString id="27219">
                <coordinates>107.6347544,-6.9269243,0.0 107.634993,-6.9270488,0.0</coordinates>
            </LineString>
        </Placemark>
        <Placemark id="27224">
            <name>Jalan Jenderal Gatot Subroto</name>
            <styleUrl>#27225</styleUrl>
            <LineString id="27223">
                <coordinates>107.634993,-6.9270488,0.0 107.6350472,-6.9270783,0.0 107.6352307,-6.927178,0.0</coordinates>
            </LineString>
        </Placemark>
        <Placemark id="27228">
            <name>Jalan Jenderal Gatot Subroto</name>
            <styleUrl>#27229</styleUrl>
            <LineString id="27227">
                <coordinates>107.6352307,-6.927178,0.0 107.6354306,-6.9272867,0.0</coordinates>
            </LineString>
        </Placemark>
        <Placemark id="27232">
            <name>Jalan Jenderal Gatot Subroto</name>
            <styleUrl>#27233</styleUrl>
            <LineString id="27231">
                <coordinates>107.6354306,-6.9272867,0.0 107.63561,-6.9273802,0.0</coordinates>
            </LineString>
        </Placemark>
        <Placemark id="27236">
            <name>Jalan Jenderal Gatot Subroto</name>
            <styleUrl>#27237</styleUrl>
            <LineString id="27235">
                <coordinates>107.63561,-6.9273802,0.0 107.6356496,-6.9274015,0.0 107.6357849,-6.927476,0.0</coordinates>
            </LineString>
        </Placemark>
        <Placemark id="27240">
            <name>Jalan Jenderal Gatot Subroto</name>
            <styleUrl>#27241</styleUrl>
            <LineString id="27239">
                <coordinates>107.6357849,-6.927476,0.0 107.6362458,-6.9277178,0.0</coordinates>
            </LineString>
        </Placemark>
        <Placemark id="27244">
            <name>Jalan Jenderal Gatot Subroto</name>
            <styleUrl>#27245</styleUrl>
            <LineString id="27243">
                <coordinates>107.6362458,-6.9277178,0.0 107.6364437,-6.927832,0.0</coordinates>
            </LineString>
        </Placemark>
        <Placemark id="27248">
            <name>Jalan Jenderal Gatot Subroto</name>
            <styleUrl>#27249</styleUrl>
            <LineString id="27247">
                <coordinates>107.6364437,-6.927832,0.0 107.636514,-6.9278775,0.0 107.636589,-6.9279454,0.0</coordinates>
            </LineString>
        </Placemark>
        <Placemark id="27252">
            <name>Jalan Turangga</name>
            <styleUrl>#27253</styleUrl>
            <LineString id="27251">
                <coordinates>107.6353583,-6.9300131,0.0 107.6354405,-6.9296823,0.0 107.6354571,-6.9296186,0.0 107.6355016,-6.9294512,0.0 107.6355097,-6.9294192,0.0 107.6355448,-6.9292849,0.0 107.6355557,-6.9292433,0.0 107.6355813,-6.9291539,0.0</coordinates>
            </LineString>
        </Placemark>
        <Placemark id="27256">
            <name>Jalan Turangga</name>
            <styleUrl>#27257</styleUrl>
            <LineString id="27255">
                <coordinates>107.6355813,-6.9291539,0.0 107.6356061,-6.9290657,0.0 107.6357588,-6.9285046,0.0 107.6358294,-6.9281885,0.0 107.6359524,-6.9277105,0.0 107.635966,-6.9276578,0.0</coordinates>
            </LineString>
        </Placemark>
        <Placemark id="27260">
            <name>Jalan Supratman</name>
            <styleUrl>#27261</styleUrl>
            <LineString id="27259">
                <coordinates>107.6301321,-6.9069718,0.0 107.6300738,-6.9068822,0.0</coordinates>
            </LineString>
        </Placemark>
    </Document>
</kml>
