<?xml version="1.0" encoding="UTF-8"?>
<kml xmlns="http://www.opengis.net/kml/2.2" xmlns:gx="http://www.google.com/kml/ext/2.2">
    <Document id="28475">
        <Style id="28481">
            <LineStyle id="28482">
                <color>ff2D1EBE</color>
                <colorMode>normal</colorMode>
                <width>4</width>
            </LineStyle>
        </Style>
        <Style id="28485">
            <LineStyle id="28486">
                <color>ff2D1EBE</color>
                <colorMode>normal</colorMode>
                <width>4</width>
            </LineStyle>
        </Style>
        <Style id="28489">
            <LineStyle id="28490">
                <color>ff2D1EBE</color>
                <colorMode>normal</colorMode>
                <width>4</width>
            </LineStyle>
        </Style>
        <Style id="28493">
            <LineStyle id="28494">
                <color>ff2D1EBE</color>
                <colorMode>normal</colorMode>
                <width>4</width>
            </LineStyle>
        </Style>
        <Style id="28497">
            <LineStyle id="28498">
                <color>ff2D1EBE</color>
                <colorMode>normal</colorMode>
                <width>4</width>
            </LineStyle>
        </Style>
        <Style id="28501">
            <LineStyle id="28502">
                <color>ff2D1EBE</color>
                <colorMode>normal</colorMode>
                <width>4</width>
            </LineStyle>
        </Style>
        <Style id="28505">
            <LineStyle id="28506">
                <color>ff2D1EBE</color>
                <colorMode>normal</colorMode>
                <width>4</width>
            </LineStyle>
        </Style>
        <Style id="28509">
            <LineStyle id="28510">
                <color>ff2D1EBE</color>
                <colorMode>normal</colorMode>
                <width>4</width>
            </LineStyle>
        </Style>
        <Style id="28513">
            <LineStyle id="28514">
                <color>ff2D1EBE</color>
                <colorMode>normal</colorMode>
                <width>4</width>
            </LineStyle>
        </Style>
        <Style id="28517">
            <LineStyle id="28518">
                <color>ff2D1EBE</color>
                <colorMode>normal</colorMode>
                <width>4</width>
            </LineStyle>
        </Style>
        <Style id="28521">
            <LineStyle id="28522">
                <color>ff2D1EBE</color>
                <colorMode>normal</colorMode>
                <width>4</width>
            </LineStyle>
        </Style>
        <Style id="28525">
            <LineStyle id="28526">
                <color>ff2D1EBE</color>
                <colorMode>normal</colorMode>
                <width>4</width>
            </LineStyle>
        </Style>
        <Style id="28529">
            <LineStyle id="28530">
                <color>ff2D1EBE</color>
                <colorMode>normal</colorMode>
                <width>4</width>
            </LineStyle>
        </Style>
        <Style id="28533">
            <LineStyle id="28534">
                <color>ff2D1EBE</color>
                <colorMode>normal</colorMode>
                <width>4</width>
            </LineStyle>
        </Style>
        <Style id="28537">
            <LineStyle id="28538">
                <color>ff2D1EBE</color>
                <colorMode>normal</colorMode>
                <width>4</width>
            </LineStyle>
        </Style>
        <Style id="28541">
            <LineStyle id="28542">
                <color>ff2D1EBE</color>
                <colorMode>normal</colorMode>
                <width>4</width>
            </LineStyle>
        </Style>
        <Style id="28545">
            <LineStyle id="28546">
                <color>ff2D1EBE</color>
                <colorMode>normal</colorMode>
                <width>4</width>
            </LineStyle>
        </Style>
        <Style id="28549">
            <LineStyle id="28550">
                <color>ff2D1EBE</color>
                <colorMode>normal</colorMode>
                <width>4</width>
            </LineStyle>
        </Style>
        <Style id="28553">
            <LineStyle id="28554">
                <color>ff2D1EBE</color>
                <colorMode>normal</colorMode>
                <width>4</width>
            </LineStyle>
        </Style>
        <Style id="28557">
            <LineStyle id="28558">
                <color>ff2D1EBE</color>
                <colorMode>normal</colorMode>
                <width>4</width>
            </LineStyle>
        </Style>
        <Style id="28561">
            <LineStyle id="28562">
                <color>ff2D1EBE</color>
                <colorMode>normal</colorMode>
                <width>4</width>
            </LineStyle>
        </Style>
        <Style id="28565">
            <LineStyle id="28566">
                <color>ff2D1EBE</color>
                <colorMode>normal</colorMode>
                <width>4</width>
            </LineStyle>
        </Style>
        <Style id="28569">
            <LineStyle id="28570">
                <color>ff2D1EBE</color>
                <colorMode>normal</colorMode>
                <width>4</width>
            </LineStyle>
        </Style>
        <Style id="28573">
            <LineStyle id="28574">
                <color>ff2D1EBE</color>
                <colorMode>normal</colorMode>
                <width>4</width>
            </LineStyle>
        </Style>
        <Style id="28577">
            <LineStyle id="28578">
                <color>ff2D1EBE</color>
                <colorMode>normal</colorMode>
                <width>4</width>
            </LineStyle>
        </Style>
        <Style id="28581">
            <LineStyle id="28582">
                <color>ff2D1EBE</color>
                <colorMode>normal</colorMode>
                <width>4</width>
            </LineStyle>
        </Style>
        <Style id="28585">
            <LineStyle id="28586">
                <color>ff2D1EBE</color>
                <colorMode>normal</colorMode>
                <width>4</width>
            </LineStyle>
        </Style>
        <Style id="28589">
            <LineStyle id="28590">
                <color>ff2D1EBE</color>
                <colorMode>normal</colorMode>
                <width>4</width>
            </LineStyle>
        </Style>
        <Style id="28593">
            <LineStyle id="28594">
                <color>ff2D1EBE</color>
                <colorMode>normal</colorMode>
                <width>4</width>
            </LineStyle>
        </Style>
        <Style id="28597">
            <LineStyle id="28598">
                <color>ff2D1EBE</color>
                <colorMode>normal</colorMode>
                <width>4</width>
            </LineStyle>
        </Style>
        <Style id="28601">
            <LineStyle id="28602">
                <color>ff2D1EBE</color>
                <colorMode>normal</colorMode>
                <width>4</width>
            </LineStyle>
        </Style>
        <Style id="28605">
            <LineStyle id="28606">
                <color>ff2D1EBE</color>
                <colorMode>normal</colorMode>
                <width>4</width>
            </LineStyle>
        </Style>
        <Style id="28609">
            <LineStyle id="28610">
                <color>ff2D1EBE</color>
                <colorMode>normal</colorMode>
                <width>4</width>
            </LineStyle>
        </Style>
        <Style id="28613">
            <LineStyle id="28614">
                <color>ff2D1EBE</color>
                <colorMode>normal</colorMode>
                <width>4</width>
            </LineStyle>
        </Style>
        <Style id="28617">
            <LineStyle id="28618">
                <color>ff2D1EBE</color>
                <colorMode>normal</colorMode>
                <width>4</width>
            </LineStyle>
        </Style>
        <Style id="28621">
            <LineStyle id="28622">
                <color>ff2D1EBE</color>
                <colorMode>normal</colorMode>
                <width>4</width>
            </LineStyle>
        </Style>
        <Style id="28625">
            <LineStyle id="28626">
                <color>ff2D1EBE</color>
                <colorMode>normal</colorMode>
                <width>4</width>
            </LineStyle>
        </Style>
        <Style id="28629">
            <LineStyle id="28630">
                <color>ff2D1EBE</color>
                <colorMode>normal</colorMode>
                <width>4</width>
            </LineStyle>
        </Style>
        <Style id="28633">
            <LineStyle id="28634">
                <color>ff2D1EBE</color>
                <colorMode>normal</colorMode>
                <width>4</width>
            </LineStyle>
        </Style>
        <Style id="28637">
            <LineStyle id="28638">
                <color>ff2D1EBE</color>
                <colorMode>normal</colorMode>
                <width>4</width>
            </LineStyle>
        </Style>
        <Style id="28641">
            <LineStyle id="28642">
                <color>ff2D1EBE</color>
                <colorMode>normal</colorMode>
                <width>4</width>
            </LineStyle>
        </Style>
        <Style id="28645">
            <LineStyle id="28646">
                <color>ff2D1EBE</color>
                <colorMode>normal</colorMode>
                <width>4</width>
            </LineStyle>
        </Style>
        <Style id="28649">
            <LineStyle id="28650">
                <color>ff2D1EBE</color>
                <colorMode>normal</colorMode>
                <width>4</width>
            </LineStyle>
        </Style>
        <Style id="28653">
            <LineStyle id="28654">
                <color>ff2D1EBE</color>
                <colorMode>normal</colorMode>
                <width>4</width>
            </LineStyle>
        </Style>
        <Style id="28657">
            <LineStyle id="28658">
                <color>ff2D1EBE</color>
                <colorMode>normal</colorMode>
                <width>4</width>
            </LineStyle>
        </Style>
        <Style id="28661">
            <LineStyle id="28662">
                <color>ff2D1EBE</color>
                <colorMode>normal</colorMode>
                <width>4</width>
            </LineStyle>
        </Style>
        <Style id="28665">
            <LineStyle id="28666">
                <color>ff2D1EBE</color>
                <colorMode>normal</colorMode>
                <width>4</width>
            </LineStyle>
        </Style>
        <Style id="28669">
            <LineStyle id="28670">
                <color>ff2D1EBE</color>
                <colorMode>normal</colorMode>
                <width>4</width>
            </LineStyle>
        </Style>
        <Style id="28673">
            <LineStyle id="28674">
                <color>ff2D1EBE</color>
                <colorMode>normal</colorMode>
                <width>4</width>
            </LineStyle>
        </Style>
        <Style id="28677">
            <LineStyle id="28678">
                <color>ff2D1EBE</color>
                <colorMode>normal</colorMode>
                <width>4</width>
            </LineStyle>
        </Style>
        <Style id="28681">
            <LineStyle id="28682">
                <color>ff2D1EBE</color>
                <colorMode>normal</colorMode>
                <width>4</width>
            </LineStyle>
        </Style>
        <Style id="28685">
            <LineStyle id="28686">
                <color>ff2D1EBE</color>
                <colorMode>normal</colorMode>
                <width>4</width>
            </LineStyle>
        </Style>
        <Style id="28689">
            <LineStyle id="28690">
                <color>ff2D1EBE</color>
                <colorMode>normal</colorMode>
                <width>4</width>
            </LineStyle>
        </Style>
        <Style id="28693">
            <LineStyle id="28694">
                <color>ff2D1EBE</color>
                <colorMode>normal</colorMode>
                <width>4</width>
            </LineStyle>
        </Style>
        <Style id="28697">
            <LineStyle id="28698">
                <color>ff2D1EBE</color>
                <colorMode>normal</colorMode>
                <width>4</width>
            </LineStyle>
        </Style>
        <Style id="28701">
            <LineStyle id="28702">
                <color>ff2D1EBE</color>
                <colorMode>normal</colorMode>
                <width>4</width>
            </LineStyle>
        </Style>
        <Style id="28705">
            <LineStyle id="28706">
                <color>ff2D1EBE</color>
                <colorMode>normal</colorMode>
                <width>4</width>
            </LineStyle>
        </Style>
        <Style id="28709">
            <LineStyle id="28710">
                <color>ff2D1EBE</color>
                <colorMode>normal</colorMode>
                <width>4</width>
            </LineStyle>
        </Style>
        <Style id="28713">
            <LineStyle id="28714">
                <color>ff2D1EBE</color>
                <colorMode>normal</colorMode>
                <width>4</width>
            </LineStyle>
        </Style>
        <Style id="28717">
            <LineStyle id="28718">
                <color>ff2D1EBE</color>
                <colorMode>normal</colorMode>
                <width>4</width>
            </LineStyle>
        </Style>
        <Style id="28721">
            <LineStyle id="28722">
                <color>ff2D1EBE</color>
                <colorMode>normal</colorMode>
                <width>4</width>
            </LineStyle>
        </Style>
        <Style id="28725">
            <LineStyle id="28726">
                <color>ff2D1EBE</color>
                <colorMode>normal</colorMode>
                <width>4</width>
            </LineStyle>
        </Style>
        <Style id="28729">
            <LineStyle id="28730">
                <color>ff2D1EBE</color>
                <colorMode>normal</colorMode>
                <width>4</width>
            </LineStyle>
        </Style>
        <Style id="28733">
            <LineStyle id="28734">
                <color>ff2D1EBE</color>
                <colorMode>normal</colorMode>
                <width>4</width>
            </LineStyle>
        </Style>
        <Style id="28737">
            <LineStyle id="28738">
                <color>ff2D1EBE</color>
                <colorMode>normal</colorMode>
                <width>4</width>
            </LineStyle>
        </Style>
        <Style id="28741">
            <LineStyle id="28742">
                <color>ff2D1EBE</color>
                <colorMode>normal</colorMode>
                <width>4</width>
            </LineStyle>
        </Style>
        <Style id="28745">
            <IconStyle id="28746">
                <colorMode>normal</colorMode>
                <scale>1</scale>
                <heading>0</heading>
                <Icon id="28747">
                    <href>http://maps.google.com/mapfiles/kml/pushpin/ylw-pushpin.png</href>
                </Icon>
            </IconStyle>
        </Style>
        <Style id="28750">
            <IconStyle id="28751">
                <colorMode>normal</colorMode>
                <scale>1</scale>
                <heading>0</heading>
                <Icon id="28752">
                    <href>http://maps.google.com/mapfiles/kml/pushpin/ylw-pushpin.png</href>
                </Icon>
            </IconStyle>
        </Style>
        <ExtendedData>
            <Data name="route-name">
                <value>01B: Cicaheum → Abdul Muis via Aceh</value>
            </Data>
            <Data name="source">
                <value>Transport for Bandung</value>
            </Data>
        </ExtendedData>
        <Placemark id="28480">
            <name>Jalan Dewi Sartika</name>
            <styleUrl>#28481</styleUrl>
            <LineString id="28479">
                <coordinates>107.6054273,-6.9316877,0.0 107.6055016,-6.9311384,0.0</coordinates>
            </LineString>
        </Placemark>
        <Placemark id="28484">
            <name>Jalan PH. H. Mustofa</name>
            <styleUrl>#28485</styleUrl>
            <LineString id="28483">
                <coordinates>107.6370818,-6.8984481,0.0 107.637183,-6.8984713,0.0 107.6373036,-6.8984993,0.0 107.63734,-6.8985077,0.0 107.6374067,-6.8985235,0.0 107.6375247,-6.8985515,0.0 107.6376569,-6.8985829,0.0 107.6378565,-6.8986302,0.0 107.6379062,-6.898642,0.0 107.6379805,-6.8986596,0.0 107.6380614,-6.8986788,0.0 107.6382004,-6.8987117,0.0 107.6383016,-6.8987357,0.0 107.6385967,-6.8988043,0.0 107.6389496,-6.8988893,0.0 107.6392578,-6.8989624,0.0 107.6394338,-6.8990042,0.0 107.639528,-6.8990264,0.0 107.639689,-6.8990635,0.0 107.6397992,-6.8990899,0.0 107.6398962,-6.8991138,0.0 107.6399762,-6.8991322,0.0 107.640051,-6.8991472,0.0 107.6404383,-6.8992417,0.0 107.6405323,-6.8992646,0.0 107.6407134,-6.8993075,0.0 107.6407662,-6.89932,0.0 107.6408435,-6.8993384,0.0 107.6412764,-6.899441,0.0 107.641347,-6.8994578,0.0 107.6415516,-6.8995076,0.0 107.6416085,-6.8995205,0.0 107.6416794,-6.8995366,0.0 107.6416949,-6.8995403,0.0 107.6417385,-6.8995506,0.0 107.6417839,-6.8995613,0.0</coordinates>
            </LineString>
        </Placemark>
        <Placemark id="28488">
            <name>Jalan Lengkong Besar</name>
            <styleUrl>#28489</styleUrl>
            <LineString id="28487">
                <coordinates>107.612647,-6.9262231,0.0 107.6128857,-6.926502,0.0 107.6130005,-6.9266412,0.0 107.6130714,-6.926733,0.0 107.6131037,-6.9268116,0.0 107.6131248,-6.9268697,0.0 107.6131331,-6.9269146,0.0 107.6131443,-6.9269688,0.0</coordinates>
            </LineString>
        </Placemark>
        <Placemark id="28492">
            <name>Jalan PH. H. Mustofa</name>
            <styleUrl>#28493</styleUrl>
            <LineString id="28491">
                <coordinates>107.643667,-6.8999883,0.0 107.6437562,-6.9000026,0.0</coordinates>
            </LineString>
        </Placemark>
        <Placemark id="28496">
            <name>Jalan PH. H. Mustofa</name>
            <styleUrl>#28497</styleUrl>
            <LineString id="28495">
                <coordinates>107.6437562,-6.9000026,0.0 107.6437845,-6.9000071,0.0 107.6438196,-6.9000127,0.0</coordinates>
            </LineString>
        </Placemark>
        <Placemark id="28500">
            <name>Jalan Lengkong Besar</name>
            <styleUrl>#28501</styleUrl>
            <LineString id="28499">
                <coordinates>107.6129597,-6.9294789,0.0 107.6129328,-6.9297497,0.0</coordinates>
            </LineString>
        </Placemark>
        <Placemark id="28504">
            <name>Jalan Lengkong Besar</name>
            <styleUrl>#28505</styleUrl>
            <LineString id="28503">
                <coordinates>107.6129328,-6.9297497,0.0 107.6129278,-6.9297903,0.0 107.6128864,-6.930269,0.0 107.612861,-6.9304102,0.0 107.6128137,-6.9306736,0.0 107.6127761,-6.9307702,0.0 107.6126488,-6.9309625,0.0 107.6124017,-6.9313355,0.0</coordinates>
            </LineString>
        </Placemark>
        <Placemark id="28508">
            <name>Jalan Brigjend. Katamso</name>
            <styleUrl>#28509</styleUrl>
            <LineString id="28507">
                <coordinates>107.6303214,-6.9063283,0.0 107.630142,-6.9066836,0.0 107.6301314,-6.9067199,0.0 107.6301227,-6.9067812,0.0</coordinates>
            </LineString>
        </Placemark>
        <Placemark id="28512">
            <name>Jalan Ibu Inggit Ganarsih</name>
            <styleUrl>#28513</styleUrl>
            <LineString id="28511">
                <coordinates>107.6066275,-6.9318519,0.0 107.6067023,-6.9318619,0.0 107.6071921,-6.9319271,0.0 107.6072028,-6.9319286,0.0 107.6074894,-6.9319668,0.0 107.607795,-6.9320075,0.0 107.6084036,-6.9320886,0.0 107.6094967,-6.9322343,0.0 107.6095721,-6.9322443,0.0 107.6100523,-6.9323083,0.0 107.6106978,-6.9323912,0.0 107.6112601,-6.93245,0.0 107.6113455,-6.9324444,0.0 107.6114263,-6.9324291,0.0</coordinates>
            </LineString>
        </Placemark>
        <Placemark id="28516">
            <name>Jalan Tamblong</name>
            <styleUrl>#28517</styleUrl>
            <LineString id="28515">
                <coordinates>107.6127815,-6.9179662,0.0 107.6126586,-6.918004,0.0 107.6125556,-6.9180605,0.0 107.6124982,-6.9181294,0.0 107.6124801,-6.9181686,0.0 107.6124707,-6.9182046,0.0 107.6124572,-6.9182764,0.0</coordinates>
            </LineString>
        </Placemark>
        <Placemark id="28520">
            <name>Jalan Tamblong</name>
            <styleUrl>#28521</styleUrl>
            <LineString id="28519">
                <coordinates>107.6122092,-6.9201091,0.0 107.6121953,-6.9202135,0.0 107.612155,-6.9205282,0.0 107.6121207,-6.9208351,0.0 107.6120718,-6.9213137,0.0 107.6120281,-6.9216096,0.0 107.6120118,-6.9217387,0.0</coordinates>
            </LineString>
        </Placemark>
        <Placemark id="28524">
            <name>Jalan Sumatra</name>
            <styleUrl>#28525</styleUrl>
            <LineString id="28523">
                <coordinates>107.6135654,-6.9171914,0.0 107.6135267,-6.9173995,0.0 107.6134884,-6.9175076,0.0 107.6134611,-6.9175513,0.0 107.6133877,-6.9176597,0.0 107.6132116,-6.9178221,0.0 107.6131121,-6.917873,0.0 107.6130287,-6.9179018,0.0 107.6127986,-6.9179585,0.0 107.6127815,-6.9179662,0.0</coordinates>
            </LineString>
        </Placemark>
        <Placemark id="28528">
            <name>Jalan Lengkong Besar</name>
            <styleUrl>#28529</styleUrl>
            <LineString id="28527">
                <coordinates>107.6120118,-6.9217387,0.0 107.6120004,-6.9218318,0.0 107.6119659,-6.922102,0.0 107.6119291,-6.9224047,0.0 107.6119134,-6.9225354,0.0 107.6118585,-6.9230332,0.0</coordinates>
            </LineString>
        </Placemark>
        <Placemark id="28532">
            <name>Jalan Cendana</name>
            <styleUrl>#28533</styleUrl>
            <LineString id="28531">
                <coordinates>107.6277859,-6.9093517,0.0 107.6278013,-6.9093346,0.0 107.6278181,-6.9093161,0.0 107.6278963,-6.9092341,0.0 107.628258,-6.908846,0.0 107.6282951,-6.908808,0.0 107.6283467,-6.9087552,0.0 107.6284809,-6.9086325,0.0 107.6286271,-6.9085102,0.0 107.6290698,-6.9082008,0.0 107.6291731,-6.9081286,0.0</coordinates>
            </LineString>
        </Placemark>
        <Placemark id="28536">
            <name>Jalan Sumatra</name>
            <styleUrl>#28537</styleUrl>
            <LineString id="28535">
                <coordinates>107.6139552,-6.9149332,0.0 107.6139821,-6.9147604,0.0 107.6139894,-6.9147065,0.0 107.6139967,-6.9146525,0.0 107.6140009,-6.9145513,0.0 107.6139982,-6.9145008,0.0 107.6139915,-6.9144408,0.0 107.6139902,-6.9144289,0.0 107.6139734,-6.9143683,0.0 107.6139539,-6.914317,0.0 107.61384,-6.9141333,0.0 107.6137642,-6.9140077,0.0 107.6137233,-6.9139398,0.0 107.6135925,-6.9137192,0.0 107.6135325,-6.913618,0.0 107.6135126,-6.9135895,0.0 107.6134268,-6.9134665,0.0 107.6133515,-6.9133639,0.0</coordinates>
            </LineString>
        </Placemark>
        <Placemark id="28540">
            <name>Jalan Belitung</name>
            <styleUrl>#28541</styleUrl>
            <LineString id="28539">
                <coordinates>107.6144696,-6.9121614,0.0 107.6143524,-6.9122063,0.0 107.614276,-6.9122351,0.0 107.6142314,-6.9122519,0.0 107.6140321,-6.912327,0.0 107.6138475,-6.9123969,0.0 107.6138154,-6.9124084,0.0 107.6137534,-6.9124309,0.0 107.6134164,-6.912564,0.0 107.6132624,-6.9126239,0.0</coordinates>
            </LineString>
        </Placemark>
        <Placemark id="28544">
            <name>Jalan Belitung</name>
            <styleUrl>#28545</styleUrl>
            <LineString id="28543">
                <coordinates>107.6144696,-6.9121614,0.0 107.6145774,-6.9121243,0.0 107.6148569,-6.9120259,0.0 107.6150207,-6.9119682,0.0 107.6153366,-6.9118538,0.0 107.6155622,-6.911775,0.0 107.615611,-6.9117587,0.0 107.6157377,-6.9117106,0.0 107.615884,-6.9116657,0.0 107.6160223,-6.9116314,0.0 107.6161546,-6.9116221,0.0</coordinates>
            </LineString>
        </Placemark>
        <Placemark id="28548">
            <name>Jalan Jenderal Ahmad Yani</name>
            <styleUrl>#28549</styleUrl>
            <LineString id="28547">
                <coordinates>107.6562379,-6.9021633,0.0 107.6561678,-6.9021519,0.0 107.6560981,-6.9021454,0.0 107.6557174,-6.902134,0.0</coordinates>
            </LineString>
        </Placemark>
        <Placemark id="28552">
            <name>Jalan Lapang Supratman</name>
            <styleUrl>#28553</styleUrl>
            <LineString id="28551">
                <coordinates>107.6306223,-6.907732,0.0 107.6307097,-6.9076768,0.0</coordinates>
            </LineString>
        </Placemark>
        <Placemark id="28556">
            <name>Jalan Laksamana Laut Raden Eddy Martadinata</name>
            <styleUrl>#28557</styleUrl>
            <LineString id="28555">
                <coordinates>107.627074,-6.9110498,0.0 107.6270172,-6.9110986,0.0 107.6270032,-6.91111,0.0 107.6269126,-6.9111804,0.0</coordinates>
            </LineString>
        </Placemark>
        <Placemark id="28560">
            <name>Jalan Pahlawan</name>
            <styleUrl>#28561</styleUrl>
            <LineString id="28559">
                <coordinates>107.6350549,-6.9019378,0.0 107.6348987,-6.9016374,0.0 107.6348128,-6.9014729,0.0 107.634484,-6.9008227,0.0 107.6343436,-6.9005363,0.0 107.6342539,-6.9003269,0.0 107.6342453,-6.9003068,0.0 107.634226,-6.9002535,0.0 107.634169,-6.9000823,0.0 107.6341191,-6.8999094,0.0 107.6340678,-6.8997079,0.0 107.6340457,-6.8996181,0.0 107.6340202,-6.8994968,0.0 107.6339954,-6.8993522,0.0 107.6339847,-6.8991547,0.0 107.6339826,-6.8991154,0.0 107.6339837,-6.8989889,0.0 107.6339842,-6.8989336,0.0 107.6339847,-6.8988729,0.0 107.6340079,-6.8985508,0.0 107.6340622,-6.8982024,0.0 107.634127,-6.8979661,0.0 107.6341816,-6.8977908,0.0</coordinates>
            </LineString>
        </Placemark>
        <Placemark id="28564">
            <name>Jalan Aceh</name>
            <styleUrl>#28565</styleUrl>
            <LineString id="28563">
                <coordinates>107.6211862,-6.9092178,0.0 107.6213352,-6.9092535,0.0 107.6217828,-6.9093582,0.0 107.622453,-6.9095218,0.0 107.6230541,-6.909675,0.0 107.6236554,-6.9098111,0.0 107.6237104,-6.9098235,0.0 107.6239388,-6.9098792,0.0 107.6249849,-6.9101344,0.0 107.6255307,-6.9102542,0.0 107.6255822,-6.9102655,0.0 107.6256201,-6.9102742,0.0 107.6257454,-6.9103031,0.0 107.62581,-6.9103196,0.0 107.6258411,-6.910326,0.0 107.6258694,-6.9103226,0.0 107.6258891,-6.9103136,0.0 107.6259471,-6.9102635,0.0</coordinates>
            </LineString>
        </Placemark>
        <Placemark id="28568">
            <name>Jalan Sumatra</name>
            <styleUrl>#28569</styleUrl>
            <LineString id="28567">
                <coordinates>107.6132624,-6.9126239,0.0 107.6132209,-6.9126652,0.0 107.6131878,-6.9127127,0.0 107.6131654,-6.9127661,0.0 107.6131547,-6.9128228,0.0 107.6131561,-6.9128806,0.0 107.6131733,-6.9129717,0.0</coordinates>
            </LineString>
        </Placemark>
        <Placemark id="28572">
            <name>Jalan Ibu Inggit Ganarsih</name>
            <styleUrl>#28573</styleUrl>
            <LineString id="28571">
                <coordinates>107.6054273,-6.9316877,0.0 107.6059933,-6.9317677,0.0 107.6060299,-6.931773,0.0 107.6064553,-6.931835,0.0 107.6066275,-6.9318519,0.0</coordinates>
            </LineString>
        </Placemark>
        <Placemark id="28576">
            <name>Jalan Belitung</name>
            <styleUrl>#28577</styleUrl>
            <LineString id="28575">
                <coordinates>107.6161546,-6.9116221,0.0 107.6168641,-6.9115844,0.0 107.6170959,-6.9115688,0.0 107.617317,-6.9115453,0.0 107.6175732,-6.9115105,0.0</coordinates>
            </LineString>
        </Placemark>
        <Placemark id="28580">
            <name>Jalan Belitung</name>
            <styleUrl>#28581</styleUrl>
            <LineString id="28579">
                <coordinates>107.6175732,-6.9115105,0.0 107.617735,-6.9114851,0.0 107.6179079,-6.9114701,0.0 107.6180518,-6.9114643,0.0 107.6182447,-6.9114798,0.0 107.6183415,-6.911498,0.0</coordinates>
            </LineString>
        </Placemark>
        <Placemark id="28584">
            <name>Jalan Supratman</name>
            <styleUrl>#28585</styleUrl>
            <LineString id="28583">
                <coordinates>107.6301227,-6.9067812,0.0 107.6302159,-6.9069194,0.0</coordinates>
            </LineString>
        </Placemark>
        <Placemark id="28588">
            <name>Jalan PH. H. Mustofa</name>
            <styleUrl>#28589</styleUrl>
            <LineString id="28587">
                <coordinates>107.6434139,-6.8999482,0.0 107.6435297,-6.8999663,0.0 107.6436124,-6.8999796,0.0 107.643667,-6.8999883,0.0</coordinates>
            </LineString>
        </Placemark>
        <Placemark id="28592">
            <name>Jalan Aceh</name>
            <styleUrl>#28593</styleUrl>
            <LineString id="28591">
                <coordinates>107.6189711,-6.9088713,0.0 107.6190441,-6.9088863,0.0 107.6190947,-6.9088979,0.0 107.6192757,-6.9089393,0.0 107.6194582,-6.9089812,0.0 107.6195116,-6.9089935,0.0 107.6195837,-6.9090101,0.0 107.6200584,-6.9091193,0.0 107.6204946,-6.9092197,0.0 107.620734,-6.9092725,0.0 107.6211274,-6.9093568,0.0</coordinates>
            </LineString>
        </Placemark>
        <Placemark id="28596">
            <name>Jalan Lombok</name>
            <styleUrl>#28597</styleUrl>
            <LineString id="28595">
                <coordinates>107.6183415,-6.911498,0.0 107.6184317,-6.9111664,0.0 107.6184728,-6.9110152,0.0 107.6185744,-6.9106416,0.0 107.618725,-6.9099806,0.0 107.6187876,-6.9097183,0.0 107.6189494,-6.9089936,0.0 107.6189572,-6.9089527,0.0 107.618961,-6.9089257,0.0 107.6189711,-6.9088713,0.0</coordinates>
            </LineString>
        </Placemark>
        <Placemark id="28600">
            <name>Jalan Ibu Inggit Ganarsih</name>
            <styleUrl>#28601</styleUrl>
            <LineString id="28599">
                <coordinates>107.6114263,-6.9324291,0.0 107.6115743,-6.9323207,0.0 107.6119021,-6.9320223,0.0 107.6121586,-6.9316762,0.0 107.6122593,-6.9315442,0.0 107.6124017,-6.9313355,0.0</coordinates>
            </LineString>
        </Placemark>
        <Placemark id="28604">
            <name>Jalan Supratman</name>
            <styleUrl>#28605</styleUrl>
            <LineString id="28603">
                <coordinates>107.6302159,-6.9069194,0.0 107.6307097,-6.9076768,0.0</coordinates>
            </LineString>
        </Placemark>
        <Placemark id="28608">
            <name>Jalan PH. H. Mustofa</name>
            <styleUrl>#28609</styleUrl>
            <LineString id="28607">
                <coordinates>107.6438196,-6.9000127,0.0 107.6439328,-6.9000256,0.0 107.643984,-6.9000314,0.0 107.6442214,-6.9000581,0.0 107.6446479,-6.9001485,0.0 107.6446782,-6.9001599,0.0 107.6448952,-6.9002413,0.0 107.6449808,-6.9002743,0.0 107.6452068,-6.9003719,0.0 107.6452442,-6.900388,0.0 107.6452841,-6.9004052,0.0 107.6453987,-6.9004547,0.0 107.6455117,-6.9005103,0.0 107.6455998,-6.9005537,0.0 107.6457674,-6.9006362,0.0 107.6458421,-6.900673,0.0 107.6461092,-6.9008033,0.0 107.6461914,-6.9008434,0.0 107.6463329,-6.9009168,0.0 107.6464296,-6.900967,0.0 107.6469046,-6.9012136,0.0 107.6469293,-6.9012264,0.0 107.6474504,-6.9014584,0.0 107.6477192,-6.901552,0.0 107.6478569,-6.9015852,0.0 107.6480152,-6.9016027,0.0 107.6481316,-6.9016115,0.0 107.6484583,-6.9016362,0.0 107.6485627,-6.9016441,0.0 107.6490533,-6.9016812,0.0 107.6491826,-6.901691,0.0 107.6497732,-6.9017359,0.0 107.6500375,-6.9017541,0.0 107.650317,-6.9017942,0.0 107.6505985,-6.9018158,0.0 107.65075,-6.9018006,0.0</coordinates>
            </LineString>
        </Placemark>
        <Placemark id="28612">
            <name>Jalan Brigjend. Katamso</name>
            <styleUrl>#28613</styleUrl>
            <LineString id="28611">
                <coordinates>107.6303214,-6.9063283,0.0 107.6303549,-6.9062732,0.0 107.6305171,-6.9060357,0.0 107.6306164,-6.9059132,0.0 107.6306329,-6.9058904,0.0 107.6312587,-6.905028,0.0 107.6316451,-6.9044669,0.0 107.6317894,-6.9042688,0.0 107.6320385,-6.9039297,0.0 107.6321582,-6.903793,0.0 107.6324558,-6.9034531,0.0 107.6329526,-6.9030314,0.0 107.6331455,-6.9029229,0.0</coordinates>
            </LineString>
        </Placemark>
        <Placemark id="28616">
            <name>Jalan Lapang Supratman</name>
            <styleUrl>#28617</styleUrl>
            <LineString id="28615">
                <coordinates>107.6306223,-6.907732,0.0 107.6302838,-6.9079553,0.0 107.6301163,-6.9080655,0.0 107.6299488,-6.9081756,0.0 107.6297436,-6.9082432,0.0 107.629633,-6.9082512,0.0 107.6295506,-6.9082404,0.0 107.6294925,-6.9082151,0.0 107.629441,-6.9081795,0.0 107.6293885,-6.9081299,0.0</coordinates>
            </LineString>
        </Placemark>
        <Placemark id="28620">
            <name>Jalan Taman Pramuka</name>
            <styleUrl>#28621</styleUrl>
            <LineString id="28619">
                <coordinates>107.6274721,-6.9097736,0.0 107.6275231,-6.9098318,0.0 107.6275876,-6.9099568,0.0 107.6276091,-6.9100234,0.0 107.6276252,-6.9100913,0.0 107.6276368,-6.9101834,0.0 107.6276346,-6.9102897,0.0 107.6276106,-6.9103897,0.0 107.6276024,-6.9104242,0.0 107.6275467,-6.9105478,0.0 107.6274766,-6.9106475,0.0 107.6272869,-6.9108345,0.0 107.6271232,-6.9109989,0.0 107.627074,-6.9110498,0.0</coordinates>
            </LineString>
        </Placemark>
        <Placemark id="28624">
            <name>Jalan Lengkong Besar</name>
            <styleUrl>#28625</styleUrl>
            <LineString id="28623">
                <coordinates>107.613137,-6.9274559,0.0 107.6131272,-6.9275689,0.0 107.6130412,-6.9283504,0.0 107.6129922,-6.9290293,0.0 107.6129813,-6.9291796,0.0 107.6129684,-6.9293583,0.0 107.6129608,-6.9294632,0.0 107.6129597,-6.9294789,0.0</coordinates>
            </LineString>
        </Placemark>
        <Placemark id="28628">
            <name>Jalan Lengkong Besar</name>
            <styleUrl>#28629</styleUrl>
            <LineString id="28627">
                <coordinates>107.6118585,-6.9230332,0.0 107.6118166,-6.9234656,0.0 107.6117934,-6.9237378,0.0 107.611746,-6.9242192,0.0 107.6117142,-6.9246889,0.0 107.6117081,-6.9247371,0.0 107.6117028,-6.9248556,0.0 107.6117078,-6.9249159,0.0 107.6117224,-6.9249903,0.0 107.6117513,-6.925068,0.0 107.6117998,-6.9251562,0.0 107.6118687,-6.9252698,0.0 107.6119571,-6.9254045,0.0 107.6120282,-6.9254956,0.0 107.6120768,-6.9255532,0.0 107.6121706,-6.9256697,0.0 107.6126055,-6.9261738,0.0 107.6126274,-6.9261996,0.0 107.612647,-6.9262231,0.0</coordinates>
            </LineString>
        </Placemark>
        <Placemark id="28632">
            <name>Jalan PH. H. Mustofa</name>
            <styleUrl>#28633</styleUrl>
            <LineString id="28631">
                <coordinates>107.6508611,-6.9018087,0.0 107.6511076,-6.9018211,0.0 107.6512496,-6.9018282,0.0 107.6514575,-6.9018387,0.0 107.6521919,-6.901873,0.0 107.6522785,-6.9018762,0.0 107.6525276,-6.9018908,0.0 107.6526167,-6.9018971,0.0 107.6528084,-6.9019067,0.0</coordinates>
            </LineString>
        </Placemark>
        <Placemark id="28636">
            <name>Jalan Sumatra</name>
            <styleUrl>#28637</styleUrl>
            <LineString id="28635">
                <coordinates>107.6139552,-6.9149332,0.0 107.6138375,-6.9156373,0.0 107.6138145,-6.9157591,0.0 107.6138075,-6.9157964,0.0 107.6137957,-6.9158688,0.0 107.6137272,-6.9162973,0.0 107.6137087,-6.9163993,0.0 107.6135654,-6.9171914,0.0</coordinates>
            </LineString>
        </Placemark>
        <Placemark id="28640">
            <name>Jalan PH. H. Mustofa</name>
            <styleUrl>#28641</styleUrl>
            <LineString id="28639">
                <coordinates>107.6550496,-6.9021051,0.0 107.6548848,-6.9020918,0.0 107.6544663,-6.902058,0.0 107.6544249,-6.9020547,0.0 107.6539164,-6.9020071,0.0 107.6536574,-6.901985,0.0 107.6535575,-6.9019799,0.0 107.653422,-6.9019707,0.0 107.6532778,-6.9019616,0.0 107.6531598,-6.9019541,0.0 107.6531268,-6.901952,0.0 107.6529794,-6.9019446,0.0 107.6528084,-6.9019067,0.0</coordinates>
            </LineString>
        </Placemark>
        <Placemark id="28644">
            <name>Jalan Brigjend. Katamso</name>
            <styleUrl>#28645</styleUrl>
            <LineString id="28643">
                <coordinates>107.6332551,-6.9028646,0.0 107.6333952,-6.9027941,0.0 107.6334718,-6.902753,0.0 107.6337467,-6.9026114,0.0 107.6338639,-6.9025511,0.0 107.6342515,-6.9023515,0.0 107.6346604,-6.9021409,0.0 107.6348067,-6.9020656,0.0 107.6350549,-6.9019378,0.0</coordinates>
            </LineString>
        </Placemark>
        <Placemark id="28648">
            <name>Jalan Brigjend. Katamso</name>
            <styleUrl>#28649</styleUrl>
            <LineString id="28647">
                <coordinates>107.6331455,-6.9029229,0.0 107.6332551,-6.9028646,0.0</coordinates>
            </LineString>
        </Placemark>
        <Placemark id="28652">
            <name>Jalan Sumatra</name>
            <styleUrl>#28653</styleUrl>
            <LineString id="28651">
                <coordinates>107.6131733,-6.9129717,0.0 107.6132641,-6.9131737,0.0 107.6132994,-6.9132491,0.0 107.6133515,-6.9133639,0.0</coordinates>
            </LineString>
        </Placemark>
        <Placemark id="28656">
            <name>Jalan Aceh</name>
            <styleUrl>#28657</styleUrl>
            <LineString id="28655">
                <coordinates>107.6211274,-6.9093568,0.0 107.6211862,-6.9092178,0.0</coordinates>
            </LineString>
        </Placemark>
        <Placemark id="28660">
            <name>Jalan Cendana</name>
            <styleUrl>#28661</styleUrl>
            <LineString id="28659">
                <coordinates>107.6277694,-6.9094286,0.0 107.6277509,-6.9094797,0.0 107.6277185,-6.9095309,0.0 107.6274721,-6.9097736,0.0</coordinates>
            </LineString>
        </Placemark>
        <Placemark id="28664">
            <name>Jalan Tamblong</name>
            <styleUrl>#28665</styleUrl>
            <LineString id="28663">
                <coordinates>107.61235,-6.918793,0.0 107.6123364,-6.9189576,0.0 107.6122952,-6.9194549,0.0 107.6122402,-6.9198677,0.0 107.6122212,-6.9200158,0.0 107.6122183,-6.920038,0.0 107.6122092,-6.9201091,0.0</coordinates>
            </LineString>
        </Placemark>
        <Placemark id="28668">
            <name>Jalan Cendana</name>
            <styleUrl>#28669</styleUrl>
            <LineString id="28667">
                <coordinates>107.6293885,-6.9081299,0.0 107.6293346,-6.9081101,0.0 107.6292995,-6.9081037,0.0 107.6292676,-6.9081042,0.0 107.6292361,-6.9081084,0.0 107.6291731,-6.9081286,0.0</coordinates>
            </LineString>
        </Placemark>
        <Placemark id="28672">
            <name>Jalan Cendana</name>
            <styleUrl>#28673</styleUrl>
            <LineString id="28671">
                <coordinates>107.6277859,-6.9093517,0.0 107.6277694,-6.9094286,0.0</coordinates>
            </LineString>
        </Placemark>
        <Placemark id="28676">
            <name>Jalan Aceh</name>
            <styleUrl>#28677</styleUrl>
            <LineString id="28675">
                <coordinates>107.6269126,-6.9111804,0.0 107.6263965,-6.9106932,0.0 107.6259471,-6.9102635,0.0</coordinates>
            </LineString>
        </Placemark>
        <Placemark id="28680">
            <name>Jalan Jenderal Ahmad Yani</name>
            <styleUrl>#28681</styleUrl>
            <LineString id="28679">
                <coordinates>107.6557174,-6.902134,0.0 107.6553391,-6.9021168,0.0 107.6552235,-6.9021121,0.0 107.6550496,-6.9021051,0.0</coordinates>
            </LineString>
        </Placemark>
        <Placemark id="28684">
            <name>Jalan PH. H. Mustofa</name>
            <styleUrl>#28685</styleUrl>
            <LineString id="28683">
                <coordinates>107.6341816,-6.8977908,0.0 107.6343318,-6.8978054,0.0 107.6344445,-6.8978256,0.0 107.6345958,-6.8978604,0.0 107.6349905,-6.8979512,0.0 107.6353023,-6.8980235,0.0 107.6357319,-6.8981263,0.0 107.6358307,-6.8981511,0.0 107.6360412,-6.8982085,0.0 107.6360827,-6.8982198,0.0 107.6361323,-6.8982307,0.0 107.6362093,-6.8982483,0.0 107.6363508,-6.8982807,0.0 107.6365297,-6.8983213,0.0 107.6367332,-6.8983675,0.0 107.6369176,-6.8984093,0.0 107.6369418,-6.8984148,0.0 107.6369918,-6.8984267,0.0 107.6370818,-6.8984481,0.0</coordinates>
            </LineString>
        </Placemark>
        <Placemark id="28688">
            <name>Route Segment</name>
            <styleUrl>#28689</styleUrl>
            <LineString id="28687">
                <coordinates>107.6562486,-6.9024172,0.0 107.6562434,-6.9023005,0.0 107.6562379,-6.9021633,0.0</coordinates>
            </LineString>
        </Placemark>
        <Placemark id="28692">
            <name>Jalan Lengkong Besar</name>
            <styleUrl>#28693</styleUrl>
            <LineString id="28691">
                <coordinates>107.6131443,-6.9269688,0.0 107.613137,-6.9274559,0.0</coordinates>
            </LineString>
        </Placemark>
        <Placemark id="28696">
            <name>Jalan PH. H. Mustofa</name>
            <styleUrl>#28697</styleUrl>
            <LineString id="28695">
                <coordinates>107.65075,-6.9018006,0.0 107.6508611,-6.9018087,0.0</coordinates>
            </LineString>
        </Placemark>
        <Placemark id="28700">
            <name>Jalan PH. H. Mustofa</name>
            <styleUrl>#28701</styleUrl>
            <LineString id="28699">
                <coordinates>107.6417839,-6.8995613,0.0 107.6420026,-6.8996132,0.0 107.6420884,-6.8996335,0.0 107.6421976,-6.8996594,0.0 107.6422944,-6.8996824,0.0 107.6424647,-6.8997229,0.0 107.6426735,-6.8997726,0.0 107.64279,-6.8998003,0.0 107.642932,-6.8998339,0.0 107.6429728,-6.8998436,0.0 107.6431044,-6.8998716,0.0 107.6434139,-6.8999482,0.0</coordinates>
            </LineString>
        </Placemark>
        <Placemark id="28704">
            <name>Jalan Tamblong</name>
            <styleUrl>#28705</styleUrl>
            <LineString id="28703">
                <coordinates>107.6124572,-6.9182764,0.0 107.6124385,-6.9184149,0.0 107.6124059,-6.9186557,0.0 107.6123835,-6.9187317,0.0 107.61235,-6.918793,0.0</coordinates>
            </LineString>
        </Placemark>
        <Placemark id="28708">
            <name>Jalan Dewi Sartika</name>
            <styleUrl>#28709</styleUrl>
            <LineString id="28707">
                <coordinates>107.6055016,-6.9311384,0.0 107.6055192,-6.9309578,0.0 107.6055259,-6.9309078,0.0</coordinates>
            </LineString>
        </Placemark>
        <Placemark id="28712">
            <name>Jalan Dewi Sartika</name>
            <styleUrl>#28713</styleUrl>
            <LineString id="28711">
                <coordinates>107.6055259,-6.9309078,0.0 107.605557,-6.9305299,0.0 107.6055585,-6.9305004,0.0 107.6055781,-6.930239,0.0</coordinates>
            </LineString>
        </Placemark>
        <Placemark id="28716">
            <name>Jalan Dewi Sartika</name>
            <styleUrl>#28717</styleUrl>
            <LineString id="28715">
                <coordinates>107.6055781,-6.930239,0.0 107.6055888,-6.9300028,0.0</coordinates>
            </LineString>
        </Placemark>
        <Placemark id="28720">
            <name>Jalan Dewi Sartika</name>
            <styleUrl>#28721</styleUrl>
            <LineString id="28719">
                <coordinates>107.6055888,-6.9300028,0.0 107.6055993,-6.9298025,0.0</coordinates>
            </LineString>
        </Placemark>
        <Placemark id="28724">
            <name>Jalan Dewi Sartika</name>
            <styleUrl>#28725</styleUrl>
            <LineString id="28723">
                <coordinates>107.6055993,-6.9298025,0.0 107.605655,-6.9290349,0.0</coordinates>
            </LineString>
        </Placemark>
        <Placemark id="28728">
            <name>Jalan Dewi Sartika</name>
            <styleUrl>#28729</styleUrl>
            <LineString id="28727">
                <coordinates>107.605655,-6.9290349,0.0 107.6056868,-6.9286757,0.0</coordinates>
            </LineString>
        </Placemark>
        <Placemark id="28732">
            <name>Jalan Dewi Sartika</name>
            <styleUrl>#28733</styleUrl>
            <LineString id="28731">
                <coordinates>107.6056868,-6.9286757,0.0 107.6057712,-6.9281145,0.0</coordinates>
            </LineString>
        </Placemark>
        <Placemark id="28736">
            <name>Jalan Dewi Sartika</name>
            <styleUrl>#28737</styleUrl>
            <LineString id="28735">
                <coordinates>107.6057712,-6.9281145,0.0 107.6057772,-6.9280104,0.0 107.6057934,-6.9278423,0.0</coordinates>
            </LineString>
        </Placemark>
        <Placemark id="28740">
            <name>Jalan Dewi Sartika</name>
            <styleUrl>#28741</styleUrl>
            <LineString id="28739">
                <coordinates>107.6057934,-6.9278423,0.0 107.6058121,-6.9276265,0.0</coordinates>
            </LineString>
        </Placemark>
        <Placemark id="28744">
            <name>Terminal Angkot Cicaheum</name>
            <styleUrl>#28745</styleUrl>
            <Point id="28743">
                <coordinates>107.6562486,-6.9024172,0.0</coordinates>
            </Point>
        </Placemark>
        <Placemark id="28749">
            <name>Terminal Abdul Muis/Kebon Kalapa</name>
            <styleUrl>#28750</styleUrl>
            <Point id="28748">
                <coordinates>107.6058121,-6.9276265,0.0</coordinates>
            </Point>
        </Placemark>
    </Document>
</kml>
