<?xml version="1.0" encoding="UTF-8"?>
<kml xmlns="http://www.opengis.net/kml/2.2" xmlns:gx="http://www.google.com/kml/ext/2.2">
    <Document id="27811">
        <Style id="27817">
            <IconStyle id="27818">
                <colorMode>normal</colorMode>
                <scale>1</scale>
                <heading>0</heading>
                <Icon id="27819">
                    <href>http://maps.google.com/mapfiles/kml/pushpin/ylw-pushpin.png</href>
                </Icon>
            </IconStyle>
        </Style>
        <Style id="27822">
            <IconStyle id="27823">
                <colorMode>normal</colorMode>
                <scale>1</scale>
                <heading>0</heading>
                <Icon id="27824">
                    <href>http://maps.google.com/mapfiles/kml/pushpin/ylw-pushpin.png</href>
                </Icon>
            </IconStyle>
        </Style>
        <Style id="27827">
            <LineStyle id="27828">
                <color>ff2D1EBE</color>
                <colorMode>normal</colorMode>
                <width>4</width>
            </LineStyle>
        </Style>
        <Style id="27831">
            <LineStyle id="27832">
                <color>ff2D1EBE</color>
                <colorMode>normal</colorMode>
                <width>4</width>
            </LineStyle>
        </Style>
        <Style id="27835">
            <LineStyle id="27836">
                <color>ff2D1EBE</color>
                <colorMode>normal</colorMode>
                <width>4</width>
            </LineStyle>
        </Style>
        <Style id="27839">
            <LineStyle id="27840">
                <color>ff2D1EBE</color>
                <colorMode>normal</colorMode>
                <width>4</width>
            </LineStyle>
        </Style>
        <Style id="27843">
            <LineStyle id="27844">
                <color>ff2D1EBE</color>
                <colorMode>normal</colorMode>
                <width>4</width>
            </LineStyle>
        </Style>
        <Style id="27847">
            <LineStyle id="27848">
                <color>ff2D1EBE</color>
                <colorMode>normal</colorMode>
                <width>4</width>
            </LineStyle>
        </Style>
        <Style id="27851">
            <LineStyle id="27852">
                <color>ff2D1EBE</color>
                <colorMode>normal</colorMode>
                <width>4</width>
            </LineStyle>
        </Style>
        <Style id="27855">
            <LineStyle id="27856">
                <color>ff2D1EBE</color>
                <colorMode>normal</colorMode>
                <width>4</width>
            </LineStyle>
        </Style>
        <Style id="27859">
            <LineStyle id="27860">
                <color>ff2D1EBE</color>
                <colorMode>normal</colorMode>
                <width>4</width>
            </LineStyle>
        </Style>
        <Style id="27863">
            <LineStyle id="27864">
                <color>ff2D1EBE</color>
                <colorMode>normal</colorMode>
                <width>4</width>
            </LineStyle>
        </Style>
        <Style id="27867">
            <LineStyle id="27868">
                <color>ff2D1EBE</color>
                <colorMode>normal</colorMode>
                <width>4</width>
            </LineStyle>
        </Style>
        <Style id="27871">
            <LineStyle id="27872">
                <color>ff2D1EBE</color>
                <colorMode>normal</colorMode>
                <width>4</width>
            </LineStyle>
        </Style>
        <Style id="27875">
            <LineStyle id="27876">
                <color>ff2D1EBE</color>
                <colorMode>normal</colorMode>
                <width>4</width>
            </LineStyle>
        </Style>
        <Style id="27879">
            <LineStyle id="27880">
                <color>ff2D1EBE</color>
                <colorMode>normal</colorMode>
                <width>4</width>
            </LineStyle>
        </Style>
        <Style id="27883">
            <LineStyle id="27884">
                <color>ff2D1EBE</color>
                <colorMode>normal</colorMode>
                <width>4</width>
            </LineStyle>
        </Style>
        <Style id="27887">
            <LineStyle id="27888">
                <color>ff2D1EBE</color>
                <colorMode>normal</colorMode>
                <width>4</width>
            </LineStyle>
        </Style>
        <Style id="27891">
            <LineStyle id="27892">
                <color>ff2D1EBE</color>
                <colorMode>normal</colorMode>
                <width>4</width>
            </LineStyle>
        </Style>
        <Style id="27895">
            <LineStyle id="27896">
                <color>ff2D1EBE</color>
                <colorMode>normal</colorMode>
                <width>4</width>
            </LineStyle>
        </Style>
        <Style id="27899">
            <LineStyle id="27900">
                <color>ff2D1EBE</color>
                <colorMode>normal</colorMode>
                <width>4</width>
            </LineStyle>
        </Style>
        <Style id="27903">
            <LineStyle id="27904">
                <color>ff2D1EBE</color>
                <colorMode>normal</colorMode>
                <width>4</width>
            </LineStyle>
        </Style>
        <Style id="27907">
            <LineStyle id="27908">
                <color>ff2D1EBE</color>
                <colorMode>normal</colorMode>
                <width>4</width>
            </LineStyle>
        </Style>
        <Style id="27911">
            <LineStyle id="27912">
                <color>ff2D1EBE</color>
                <colorMode>normal</colorMode>
                <width>4</width>
            </LineStyle>
        </Style>
        <Style id="27915">
            <LineStyle id="27916">
                <color>ff2D1EBE</color>
                <colorMode>normal</colorMode>
                <width>4</width>
            </LineStyle>
        </Style>
        <Style id="27919">
            <LineStyle id="27920">
                <color>ff2D1EBE</color>
                <colorMode>normal</colorMode>
                <width>4</width>
            </LineStyle>
        </Style>
        <Style id="27923">
            <LineStyle id="27924">
                <color>ff2D1EBE</color>
                <colorMode>normal</colorMode>
                <width>4</width>
            </LineStyle>
        </Style>
        <Style id="27927">
            <LineStyle id="27928">
                <color>ff2D1EBE</color>
                <colorMode>normal</colorMode>
                <width>4</width>
            </LineStyle>
        </Style>
        <Style id="27931">
            <LineStyle id="27932">
                <color>ff2D1EBE</color>
                <colorMode>normal</colorMode>
                <width>4</width>
            </LineStyle>
        </Style>
        <Style id="27935">
            <LineStyle id="27936">
                <color>ff2D1EBE</color>
                <colorMode>normal</colorMode>
                <width>4</width>
            </LineStyle>
        </Style>
        <Style id="27939">
            <LineStyle id="27940">
                <color>ff2D1EBE</color>
                <colorMode>normal</colorMode>
                <width>4</width>
            </LineStyle>
        </Style>
        <Style id="27943">
            <LineStyle id="27944">
                <color>ff2D1EBE</color>
                <colorMode>normal</colorMode>
                <width>4</width>
            </LineStyle>
        </Style>
        <Style id="27947">
            <LineStyle id="27948">
                <color>ff2D1EBE</color>
                <colorMode>normal</colorMode>
                <width>4</width>
            </LineStyle>
        </Style>
        <Style id="27951">
            <LineStyle id="27952">
                <color>ff2D1EBE</color>
                <colorMode>normal</colorMode>
                <width>4</width>
            </LineStyle>
        </Style>
        <Style id="27955">
            <LineStyle id="27956">
                <color>ff2D1EBE</color>
                <colorMode>normal</colorMode>
                <width>4</width>
            </LineStyle>
        </Style>
        <Style id="27959">
            <LineStyle id="27960">
                <color>ff2D1EBE</color>
                <colorMode>normal</colorMode>
                <width>4</width>
            </LineStyle>
        </Style>
        <Style id="27963">
            <LineStyle id="27964">
                <color>ff2D1EBE</color>
                <colorMode>normal</colorMode>
                <width>4</width>
            </LineStyle>
        </Style>
        <Style id="27967">
            <LineStyle id="27968">
                <color>ff2D1EBE</color>
                <colorMode>normal</colorMode>
                <width>4</width>
            </LineStyle>
        </Style>
        <Style id="27971">
            <LineStyle id="27972">
                <color>ff2D1EBE</color>
                <colorMode>normal</colorMode>
                <width>4</width>
            </LineStyle>
        </Style>
        <Style id="27975">
            <LineStyle id="27976">
                <color>ff2D1EBE</color>
                <colorMode>normal</colorMode>
                <width>4</width>
            </LineStyle>
        </Style>
        <Style id="27979">
            <LineStyle id="27980">
                <color>ff2D1EBE</color>
                <colorMode>normal</colorMode>
                <width>4</width>
            </LineStyle>
        </Style>
        <Style id="27983">
            <LineStyle id="27984">
                <color>ff2D1EBE</color>
                <colorMode>normal</colorMode>
                <width>4</width>
            </LineStyle>
        </Style>
        <Style id="27987">
            <LineStyle id="27988">
                <color>ff2D1EBE</color>
                <colorMode>normal</colorMode>
                <width>4</width>
            </LineStyle>
        </Style>
        <Style id="27991">
            <LineStyle id="27992">
                <color>ff2D1EBE</color>
                <colorMode>normal</colorMode>
                <width>4</width>
            </LineStyle>
        </Style>
        <Style id="27995">
            <LineStyle id="27996">
                <color>ff2D1EBE</color>
                <colorMode>normal</colorMode>
                <width>4</width>
            </LineStyle>
        </Style>
        <Style id="27999">
            <LineStyle id="28000">
                <color>ff2D1EBE</color>
                <colorMode>normal</colorMode>
                <width>4</width>
            </LineStyle>
        </Style>
        <Style id="28003">
            <LineStyle id="28004">
                <color>ff2D1EBE</color>
                <colorMode>normal</colorMode>
                <width>4</width>
            </LineStyle>
        </Style>
        <Style id="28007">
            <LineStyle id="28008">
                <color>ff2D1EBE</color>
                <colorMode>normal</colorMode>
                <width>4</width>
            </LineStyle>
        </Style>
        <Style id="28011">
            <LineStyle id="28012">
                <color>ff2D1EBE</color>
                <colorMode>normal</colorMode>
                <width>4</width>
            </LineStyle>
        </Style>
        <Style id="28015">
            <LineStyle id="28016">
                <color>ff2D1EBE</color>
                <colorMode>normal</colorMode>
                <width>4</width>
            </LineStyle>
        </Style>
        <Style id="28019">
            <LineStyle id="28020">
                <color>ff2D1EBE</color>
                <colorMode>normal</colorMode>
                <width>4</width>
            </LineStyle>
        </Style>
        <Style id="28023">
            <LineStyle id="28024">
                <color>ff2D1EBE</color>
                <colorMode>normal</colorMode>
                <width>4</width>
            </LineStyle>
        </Style>
        <Style id="28027">
            <LineStyle id="28028">
                <color>ff2D1EBE</color>
                <colorMode>normal</colorMode>
                <width>4</width>
            </LineStyle>
        </Style>
        <Style id="28031">
            <LineStyle id="28032">
                <color>ff2D1EBE</color>
                <colorMode>normal</colorMode>
                <width>4</width>
            </LineStyle>
        </Style>
        <Style id="28035">
            <LineStyle id="28036">
                <color>ff2D1EBE</color>
                <colorMode>normal</colorMode>
                <width>4</width>
            </LineStyle>
        </Style>
        <Style id="28039">
            <LineStyle id="28040">
                <color>ff2D1EBE</color>
                <colorMode>normal</colorMode>
                <width>4</width>
            </LineStyle>
        </Style>
        <Style id="28043">
            <LineStyle id="28044">
                <color>ff2D1EBE</color>
                <colorMode>normal</colorMode>
                <width>4</width>
            </LineStyle>
        </Style>
        <Style id="28047">
            <LineStyle id="28048">
                <color>ff2D1EBE</color>
                <colorMode>normal</colorMode>
                <width>4</width>
            </LineStyle>
        </Style>
        <Style id="28051">
            <LineStyle id="28052">
                <color>ff2D1EBE</color>
                <colorMode>normal</colorMode>
                <width>4</width>
            </LineStyle>
        </Style>
        <Style id="28055">
            <LineStyle id="28056">
                <color>ff2D1EBE</color>
                <colorMode>normal</colorMode>
                <width>4</width>
            </LineStyle>
        </Style>
        <Style id="28059">
            <LineStyle id="28060">
                <color>ff2D1EBE</color>
                <colorMode>normal</colorMode>
                <width>4</width>
            </LineStyle>
        </Style>
        <Style id="28063">
            <LineStyle id="28064">
                <color>ff2D1EBE</color>
                <colorMode>normal</colorMode>
                <width>4</width>
            </LineStyle>
        </Style>
        <Style id="28067">
            <LineStyle id="28068">
                <color>ff2D1EBE</color>
                <colorMode>normal</colorMode>
                <width>4</width>
            </LineStyle>
        </Style>
        <Style id="28071">
            <LineStyle id="28072">
                <color>ff2D1EBE</color>
                <colorMode>normal</colorMode>
                <width>4</width>
            </LineStyle>
        </Style>
        <Style id="28075">
            <LineStyle id="28076">
                <color>ff2D1EBE</color>
                <colorMode>normal</colorMode>
                <width>4</width>
            </LineStyle>
        </Style>
        <Style id="28079">
            <LineStyle id="28080">
                <color>ff2D1EBE</color>
                <colorMode>normal</colorMode>
                <width>4</width>
            </LineStyle>
        </Style>
        <Style id="28083">
            <LineStyle id="28084">
                <color>ff2D1EBE</color>
                <colorMode>normal</colorMode>
                <width>4</width>
            </LineStyle>
        </Style>
        <Style id="28087">
            <LineStyle id="28088">
                <color>ff2D1EBE</color>
                <colorMode>normal</colorMode>
                <width>4</width>
            </LineStyle>
        </Style>
        <Style id="28091">
            <LineStyle id="28092">
                <color>ff2D1EBE</color>
                <colorMode>normal</colorMode>
                <width>4</width>
            </LineStyle>
        </Style>
        <Style id="28095">
            <LineStyle id="28096">
                <color>ff2D1EBE</color>
                <colorMode>normal</colorMode>
                <width>4</width>
            </LineStyle>
        </Style>
        <Style id="28099">
            <LineStyle id="28100">
                <color>ff2D1EBE</color>
                <colorMode>normal</colorMode>
                <width>4</width>
            </LineStyle>
        </Style>
        <Style id="28103">
            <LineStyle id="28104">
                <color>ff2D1EBE</color>
                <colorMode>normal</colorMode>
                <width>4</width>
            </LineStyle>
        </Style>
        <Style id="28107">
            <LineStyle id="28108">
                <color>ff2D1EBE</color>
                <colorMode>normal</colorMode>
                <width>4</width>
            </LineStyle>
        </Style>
        <ExtendedData>
            <Data name="route-name">
                <value>01B: Abdul Muis → Cicaheum via Aceh</value>
            </Data>
            <Data name="source">
                <value>Transport for Bandung</value>
            </Data>
        </ExtendedData>
        <Placemark id="27816">
            <name>Terminal Abdul Muis/Kebon Kalapa</name>
            <styleUrl>#27817</styleUrl>
            <Point id="27815">
                <coordinates>107.6058322,-6.9276428,0.0</coordinates>
            </Point>
        </Placemark>
        <Placemark id="27821">
            <name>Terminal Angkot Cicaheum</name>
            <styleUrl>#27822</styleUrl>
            <Point id="27820">
                <coordinates>107.6562486,-6.9024172,0.0</coordinates>
            </Point>
        </Placemark>
        <Placemark id="27826">
            <name>Jalan Taman Pramuka</name>
            <styleUrl>#27827</styleUrl>
            <LineString id="27825">
                <coordinates>107.6260827,-6.9100761,0.0 107.6261604,-6.9099857,0.0 107.6261829,-6.9099645,0.0 107.6265109,-6.9096629,0.0 107.6265939,-6.9096038,0.0 107.6266872,-6.9095585,0.0 107.6267602,-6.9095462,0.0 107.6269083,-6.9095303,0.0 107.6270685,-6.9095591,0.0 107.6272429,-6.9096151,0.0 107.6273625,-6.9096694,0.0</coordinates>
            </LineString>
        </Placemark>
        <Placemark id="27830">
            <name>Jalan Karapitan</name>
            <styleUrl>#27831</styleUrl>
            <LineString id="27829">
                <coordinates>107.6164384,-6.9287942,0.0 107.6164497,-6.9287607,0.0</coordinates>
            </LineString>
        </Placemark>
        <Placemark id="27834">
            <name>Jalan Mochammad Ramdhan</name>
            <styleUrl>#27835</styleUrl>
            <LineString id="27833">
                <coordinates>107.6149248,-6.9325064,0.0 107.6150464,-6.9323211,0.0 107.6152226,-6.9320956,0.0</coordinates>
            </LineString>
        </Placemark>
        <Placemark id="27838">
            <name>Jalan PH. H. Mustofa</name>
            <styleUrl>#27839</styleUrl>
            <LineString id="27837">
                <coordinates>107.643667,-6.8999883,0.0 107.6437562,-6.9000026,0.0</coordinates>
            </LineString>
        </Placemark>
        <Placemark id="27842">
            <name>Jalan PH. H. Mustofa</name>
            <styleUrl>#27843</styleUrl>
            <LineString id="27841">
                <coordinates>107.6437562,-6.9000026,0.0 107.6437845,-6.9000071,0.0 107.6438196,-6.9000127,0.0</coordinates>
            </LineString>
        </Placemark>
        <Placemark id="27846">
            <name>Jalan Balonggede</name>
            <styleUrl>#27847</styleUrl>
            <LineString id="27845">
                <coordinates>107.6071391,-6.9258274,0.0 107.6070558,-6.9274889,0.0</coordinates>
            </LineString>
        </Placemark>
        <Placemark id="27850">
            <name>Jalan Mochammad Ramdhan</name>
            <styleUrl>#27851</styleUrl>
            <LineString id="27849">
                <coordinates>107.6153893,-6.9318779,0.0 107.6155386,-6.9316906,0.0</coordinates>
            </LineString>
        </Placemark>
        <Placemark id="27854">
            <name>Jalan Lombok</name>
            <styleUrl>#27855</styleUrl>
            <LineString id="27853">
                <coordinates>107.6172878,-6.9135725,0.0 107.6177677,-6.9131842,0.0 107.6179281,-6.9130544,0.0</coordinates>
            </LineString>
        </Placemark>
        <Placemark id="27858">
            <name>Jalan Cendana</name>
            <styleUrl>#27859</styleUrl>
            <LineString id="27857">
                <coordinates>107.6277859,-6.9093517,0.0 107.6278013,-6.9093346,0.0 107.6278181,-6.9093161,0.0 107.6278963,-6.9092341,0.0 107.628258,-6.908846,0.0 107.6282951,-6.908808,0.0 107.6283467,-6.9087552,0.0 107.6284809,-6.9086325,0.0 107.6286271,-6.9085102,0.0 107.6290698,-6.9082008,0.0 107.6291731,-6.9081286,0.0</coordinates>
            </LineString>
        </Placemark>
        <Placemark id="27862">
            <name>Jalan Cendana</name>
            <styleUrl>#27863</styleUrl>
            <LineString id="27861">
                <coordinates>107.6291731,-6.9081286,0.0 107.6292051,-6.9080888,0.0 107.6292278,-6.9080537,0.0 107.6292412,-6.9080213,0.0 107.6292495,-6.9079856,0.0 107.6292485,-6.9079205,0.0</coordinates>
            </LineString>
        </Placemark>
        <Placemark id="27866">
            <name>Jalan Sumbawa</name>
            <styleUrl>#27867</styleUrl>
            <LineString id="27865">
                <coordinates>107.6183708,-6.9159304,0.0 107.6183997,-6.9158308,0.0 107.6184091,-6.9157469,0.0 107.6184073,-6.9156491,0.0 107.618385,-6.9155445,0.0 107.6183566,-6.9154656,0.0 107.6183514,-6.9154513,0.0 107.6182972,-6.9153483,0.0 107.6182254,-6.915217,0.0 107.6181449,-6.9150772,0.0 107.6176661,-6.9141839,0.0 107.617602,-6.9140742,0.0 107.6175862,-6.9140471,0.0 107.6175159,-6.913923,0.0 107.6173371,-6.9136482,0.0 107.6172878,-6.9135725,0.0</coordinates>
            </LineString>
        </Placemark>
        <Placemark id="27870">
            <name>Jalan Brigjend. Katamso</name>
            <styleUrl>#27871</styleUrl>
            <LineString id="27869">
                <coordinates>107.6299279,-6.9064699,0.0 107.6300708,-6.9063971,0.0 107.6302217,-6.9063503,0.0 107.6303214,-6.9063283,0.0</coordinates>
            </LineString>
        </Placemark>
        <Placemark id="27874">
            <name>Jalan Pahlawan</name>
            <styleUrl>#27875</styleUrl>
            <LineString id="27873">
                <coordinates>107.6341816,-6.8977908,0.0 107.6349951,-6.8944863,0.0 107.6352949,-6.8932799,0.0 107.6353361,-6.8931244,0.0 107.6354403,-6.8927469,0.0</coordinates>
            </LineString>
        </Placemark>
        <Placemark id="27878">
            <name>Jalan Pungkur</name>
            <styleUrl>#27879</styleUrl>
            <LineString id="27877">
                <coordinates>107.6149248,-6.9325064,0.0 107.6143118,-6.9323443,0.0 107.6141925,-6.932314,0.0 107.6137848,-6.9322069,0.0 107.6137396,-6.9321929,0.0 107.6134671,-6.9321058,0.0 107.6133184,-6.9320339,0.0 107.6131833,-6.9319686,0.0 107.613062,-6.9318895,0.0 107.6129795,-6.9318313,0.0 107.6124017,-6.9313355,0.0</coordinates>
            </LineString>
        </Placemark>
        <Placemark id="27882">
            <name>Jalan Karapitan</name>
            <styleUrl>#27883</styleUrl>
            <LineString id="27881">
                <coordinates>107.6173532,-6.925034,0.0 107.6173947,-6.9248147,0.0</coordinates>
            </LineString>
        </Placemark>
        <Placemark id="27886">
            <name>Jalan Pahlawan</name>
            <styleUrl>#27887</styleUrl>
            <LineString id="27885">
                <coordinates>107.6350549,-6.9019378,0.0 107.6348987,-6.9016374,0.0 107.6348128,-6.9014729,0.0 107.634484,-6.9008227,0.0 107.6343436,-6.9005363,0.0 107.6342539,-6.9003269,0.0 107.6342453,-6.9003068,0.0 107.634226,-6.9002535,0.0 107.634169,-6.9000823,0.0 107.6341191,-6.8999094,0.0 107.6340678,-6.8997079,0.0 107.6340457,-6.8996181,0.0 107.6340202,-6.8994968,0.0 107.6339954,-6.8993522,0.0 107.6339847,-6.8991547,0.0 107.6339826,-6.8991154,0.0 107.6339837,-6.8989889,0.0 107.6339842,-6.8989336,0.0 107.6339847,-6.8988729,0.0 107.6340079,-6.8985508,0.0 107.6340622,-6.8982024,0.0 107.634127,-6.8979661,0.0 107.6341816,-6.8977908,0.0</coordinates>
            </LineString>
        </Placemark>
        <Placemark id="27890">
            <name>Jalan Aceh</name>
            <styleUrl>#27891</styleUrl>
            <LineString id="27889">
                <coordinates>107.6211862,-6.9092178,0.0 107.6213352,-6.9092535,0.0 107.6217828,-6.9093582,0.0 107.622453,-6.9095218,0.0 107.6230541,-6.909675,0.0 107.6236554,-6.9098111,0.0 107.6237104,-6.9098235,0.0 107.6239388,-6.9098792,0.0 107.6249849,-6.9101344,0.0 107.6255307,-6.9102542,0.0 107.6255822,-6.9102655,0.0 107.6256201,-6.9102742,0.0 107.6257454,-6.9103031,0.0 107.62581,-6.9103196,0.0 107.6258411,-6.910326,0.0 107.6258694,-6.9103226,0.0 107.6258891,-6.9103136,0.0 107.6259471,-6.9102635,0.0</coordinates>
            </LineString>
        </Placemark>
        <Placemark id="27894">
            <name>Jalan Dewi Sartika</name>
            <styleUrl>#27895</styleUrl>
            <LineString id="27893">
                <coordinates>107.6059454,-6.9273849,0.0 107.6059791,-6.9270185,0.0 107.6059757,-6.9268782,0.0 107.6059805,-6.9267319,0.0 107.6059951,-6.9265345,0.0 107.6060102,-6.926383,0.0 107.6060764,-6.9256868,0.0</coordinates>
            </LineString>
        </Placemark>
        <Placemark id="27898">
            <name>Jalan Banda</name>
            <styleUrl>#27899</styleUrl>
            <LineString id="27897">
                <coordinates>107.6179281,-6.9130544,0.0 107.6177899,-6.912763,0.0 107.6177331,-6.9126328,0.0 107.617725,-6.9126119,0.0 107.6176875,-6.9125145,0.0 107.617677,-6.912478,0.0 107.6176522,-6.9123916,0.0 107.6175917,-6.9121395,0.0 107.6175675,-6.9120083,0.0 107.6175545,-6.9118993,0.0 107.617548,-6.9117847,0.0 107.617547,-6.9116914,0.0 107.6175507,-6.9116305,0.0 107.6175598,-6.9115658,0.0 107.6175732,-6.9115105,0.0</coordinates>
            </LineString>
        </Placemark>
        <Placemark id="27902">
            <name>Jalan Belitung</name>
            <styleUrl>#27903</styleUrl>
            <LineString id="27901">
                <coordinates>107.6175732,-6.9115105,0.0 107.617735,-6.9114851,0.0 107.6179079,-6.9114701,0.0 107.6180518,-6.9114643,0.0 107.6182447,-6.9114798,0.0 107.6183415,-6.911498,0.0</coordinates>
            </LineString>
        </Placemark>
        <Placemark id="27906">
            <name>Jalan Cikutra</name>
            <styleUrl>#27907</styleUrl>
            <LineString id="27905">
                <coordinates>107.6434139,-6.8999482,0.0 107.6434217,-6.8997196,0.0 107.6434549,-6.8991739,0.0 107.6434681,-6.898935,0.0 107.6435097,-6.898742,0.0 107.6435525,-6.8985615,0.0 107.6436372,-6.8981766,0.0 107.6437015,-6.8978073,0.0 107.6437076,-6.897601,0.0 107.6437058,-6.897312,0.0 107.6437035,-6.897111,0.0 107.6437025,-6.8970495,0.0 107.6436943,-6.8969435,0.0 107.6436921,-6.8969266,0.0 107.6436524,-6.8965534,0.0 107.6436342,-6.896441,0.0 107.6435679,-6.8961026,0.0 107.6435506,-6.8960192,0.0 107.6435276,-6.8959381,0.0 107.643499,-6.8958715,0.0 107.6432943,-6.8956408,0.0 107.6431331,-6.895462,0.0 107.6429808,-6.8952929,0.0 107.6428455,-6.8951583,0.0 107.6427374,-6.8950706,0.0 107.6426791,-6.8950441,0.0 107.6426248,-6.8950198,0.0 107.6424752,-6.8949628,0.0 107.6424044,-6.8949233,0.0 107.6421034,-6.8947164,0.0 107.6420237,-6.8946702,0.0 107.6418224,-6.8945447,0.0 107.6417526,-6.8945076,0.0 107.6416085,-6.8944254,0.0 107.6413356,-6.8943003,0.0 107.6410661,-6.8941877,0.0 107.6407715,-6.8940762,0.0 107.6406612,-6.8940394,0.0 107.6406201,-6.8940267,0.0 107.6405739,-6.8940123,0.0 107.6404773,-6.8939836,0.0 107.640386,-6.8939565,0.0 107.6403262,-6.8939387,0.0 107.6402494,-6.8939183,0.0 107.6401385,-6.8938889,0.0 107.6400311,-6.8938604,0.0 107.6398267,-6.8938086,0.0 107.6397463,-6.8937882,0.0 107.6388995,-6.8936636,0.0 107.6386049,-6.8936628,0.0 107.6383538,-6.8936579,0.0 107.638193,-6.8936616,0.0 107.6379264,-6.8936719,0.0 107.6374363,-6.8936549,0.0 107.6369595,-6.8936268,0.0 107.636805,-6.8936194,0.0 107.6366349,-6.8936199,0.0 107.6365779,-6.8936129,0.0 107.6365221,-6.8936046,0.0 107.6364354,-6.893582,0.0 107.6362947,-6.8935452,0.0 107.6362109,-6.8935076,0.0 107.6361203,-6.8934628,0.0 107.6360198,-6.8933698,0.0 107.6359833,-6.8933186,0.0 107.635927,-6.8932157,0.0 107.6358519,-6.8930963,0.0 107.6357918,-6.8930311,0.0 107.635692,-6.8929468,0.0 107.6356272,-6.8928924,0.0 107.6355463,-6.8928327,0.0</coordinates>
            </LineString>
        </Placemark>
        <Placemark id="27910">
            <name>Jalan PH. H. Mustofa</name>
            <styleUrl>#27911</styleUrl>
            <LineString id="27909">
                <coordinates>107.6434139,-6.8999482,0.0 107.6435297,-6.8999663,0.0 107.6436124,-6.8999796,0.0 107.643667,-6.8999883,0.0</coordinates>
            </LineString>
        </Placemark>
        <Placemark id="27914">
            <name>Jalan Supratman</name>
            <styleUrl>#27915</styleUrl>
            <LineString id="27913">
                <coordinates>107.6300738,-6.9068822,0.0 107.6299247,-6.9066444,0.0 107.629845,-6.9065172,0.0</coordinates>
            </LineString>
        </Placemark>
        <Placemark id="27918">
            <name>Jalan Aceh</name>
            <styleUrl>#27919</styleUrl>
            <LineString id="27917">
                <coordinates>107.6189711,-6.9088713,0.0 107.6190441,-6.9088863,0.0 107.6190947,-6.9088979,0.0 107.6192757,-6.9089393,0.0 107.6194582,-6.9089812,0.0 107.6195116,-6.9089935,0.0 107.6195837,-6.9090101,0.0 107.6200584,-6.9091193,0.0 107.6204946,-6.9092197,0.0 107.620734,-6.9092725,0.0 107.6211274,-6.9093568,0.0</coordinates>
            </LineString>
        </Placemark>
        <Placemark id="27922">
            <name>Jalan Lombok</name>
            <styleUrl>#27923</styleUrl>
            <LineString id="27921">
                <coordinates>107.6183415,-6.911498,0.0 107.6184317,-6.9111664,0.0 107.6184728,-6.9110152,0.0 107.6185744,-6.9106416,0.0 107.618725,-6.9099806,0.0 107.6187876,-6.9097183,0.0 107.6189494,-6.9089936,0.0 107.6189572,-6.9089527,0.0 107.618961,-6.9089257,0.0 107.6189711,-6.9088713,0.0</coordinates>
            </LineString>
        </Placemark>
        <Placemark id="27926">
            <name>Jalan Pungkur</name>
            <styleUrl>#27927</styleUrl>
            <LineString id="27925">
                <coordinates>107.6124017,-6.9313355,0.0 107.61187,-6.9308162,0.0 107.6116302,-6.9305815,0.0 107.6116186,-6.9305702,0.0 107.6106762,-6.929646,0.0 107.6105504,-6.9295269,0.0 107.6104487,-6.929424,0.0 107.6100312,-6.9290167,0.0 107.6094207,-6.928383,0.0 107.6093404,-6.9283054,0.0 107.608899,-6.9278672,0.0 107.6088347,-6.9278033,0.0 107.6087019,-6.927694,0.0 107.6085694,-6.9276437,0.0 107.608453,-6.9276268,0.0 107.6079082,-6.9275733,0.0 107.6078124,-6.9275639,0.0 107.6075592,-6.927539,0.0 107.6070558,-6.9274889,0.0</coordinates>
            </LineString>
        </Placemark>
        <Placemark id="27930">
            <name>Jalan PH. H. Mustofa</name>
            <styleUrl>#27931</styleUrl>
            <LineString id="27929">
                <coordinates>107.6438196,-6.9000127,0.0 107.6439328,-6.9000256,0.0 107.643984,-6.9000314,0.0 107.6442214,-6.9000581,0.0 107.6446479,-6.9001485,0.0 107.6446782,-6.9001599,0.0 107.6448952,-6.9002413,0.0 107.6449808,-6.9002743,0.0 107.6452068,-6.9003719,0.0 107.6452442,-6.900388,0.0 107.6452841,-6.9004052,0.0 107.6453987,-6.9004547,0.0 107.6455117,-6.9005103,0.0 107.6455998,-6.9005537,0.0 107.6457674,-6.9006362,0.0 107.6458421,-6.900673,0.0 107.6461092,-6.9008033,0.0 107.6461914,-6.9008434,0.0 107.6463329,-6.9009168,0.0 107.6464296,-6.900967,0.0 107.6469046,-6.9012136,0.0 107.6469293,-6.9012264,0.0 107.6474504,-6.9014584,0.0 107.6477192,-6.901552,0.0 107.6478569,-6.9015852,0.0 107.6480152,-6.9016027,0.0 107.6481316,-6.9016115,0.0 107.6484583,-6.9016362,0.0 107.6485627,-6.9016441,0.0 107.6490533,-6.9016812,0.0 107.6491826,-6.901691,0.0 107.6497732,-6.9017359,0.0 107.6500375,-6.9017541,0.0 107.650317,-6.9017942,0.0 107.6505985,-6.9018158,0.0 107.65075,-6.9018006,0.0</coordinates>
            </LineString>
        </Placemark>
        <Placemark id="27934">
            <name>Jalan Brigjend. Katamso</name>
            <styleUrl>#27935</styleUrl>
            <LineString id="27933">
                <coordinates>107.6303214,-6.9063283,0.0 107.6303549,-6.9062732,0.0 107.6305171,-6.9060357,0.0 107.6306164,-6.9059132,0.0 107.6306329,-6.9058904,0.0 107.6312587,-6.905028,0.0 107.6316451,-6.9044669,0.0 107.6317894,-6.9042688,0.0 107.6320385,-6.9039297,0.0 107.6321582,-6.903793,0.0 107.6324558,-6.9034531,0.0 107.6329526,-6.9030314,0.0 107.6331455,-6.9029229,0.0</coordinates>
            </LineString>
        </Placemark>
        <Placemark id="27938">
            <name>Jalan Kautamaan Istri</name>
            <styleUrl>#27939</styleUrl>
            <LineString id="27937">
                <coordinates>107.6060764,-6.9256868,0.0 107.6061459,-6.9256988,0.0 107.6065589,-6.9257695,0.0 107.6067208,-6.9257892,0.0 107.6071391,-6.9258274,0.0</coordinates>
            </LineString>
        </Placemark>
        <Placemark id="27942">
            <name>Jalan Brigjend. Katamso</name>
            <styleUrl>#27943</styleUrl>
            <LineString id="27941">
                <coordinates>107.629845,-6.9065172,0.0 107.6299279,-6.9064699,0.0</coordinates>
            </LineString>
        </Placemark>
        <Placemark id="27946">
            <name>Jalan Mochammad Ramdhan</name>
            <styleUrl>#27947</styleUrl>
            <LineString id="27945">
                <coordinates>107.6155386,-6.9316906,0.0 107.6156276,-6.9315684,0.0 107.6157026,-6.9314613,0.0 107.6157571,-6.9313657,0.0</coordinates>
            </LineString>
        </Placemark>
        <Placemark id="27950">
            <name>Jalan Aceh 108</name>
            <styleUrl>#27951</styleUrl>
            <LineString id="27949">
                <coordinates>107.6259471,-6.9102635,0.0 107.6259957,-6.910206,0.0 107.6260246,-6.9101696,0.0 107.6260827,-6.9100761,0.0</coordinates>
            </LineString>
        </Placemark>
        <Placemark id="27954">
            <name>Jalan Karapitan</name>
            <styleUrl>#27955</styleUrl>
            <LineString id="27953">
                <coordinates>107.6164635,-6.9287163,0.0 107.6164949,-6.9286031,0.0 107.6165707,-6.9283294,0.0 107.6165815,-6.9282903,0.0 107.616683,-6.9279244,0.0 107.6168016,-6.9274967,0.0 107.6168717,-6.9272202,0.0 107.6169043,-6.9270918,0.0 107.6169286,-6.9269957,0.0 107.6170453,-6.9265058,0.0 107.6170698,-6.926403,0.0 107.6171256,-6.9261533,0.0 107.6171516,-6.9260424,0.0 107.6171976,-6.9258111,0.0 107.6172158,-6.92572,0.0 107.6173169,-6.9252132,0.0 107.6173393,-6.9251003,0.0 107.6173532,-6.925034,0.0</coordinates>
            </LineString>
        </Placemark>
        <Placemark id="27958">
            <name>Jalan Sunda</name>
            <styleUrl>#27959</styleUrl>
            <LineString id="27957">
                <coordinates>107.6174757,-6.9237597,0.0 107.6174781,-6.9237379,0.0 107.6175602,-6.9230443,0.0</coordinates>
            </LineString>
        </Placemark>
        <Placemark id="27962">
            <name>Jalan Karapitan</name>
            <styleUrl>#27963</styleUrl>
            <LineString id="27961">
                <coordinates>107.6160965,-6.9300966,0.0 107.6162973,-6.9293239,0.0 107.6163073,-6.9292857,0.0 107.6164384,-6.9287942,0.0</coordinates>
            </LineString>
        </Placemark>
        <Placemark id="27966">
            <name>Jalan PH. H. Mustofa</name>
            <styleUrl>#27967</styleUrl>
            <LineString id="27965">
                <coordinates>107.6508611,-6.9018087,0.0 107.6511076,-6.9018211,0.0 107.6512496,-6.9018282,0.0 107.6514575,-6.9018387,0.0 107.6521919,-6.901873,0.0 107.6522785,-6.9018762,0.0 107.6525276,-6.9018908,0.0 107.6526167,-6.9018971,0.0 107.6528084,-6.9019067,0.0</coordinates>
            </LineString>
        </Placemark>
        <Placemark id="27970">
            <name>Jalan Mochammad Ramdhan</name>
            <styleUrl>#27971</styleUrl>
            <LineString id="27969">
                <coordinates>107.6152226,-6.9320956,0.0 107.6153893,-6.9318779,0.0</coordinates>
            </LineString>
        </Placemark>
        <Placemark id="27974">
            <name>Jalan Sunda</name>
            <styleUrl>#27975</styleUrl>
            <LineString id="27973">
                <coordinates>107.6178524,-6.9204334,0.0 107.6179092,-6.9197349,0.0 107.6179137,-6.919578,0.0 107.6179265,-6.9194254,0.0 107.6179949,-6.9186063,0.0 107.6179989,-6.918561,0.0 107.6180233,-6.9183231,0.0 107.6180607,-6.9179596,0.0 107.6180659,-6.9178998,0.0 107.6180692,-6.9178614,0.0 107.6181287,-6.917303,0.0 107.6181649,-6.9169244,0.0 107.6181677,-6.9169008,0.0 107.6181745,-6.9168575,0.0 107.6181796,-6.9168277,0.0 107.6182013,-6.9167005,0.0 107.6182266,-6.9165856,0.0 107.6182441,-6.9165066,0.0 107.6182615,-6.9164276,0.0 107.6183708,-6.9159304,0.0</coordinates>
            </LineString>
        </Placemark>
        <Placemark id="27978">
            <name>Jalan Karapitan</name>
            <styleUrl>#27979</styleUrl>
            <LineString id="27977">
                <coordinates>107.6164497,-6.9287607,0.0 107.6164635,-6.9287163,0.0</coordinates>
            </LineString>
        </Placemark>
        <Placemark id="27982">
            <name>Route Segment</name>
            <styleUrl>#27983</styleUrl>
            <LineString id="27981">
                <coordinates>107.6572534,-6.9022149,0.0 107.657269,-6.9022844,0.0 107.6572735,-6.9023547,0.0 107.6572781,-6.9023809,0.0 107.6572814,-6.9024322,0.0 107.6572943,-6.9027453,0.0 107.6572785,-6.9027776,0.0 107.6572637,-6.9027902,0.0 107.6572377,-6.9027953,0.0 107.6562671,-6.9028353,0.0 107.6562486,-6.9024172,0.0</coordinates>
            </LineString>
        </Placemark>
        <Placemark id="27986">
            <name>Jalan Jenderal Ahmad Yani</name>
            <styleUrl>#27987</styleUrl>
            <LineString id="27985">
                <coordinates>107.6561365,-6.9020684,0.0 107.6561617,-6.9020693,0.0 107.6564574,-6.9021108,0.0 107.6566343,-6.9021236,0.0 107.6567969,-6.9021302,0.0</coordinates>
            </LineString>
        </Placemark>
        <Placemark id="27990">
            <name>Jalan Jenderal Ahmad Yani</name>
            <styleUrl>#27991</styleUrl>
            <LineString id="27989">
                <coordinates>107.6567969,-6.9021302,0.0 107.6571681,-6.9021368,0.0</coordinates>
            </LineString>
        </Placemark>
        <Placemark id="27994">
            <name>Jalan PH. H. Mustofa</name>
            <styleUrl>#27995</styleUrl>
            <LineString id="27993">
                <coordinates>107.6528084,-6.9019067,0.0 107.6529821,-6.9018754,0.0 107.6534283,-6.9019038,0.0 107.6535715,-6.9019129,0.0 107.6536634,-6.9019188,0.0 107.6540692,-6.901949,0.0 107.6545235,-6.9019873,0.0 107.6548916,-6.9020103,0.0 107.6551205,-6.9020246,0.0</coordinates>
            </LineString>
        </Placemark>
        <Placemark id="27998">
            <name>Jalan Brigjend. Katamso</name>
            <styleUrl>#27999</styleUrl>
            <LineString id="27997">
                <coordinates>107.6332551,-6.9028646,0.0 107.6333952,-6.9027941,0.0 107.6334718,-6.902753,0.0 107.6337467,-6.9026114,0.0 107.6338639,-6.9025511,0.0 107.6342515,-6.9023515,0.0 107.6346604,-6.9021409,0.0 107.6348067,-6.9020656,0.0 107.6350549,-6.9019378,0.0</coordinates>
            </LineString>
        </Placemark>
        <Placemark id="28002">
            <name>Jalan Brigjend. Katamso</name>
            <styleUrl>#28003</styleUrl>
            <LineString id="28001">
                <coordinates>107.6331455,-6.9029229,0.0 107.6332551,-6.9028646,0.0</coordinates>
            </LineString>
        </Placemark>
        <Placemark id="28006">
            <name>Jalan Jenderal Ahmad Yani</name>
            <styleUrl>#28007</styleUrl>
            <LineString id="28005">
                <coordinates>107.6551205,-6.9020246,0.0 107.6551401,-6.9020243,0.0 107.6552301,-6.9020294,0.0 107.6553398,-6.9020357,0.0</coordinates>
            </LineString>
        </Placemark>
        <Placemark id="28010">
            <name>Jalan Aceh</name>
            <styleUrl>#28011</styleUrl>
            <LineString id="28009">
                <coordinates>107.6211274,-6.9093568,0.0 107.6211862,-6.9092178,0.0</coordinates>
            </LineString>
        </Placemark>
        <Placemark id="28014">
            <name>Jalan Sunda</name>
            <styleUrl>#28015</styleUrl>
            <LineString id="28013">
                <coordinates>107.6176674,-6.9220018,0.0 107.6176925,-6.921758,0.0 107.6177628,-6.9211858,0.0</coordinates>
            </LineString>
        </Placemark>
        <Placemark id="28018">
            <name>Jalan Sunda</name>
            <styleUrl>#28019</styleUrl>
            <LineString id="28017">
                <coordinates>107.6175602,-6.9230443,0.0 107.6176158,-6.9225861,0.0 107.6176318,-6.9224085,0.0</coordinates>
            </LineString>
        </Placemark>
        <Placemark id="28022">
            <name>Jalan Sunda</name>
            <styleUrl>#28023</styleUrl>
            <LineString id="28021">
                <coordinates>107.6176318,-6.9224085,0.0 107.6176409,-6.9222818,0.0</coordinates>
            </LineString>
        </Placemark>
        <Placemark id="28026">
            <name>Jalan Sunda</name>
            <styleUrl>#28027</styleUrl>
            <LineString id="28025">
                <coordinates>107.6176409,-6.9222818,0.0 107.617642,-6.9222596,0.0</coordinates>
            </LineString>
        </Placemark>
        <Placemark id="28030">
            <name>Jalan Cendana</name>
            <styleUrl>#28031</styleUrl>
            <LineString id="28029">
                <coordinates>107.6273625,-6.9096694,0.0 107.6275335,-6.9095092,0.0 107.6276424,-6.9094066,0.0 107.6276639,-6.9093905,0.0 107.6277127,-6.9093669,0.0</coordinates>
            </LineString>
        </Placemark>
        <Placemark id="28034">
            <name>Jalan Lapang Supratman</name>
            <styleUrl>#28035</styleUrl>
            <LineString id="28033">
                <coordinates>107.6292485,-6.9079205,0.0 107.62923,-6.9078642,0.0 107.6292272,-6.9077795,0.0 107.6292391,-6.9077178,0.0 107.6292929,-6.9076039,0.0 107.6293847,-6.9074925,0.0 107.629504,-6.9073986,0.0 107.6296151,-6.9073236,0.0 107.6297079,-6.907261,0.0 107.6297865,-6.907208,0.0 107.6301321,-6.9069718,0.0</coordinates>
            </LineString>
        </Placemark>
        <Placemark id="28038">
            <name>Jalan Cendana</name>
            <styleUrl>#28039</styleUrl>
            <LineString id="28037">
                <coordinates>107.6277127,-6.9093669,0.0 107.6277859,-6.9093517,0.0</coordinates>
            </LineString>
        </Placemark>
        <Placemark id="28042">
            <name>Jalan Karapitan</name>
            <styleUrl>#28043</styleUrl>
            <LineString id="28041">
                <coordinates>107.6157571,-6.9313657,0.0 107.6158192,-6.9311439,0.0 107.6158573,-6.9310078,0.0</coordinates>
            </LineString>
        </Placemark>
        <Placemark id="28046">
            <name>Jalan Jenderal Ahmad Yani</name>
            <styleUrl>#28047</styleUrl>
            <LineString id="28045">
                <coordinates>107.6557405,-6.9020533,0.0 107.6561365,-6.9020684,0.0</coordinates>
            </LineString>
        </Placemark>
        <Placemark id="28050">
            <name>Jalan Sunda</name>
            <styleUrl>#28051</styleUrl>
            <LineString id="28049">
                <coordinates>107.6177628,-6.9211858,0.0 107.6177726,-6.9211032,0.0 107.6178524,-6.9204334,0.0</coordinates>
            </LineString>
        </Placemark>
        <Placemark id="28054">
            <name>Jalan Karapitan</name>
            <styleUrl>#28055</styleUrl>
            <LineString id="28053">
                <coordinates>107.6158573,-6.9310078,0.0 107.6159987,-6.9304668,0.0 107.6160678,-6.9302053,0.0 107.6160965,-6.9300966,0.0</coordinates>
            </LineString>
        </Placemark>
        <Placemark id="28058">
            <name>Jalan Cikutra</name>
            <styleUrl>#28059</styleUrl>
            <LineString id="28057">
                <coordinates>107.6355463,-6.8928327,0.0 107.6354403,-6.8927469,0.0</coordinates>
            </LineString>
        </Placemark>
        <Placemark id="28062">
            <name>Jalan PH. H. Mustofa</name>
            <styleUrl>#28063</styleUrl>
            <LineString id="28061">
                <coordinates>107.65075,-6.9018006,0.0 107.6508611,-6.9018087,0.0</coordinates>
            </LineString>
        </Placemark>
        <Placemark id="28066">
            <name>Jalan Dewi Sartika</name>
            <styleUrl>#28067</styleUrl>
            <LineString id="28065">
                <coordinates>107.6058386,-6.9275637,0.0 107.6058453,-6.9274973,0.0</coordinates>
            </LineString>
        </Placemark>
        <Placemark id="28070">
            <name>Jalan Dewi Sartika</name>
            <styleUrl>#28071</styleUrl>
            <LineString id="28069">
                <coordinates>107.6058453,-6.9274973,0.0 107.6058559,-6.9274746,0.0 107.605878,-6.9274596,0.0 107.6059082,-6.9274425,0.0 107.6059305,-6.9274223,0.0 107.6059373,-6.9274102,0.0 107.6059454,-6.9273849,0.0</coordinates>
            </LineString>
        </Placemark>
        <Placemark id="28074">
            <name>Route Segment</name>
            <styleUrl>#28075</styleUrl>
            <LineString id="28073">
                <coordinates>107.6571681,-6.9021368,0.0 107.6572534,-6.9022149,0.0</coordinates>
            </LineString>
        </Placemark>
        <Placemark id="28078">
            <name>Jalan Sunda</name>
            <styleUrl>#28079</styleUrl>
            <LineString id="28077">
                <coordinates>107.617642,-6.9222596,0.0 107.6176603,-6.9220817,0.0 107.6176674,-6.9220018,0.0</coordinates>
            </LineString>
        </Placemark>
        <Placemark id="28082">
            <name>Jalan Dewi Sartika</name>
            <styleUrl>#28083</styleUrl>
            <LineString id="28081">
                <coordinates>107.6058322,-6.9276428,0.0 107.6058386,-6.9275637,0.0</coordinates>
            </LineString>
        </Placemark>
        <Placemark id="28086">
            <name>Jalan Jenderal Ahmad Yani</name>
            <styleUrl>#28087</styleUrl>
            <LineString id="28085">
                <coordinates>107.6553398,-6.9020357,0.0 107.6555577,-6.9020453,0.0 107.6557405,-6.9020533,0.0</coordinates>
            </LineString>
        </Placemark>
        <Placemark id="28090">
            <name>Jalan Karapitan</name>
            <styleUrl>#28091</styleUrl>
            <LineString id="28089">
                <coordinates>107.6173947,-6.9248147,0.0 107.6174186,-6.9245782,0.0 107.6174402,-6.9242266,0.0 107.617445,-6.9241549,0.0</coordinates>
            </LineString>
        </Placemark>
        <Placemark id="28094">
            <name>Jalan Karapitan</name>
            <styleUrl>#28095</styleUrl>
            <LineString id="28093">
                <coordinates>107.617445,-6.9241549,0.0 107.6174602,-6.9239362,0.0 107.6174644,-6.9238804,0.0</coordinates>
            </LineString>
        </Placemark>
        <Placemark id="28098">
            <name>Jalan Karapitan</name>
            <styleUrl>#28099</styleUrl>
            <LineString id="28097">
                <coordinates>107.6174644,-6.9238804,0.0 107.6174677,-6.923837,0.0 107.6174708,-6.9238071,0.0</coordinates>
            </LineString>
        </Placemark>
        <Placemark id="28102">
            <name>Jalan Karapitan</name>
            <styleUrl>#28103</styleUrl>
            <LineString id="28101">
                <coordinates>107.6174708,-6.9238071,0.0 107.6174757,-6.9237597,0.0</coordinates>
            </LineString>
        </Placemark>
        <Placemark id="28106">
            <name>Jalan Supratman</name>
            <styleUrl>#28107</styleUrl>
            <LineString id="28105">
                <coordinates>107.6301321,-6.9069718,0.0 107.6300738,-6.9068822,0.0</coordinates>
            </LineString>
        </Placemark>
    </Document>
</kml>
