<?xml version="1.0" encoding="UTF-8"?>
<kml xmlns="http://www.opengis.net/kml/2.2" xmlns:gx="http://www.google.com/kml/ext/2.2">
    <Document id="29075">
        <Style id="29081">
            <IconStyle id="29082">
                <colorMode>normal</colorMode>
                <scale>1</scale>
                <heading>0</heading>
                <Icon id="29083">
                    <href>http://maps.google.com/mapfiles/kml/pushpin/ylw-pushpin.png</href>
                </Icon>
            </IconStyle>
        </Style>
        <Style id="29086">
            <IconStyle id="29087">
                <colorMode>normal</colorMode>
                <scale>1</scale>
                <heading>0</heading>
                <Icon id="29088">
                    <href>http://maps.google.com/mapfiles/kml/pushpin/ylw-pushpin.png</href>
                </Icon>
            </IconStyle>
        </Style>
        <Style id="29091">
            <LineStyle id="29092">
                <color>ffDCB4AA</color>
                <colorMode>normal</colorMode>
                <width>4</width>
            </LineStyle>
        </Style>
        <Style id="29095">
            <LineStyle id="29096">
                <color>ffDCB4AA</color>
                <colorMode>normal</colorMode>
                <width>4</width>
            </LineStyle>
        </Style>
        <Style id="29099">
            <LineStyle id="29100">
                <color>ffDCB4AA</color>
                <colorMode>normal</colorMode>
                <width>4</width>
            </LineStyle>
        </Style>
        <Style id="29103">
            <LineStyle id="29104">
                <color>ffDCB4AA</color>
                <colorMode>normal</colorMode>
                <width>4</width>
            </LineStyle>
        </Style>
        <Style id="29107">
            <LineStyle id="29108">
                <color>ffDCB4AA</color>
                <colorMode>normal</colorMode>
                <width>4</width>
            </LineStyle>
        </Style>
        <Style id="29111">
            <LineStyle id="29112">
                <color>ffDCB4AA</color>
                <colorMode>normal</colorMode>
                <width>4</width>
            </LineStyle>
        </Style>
        <Style id="29115">
            <LineStyle id="29116">
                <color>ffDCB4AA</color>
                <colorMode>normal</colorMode>
                <width>4</width>
            </LineStyle>
        </Style>
        <Style id="29119">
            <LineStyle id="29120">
                <color>ffDCB4AA</color>
                <colorMode>normal</colorMode>
                <width>4</width>
            </LineStyle>
        </Style>
        <Style id="29123">
            <LineStyle id="29124">
                <color>ffDCB4AA</color>
                <colorMode>normal</colorMode>
                <width>4</width>
            </LineStyle>
        </Style>
        <Style id="29127">
            <LineStyle id="29128">
                <color>ffDCB4AA</color>
                <colorMode>normal</colorMode>
                <width>4</width>
            </LineStyle>
        </Style>
        <Style id="29131">
            <LineStyle id="29132">
                <color>ffDCB4AA</color>
                <colorMode>normal</colorMode>
                <width>4</width>
            </LineStyle>
        </Style>
        <Style id="29135">
            <LineStyle id="29136">
                <color>ffDCB4AA</color>
                <colorMode>normal</colorMode>
                <width>4</width>
            </LineStyle>
        </Style>
        <Style id="29139">
            <LineStyle id="29140">
                <color>ffDCB4AA</color>
                <colorMode>normal</colorMode>
                <width>4</width>
            </LineStyle>
        </Style>
        <Style id="29143">
            <LineStyle id="29144">
                <color>ffDCB4AA</color>
                <colorMode>normal</colorMode>
                <width>4</width>
            </LineStyle>
        </Style>
        <Style id="29147">
            <LineStyle id="29148">
                <color>ffDCB4AA</color>
                <colorMode>normal</colorMode>
                <width>4</width>
            </LineStyle>
        </Style>
        <Style id="29151">
            <LineStyle id="29152">
                <color>ffDCB4AA</color>
                <colorMode>normal</colorMode>
                <width>4</width>
            </LineStyle>
        </Style>
        <Style id="29155">
            <LineStyle id="29156">
                <color>ffDCB4AA</color>
                <colorMode>normal</colorMode>
                <width>4</width>
            </LineStyle>
        </Style>
        <Style id="29159">
            <LineStyle id="29160">
                <color>ffDCB4AA</color>
                <colorMode>normal</colorMode>
                <width>4</width>
            </LineStyle>
        </Style>
        <Style id="29163">
            <LineStyle id="29164">
                <color>ffDCB4AA</color>
                <colorMode>normal</colorMode>
                <width>4</width>
            </LineStyle>
        </Style>
        <Style id="29167">
            <LineStyle id="29168">
                <color>ffDCB4AA</color>
                <colorMode>normal</colorMode>
                <width>4</width>
            </LineStyle>
        </Style>
        <Style id="29171">
            <LineStyle id="29172">
                <color>ffDCB4AA</color>
                <colorMode>normal</colorMode>
                <width>4</width>
            </LineStyle>
        </Style>
        <Style id="29175">
            <LineStyle id="29176">
                <color>ffDCB4AA</color>
                <colorMode>normal</colorMode>
                <width>4</width>
            </LineStyle>
        </Style>
        <Style id="29179">
            <LineStyle id="29180">
                <color>ffDCB4AA</color>
                <colorMode>normal</colorMode>
                <width>4</width>
            </LineStyle>
        </Style>
        <Style id="29183">
            <LineStyle id="29184">
                <color>ffDCB4AA</color>
                <colorMode>normal</colorMode>
                <width>4</width>
            </LineStyle>
        </Style>
        <Style id="29187">
            <LineStyle id="29188">
                <color>ffDCB4AA</color>
                <colorMode>normal</colorMode>
                <width>4</width>
            </LineStyle>
        </Style>
        <Style id="29191">
            <LineStyle id="29192">
                <color>ffDCB4AA</color>
                <colorMode>normal</colorMode>
                <width>4</width>
            </LineStyle>
        </Style>
        <Style id="29195">
            <LineStyle id="29196">
                <color>ffDCB4AA</color>
                <colorMode>normal</colorMode>
                <width>4</width>
            </LineStyle>
        </Style>
        <Style id="29199">
            <LineStyle id="29200">
                <color>ffDCB4AA</color>
                <colorMode>normal</colorMode>
                <width>4</width>
            </LineStyle>
        </Style>
        <Style id="29203">
            <LineStyle id="29204">
                <color>ffDCB4AA</color>
                <colorMode>normal</colorMode>
                <width>4</width>
            </LineStyle>
        </Style>
        <Style id="29207">
            <LineStyle id="29208">
                <color>ffDCB4AA</color>
                <colorMode>normal</colorMode>
                <width>4</width>
            </LineStyle>
        </Style>
        <Style id="29211">
            <LineStyle id="29212">
                <color>ffDCB4AA</color>
                <colorMode>normal</colorMode>
                <width>4</width>
            </LineStyle>
        </Style>
        <Style id="29215">
            <LineStyle id="29216">
                <color>ffDCB4AA</color>
                <colorMode>normal</colorMode>
                <width>4</width>
            </LineStyle>
        </Style>
        <Style id="29219">
            <LineStyle id="29220">
                <color>ffDCB4AA</color>
                <colorMode>normal</colorMode>
                <width>4</width>
            </LineStyle>
        </Style>
        <Style id="29223">
            <LineStyle id="29224">
                <color>ffDCB4AA</color>
                <colorMode>normal</colorMode>
                <width>4</width>
            </LineStyle>
        </Style>
        <Style id="29227">
            <LineStyle id="29228">
                <color>ffDCB4AA</color>
                <colorMode>normal</colorMode>
                <width>4</width>
            </LineStyle>
        </Style>
        <Style id="29231">
            <LineStyle id="29232">
                <color>ffDCB4AA</color>
                <colorMode>normal</colorMode>
                <width>4</width>
            </LineStyle>
        </Style>
        <Style id="29235">
            <LineStyle id="29236">
                <color>ffDCB4AA</color>
                <colorMode>normal</colorMode>
                <width>4</width>
            </LineStyle>
        </Style>
        <Style id="29239">
            <LineStyle id="29240">
                <color>ffDCB4AA</color>
                <colorMode>normal</colorMode>
                <width>4</width>
            </LineStyle>
        </Style>
        <Style id="29243">
            <LineStyle id="29244">
                <color>ffDCB4AA</color>
                <colorMode>normal</colorMode>
                <width>4</width>
            </LineStyle>
        </Style>
        <Style id="29247">
            <LineStyle id="29248">
                <color>ffDCB4AA</color>
                <colorMode>normal</colorMode>
                <width>4</width>
            </LineStyle>
        </Style>
        <Style id="29251">
            <LineStyle id="29252">
                <color>ffDCB4AA</color>
                <colorMode>normal</colorMode>
                <width>4</width>
            </LineStyle>
        </Style>
        <Style id="29255">
            <LineStyle id="29256">
                <color>ffDCB4AA</color>
                <colorMode>normal</colorMode>
                <width>4</width>
            </LineStyle>
        </Style>
        <Style id="29259">
            <LineStyle id="29260">
                <color>ffDCB4AA</color>
                <colorMode>normal</colorMode>
                <width>4</width>
            </LineStyle>
        </Style>
        <Style id="29263">
            <LineStyle id="29264">
                <color>ffDCB4AA</color>
                <colorMode>normal</colorMode>
                <width>4</width>
            </LineStyle>
        </Style>
        <Style id="29267">
            <LineStyle id="29268">
                <color>ffDCB4AA</color>
                <colorMode>normal</colorMode>
                <width>4</width>
            </LineStyle>
        </Style>
        <Style id="29271">
            <LineStyle id="29272">
                <color>ffDCB4AA</color>
                <colorMode>normal</colorMode>
                <width>4</width>
            </LineStyle>
        </Style>
        <Style id="29275">
            <LineStyle id="29276">
                <color>ffDCB4AA</color>
                <colorMode>normal</colorMode>
                <width>4</width>
            </LineStyle>
        </Style>
        <Style id="29279">
            <LineStyle id="29280">
                <color>ffDCB4AA</color>
                <colorMode>normal</colorMode>
                <width>4</width>
            </LineStyle>
        </Style>
        <Style id="29283">
            <LineStyle id="29284">
                <color>ffDCB4AA</color>
                <colorMode>normal</colorMode>
                <width>4</width>
            </LineStyle>
        </Style>
        <Style id="29287">
            <LineStyle id="29288">
                <color>ffDCB4AA</color>
                <colorMode>normal</colorMode>
                <width>4</width>
            </LineStyle>
        </Style>
        <Style id="29291">
            <LineStyle id="29292">
                <color>ffDCB4AA</color>
                <colorMode>normal</colorMode>
                <width>4</width>
            </LineStyle>
        </Style>
        <Style id="29295">
            <LineStyle id="29296">
                <color>ffDCB4AA</color>
                <colorMode>normal</colorMode>
                <width>4</width>
            </LineStyle>
        </Style>
        <Style id="29299">
            <LineStyle id="29300">
                <color>ffDCB4AA</color>
                <colorMode>normal</colorMode>
                <width>4</width>
            </LineStyle>
        </Style>
        <Style id="29303">
            <LineStyle id="29304">
                <color>ffDCB4AA</color>
                <colorMode>normal</colorMode>
                <width>4</width>
            </LineStyle>
        </Style>
        <Style id="29307">
            <LineStyle id="29308">
                <color>ffDCB4AA</color>
                <colorMode>normal</colorMode>
                <width>4</width>
            </LineStyle>
        </Style>
        <Style id="29311">
            <LineStyle id="29312">
                <color>ffDCB4AA</color>
                <colorMode>normal</colorMode>
                <width>4</width>
            </LineStyle>
        </Style>
        <Style id="29315">
            <LineStyle id="29316">
                <color>ffDCB4AA</color>
                <colorMode>normal</colorMode>
                <width>4</width>
            </LineStyle>
        </Style>
        <Style id="29319">
            <LineStyle id="29320">
                <color>ffDCB4AA</color>
                <colorMode>normal</colorMode>
                <width>4</width>
            </LineStyle>
        </Style>
        <Style id="29323">
            <LineStyle id="29324">
                <color>ffDCB4AA</color>
                <colorMode>normal</colorMode>
                <width>4</width>
            </LineStyle>
        </Style>
        <Style id="29327">
            <LineStyle id="29328">
                <color>ffDCB4AA</color>
                <colorMode>normal</colorMode>
                <width>4</width>
            </LineStyle>
        </Style>
        <Style id="29331">
            <LineStyle id="29332">
                <color>ffDCB4AA</color>
                <colorMode>normal</colorMode>
                <width>4</width>
            </LineStyle>
        </Style>
        <Style id="29335">
            <LineStyle id="29336">
                <color>ffDCB4AA</color>
                <colorMode>normal</colorMode>
                <width>4</width>
            </LineStyle>
        </Style>
        <Style id="29339">
            <LineStyle id="29340">
                <color>ffDCB4AA</color>
                <colorMode>normal</colorMode>
                <width>4</width>
            </LineStyle>
        </Style>
        <Style id="29343">
            <LineStyle id="29344">
                <color>ffDCB4AA</color>
                <colorMode>normal</colorMode>
                <width>4</width>
            </LineStyle>
        </Style>
        <Style id="29347">
            <LineStyle id="29348">
                <color>ffDCB4AA</color>
                <colorMode>normal</colorMode>
                <width>4</width>
            </LineStyle>
        </Style>
        <Style id="29351">
            <LineStyle id="29352">
                <color>ffDCB4AA</color>
                <colorMode>normal</colorMode>
                <width>4</width>
            </LineStyle>
        </Style>
        <Style id="29355">
            <LineStyle id="29356">
                <color>ffDCB4AA</color>
                <colorMode>normal</colorMode>
                <width>4</width>
            </LineStyle>
        </Style>
        <Style id="29359">
            <LineStyle id="29360">
                <color>ffDCB4AA</color>
                <colorMode>normal</colorMode>
                <width>4</width>
            </LineStyle>
        </Style>
        <Style id="29363">
            <LineStyle id="29364">
                <color>ffDCB4AA</color>
                <colorMode>normal</colorMode>
                <width>4</width>
            </LineStyle>
        </Style>
        <Style id="29367">
            <LineStyle id="29368">
                <color>ffDCB4AA</color>
                <colorMode>normal</colorMode>
                <width>4</width>
            </LineStyle>
        </Style>
        <Style id="29371">
            <LineStyle id="29372">
                <color>ffDCB4AA</color>
                <colorMode>normal</colorMode>
                <width>4</width>
            </LineStyle>
        </Style>
        <Style id="29375">
            <LineStyle id="29376">
                <color>ffDCB4AA</color>
                <colorMode>normal</colorMode>
                <width>4</width>
            </LineStyle>
        </Style>
        <Style id="29379">
            <LineStyle id="29380">
                <color>ffDCB4AA</color>
                <colorMode>normal</colorMode>
                <width>4</width>
            </LineStyle>
        </Style>
        <Style id="29383">
            <LineStyle id="29384">
                <color>ffDCB4AA</color>
                <colorMode>normal</colorMode>
                <width>4</width>
            </LineStyle>
        </Style>
        <Style id="29387">
            <LineStyle id="29388">
                <color>ffDCB4AA</color>
                <colorMode>normal</colorMode>
                <width>4</width>
            </LineStyle>
        </Style>
        <Style id="29391">
            <LineStyle id="29392">
                <color>ffDCB4AA</color>
                <colorMode>normal</colorMode>
                <width>4</width>
            </LineStyle>
        </Style>
        <Style id="29395">
            <LineStyle id="29396">
                <color>ffDCB4AA</color>
                <colorMode>normal</colorMode>
                <width>4</width>
            </LineStyle>
        </Style>
        <Style id="29399">
            <LineStyle id="29400">
                <color>ffDCB4AA</color>
                <colorMode>normal</colorMode>
                <width>4</width>
            </LineStyle>
        </Style>
        <Style id="29403">
            <LineStyle id="29404">
                <color>ffDCB4AA</color>
                <colorMode>normal</colorMode>
                <width>4</width>
            </LineStyle>
        </Style>
        <Style id="29407">
            <LineStyle id="29408">
                <color>ffDCB4AA</color>
                <colorMode>normal</colorMode>
                <width>4</width>
            </LineStyle>
        </Style>
        <Style id="29411">
            <LineStyle id="29412">
                <color>ffDCB4AA</color>
                <colorMode>normal</colorMode>
                <width>4</width>
            </LineStyle>
        </Style>
        <Style id="29415">
            <LineStyle id="29416">
                <color>ffDCB4AA</color>
                <colorMode>normal</colorMode>
                <width>4</width>
            </LineStyle>
        </Style>
        <Style id="29419">
            <LineStyle id="29420">
                <color>ffDCB4AA</color>
                <colorMode>normal</colorMode>
                <width>4</width>
            </LineStyle>
        </Style>
        <Style id="29423">
            <LineStyle id="29424">
                <color>ffDCB4AA</color>
                <colorMode>normal</colorMode>
                <width>4</width>
            </LineStyle>
        </Style>
        <Style id="29427">
            <LineStyle id="29428">
                <color>ffDCB4AA</color>
                <colorMode>normal</colorMode>
                <width>4</width>
            </LineStyle>
        </Style>
        <Style id="29431">
            <LineStyle id="29432">
                <color>ffDCB4AA</color>
                <colorMode>normal</colorMode>
                <width>4</width>
            </LineStyle>
        </Style>
        <Style id="29435">
            <LineStyle id="29436">
                <color>ffDCB4AA</color>
                <colorMode>normal</colorMode>
                <width>4</width>
            </LineStyle>
        </Style>
        <Style id="29439">
            <LineStyle id="29440">
                <color>ffDCB4AA</color>
                <colorMode>normal</colorMode>
                <width>4</width>
            </LineStyle>
        </Style>
        <Style id="29443">
            <LineStyle id="29444">
                <color>ffDCB4AA</color>
                <colorMode>normal</colorMode>
                <width>4</width>
            </LineStyle>
        </Style>
        <Style id="29447">
            <LineStyle id="29448">
                <color>ffDCB4AA</color>
                <colorMode>normal</colorMode>
                <width>4</width>
            </LineStyle>
        </Style>
        <Style id="29451">
            <LineStyle id="29452">
                <color>ffDCB4AA</color>
                <colorMode>normal</colorMode>
                <width>4</width>
            </LineStyle>
        </Style>
        <Style id="29455">
            <LineStyle id="29456">
                <color>ffDCB4AA</color>
                <colorMode>normal</colorMode>
                <width>4</width>
            </LineStyle>
        </Style>
        <Style id="29459">
            <LineStyle id="29460">
                <color>ffDCB4AA</color>
                <colorMode>normal</colorMode>
                <width>4</width>
            </LineStyle>
        </Style>
        <Style id="29463">
            <LineStyle id="29464">
                <color>ffDCB4AA</color>
                <colorMode>normal</colorMode>
                <width>4</width>
            </LineStyle>
        </Style>
        <Style id="29467">
            <LineStyle id="29468">
                <color>ffDCB4AA</color>
                <colorMode>normal</colorMode>
                <width>4</width>
            </LineStyle>
        </Style>
        <Style id="29471">
            <LineStyle id="29472">
                <color>ffDCB4AA</color>
                <colorMode>normal</colorMode>
                <width>4</width>
            </LineStyle>
        </Style>
        <Style id="29475">
            <LineStyle id="29476">
                <color>ffDCB4AA</color>
                <colorMode>normal</colorMode>
                <width>4</width>
            </LineStyle>
        </Style>
        <Style id="29479">
            <LineStyle id="29480">
                <color>ffDCB4AA</color>
                <colorMode>normal</colorMode>
                <width>4</width>
            </LineStyle>
        </Style>
        <Style id="29483">
            <LineStyle id="29484">
                <color>ffDCB4AA</color>
                <colorMode>normal</colorMode>
                <width>4</width>
            </LineStyle>
        </Style>
        <Style id="29487">
            <LineStyle id="29488">
                <color>ffDCB4AA</color>
                <colorMode>normal</colorMode>
                <width>4</width>
            </LineStyle>
        </Style>
        <Style id="29491">
            <LineStyle id="29492">
                <color>ffDCB4AA</color>
                <colorMode>normal</colorMode>
                <width>4</width>
            </LineStyle>
        </Style>
        <Style id="29495">
            <LineStyle id="29496">
                <color>ffDCB4AA</color>
                <colorMode>normal</colorMode>
                <width>4</width>
            </LineStyle>
        </Style>
        <Style id="29499">
            <LineStyle id="29500">
                <color>ffDCB4AA</color>
                <colorMode>normal</colorMode>
                <width>4</width>
            </LineStyle>
        </Style>
        <Style id="29503">
            <LineStyle id="29504">
                <color>ffDCB4AA</color>
                <colorMode>normal</colorMode>
                <width>4</width>
            </LineStyle>
        </Style>
        <Style id="29507">
            <LineStyle id="29508">
                <color>ffDCB4AA</color>
                <colorMode>normal</colorMode>
                <width>4</width>
            </LineStyle>
        </Style>
        <Style id="29511">
            <LineStyle id="29512">
                <color>ffDCB4AA</color>
                <colorMode>normal</colorMode>
                <width>4</width>
            </LineStyle>
        </Style>
        <Style id="29515">
            <LineStyle id="29516">
                <color>ffDCB4AA</color>
                <colorMode>normal</colorMode>
                <width>4</width>
            </LineStyle>
        </Style>
        <ExtendedData>
            <Data name="route-name">
                <value>03: Abdul Muis → Ledeng</value>
            </Data>
            <Data name="source">
                <value>Transport for Bandung</value>
            </Data>
        </ExtendedData>
        <Placemark id="29080">
            <name>Terminal Abdul Muis/Kebon Kalapa</name>
            <styleUrl>#29081</styleUrl>
            <Point id="29079">
                <coordinates>107.6058322,-6.9276428,0.0</coordinates>
            </Point>
        </Placemark>
        <Placemark id="29085">
            <name>Terminal Ledeng</name>
            <styleUrl>#29086</styleUrl>
            <Point id="29084">
                <coordinates>107.5951942,-6.85933,0.0</coordinates>
            </Point>
        </Placemark>
        <Placemark id="29090">
            <name>Jalan Merdeka</name>
            <styleUrl>#29091</styleUrl>
            <LineString id="29089">
                <coordinates>107.6106377,-6.9069919,0.0 107.6106352,-6.9070989,0.0 107.6106494,-6.9075604,0.0 107.610662,-6.908124,0.0 107.610666,-6.9084915,0.0 107.6106694,-6.9088197,0.0 107.6106685,-6.9088817,0.0 107.6106745,-6.9090787,0.0 107.6106708,-6.9093054,0.0 107.6106596,-6.9096428,0.0 107.6106582,-6.909665,0.0 107.610654,-6.909795,0.0</coordinates>
            </LineString>
        </Placemark>
        <Placemark id="29094">
            <name>Jalan Pajajaran</name>
            <styleUrl>#29095</styleUrl>
            <LineString id="29093">
                <coordinates>107.6073865,-6.9076628,0.0 107.6073442,-6.9076324,0.0 107.6072754,-6.9075859,0.0 107.6071035,-6.9074752,0.0 107.6070242,-6.9074318,0.0 107.6068765,-6.907351,0.0 107.6066403,-6.907244,0.0 107.6065225,-6.9072053,0.0 107.6064209,-6.9071852,0.0 107.6062761,-6.9071663,0.0 107.6061572,-6.9071583,0.0 107.6058415,-6.9071486,0.0 107.6055894,-6.9071347,0.0</coordinates>
            </LineString>
        </Placemark>
        <Placemark id="29098">
            <name>Jalan Cihampelas</name>
            <styleUrl>#29099</styleUrl>
            <LineString id="29097">
                <coordinates>107.6044282,-6.9071102,0.0 107.6044133,-6.9065285,0.0 107.6044055,-6.9062288,0.0 107.6044014,-6.9058496,0.0 107.6043978,-6.9056926,0.0 107.6043877,-6.9049197,0.0 107.6043867,-6.9048271,0.0</coordinates>
            </LineString>
        </Placemark>
        <Placemark id="29102">
            <name>Jalan Raden Adipati Aria Wiranatakusumah</name>
            <styleUrl>#29103</styleUrl>
            <LineString id="29101">
                <coordinates>107.6029269,-6.904267,0.0 107.6030171,-6.9042324,0.0 107.603063,-6.9042006,0.0 107.6030788,-6.9041402,0.0 107.603069,-6.9040264,0.0 107.6030337,-6.9038169,0.0 107.6030058,-6.9036565,0.0 107.602946,-6.9033752,0.0 107.602896,-6.9032304,0.0 107.6028286,-6.9030636,0.0 107.6025777,-6.9026772,0.0 107.6024265,-6.9024472,0.0 107.6024141,-6.9024222,0.0 107.602401,-6.902382,0.0</coordinates>
            </LineString>
        </Placemark>
        <Placemark id="29106">
            <name>Jalan Pasir Kaliki</name>
            <styleUrl>#29107</styleUrl>
            <LineString id="29105">
                <coordinates>107.597321,-6.898017,0.0 107.5973143,-6.897839,0.0 107.5973006,-6.8973077,0.0 107.5972936,-6.8969114,0.0 107.5972895,-6.8968371,0.0</coordinates>
            </LineString>
        </Placemark>
        <Placemark id="29110">
            <name>Jalan Sukajadi</name>
            <styleUrl>#29111</styleUrl>
            <LineString id="29109">
                <coordinates>107.5967323,-6.8873957,0.0 107.5967238,-6.8872476,0.0 107.5967027,-6.8868139,0.0 107.5967016,-6.8867916,0.0</coordinates>
            </LineString>
        </Placemark>
        <Placemark id="29114">
            <name>Jalan Sukajadi</name>
            <styleUrl>#29115</styleUrl>
            <LineString id="29113">
                <coordinates>107.5961957,-6.8768743,0.0 107.5961919,-6.8768247,0.0 107.5961498,-6.8762747,0.0 107.5961192,-6.8758667,0.0 107.5960887,-6.8756034,0.0 107.5960697,-6.8754397,0.0 107.5960058,-6.8749813,0.0 107.595994,-6.8749009,0.0 107.5959746,-6.8747745,0.0 107.5958725,-6.8743267,0.0 107.5958215,-6.8741565,0.0 107.5958267,-6.874066,0.0</coordinates>
            </LineString>
        </Placemark>
        <Placemark id="29118">
            <name>Jalan Karapitan</name>
            <styleUrl>#29119</styleUrl>
            <LineString id="29117">
                <coordinates>107.6164384,-6.9287942,0.0 107.6164497,-6.9287607,0.0</coordinates>
            </LineString>
        </Placemark>
        <Placemark id="29122">
            <name>Jalan Mochammad Ramdhan</name>
            <styleUrl>#29123</styleUrl>
            <LineString id="29121">
                <coordinates>107.6149248,-6.9325064,0.0 107.6150464,-6.9323211,0.0 107.6152226,-6.9320956,0.0</coordinates>
            </LineString>
        </Placemark>
        <Placemark id="29126">
            <name>Jalan Perintis Kemerdekaan</name>
            <styleUrl>#29127</styleUrl>
            <LineString id="29125">
                <coordinates>107.6103525,-6.9136021,0.0 107.6100125,-6.9139146,0.0 107.6099856,-6.9139284,0.0 107.6099474,-6.9139366,0.0 107.6099053,-6.913944,0.0 107.6098104,-6.9139382,0.0 107.6097898,-6.9139349,0.0 107.6097692,-6.9139315,0.0 107.6096401,-6.9139177,0.0 107.6091737,-6.9138665,0.0 107.609095,-6.9138574,0.0</coordinates>
            </LineString>
        </Placemark>
        <Placemark id="29130">
            <name>Jalan Sukajadi</name>
            <styleUrl>#29131</styleUrl>
            <LineString id="29129">
                <coordinates>107.5962548,-6.8783299,0.0 107.596246,-6.8780655,0.0 107.5962436,-6.8779934,0.0 107.5962315,-6.8776265,0.0 107.5962243,-6.8774107,0.0</coordinates>
            </LineString>
        </Placemark>
        <Placemark id="29134">
            <name>Jalan Sukajadi</name>
            <styleUrl>#29135</styleUrl>
            <LineString id="29133">
                <coordinates>107.5965234,-6.8840238,0.0 107.5965088,-6.8836453,0.0 107.5965062,-6.8835624,0.0 107.596503,-6.8834688,0.0 107.5964741,-6.8826331,0.0 107.5964702,-6.8825274,0.0 107.5964601,-6.8821498,0.0 107.5964542,-6.8820032,0.0 107.596444,-6.8817861,0.0 107.5964302,-6.8814833,0.0 107.5964257,-6.8813836,0.0 107.5964243,-6.8813611,0.0 107.5963984,-6.8809341,0.0</coordinates>
            </LineString>
        </Placemark>
        <Placemark id="29138">
            <name>Jalan Pasteur</name>
            <styleUrl>#29139</styleUrl>
            <LineString id="29137">
                <coordinates>107.5982442,-6.9003802,0.0 107.597773,-6.9003861,0.0 107.5977337,-6.9003863,0.0</coordinates>
            </LineString>
        </Placemark>
        <Placemark id="29142">
            <name>Jalan Balonggede</name>
            <styleUrl>#29143</styleUrl>
            <LineString id="29141">
                <coordinates>107.6071391,-6.9258274,0.0 107.6070558,-6.9274889,0.0</coordinates>
            </LineString>
        </Placemark>
        <Placemark id="29146">
            <name>Jalan Pajajaran</name>
            <styleUrl>#29147</styleUrl>
            <LineString id="29145">
                <coordinates>107.6055894,-6.9071347,0.0 107.6053829,-6.907135,0.0</coordinates>
            </LineString>
        </Placemark>
        <Placemark id="29150">
            <name>Jalan Mochammad Ramdhan</name>
            <styleUrl>#29151</styleUrl>
            <LineString id="29149">
                <coordinates>107.6153893,-6.9318779,0.0 107.6155386,-6.9316906,0.0</coordinates>
            </LineString>
        </Placemark>
        <Placemark id="29154">
            <name>Jalan Lombok</name>
            <styleUrl>#29155</styleUrl>
            <LineString id="29153">
                <coordinates>107.6172878,-6.9135725,0.0 107.6177677,-6.9131842,0.0 107.6179281,-6.9130544,0.0</coordinates>
            </LineString>
        </Placemark>
        <Placemark id="29158">
            <name>Jalan Sumbawa</name>
            <styleUrl>#29159</styleUrl>
            <LineString id="29157">
                <coordinates>107.6183708,-6.9159304,0.0 107.6183997,-6.9158308,0.0 107.6184091,-6.9157469,0.0 107.6184073,-6.9156491,0.0 107.618385,-6.9155445,0.0 107.6183566,-6.9154656,0.0 107.6183514,-6.9154513,0.0 107.6182972,-6.9153483,0.0 107.6182254,-6.915217,0.0 107.6181449,-6.9150772,0.0 107.6176661,-6.9141839,0.0 107.617602,-6.9140742,0.0 107.6175862,-6.9140471,0.0 107.6175159,-6.913923,0.0 107.6173371,-6.9136482,0.0 107.6172878,-6.9135725,0.0</coordinates>
            </LineString>
        </Placemark>
        <Placemark id="29162">
            <name>Jalan Banda</name>
            <styleUrl>#29163</styleUrl>
            <LineString id="29161">
                <coordinates>107.6174121,-6.9091524,0.0 107.6174191,-6.9091885,0.0 107.6175806,-6.9100152,0.0 107.6176084,-6.9105947,0.0 107.6176179,-6.9109987,0.0 107.617621,-6.9111089,0.0 107.6176121,-6.9113263,0.0 107.6175997,-6.9114,0.0 107.6175864,-6.9114556,0.0 107.6175732,-6.9115105,0.0</coordinates>
            </LineString>
        </Placemark>
        <Placemark id="29166">
            <name>Jalan Wastukancana</name>
            <styleUrl>#29167</styleUrl>
            <LineString id="29165">
                <coordinates>107.6088855,-6.9102984,0.0 107.6088445,-6.9102299,0.0 107.6087639,-6.910086,0.0 107.608484,-6.9095465,0.0 107.6083912,-6.9093671,0.0</coordinates>
            </LineString>
        </Placemark>
        <Placemark id="29170">
            <name>Jalan Abdul Rivai</name>
            <styleUrl>#29171</styleUrl>
            <LineString id="29169">
                <coordinates>107.6042585,-6.9043799,0.0 107.6042031,-6.9043784,0.0 107.6041906,-6.9043785,0.0 107.6038123,-6.904381,0.0 107.6037017,-6.9043817,0.0 107.6032139,-6.9043917,0.0 107.60315,-6.9044117,0.0 107.603087,-6.9044423,0.0 107.6030408,-6.9044641,0.0 107.602977,-6.9044876,0.0 107.6029215,-6.9045028,0.0 107.6025713,-6.9045005,0.0</coordinates>
            </LineString>
        </Placemark>
        <Placemark id="29174">
            <name>Jalan Pasir Kaliki</name>
            <styleUrl>#29175</styleUrl>
            <LineString id="29173">
                <coordinates>107.5973503,-6.8989275,0.0 107.5973395,-6.8985629,0.0 107.5973325,-6.8983576,0.0 107.5973274,-6.898195,0.0 107.5973223,-6.8980478,0.0 107.597321,-6.898017,0.0</coordinates>
            </LineString>
        </Placemark>
        <Placemark id="29178">
            <name>Jalan Pungkur</name>
            <styleUrl>#29179</styleUrl>
            <LineString id="29177">
                <coordinates>107.6149248,-6.9325064,0.0 107.6143118,-6.9323443,0.0 107.6141925,-6.932314,0.0 107.6137848,-6.9322069,0.0 107.6137396,-6.9321929,0.0 107.6134671,-6.9321058,0.0 107.6133184,-6.9320339,0.0 107.6131833,-6.9319686,0.0 107.613062,-6.9318895,0.0 107.6129795,-6.9318313,0.0 107.6124017,-6.9313355,0.0</coordinates>
            </LineString>
        </Placemark>
        <Placemark id="29182">
            <name>Jalan Karapitan</name>
            <styleUrl>#29183</styleUrl>
            <LineString id="29181">
                <coordinates>107.6173532,-6.925034,0.0 107.6173947,-6.9248147,0.0</coordinates>
            </LineString>
        </Placemark>
        <Placemark id="29186">
            <name>Jalan Banda</name>
            <styleUrl>#29187</styleUrl>
            <LineString id="29185">
                <coordinates>107.6170441,-6.9074272,0.0 107.6169984,-6.9072231,0.0 107.6169383,-6.9069549,0.0 107.6169289,-6.9069128,0.0 107.6168804,-6.9066956,0.0 107.6168148,-6.9064212,0.0 107.6168082,-6.9063958,0.0 107.6167834,-6.9062973,0.0 107.6167588,-6.9062016,0.0</coordinates>
            </LineString>
        </Placemark>
        <Placemark id="29190">
            <name>Jalan Dokter Djunjunan</name>
            <styleUrl>#29191</styleUrl>
            <LineString id="29189">
                <coordinates>107.5974469,-6.9003919,0.0 107.5973654,-6.9003949,0.0</coordinates>
            </LineString>
        </Placemark>
        <Placemark id="29194">
            <name>Jalan Pasteur</name>
            <styleUrl>#29195</styleUrl>
            <LineString id="29193">
                <coordinates>107.6010646,-6.9003568,0.0 107.6010291,-6.9003565,0.0 107.600771,-6.9003544,0.0 107.6005268,-6.9003545,0.0 107.6003874,-6.9003546,0.0 107.5999891,-6.9003576,0.0 107.5995868,-6.9003613,0.0</coordinates>
            </LineString>
        </Placemark>
        <Placemark id="29198">
            <name>Jalan Cihampelas</name>
            <styleUrl>#29199</styleUrl>
            <LineString id="29197">
                <coordinates>107.6043435,-6.9046277,0.0 107.6043346,-6.9045425,0.0 107.6043345,-6.9045219,0.0 107.6043315,-6.9044861,0.0 107.6043182,-6.9044457,0.0 107.6042946,-6.9044123,0.0 107.6042585,-6.9043799,0.0</coordinates>
            </LineString>
        </Placemark>
        <Placemark id="29202">
            <name>Jalan Wastukancana</name>
            <styleUrl>#29203</styleUrl>
            <LineString id="29201">
                <coordinates>107.6083912,-6.9093671,0.0 107.6082885,-6.9092058,0.0 107.6082341,-6.9091403,0.0 107.608135,-6.9090242,0.0</coordinates>
            </LineString>
        </Placemark>
        <Placemark id="29206">
            <name>Jalan Merdeka</name>
            <styleUrl>#29207</styleUrl>
            <LineString id="29205">
                <coordinates>107.6106164,-6.9099691,0.0 107.6106159,-6.9099991,0.0 107.6106153,-6.9100253,0.0 107.6106014,-6.9104158,0.0 107.6105812,-6.9108691,0.0 107.6105492,-6.9114267,0.0 107.6105236,-6.9118509,0.0 107.610489,-6.9122567,0.0 107.6104606,-6.9125904,0.0 107.6104461,-6.9127255,0.0 107.6104424,-6.9127679,0.0 107.6103525,-6.9136021,0.0</coordinates>
            </LineString>
        </Placemark>
        <Placemark id="29210">
            <name>Jalan Dewi Sartika</name>
            <styleUrl>#29211</styleUrl>
            <LineString id="29209">
                <coordinates>107.6059454,-6.9273849,0.0 107.6059791,-6.9270185,0.0 107.6059757,-6.9268782,0.0 107.6059805,-6.9267319,0.0 107.6059951,-6.9265345,0.0 107.6060102,-6.926383,0.0 107.6060764,-6.9256868,0.0</coordinates>
            </LineString>
        </Placemark>
        <Placemark id="29214">
            <name>Jalan L.L. RE. Martadinata</name>
            <styleUrl>#29215</styleUrl>
            <LineString id="29213">
                <coordinates>107.6128139,-6.9070149,0.0 107.6126957,-6.9070364,0.0</coordinates>
            </LineString>
        </Placemark>
        <Placemark id="29218">
            <name>Jalan Banda</name>
            <styleUrl>#29219</styleUrl>
            <LineString id="29217">
                <coordinates>107.6179281,-6.9130544,0.0 107.6177899,-6.912763,0.0 107.6177331,-6.9126328,0.0 107.617725,-6.9126119,0.0 107.6176875,-6.9125145,0.0 107.617677,-6.912478,0.0 107.6176522,-6.9123916,0.0 107.6175917,-6.9121395,0.0 107.6175675,-6.9120083,0.0 107.6175545,-6.9118993,0.0 107.617548,-6.9117847,0.0 107.617547,-6.9116914,0.0 107.6175507,-6.9116305,0.0 107.6175598,-6.9115658,0.0 107.6175732,-6.9115105,0.0</coordinates>
            </LineString>
        </Placemark>
        <Placemark id="29222">
            <name>Jalan Dr. Setiabudi</name>
            <styleUrl>#29223</styleUrl>
            <LineString id="29221">
                <coordinates>107.5947487,-6.8601046,0.0 107.5947415,-6.8601534,0.0 107.5947299,-6.8602278,0.0 107.5946876,-6.860499,0.0 107.5946834,-6.8605895,0.0 107.594682,-6.8607123,0.0 107.594691,-6.8607829,0.0 107.5947113,-6.8608802,0.0 107.5947543,-6.8609845,0.0 107.5947885,-6.8610543,0.0 107.5948338,-6.861136,0.0 107.5948731,-6.8611888,0.0 107.5949141,-6.8612418,0.0 107.595009,-6.861346,0.0 107.5950885,-6.8614258,0.0 107.5951733,-6.8614881,0.0 107.595248,-6.861538,0.0 107.5954158,-6.8616512,0.0 107.5955484,-6.8617416,0.0 107.5958307,-6.8619379,0.0 107.5959866,-6.8620463,0.0 107.5961672,-6.8621719,0.0 107.5961991,-6.8622073,0.0 107.5962242,-6.8622608,0.0 107.5962237,-6.8623248,0.0 107.5962141,-6.862385,0.0 107.5961999,-6.8624213,0.0 107.5960469,-6.8627747,0.0 107.5959257,-6.8629855,0.0 107.5958359,-6.8630694,0.0 107.5957803,-6.8631238,0.0 107.5957352,-6.8631536,0.0 107.5956823,-6.8631776,0.0 107.5955819,-6.8632153,0.0 107.594751,-6.8634425,0.0</coordinates>
            </LineString>
        </Placemark>
        <Placemark id="29226">
            <name>Jalan Wastukancana</name>
            <styleUrl>#29227</styleUrl>
            <LineString id="29225">
                <coordinates>107.608135,-6.9090242,0.0 107.6079856,-6.9088682,0.0 107.6079388,-6.9087953,0.0 107.6078779,-6.9086773,0.0 107.6078276,-6.9085634,0.0 107.6077911,-6.9084463,0.0 107.6076596,-6.9080052,0.0</coordinates>
            </LineString>
        </Placemark>
        <Placemark id="29230">
            <name>Jalan Sukajadi</name>
            <styleUrl>#29231</styleUrl>
            <LineString id="29229">
                <coordinates>107.5967016,-6.8867916,0.0 107.5964324,-6.88604,0.0 107.5964113,-6.8859394,0.0 107.5963989,-6.8858417,0.0 107.5964138,-6.8856254,0.0 107.5964457,-6.8854301,0.0 107.5965693,-6.8848932,0.0</coordinates>
            </LineString>
        </Placemark>
        <Placemark id="29234">
            <name>Jalan L.L. RE. Martadinata</name>
            <styleUrl>#29235</styleUrl>
            <LineString id="29233">
                <coordinates>107.6167588,-6.9062016,0.0 107.6165829,-6.9062207,0.0 107.6165573,-6.9062249,0.0 107.6159699,-6.9063138,0.0 107.6153253,-6.9064176,0.0 107.6152682,-6.9064248,0.0 107.6150996,-6.906438,0.0 107.6149759,-6.9064471,0.0 107.6144094,-6.9064746,0.0 107.6140249,-6.9064932,0.0 107.6139043,-6.9065046,0.0 107.6138076,-6.9065285,0.0 107.6136926,-6.9065743,0.0 107.6135325,-6.9066553,0.0 107.6133145,-6.906779,0.0 107.6130652,-6.9069206,0.0 107.6129902,-6.9069606,0.0 107.6129322,-6.9069907,0.0 107.6128139,-6.9070149,0.0</coordinates>
            </LineString>
        </Placemark>
        <Placemark id="29238">
            <name>Jalan Wastukancana</name>
            <styleUrl>#29239</styleUrl>
            <LineString id="29237">
                <coordinates>107.6090309,-6.9137833,0.0 107.6090355,-6.9136767,0.0 107.609036,-6.9135295,0.0 107.6090452,-6.9130028,0.0 107.6090502,-6.9127472,0.0 107.6090523,-6.9126675,0.0 107.6090858,-6.9111585,0.0 107.6090891,-6.9110401,0.0 107.6090928,-6.9109499,0.0 107.6090952,-6.910906,0.0 107.6090943,-6.9108169,0.0 107.6090871,-6.9107051,0.0 107.6090715,-6.9106208,0.0 107.609044,-6.9105515,0.0</coordinates>
            </LineString>
        </Placemark>
        <Placemark id="29242">
            <name>Jalan Sukajadi</name>
            <styleUrl>#29243</styleUrl>
            <LineString id="29241">
                <coordinates>107.5965291,-6.8842065,0.0 107.5965234,-6.8840238,0.0</coordinates>
            </LineString>
        </Placemark>
        <Placemark id="29246">
            <name>Jalan Pasir Kaliki</name>
            <styleUrl>#29247</styleUrl>
            <LineString id="29245">
                <coordinates>107.5973566,-6.9002078,0.0 107.5973521,-6.9001109,0.0 107.5973452,-6.8999212,0.0</coordinates>
            </LineString>
        </Placemark>
        <Placemark id="29250">
            <name>Jalan Pungkur</name>
            <styleUrl>#29251</styleUrl>
            <LineString id="29249">
                <coordinates>107.6124017,-6.9313355,0.0 107.61187,-6.9308162,0.0 107.6116302,-6.9305815,0.0 107.6116186,-6.9305702,0.0 107.6106762,-6.929646,0.0 107.6105504,-6.9295269,0.0 107.6104487,-6.929424,0.0 107.6100312,-6.9290167,0.0 107.6094207,-6.928383,0.0 107.6093404,-6.9283054,0.0 107.608899,-6.9278672,0.0 107.6088347,-6.9278033,0.0 107.6087019,-6.927694,0.0 107.6085694,-6.9276437,0.0 107.608453,-6.9276268,0.0 107.6079082,-6.9275733,0.0 107.6078124,-6.9275639,0.0 107.6075592,-6.927539,0.0 107.6070558,-6.9274889,0.0</coordinates>
            </LineString>
        </Placemark>
        <Placemark id="29254">
            <name>Jalan Abdul Rivai</name>
            <styleUrl>#29255</styleUrl>
            <LineString id="29253">
                <coordinates>107.6025713,-6.9045005,0.0 107.6025372,-6.9044602,0.0 107.6025209,-6.9044101,0.0 107.6025248,-6.9043576,0.0 107.6025484,-6.9043104,0.0 107.6025881,-6.9042756,0.0 107.6026381,-6.9042582,0.0</coordinates>
            </LineString>
        </Placemark>
        <Placemark id="29258">
            <name>Jalan Kautamaan Istri</name>
            <styleUrl>#29259</styleUrl>
            <LineString id="29257">
                <coordinates>107.6060764,-6.9256868,0.0 107.6061459,-6.9256988,0.0 107.6065589,-6.9257695,0.0 107.6067208,-6.9257892,0.0 107.6071391,-6.9258274,0.0</coordinates>
            </LineString>
        </Placemark>
        <Placemark id="29262">
            <name>Jalan Mochammad Ramdhan</name>
            <styleUrl>#29263</styleUrl>
            <LineString id="29261">
                <coordinates>107.6155386,-6.9316906,0.0 107.6156276,-6.9315684,0.0 107.6157026,-6.9314613,0.0 107.6157571,-6.9313657,0.0</coordinates>
            </LineString>
        </Placemark>
        <Placemark id="29266">
            <name>Jalan Cihampelas</name>
            <styleUrl>#29267</styleUrl>
            <LineString id="29265">
                <coordinates>107.6043867,-6.9048271,0.0 107.6043543,-6.9047176,0.0 107.6043435,-6.9046277,0.0</coordinates>
            </LineString>
        </Placemark>
        <Placemark id="29270">
            <name>Jalan Sukajadi</name>
            <styleUrl>#29271</styleUrl>
            <LineString id="29269">
                <coordinates>107.5972816,-6.8966817,0.0 107.5972787,-6.8966241,0.0 107.5972616,-6.8963456,0.0 107.5972601,-6.8962772,0.0 107.5972557,-6.8962319,0.0 107.597252,-6.8961231,0.0 107.5972487,-6.8960662,0.0 107.5972328,-6.8957942,0.0 107.5972172,-6.8955656,0.0 107.5971842,-6.8950939,0.0 107.5971773,-6.8950042,0.0 107.5971398,-6.8945401,0.0 107.5971049,-6.8940789,0.0 107.5970982,-6.8939774,0.0 107.5970769,-6.893622,0.0 107.5970644,-6.8934134,0.0 107.5970391,-6.8930157,0.0</coordinates>
            </LineString>
        </Placemark>
        <Placemark id="29274">
            <name>Jalan Sukajadi</name>
            <styleUrl>#29275</styleUrl>
            <LineString id="29273">
                <coordinates>107.5969097,-6.8902486,0.0 107.5969052,-6.8900717,0.0 107.5969028,-6.8899793,0.0 107.5969032,-6.8898955,0.0 107.596901,-6.8897159,0.0 107.5968858,-6.8894176,0.0 107.5968696,-6.889221,0.0 107.5968625,-6.8891028,0.0 107.5968398,-6.888674,0.0 107.5968348,-6.8885657,0.0 107.5968303,-6.8885035,0.0 107.5968078,-6.8882126,0.0 107.5967817,-6.8879179,0.0 107.5967633,-6.8877297,0.0 107.5967526,-6.887631,0.0</coordinates>
            </LineString>
        </Placemark>
        <Placemark id="29278">
            <name>Jalan Sukajadi</name>
            <styleUrl>#29279</styleUrl>
            <LineString id="29277">
                <coordinates>107.5965693,-6.8848932,0.0 107.5965291,-6.8842065,0.0</coordinates>
            </LineString>
        </Placemark>
        <Placemark id="29282">
            <name>Jalan Pasteur</name>
            <styleUrl>#29283</styleUrl>
            <LineString id="29281">
                <coordinates>107.5988975,-6.9003711,0.0 107.5988453,-6.9003703,0.0 107.5985681,-6.9003769,0.0</coordinates>
            </LineString>
        </Placemark>
        <Placemark id="29286">
            <name>Jalan Karapitan</name>
            <styleUrl>#29287</styleUrl>
            <LineString id="29285">
                <coordinates>107.6164635,-6.9287163,0.0 107.6164949,-6.9286031,0.0 107.6165707,-6.9283294,0.0 107.6165815,-6.9282903,0.0 107.616683,-6.9279244,0.0 107.6168016,-6.9274967,0.0 107.6168717,-6.9272202,0.0 107.6169043,-6.9270918,0.0 107.6169286,-6.9269957,0.0 107.6170453,-6.9265058,0.0 107.6170698,-6.926403,0.0 107.6171256,-6.9261533,0.0 107.6171516,-6.9260424,0.0 107.6171976,-6.9258111,0.0 107.6172158,-6.92572,0.0 107.6173169,-6.9252132,0.0 107.6173393,-6.9251003,0.0 107.6173532,-6.925034,0.0</coordinates>
            </LineString>
        </Placemark>
        <Placemark id="29290">
            <name>Jalan Sunda</name>
            <styleUrl>#29291</styleUrl>
            <LineString id="29289">
                <coordinates>107.6174757,-6.9237597,0.0 107.6174781,-6.9237379,0.0 107.6175602,-6.9230443,0.0</coordinates>
            </LineString>
        </Placemark>
        <Placemark id="29294">
            <name>Jalan Karapitan</name>
            <styleUrl>#29295</styleUrl>
            <LineString id="29293">
                <coordinates>107.6160965,-6.9300966,0.0 107.6162973,-6.9293239,0.0 107.6163073,-6.9292857,0.0 107.6164384,-6.9287942,0.0</coordinates>
            </LineString>
        </Placemark>
        <Placemark id="29298">
            <name>Jalan Abdul Rivai</name>
            <styleUrl>#29299</styleUrl>
            <LineString id="29297">
                <coordinates>107.6026381,-6.9042582,0.0 107.6029269,-6.904267,0.0</coordinates>
            </LineString>
        </Placemark>
        <Placemark id="29302">
            <name>Jalan Pajajaran</name>
            <styleUrl>#29303</styleUrl>
            <LineString id="29301">
                <coordinates>107.6076596,-6.9080052,0.0 107.607602,-6.9079117,0.0 107.607563,-6.9078579,0.0 107.607537,-6.907823,0.0 107.607465,-6.9077399,0.0 107.6073865,-6.9076628,0.0</coordinates>
            </LineString>
        </Placemark>
        <Placemark id="29306">
            <name>Jalan Pajajaran</name>
            <styleUrl>#29307</styleUrl>
            <LineString id="29305">
                <coordinates>107.6053829,-6.907135,0.0 107.6051824,-6.9071438,0.0 107.6051387,-6.9071446,0.0 107.6045501,-6.9071569,0.0 107.6045,-6.907158,0.0</coordinates>
            </LineString>
        </Placemark>
        <Placemark id="29310">
            <name>Jalan Mochammad Ramdhan</name>
            <styleUrl>#29311</styleUrl>
            <LineString id="29309">
                <coordinates>107.6152226,-6.9320956,0.0 107.6153893,-6.9318779,0.0</coordinates>
            </LineString>
        </Placemark>
        <Placemark id="29314">
            <name>Jalan Sunda</name>
            <styleUrl>#29315</styleUrl>
            <LineString id="29313">
                <coordinates>107.6178524,-6.9204334,0.0 107.6179092,-6.9197349,0.0 107.6179137,-6.919578,0.0 107.6179265,-6.9194254,0.0 107.6179949,-6.9186063,0.0 107.6179989,-6.918561,0.0 107.6180233,-6.9183231,0.0 107.6180607,-6.9179596,0.0 107.6180659,-6.9178998,0.0 107.6180692,-6.9178614,0.0 107.6181287,-6.917303,0.0 107.6181649,-6.9169244,0.0 107.6181677,-6.9169008,0.0 107.6181745,-6.9168575,0.0 107.6181796,-6.9168277,0.0 107.6182013,-6.9167005,0.0 107.6182266,-6.9165856,0.0 107.6182441,-6.9165066,0.0 107.6182615,-6.9164276,0.0 107.6183708,-6.9159304,0.0</coordinates>
            </LineString>
        </Placemark>
        <Placemark id="29318">
            <name>Jalan Karapitan</name>
            <styleUrl>#29319</styleUrl>
            <LineString id="29317">
                <coordinates>107.6164497,-6.9287607,0.0 107.6164635,-6.9287163,0.0</coordinates>
            </LineString>
        </Placemark>
        <Placemark id="29322">
            <name>Jalan Pajajaran</name>
            <styleUrl>#29323</styleUrl>
            <LineString id="29321">
                <coordinates>107.6045,-6.907158,0.0 107.6044924,-6.907135,0.0 107.6044754,-6.9071175,0.0 107.6044526,-6.9071087,0.0 107.6044282,-6.9071102,0.0</coordinates>
            </LineString>
        </Placemark>
        <Placemark id="29326">
            <name>Jalan Sukajadi</name>
            <styleUrl>#29327</styleUrl>
            <LineString id="29325">
                <coordinates>107.5970391,-6.8930157,0.0 107.5970212,-6.8924855,0.0 107.596988,-6.8919756,0.0 107.5969852,-6.8919419,0.0 107.5969612,-6.8915359,0.0 107.5969542,-6.8914244,0.0 107.5969493,-6.8913097,0.0 107.5969393,-6.8910002,0.0 107.5969258,-6.8906657,0.0 107.5969183,-6.8904777,0.0 107.5969097,-6.8902486,0.0</coordinates>
            </LineString>
        </Placemark>
        <Placemark id="29330">
            <name>Jalan Dr. Setiabudi</name>
            <styleUrl>#29331</styleUrl>
            <LineString id="29329">
                <coordinates>107.5940961,-6.8651081,0.0 107.5940723,-6.8653071,0.0 107.5940489,-6.8655021,0.0 107.5940436,-6.8655555,0.0 107.5939941,-6.866016,0.0 107.59398,-6.8661473,0.0 107.5939484,-6.8664124,0.0 107.5939402,-6.8664718,0.0 107.5939135,-6.8666897,0.0 107.593824,-6.8674042,0.0 107.5937888,-6.8677009,0.0 107.5937561,-6.8679333,0.0 107.5937127,-6.8682235,0.0 107.5937093,-6.8682462,0.0 107.593703,-6.868294,0.0 107.5936933,-6.8683616,0.0 107.5936592,-6.8686283,0.0 107.5936527,-6.8686846,0.0 107.5936366,-6.868816,0.0 107.5936184,-6.8689604,0.0 107.5936057,-6.869061,0.0 107.5935721,-6.8693613,0.0 107.5935632,-6.8694388,0.0 107.5935337,-6.8696955,0.0 107.5935252,-6.8697698,0.0 107.5935167,-6.8698675,0.0 107.5935096,-6.8699573,0.0 107.593506,-6.8701005,0.0 107.5935249,-6.8704256,0.0</coordinates>
            </LineString>
        </Placemark>
        <Placemark id="29334">
            <name>Jalan Banda</name>
            <styleUrl>#29335</styleUrl>
            <LineString id="29333">
                <coordinates>107.6170441,-6.9074272,0.0 107.617382,-6.9090114,0.0 107.6174034,-6.9091114,0.0 107.6174121,-6.9091524,0.0</coordinates>
            </LineString>
        </Placemark>
        <Placemark id="29338">
            <name>Jalan Sukajadi</name>
            <styleUrl>#29339</styleUrl>
            <LineString id="29337">
                <coordinates>107.5967526,-6.887631,0.0 107.5967323,-6.8873957,0.0</coordinates>
            </LineString>
        </Placemark>
        <Placemark id="29342">
            <name>Jalan Sunda</name>
            <styleUrl>#29343</styleUrl>
            <LineString id="29341">
                <coordinates>107.6176674,-6.9220018,0.0 107.6176925,-6.921758,0.0 107.6177628,-6.9211858,0.0</coordinates>
            </LineString>
        </Placemark>
        <Placemark id="29346">
            <name>Jalan Sunda</name>
            <styleUrl>#29347</styleUrl>
            <LineString id="29345">
                <coordinates>107.6175602,-6.9230443,0.0 107.6176158,-6.9225861,0.0 107.6176318,-6.9224085,0.0</coordinates>
            </LineString>
        </Placemark>
        <Placemark id="29350">
            <name>Jalan Sunda</name>
            <styleUrl>#29351</styleUrl>
            <LineString id="29349">
                <coordinates>107.6176318,-6.9224085,0.0 107.6176409,-6.9222818,0.0</coordinates>
            </LineString>
        </Placemark>
        <Placemark id="29354">
            <name>Jalan Sunda</name>
            <styleUrl>#29355</styleUrl>
            <LineString id="29353">
                <coordinates>107.6176409,-6.9222818,0.0 107.617642,-6.9222596,0.0</coordinates>
            </LineString>
        </Placemark>
        <Placemark id="29358">
            <name>Jalan Pasteur</name>
            <styleUrl>#29359</styleUrl>
            <LineString id="29357">
                <coordinates>107.5977337,-6.9003863,0.0 107.5974469,-6.9003919,0.0</coordinates>
            </LineString>
        </Placemark>
        <Placemark id="29362">
            <name>Jalan Perintis Kemerdekaan</name>
            <styleUrl>#29363</styleUrl>
            <LineString id="29361">
                <coordinates>107.609095,-6.9138574,0.0 107.6090912,-6.913831,0.0 107.6090777,-6.9138078,0.0 107.6090567,-6.9137911,0.0 107.6090309,-6.9137833,0.0</coordinates>
            </LineString>
        </Placemark>
        <Placemark id="29366">
            <name>Jalan Dr. Setiabudi</name>
            <styleUrl>#29367</styleUrl>
            <LineString id="29365">
                <coordinates>107.594917,-6.8589109,0.0 107.5948727,-6.8591879,0.0 107.5948433,-6.8593552,0.0</coordinates>
            </LineString>
        </Placemark>
        <Placemark id="29370">
            <name>Jalan Dr. Setiabudi</name>
            <styleUrl>#29371</styleUrl>
            <LineString id="29369">
                <coordinates>107.594751,-6.8634425,0.0 107.5946342,-6.8634956,0.0</coordinates>
            </LineString>
        </Placemark>
        <Placemark id="29374">
            <name>Jalan Dr. Setiabudi</name>
            <styleUrl>#29375</styleUrl>
            <LineString id="29373">
                <coordinates>107.5941115,-6.864801,0.0 107.5941535,-6.8646065,0.0 107.5941832,-6.8644809,0.0 107.5942318,-6.8642799,0.0 107.5943139,-6.8639829,0.0 107.594348,-6.8639131,0.0 107.5943936,-6.8638479,0.0</coordinates>
            </LineString>
        </Placemark>
        <Placemark id="29378">
            <name>Jalan Wastukancana</name>
            <styleUrl>#29379</styleUrl>
            <LineString id="29377">
                <coordinates>107.609044,-6.9105515,0.0 107.6088855,-6.9102984,0.0</coordinates>
            </LineString>
        </Placemark>
        <Placemark id="29382">
            <name>Jalan HOS. Cokroaminoto</name>
            <styleUrl>#29383</styleUrl>
            <LineString id="29381">
                <coordinates>107.5973654,-6.9003949,0.0 107.5973566,-6.9002078,0.0</coordinates>
            </LineString>
        </Placemark>
        <Placemark id="29386">
            <name>Jalan Merdeka</name>
            <styleUrl>#29387</styleUrl>
            <LineString id="29385">
                <coordinates>107.610654,-6.909795,0.0 107.6106452,-6.9098761,0.0 107.6106164,-6.9099691,0.0</coordinates>
            </LineString>
        </Placemark>
        <Placemark id="29390">
            <name>Route Segment</name>
            <styleUrl>#29391</styleUrl>
            <LineString id="29389">
                <coordinates>107.594917,-6.8589109,0.0 107.5952388,-6.8589685,0.0 107.5952442,-6.8589728,0.0 107.5952455,-6.8589782,0.0 107.5952302,-6.8591252,0.0 107.5951942,-6.85933,0.0</coordinates>
            </LineString>
        </Placemark>
        <Placemark id="29394">
            <name>Jalan Karapitan</name>
            <styleUrl>#29395</styleUrl>
            <LineString id="29393">
                <coordinates>107.6157571,-6.9313657,0.0 107.6158192,-6.9311439,0.0 107.6158573,-6.9310078,0.0</coordinates>
            </LineString>
        </Placemark>
        <Placemark id="29398">
            <name>Jalan Sunda</name>
            <styleUrl>#29399</styleUrl>
            <LineString id="29397">
                <coordinates>107.6177628,-6.9211858,0.0 107.6177726,-6.9211032,0.0 107.6178524,-6.9204334,0.0</coordinates>
            </LineString>
        </Placemark>
        <Placemark id="29402">
            <name>Jalan Pasteur</name>
            <styleUrl>#29403</styleUrl>
            <LineString id="29401">
                <coordinates>107.5985681,-6.9003769,0.0 107.5982442,-6.9003802,0.0</coordinates>
            </LineString>
        </Placemark>
        <Placemark id="29406">
            <name>Jalan Karapitan</name>
            <styleUrl>#29407</styleUrl>
            <LineString id="29405">
                <coordinates>107.6158573,-6.9310078,0.0 107.6159987,-6.9304668,0.0 107.6160678,-6.9302053,0.0 107.6160965,-6.9300966,0.0</coordinates>
            </LineString>
        </Placemark>
        <Placemark id="29410">
            <name>Jalan Pasteur</name>
            <styleUrl>#29411</styleUrl>
            <LineString id="29409">
                <coordinates>107.5995868,-6.9003613,0.0 107.5988975,-6.9003711,0.0</coordinates>
            </LineString>
        </Placemark>
        <Placemark id="29414">
            <name>Jalan Sukajadi</name>
            <styleUrl>#29415</styleUrl>
            <LineString id="29413">
                <coordinates>107.5963984,-6.8809341,0.0 107.5963847,-6.8806684,0.0 107.5963806,-6.8805716,0.0 107.596369,-6.8802996,0.0 107.5963356,-6.8796695,0.0 107.5963312,-6.8795732,0.0 107.5963111,-6.8792113,0.0 107.5962832,-6.8787501,0.0 107.5962548,-6.8783299,0.0</coordinates>
            </LineString>
        </Placemark>
        <Placemark id="29418">
            <name>Jalan Sukajadi</name>
            <styleUrl>#29419</styleUrl>
            <LineString id="29417">
                <coordinates>107.5962243,-6.8774107,0.0 107.5962202,-6.8773796,0.0 107.5962158,-6.8772881,0.0 107.5961957,-6.8768743,0.0</coordinates>
            </LineString>
        </Placemark>
        <Placemark id="29422">
            <name>Jalan Dr. Setiabudi</name>
            <styleUrl>#29423</styleUrl>
            <LineString id="29421">
                <coordinates>107.5936179,-6.8707823,0.0 107.5937463,-6.8711539,0.0 107.5937922,-6.8712782,0.0 107.593895,-6.8715029,0.0 107.5940693,-6.8717924,0.0 107.5944136,-6.8722322,0.0 107.5948065,-6.8727176,0.0 107.5949802,-6.8729249,0.0 107.5951113,-6.8730936,0.0 107.5955371,-6.8736221,0.0 107.5956623,-6.8737793,0.0 107.5956814,-6.8738055,0.0 107.5956912,-6.8738171,0.0 107.5957307,-6.8738828,0.0 107.5957592,-6.8739356,0.0 107.5957878,-6.8739884,0.0 107.5958267,-6.874066,0.0</coordinates>
            </LineString>
        </Placemark>
        <Placemark id="29426">
            <name>Jalan Pasir Kaliki</name>
            <styleUrl>#29427</styleUrl>
            <LineString id="29425">
                <coordinates>107.5972895,-6.8968371,0.0 107.5972816,-6.8966817,0.0</coordinates>
            </LineString>
        </Placemark>
        <Placemark id="29430">
            <name>Jalan Dr. Setiabudi</name>
            <styleUrl>#29431</styleUrl>
            <LineString id="29429">
                <coordinates>107.5935249,-6.8704256,0.0 107.5936179,-6.8707823,0.0</coordinates>
            </LineString>
        </Placemark>
        <Placemark id="29434">
            <name>Jalan Dr. Setiabudi</name>
            <styleUrl>#29435</styleUrl>
            <LineString id="29433">
                <coordinates>107.5948433,-6.8593552,0.0 107.5948312,-6.8594241,0.0 107.5948088,-6.859551,0.0</coordinates>
            </LineString>
        </Placemark>
        <Placemark id="29438">
            <name>Jalan Dr. Setiabudi</name>
            <styleUrl>#29439</styleUrl>
            <LineString id="29437">
                <coordinates>107.5948052,-6.8595708,0.0 107.594757,-6.8600369,0.0 107.5947527,-6.8600724,0.0 107.5947487,-6.8601046,0.0</coordinates>
            </LineString>
        </Placemark>
        <Placemark id="29442">
            <name>Jalan Dr. Setiabudi</name>
            <styleUrl>#29443</styleUrl>
            <LineString id="29441">
                <coordinates>107.5948088,-6.859551,0.0 107.5948052,-6.8595708,0.0</coordinates>
            </LineString>
        </Placemark>
        <Placemark id="29446">
            <name>Jalan Raden Adipati Aria Wiranatakusumah</name>
            <styleUrl>#29447</styleUrl>
            <LineString id="29445">
                <coordinates>107.602401,-6.902382,0.0 107.602397,-6.902269,0.0 107.6023472,-6.9015634,0.0 107.6023375,-6.9014255,0.0 107.6023139,-6.9009089,0.0 107.6022962,-6.9005985,0.0 107.6022833,-6.9003768,0.0 107.602282,-6.9003617,0.0</coordinates>
            </LineString>
        </Placemark>
        <Placemark id="29450">
            <name>Jalan Dewi Sartika</name>
            <styleUrl>#29451</styleUrl>
            <LineString id="29449">
                <coordinates>107.6058386,-6.9275637,0.0 107.6058453,-6.9274973,0.0</coordinates>
            </LineString>
        </Placemark>
        <Placemark id="29454">
            <name>Jalan Dewi Sartika</name>
            <styleUrl>#29455</styleUrl>
            <LineString id="29453">
                <coordinates>107.6058453,-6.9274973,0.0 107.6058559,-6.9274746,0.0 107.605878,-6.9274596,0.0 107.6059082,-6.9274425,0.0 107.6059305,-6.9274223,0.0 107.6059373,-6.9274102,0.0 107.6059454,-6.9273849,0.0</coordinates>
            </LineString>
        </Placemark>
        <Placemark id="29458">
            <name>Jalan Pasteur</name>
            <styleUrl>#29459</styleUrl>
            <LineString id="29457">
                <coordinates>107.602282,-6.9003617,0.0 107.6018744,-6.9003583,0.0 107.6018357,-6.9003585,0.0 107.6014571,-6.9003605,0.0 107.6011427,-6.9003575,0.0 107.6010646,-6.9003568,0.0</coordinates>
            </LineString>
        </Placemark>
        <Placemark id="29462">
            <name>Jalan Sunda</name>
            <styleUrl>#29463</styleUrl>
            <LineString id="29461">
                <coordinates>107.617642,-6.9222596,0.0 107.6176603,-6.9220817,0.0 107.6176674,-6.9220018,0.0</coordinates>
            </LineString>
        </Placemark>
        <Placemark id="29466">
            <name>Jalan Pasir Kaliki</name>
            <styleUrl>#29467</styleUrl>
            <LineString id="29465">
                <coordinates>107.5973572,-6.8990747,0.0 107.5973543,-6.8990234,0.0</coordinates>
            </LineString>
        </Placemark>
        <Placemark id="29470">
            <name>Jalan Pasir Kaliki</name>
            <styleUrl>#29471</styleUrl>
            <LineString id="29469">
                <coordinates>107.5973543,-6.8990234,0.0 107.5973503,-6.8989275,0.0</coordinates>
            </LineString>
        </Placemark>
        <Placemark id="29474">
            <name>Jalan Pasir Kaliki</name>
            <styleUrl>#29475</styleUrl>
            <LineString id="29473">
                <coordinates>107.5973452,-6.8999212,0.0 107.5973408,-6.8998291,0.0</coordinates>
            </LineString>
        </Placemark>
        <Placemark id="29478">
            <name>Jalan Pasir Kaliki</name>
            <styleUrl>#29479</styleUrl>
            <LineString id="29477">
                <coordinates>107.5973408,-6.8998291,0.0 107.5973293,-6.8994991,0.0 107.5973312,-6.8994022,0.0 107.5973423,-6.8991445,0.0 107.5973572,-6.8990747,0.0</coordinates>
            </LineString>
        </Placemark>
        <Placemark id="29482">
            <name>Jalan Dewi Sartika</name>
            <styleUrl>#29483</styleUrl>
            <LineString id="29481">
                <coordinates>107.6058322,-6.9276428,0.0 107.6058386,-6.9275637,0.0</coordinates>
            </LineString>
        </Placemark>
        <Placemark id="29486">
            <name>Jalan Dr. Setiabudi</name>
            <styleUrl>#29487</styleUrl>
            <LineString id="29485">
                <coordinates>107.5946342,-6.8634956,0.0 107.594575,-6.8635338,0.0 107.5945119,-6.8636016,0.0 107.594469,-6.8636686,0.0 107.5943936,-6.8638479,0.0</coordinates>
            </LineString>
        </Placemark>
        <Placemark id="29490">
            <name>Jalan Dr. Setiabudi</name>
            <styleUrl>#29491</styleUrl>
            <LineString id="29489">
                <coordinates>107.5940961,-6.8651081,0.0 107.5940725,-6.8650563,0.0 107.594078,-6.8649955,0.0 107.5941115,-6.864801,0.0</coordinates>
            </LineString>
        </Placemark>
        <Placemark id="29494">
            <name>Jalan L.L. RE. Martadinata</name>
            <styleUrl>#29495</styleUrl>
            <LineString id="29493">
                <coordinates>107.6126957,-6.9070364,0.0 107.6124781,-6.907055,0.0 107.6124238,-6.9070587,0.0 107.6120609,-6.907071,0.0 107.6119393,-6.9070669,0.0 107.6117292,-6.9070622,0.0</coordinates>
            </LineString>
        </Placemark>
        <Placemark id="29498">
            <name>Jalan L.L. RE. Martadinata</name>
            <styleUrl>#29499</styleUrl>
            <LineString id="29497">
                <coordinates>107.6117292,-6.9070622,0.0 107.6116695,-6.9070609,0.0 107.6116341,-6.9070599,0.0 107.6113975,-6.9070401,0.0 107.6113747,-6.9070385,0.0 107.6111706,-6.9070246,0.0 107.6109647,-6.9070064,0.0 107.6107468,-6.9069963,0.0 107.6106377,-6.9069919,0.0</coordinates>
            </LineString>
        </Placemark>
        <Placemark id="29502">
            <name>Jalan Karapitan</name>
            <styleUrl>#29503</styleUrl>
            <LineString id="29501">
                <coordinates>107.6173947,-6.9248147,0.0 107.6174186,-6.9245782,0.0 107.6174402,-6.9242266,0.0 107.617445,-6.9241549,0.0</coordinates>
            </LineString>
        </Placemark>
        <Placemark id="29506">
            <name>Jalan Karapitan</name>
            <styleUrl>#29507</styleUrl>
            <LineString id="29505">
                <coordinates>107.617445,-6.9241549,0.0 107.6174602,-6.9239362,0.0 107.6174644,-6.9238804,0.0</coordinates>
            </LineString>
        </Placemark>
        <Placemark id="29510">
            <name>Jalan Karapitan</name>
            <styleUrl>#29511</styleUrl>
            <LineString id="29509">
                <coordinates>107.6174644,-6.9238804,0.0 107.6174677,-6.923837,0.0 107.6174708,-6.9238071,0.0</coordinates>
            </LineString>
        </Placemark>
        <Placemark id="29514">
            <name>Jalan Karapitan</name>
            <styleUrl>#29515</styleUrl>
            <LineString id="29513">
                <coordinates>107.6174708,-6.9238071,0.0 107.6174757,-6.9237597,0.0</coordinates>
            </LineString>
        </Placemark>
    </Document>
</kml>
