<?xml version="1.0" encoding="UTF-8"?>
<kml xmlns="http://www.opengis.net/kml/2.2" xmlns:gx="http://www.google.com/kml/ext/2.2">
    <Document id="29518">
        <Style id="29524">
            <IconStyle id="29525">
                <colorMode>normal</colorMode>
                <scale>1</scale>
                <heading>0</heading>
                <Icon id="29526">
                    <href>http://maps.google.com/mapfiles/kml/pushpin/ylw-pushpin.png</href>
                </Icon>
            </IconStyle>
        </Style>
        <Style id="29529">
            <IconStyle id="29530">
                <colorMode>normal</colorMode>
                <scale>1</scale>
                <heading>0</heading>
                <Icon id="29531">
                    <href>http://maps.google.com/mapfiles/kml/pushpin/ylw-pushpin.png</href>
                </Icon>
            </IconStyle>
        </Style>
        <Style id="29534">
            <LineStyle id="29535">
                <color>ffDCB4AA</color>
                <colorMode>normal</colorMode>
                <width>4</width>
            </LineStyle>
        </Style>
        <Style id="29538">
            <LineStyle id="29539">
                <color>ffDCB4AA</color>
                <colorMode>normal</colorMode>
                <width>4</width>
            </LineStyle>
        </Style>
        <Style id="29542">
            <LineStyle id="29543">
                <color>ffDCB4AA</color>
                <colorMode>normal</colorMode>
                <width>4</width>
            </LineStyle>
        </Style>
        <Style id="29546">
            <LineStyle id="29547">
                <color>ffDCB4AA</color>
                <colorMode>normal</colorMode>
                <width>4</width>
            </LineStyle>
        </Style>
        <Style id="29550">
            <LineStyle id="29551">
                <color>ffDCB4AA</color>
                <colorMode>normal</colorMode>
                <width>4</width>
            </LineStyle>
        </Style>
        <Style id="29554">
            <LineStyle id="29555">
                <color>ffDCB4AA</color>
                <colorMode>normal</colorMode>
                <width>4</width>
            </LineStyle>
        </Style>
        <Style id="29558">
            <LineStyle id="29559">
                <color>ffDCB4AA</color>
                <colorMode>normal</colorMode>
                <width>4</width>
            </LineStyle>
        </Style>
        <Style id="29562">
            <LineStyle id="29563">
                <color>ffDCB4AA</color>
                <colorMode>normal</colorMode>
                <width>4</width>
            </LineStyle>
        </Style>
        <Style id="29566">
            <LineStyle id="29567">
                <color>ffDCB4AA</color>
                <colorMode>normal</colorMode>
                <width>4</width>
            </LineStyle>
        </Style>
        <Style id="29570">
            <LineStyle id="29571">
                <color>ffDCB4AA</color>
                <colorMode>normal</colorMode>
                <width>4</width>
            </LineStyle>
        </Style>
        <Style id="29574">
            <LineStyle id="29575">
                <color>ffDCB4AA</color>
                <colorMode>normal</colorMode>
                <width>4</width>
            </LineStyle>
        </Style>
        <Style id="29578">
            <LineStyle id="29579">
                <color>ffDCB4AA</color>
                <colorMode>normal</colorMode>
                <width>4</width>
            </LineStyle>
        </Style>
        <Style id="29582">
            <LineStyle id="29583">
                <color>ffDCB4AA</color>
                <colorMode>normal</colorMode>
                <width>4</width>
            </LineStyle>
        </Style>
        <Style id="29586">
            <LineStyle id="29587">
                <color>ffDCB4AA</color>
                <colorMode>normal</colorMode>
                <width>4</width>
            </LineStyle>
        </Style>
        <Style id="29590">
            <LineStyle id="29591">
                <color>ffDCB4AA</color>
                <colorMode>normal</colorMode>
                <width>4</width>
            </LineStyle>
        </Style>
        <Style id="29594">
            <LineStyle id="29595">
                <color>ffDCB4AA</color>
                <colorMode>normal</colorMode>
                <width>4</width>
            </LineStyle>
        </Style>
        <Style id="29598">
            <LineStyle id="29599">
                <color>ffDCB4AA</color>
                <colorMode>normal</colorMode>
                <width>4</width>
            </LineStyle>
        </Style>
        <Style id="29602">
            <LineStyle id="29603">
                <color>ffDCB4AA</color>
                <colorMode>normal</colorMode>
                <width>4</width>
            </LineStyle>
        </Style>
        <Style id="29606">
            <LineStyle id="29607">
                <color>ffDCB4AA</color>
                <colorMode>normal</colorMode>
                <width>4</width>
            </LineStyle>
        </Style>
        <Style id="29610">
            <LineStyle id="29611">
                <color>ffDCB4AA</color>
                <colorMode>normal</colorMode>
                <width>4</width>
            </LineStyle>
        </Style>
        <Style id="29614">
            <LineStyle id="29615">
                <color>ffDCB4AA</color>
                <colorMode>normal</colorMode>
                <width>4</width>
            </LineStyle>
        </Style>
        <Style id="29618">
            <LineStyle id="29619">
                <color>ffDCB4AA</color>
                <colorMode>normal</colorMode>
                <width>4</width>
            </LineStyle>
        </Style>
        <Style id="29622">
            <LineStyle id="29623">
                <color>ffDCB4AA</color>
                <colorMode>normal</colorMode>
                <width>4</width>
            </LineStyle>
        </Style>
        <Style id="29626">
            <LineStyle id="29627">
                <color>ffDCB4AA</color>
                <colorMode>normal</colorMode>
                <width>4</width>
            </LineStyle>
        </Style>
        <Style id="29630">
            <LineStyle id="29631">
                <color>ffDCB4AA</color>
                <colorMode>normal</colorMode>
                <width>4</width>
            </LineStyle>
        </Style>
        <Style id="29634">
            <LineStyle id="29635">
                <color>ffDCB4AA</color>
                <colorMode>normal</colorMode>
                <width>4</width>
            </LineStyle>
        </Style>
        <Style id="29638">
            <LineStyle id="29639">
                <color>ffDCB4AA</color>
                <colorMode>normal</colorMode>
                <width>4</width>
            </LineStyle>
        </Style>
        <Style id="29642">
            <LineStyle id="29643">
                <color>ffDCB4AA</color>
                <colorMode>normal</colorMode>
                <width>4</width>
            </LineStyle>
        </Style>
        <Style id="29646">
            <LineStyle id="29647">
                <color>ffDCB4AA</color>
                <colorMode>normal</colorMode>
                <width>4</width>
            </LineStyle>
        </Style>
        <Style id="29650">
            <LineStyle id="29651">
                <color>ffDCB4AA</color>
                <colorMode>normal</colorMode>
                <width>4</width>
            </LineStyle>
        </Style>
        <Style id="29654">
            <LineStyle id="29655">
                <color>ffDCB4AA</color>
                <colorMode>normal</colorMode>
                <width>4</width>
            </LineStyle>
        </Style>
        <Style id="29658">
            <LineStyle id="29659">
                <color>ffDCB4AA</color>
                <colorMode>normal</colorMode>
                <width>4</width>
            </LineStyle>
        </Style>
        <Style id="29662">
            <LineStyle id="29663">
                <color>ffDCB4AA</color>
                <colorMode>normal</colorMode>
                <width>4</width>
            </LineStyle>
        </Style>
        <Style id="29666">
            <LineStyle id="29667">
                <color>ffDCB4AA</color>
                <colorMode>normal</colorMode>
                <width>4</width>
            </LineStyle>
        </Style>
        <Style id="29670">
            <LineStyle id="29671">
                <color>ffDCB4AA</color>
                <colorMode>normal</colorMode>
                <width>4</width>
            </LineStyle>
        </Style>
        <Style id="29674">
            <LineStyle id="29675">
                <color>ffDCB4AA</color>
                <colorMode>normal</colorMode>
                <width>4</width>
            </LineStyle>
        </Style>
        <Style id="29678">
            <LineStyle id="29679">
                <color>ffDCB4AA</color>
                <colorMode>normal</colorMode>
                <width>4</width>
            </LineStyle>
        </Style>
        <Style id="29682">
            <LineStyle id="29683">
                <color>ffDCB4AA</color>
                <colorMode>normal</colorMode>
                <width>4</width>
            </LineStyle>
        </Style>
        <Style id="29686">
            <LineStyle id="29687">
                <color>ffDCB4AA</color>
                <colorMode>normal</colorMode>
                <width>4</width>
            </LineStyle>
        </Style>
        <Style id="29690">
            <LineStyle id="29691">
                <color>ffDCB4AA</color>
                <colorMode>normal</colorMode>
                <width>4</width>
            </LineStyle>
        </Style>
        <Style id="29694">
            <LineStyle id="29695">
                <color>ffDCB4AA</color>
                <colorMode>normal</colorMode>
                <width>4</width>
            </LineStyle>
        </Style>
        <Style id="29698">
            <LineStyle id="29699">
                <color>ffDCB4AA</color>
                <colorMode>normal</colorMode>
                <width>4</width>
            </LineStyle>
        </Style>
        <Style id="29702">
            <LineStyle id="29703">
                <color>ffDCB4AA</color>
                <colorMode>normal</colorMode>
                <width>4</width>
            </LineStyle>
        </Style>
        <Style id="29706">
            <LineStyle id="29707">
                <color>ffDCB4AA</color>
                <colorMode>normal</colorMode>
                <width>4</width>
            </LineStyle>
        </Style>
        <Style id="29710">
            <LineStyle id="29711">
                <color>ffDCB4AA</color>
                <colorMode>normal</colorMode>
                <width>4</width>
            </LineStyle>
        </Style>
        <Style id="29714">
            <LineStyle id="29715">
                <color>ffDCB4AA</color>
                <colorMode>normal</colorMode>
                <width>4</width>
            </LineStyle>
        </Style>
        <Style id="29718">
            <LineStyle id="29719">
                <color>ffDCB4AA</color>
                <colorMode>normal</colorMode>
                <width>4</width>
            </LineStyle>
        </Style>
        <Style id="29722">
            <LineStyle id="29723">
                <color>ffDCB4AA</color>
                <colorMode>normal</colorMode>
                <width>4</width>
            </LineStyle>
        </Style>
        <Style id="29726">
            <LineStyle id="29727">
                <color>ffDCB4AA</color>
                <colorMode>normal</colorMode>
                <width>4</width>
            </LineStyle>
        </Style>
        <Style id="29730">
            <LineStyle id="29731">
                <color>ffDCB4AA</color>
                <colorMode>normal</colorMode>
                <width>4</width>
            </LineStyle>
        </Style>
        <Style id="29734">
            <LineStyle id="29735">
                <color>ffDCB4AA</color>
                <colorMode>normal</colorMode>
                <width>4</width>
            </LineStyle>
        </Style>
        <Style id="29738">
            <LineStyle id="29739">
                <color>ffDCB4AA</color>
                <colorMode>normal</colorMode>
                <width>4</width>
            </LineStyle>
        </Style>
        <Style id="29742">
            <LineStyle id="29743">
                <color>ffDCB4AA</color>
                <colorMode>normal</colorMode>
                <width>4</width>
            </LineStyle>
        </Style>
        <Style id="29746">
            <LineStyle id="29747">
                <color>ffDCB4AA</color>
                <colorMode>normal</colorMode>
                <width>4</width>
            </LineStyle>
        </Style>
        <Style id="29750">
            <LineStyle id="29751">
                <color>ffDCB4AA</color>
                <colorMode>normal</colorMode>
                <width>4</width>
            </LineStyle>
        </Style>
        <Style id="29754">
            <LineStyle id="29755">
                <color>ffDCB4AA</color>
                <colorMode>normal</colorMode>
                <width>4</width>
            </LineStyle>
        </Style>
        <Style id="29758">
            <LineStyle id="29759">
                <color>ffDCB4AA</color>
                <colorMode>normal</colorMode>
                <width>4</width>
            </LineStyle>
        </Style>
        <Style id="29762">
            <LineStyle id="29763">
                <color>ffDCB4AA</color>
                <colorMode>normal</colorMode>
                <width>4</width>
            </LineStyle>
        </Style>
        <Style id="29766">
            <LineStyle id="29767">
                <color>ffDCB4AA</color>
                <colorMode>normal</colorMode>
                <width>4</width>
            </LineStyle>
        </Style>
        <Style id="29770">
            <LineStyle id="29771">
                <color>ffDCB4AA</color>
                <colorMode>normal</colorMode>
                <width>4</width>
            </LineStyle>
        </Style>
        <Style id="29774">
            <LineStyle id="29775">
                <color>ffDCB4AA</color>
                <colorMode>normal</colorMode>
                <width>4</width>
            </LineStyle>
        </Style>
        <Style id="29778">
            <LineStyle id="29779">
                <color>ffDCB4AA</color>
                <colorMode>normal</colorMode>
                <width>4</width>
            </LineStyle>
        </Style>
        <Style id="29782">
            <LineStyle id="29783">
                <color>ffDCB4AA</color>
                <colorMode>normal</colorMode>
                <width>4</width>
            </LineStyle>
        </Style>
        <Style id="29786">
            <LineStyle id="29787">
                <color>ffDCB4AA</color>
                <colorMode>normal</colorMode>
                <width>4</width>
            </LineStyle>
        </Style>
        <Style id="29790">
            <LineStyle id="29791">
                <color>ffDCB4AA</color>
                <colorMode>normal</colorMode>
                <width>4</width>
            </LineStyle>
        </Style>
        <Style id="29794">
            <LineStyle id="29795">
                <color>ffDCB4AA</color>
                <colorMode>normal</colorMode>
                <width>4</width>
            </LineStyle>
        </Style>
        <Style id="29798">
            <LineStyle id="29799">
                <color>ffDCB4AA</color>
                <colorMode>normal</colorMode>
                <width>4</width>
            </LineStyle>
        </Style>
        <Style id="29802">
            <LineStyle id="29803">
                <color>ffDCB4AA</color>
                <colorMode>normal</colorMode>
                <width>4</width>
            </LineStyle>
        </Style>
        <Style id="29806">
            <LineStyle id="29807">
                <color>ffDCB4AA</color>
                <colorMode>normal</colorMode>
                <width>4</width>
            </LineStyle>
        </Style>
        <Style id="29810">
            <LineStyle id="29811">
                <color>ffDCB4AA</color>
                <colorMode>normal</colorMode>
                <width>4</width>
            </LineStyle>
        </Style>
        <Style id="29814">
            <LineStyle id="29815">
                <color>ffDCB4AA</color>
                <colorMode>normal</colorMode>
                <width>4</width>
            </LineStyle>
        </Style>
        <Style id="29818">
            <LineStyle id="29819">
                <color>ffDCB4AA</color>
                <colorMode>normal</colorMode>
                <width>4</width>
            </LineStyle>
        </Style>
        <Style id="29822">
            <LineStyle id="29823">
                <color>ffDCB4AA</color>
                <colorMode>normal</colorMode>
                <width>4</width>
            </LineStyle>
        </Style>
        <Style id="29826">
            <LineStyle id="29827">
                <color>ffDCB4AA</color>
                <colorMode>normal</colorMode>
                <width>4</width>
            </LineStyle>
        </Style>
        <Style id="29830">
            <LineStyle id="29831">
                <color>ffDCB4AA</color>
                <colorMode>normal</colorMode>
                <width>4</width>
            </LineStyle>
        </Style>
        <Style id="29834">
            <LineStyle id="29835">
                <color>ffDCB4AA</color>
                <colorMode>normal</colorMode>
                <width>4</width>
            </LineStyle>
        </Style>
        <Style id="29838">
            <LineStyle id="29839">
                <color>ffDCB4AA</color>
                <colorMode>normal</colorMode>
                <width>4</width>
            </LineStyle>
        </Style>
        <Style id="29842">
            <LineStyle id="29843">
                <color>ffDCB4AA</color>
                <colorMode>normal</colorMode>
                <width>4</width>
            </LineStyle>
        </Style>
        <Style id="29846">
            <LineStyle id="29847">
                <color>ffDCB4AA</color>
                <colorMode>normal</colorMode>
                <width>4</width>
            </LineStyle>
        </Style>
        <Style id="29850">
            <LineStyle id="29851">
                <color>ffDCB4AA</color>
                <colorMode>normal</colorMode>
                <width>4</width>
            </LineStyle>
        </Style>
        <Style id="29854">
            <LineStyle id="29855">
                <color>ffDCB4AA</color>
                <colorMode>normal</colorMode>
                <width>4</width>
            </LineStyle>
        </Style>
        <Style id="29858">
            <LineStyle id="29859">
                <color>ffDCB4AA</color>
                <colorMode>normal</colorMode>
                <width>4</width>
            </LineStyle>
        </Style>
        <Style id="29862">
            <LineStyle id="29863">
                <color>ffDCB4AA</color>
                <colorMode>normal</colorMode>
                <width>4</width>
            </LineStyle>
        </Style>
        <Style id="29866">
            <LineStyle id="29867">
                <color>ffDCB4AA</color>
                <colorMode>normal</colorMode>
                <width>4</width>
            </LineStyle>
        </Style>
        <Style id="29870">
            <LineStyle id="29871">
                <color>ffDCB4AA</color>
                <colorMode>normal</colorMode>
                <width>4</width>
            </LineStyle>
        </Style>
        <Style id="29874">
            <LineStyle id="29875">
                <color>ffDCB4AA</color>
                <colorMode>normal</colorMode>
                <width>4</width>
            </LineStyle>
        </Style>
        <Style id="29878">
            <LineStyle id="29879">
                <color>ffDCB4AA</color>
                <colorMode>normal</colorMode>
                <width>4</width>
            </LineStyle>
        </Style>
        <ExtendedData>
            <Data name="route-name">
                <value>03: Ledeng → Abdul Muis</value>
            </Data>
            <Data name="source">
                <value>Transport for Bandung</value>
            </Data>
        </ExtendedData>
        <Placemark id="29523">
            <name>Terminal Ledeng</name>
            <styleUrl>#29524</styleUrl>
            <Point id="29522">
                <coordinates>107.5951942,-6.85933,0.0</coordinates>
            </Point>
        </Placemark>
        <Placemark id="29528">
            <name>Terminal Abdul Muis/Kebon Kalapa</name>
            <styleUrl>#29529</styleUrl>
            <Point id="29527">
                <coordinates>107.6058322,-6.9276428,0.0</coordinates>
            </Point>
        </Placemark>
        <Placemark id="29533">
            <name>Jalan L.L. RE. Martadinata</name>
            <styleUrl>#29534</styleUrl>
            <LineString id="29532">
                <coordinates>107.6079412,-6.9065104,0.0 107.6081981,-6.9065975,0.0 107.6083321,-6.9066257,0.0 107.6092299,-6.9067838,0.0 107.6093359,-6.9068089,0.0</coordinates>
            </LineString>
        </Placemark>
        <Placemark id="29537">
            <name>Jalan Purnawarman</name>
            <styleUrl>#29538</styleUrl>
            <LineString id="29536">
                <coordinates>107.6093744,-6.9081456,0.0 107.6093775,-6.9084083,0.0 107.6093813,-6.9085187,0.0 107.6093815,-6.908544,0.0 107.6093824,-6.9086525,0.0 107.6093841,-6.9088591,0.0 107.6093842,-6.9088763,0.0 107.6093811,-6.9088995,0.0 107.6093747,-6.9089464,0.0 107.6093527,-6.9090316,0.0 107.6092981,-6.9091183,0.0 107.6092179,-6.9091598,0.0 107.6091211,-6.9091702,0.0 107.6090771,-6.9091668,0.0 107.608636,-6.9091325,0.0 107.6085607,-6.9091266,0.0</coordinates>
            </LineString>
        </Placemark>
        <Placemark id="29541">
            <name>Jalan Cihampelas</name>
            <styleUrl>#29542</styleUrl>
            <LineString id="29540">
                <coordinates>107.6044986,-6.8850612,0.0 107.6044348,-6.8853378,0.0 107.6043521,-6.8856962,0.0 107.6043346,-6.8857678,0.0 107.6042485,-6.8861202,0.0 107.6042216,-6.8862318,0.0 107.6041367,-6.886589,0.0 107.6041137,-6.8866842,0.0 107.6040712,-6.8868599,0.0 107.6040539,-6.8869313,0.0 107.6040408,-6.8869867,0.0 107.6039804,-6.8872428,0.0 107.6039534,-6.8874376,0.0 107.6039484,-6.8877565,0.0</coordinates>
            </LineString>
        </Placemark>
        <Placemark id="29545">
            <name>Jalan Dewi Sartika</name>
            <styleUrl>#29546</styleUrl>
            <LineString id="29544">
                <coordinates>107.6054273,-6.9316877,0.0 107.6055016,-6.9311384,0.0</coordinates>
            </LineString>
        </Placemark>
        <Placemark id="29549">
            <name>Jalan Lengkong Besar</name>
            <styleUrl>#29550</styleUrl>
            <LineString id="29548">
                <coordinates>107.612647,-6.9262231,0.0 107.6128857,-6.926502,0.0 107.6130005,-6.9266412,0.0 107.6130714,-6.926733,0.0 107.6131037,-6.9268116,0.0 107.6131248,-6.9268697,0.0 107.6131331,-6.9269146,0.0 107.6131443,-6.9269688,0.0</coordinates>
            </LineString>
        </Placemark>
        <Placemark id="29553">
            <name>Jalan Dr. Setiabudi</name>
            <styleUrl>#29554</styleUrl>
            <LineString id="29552">
                <coordinates>107.600512,-6.8825853,0.0 107.6006286,-6.8826207,0.0 107.6008076,-6.8826833,0.0 107.6009948,-6.8827158,0.0 107.6012097,-6.8827404,0.0 107.6013166,-6.8827564,0.0 107.601438,-6.882774,0.0</coordinates>
            </LineString>
        </Placemark>
        <Placemark id="29557">
            <name>Jalan Purnawarman</name>
            <styleUrl>#29558</styleUrl>
            <LineString id="29556">
                <coordinates>107.6085607,-6.9091266,0.0 107.6085033,-6.9091626,0.0 107.6084529,-6.9092079,0.0 107.6084111,-6.909261,0.0 107.6083958,-6.9093101,0.0 107.6083912,-6.9093671,0.0</coordinates>
            </LineString>
        </Placemark>
        <Placemark id="29561">
            <name>Jalan Lengkong Besar</name>
            <styleUrl>#29562</styleUrl>
            <LineString id="29560">
                <coordinates>107.6129597,-6.9294789,0.0 107.6129328,-6.9297497,0.0</coordinates>
            </LineString>
        </Placemark>
        <Placemark id="29565">
            <name>Jalan Lengkong Besar</name>
            <styleUrl>#29566</styleUrl>
            <LineString id="29564">
                <coordinates>107.6129328,-6.9297497,0.0 107.6129278,-6.9297903,0.0 107.6128864,-6.930269,0.0 107.612861,-6.9304102,0.0 107.6128137,-6.9306736,0.0 107.6127761,-6.9307702,0.0 107.6126488,-6.9309625,0.0 107.6124017,-6.9313355,0.0</coordinates>
            </LineString>
        </Placemark>
        <Placemark id="29569">
            <name>Jalan Dr. Setiabudi</name>
            <styleUrl>#29570</styleUrl>
            <LineString id="29568">
                <coordinates>107.5977931,-6.8782315,0.0 107.597931,-6.8785445,0.0 107.5980445,-6.8788022,0.0 107.5980688,-6.8788573,0.0 107.5981465,-6.8790417,0.0 107.5981885,-6.8791416,0.0 107.5983115,-6.8793952,0.0 107.5983643,-6.8795042,0.0 107.5985332,-6.8798525,0.0 107.5985364,-6.8798582,0.0 107.5985525,-6.8798922,0.0 107.5985829,-6.879955,0.0 107.598747,-6.8802981,0.0 107.5987865,-6.8803658,0.0 107.5988461,-6.8804679,0.0 107.5989984,-6.8807227,0.0 107.5990764,-6.8808677,0.0 107.5990993,-6.8809102,0.0 107.5991857,-6.8810641,0.0 107.5993479,-6.8813024,0.0</coordinates>
            </LineString>
        </Placemark>
        <Placemark id="29573">
            <name>Jalan Ibu Inggit Ganarsih</name>
            <styleUrl>#29574</styleUrl>
            <LineString id="29572">
                <coordinates>107.606653,-6.9318519,0.0 107.6067033,-6.9318589,0.0 107.6067675,-6.9318679,0.0 107.6071921,-6.9319271,0.0 107.6072028,-6.9319286,0.0 107.6074894,-6.9319668,0.0 107.607795,-6.9320075,0.0 107.6084036,-6.9320886,0.0 107.6094967,-6.9322343,0.0 107.6095721,-6.9322443,0.0 107.6100523,-6.9323083,0.0 107.6106978,-6.9323912,0.0 107.6112601,-6.93245,0.0 107.6113455,-6.9324444,0.0 107.6114263,-6.9324291,0.0</coordinates>
            </LineString>
        </Placemark>
        <Placemark id="29577">
            <name>Jalan Tamblong</name>
            <styleUrl>#29578</styleUrl>
            <LineString id="29576">
                <coordinates>107.6127815,-6.9179662,0.0 107.6126586,-6.918004,0.0 107.6125556,-6.9180605,0.0 107.6124982,-6.9181294,0.0 107.6124801,-6.9181686,0.0 107.6124707,-6.9182046,0.0 107.6124572,-6.9182764,0.0</coordinates>
            </LineString>
        </Placemark>
        <Placemark id="29581">
            <name>Jalan Tamblong</name>
            <styleUrl>#29582</styleUrl>
            <LineString id="29580">
                <coordinates>107.6122092,-6.9201091,0.0 107.6121953,-6.9202135,0.0 107.612155,-6.9205282,0.0 107.6121207,-6.9208351,0.0 107.6120718,-6.9213137,0.0 107.6120281,-6.9216096,0.0 107.6120154,-6.9217245,0.0</coordinates>
            </LineString>
        </Placemark>
        <Placemark id="29585">
            <name>Jalan Sumatra</name>
            <styleUrl>#29586</styleUrl>
            <LineString id="29584">
                <coordinates>107.6135654,-6.9171914,0.0 107.6135267,-6.9173995,0.0 107.6134884,-6.9175076,0.0 107.6134611,-6.9175513,0.0 107.6133877,-6.9176597,0.0 107.6132116,-6.9178221,0.0 107.6131121,-6.917873,0.0 107.6130287,-6.9179018,0.0 107.6127986,-6.9179585,0.0 107.6127815,-6.9179662,0.0</coordinates>
            </LineString>
        </Placemark>
        <Placemark id="29589">
            <name>Jalan Lengkong Besar</name>
            <styleUrl>#29590</styleUrl>
            <LineString id="29588">
                <coordinates>107.6120154,-6.9217245,0.0 107.6120004,-6.9218318,0.0 107.6119659,-6.922102,0.0 107.6119291,-6.9224047,0.0 107.6119134,-6.9225354,0.0 107.6118585,-6.9230332,0.0</coordinates>
            </LineString>
        </Placemark>
        <Placemark id="29593">
            <name>Jalan Sumatra</name>
            <styleUrl>#29594</styleUrl>
            <LineString id="29592">
                <coordinates>107.6139552,-6.9149332,0.0 107.6139821,-6.9147604,0.0 107.6139894,-6.9147065,0.0 107.6139967,-6.9146525,0.0 107.6140009,-6.9145513,0.0 107.6139982,-6.9145008,0.0 107.6139915,-6.9144408,0.0 107.6139902,-6.9144289,0.0 107.6139734,-6.9143683,0.0 107.6139539,-6.914317,0.0 107.61384,-6.9141333,0.0 107.6137642,-6.9140077,0.0 107.6137233,-6.9139398,0.0 107.6135925,-6.9137192,0.0 107.6135325,-6.913618,0.0 107.6135126,-6.9135895,0.0 107.6134268,-6.9134665,0.0 107.6133515,-6.9133639,0.0</coordinates>
            </LineString>
        </Placemark>
        <Placemark id="29597">
            <name>Jalan Belitung</name>
            <styleUrl>#29598</styleUrl>
            <LineString id="29596">
                <coordinates>107.6144696,-6.9121614,0.0 107.6143524,-6.9122063,0.0 107.614276,-6.9122351,0.0 107.6142314,-6.9122519,0.0 107.6140321,-6.912327,0.0 107.6138475,-6.9123969,0.0 107.6138154,-6.9124084,0.0 107.6137534,-6.9124309,0.0 107.6134164,-6.912564,0.0 107.6132624,-6.9126239,0.0</coordinates>
            </LineString>
        </Placemark>
        <Placemark id="29601">
            <name>Jalan Kalimantan</name>
            <styleUrl>#29602</styleUrl>
            <LineString id="29600">
                <coordinates>107.6139066,-6.9105285,0.0 107.6140031,-6.9107992,0.0 107.6143276,-6.9117506,0.0 107.6144234,-6.9120239,0.0 107.6144696,-6.9121614,0.0</coordinates>
            </LineString>
        </Placemark>
        <Placemark id="29605">
            <name>Jalan Dr. Setiabudi</name>
            <styleUrl>#29606</styleUrl>
            <LineString id="29604">
                <coordinates>107.5958267,-6.874066,0.0 107.5958839,-6.8741085,0.0 107.5959235,-6.8741451,0.0 107.5959994,-6.8742507,0.0 107.5960416,-6.8743074,0.0 107.596108,-6.8744075,0.0 107.5961314,-6.8744453,0.0 107.5962142,-6.8745818,0.0 107.5962411,-6.8746244,0.0 107.5962673,-6.8746659,0.0 107.5963577,-6.8748045,0.0 107.5964184,-6.8748932,0.0 107.5965371,-6.8750912,0.0 107.5966847,-6.8753563,0.0 107.5967496,-6.8754896,0.0 107.5967556,-6.8755022,0.0 107.5968567,-6.8756963,0.0 107.5969251,-6.8757837,0.0 107.5972243,-6.8760098,0.0 107.5973752,-6.876119,0.0 107.5974155,-6.8761599,0.0 107.59745,-6.8762097,0.0 107.5974932,-6.8762915,0.0 107.5975265,-6.8763939,0.0 107.5975398,-6.8764616,0.0 107.5975472,-6.8765469,0.0 107.597546,-6.8766334,0.0 107.5975168,-6.8767863,0.0 107.5975056,-6.8768315,0.0 107.59747,-6.8769861,0.0 107.5974504,-6.877112,0.0 107.5974554,-6.877208,0.0 107.5974773,-6.8773209,0.0 107.5975476,-6.8775669,0.0</coordinates>
            </LineString>
        </Placemark>
        <Placemark id="29609">
            <name>Jalan Wastukancana</name>
            <styleUrl>#29610</styleUrl>
            <LineString id="29608">
                <coordinates>107.6088855,-6.9102984,0.0 107.6088445,-6.9102299,0.0 107.6087639,-6.910086,0.0 107.608484,-6.9095465,0.0 107.6083912,-6.9093671,0.0</coordinates>
            </LineString>
        </Placemark>
        <Placemark id="29613">
            <name>Jalan Cihampelas</name>
            <styleUrl>#29614</styleUrl>
            <LineString id="29612">
                <coordinates>107.6042016,-6.9003842,0.0 107.604264,-6.9008715,0.0</coordinates>
            </LineString>
        </Placemark>
        <Placemark id="29617">
            <name>Jalan Cihampelas</name>
            <styleUrl>#29618</styleUrl>
            <LineString id="29616">
                <coordinates>107.6041803,-6.900144,0.0 107.6041813,-6.9001579,0.0 107.604189,-6.9002755,0.0 107.6041992,-6.9003596,0.0 107.6042016,-6.9003842,0.0</coordinates>
            </LineString>
        </Placemark>
        <Placemark id="29621">
            <name>Jalan Cihampelas</name>
            <styleUrl>#29622</styleUrl>
            <LineString id="29620">
                <coordinates>107.604369,-6.9041823,0.0 107.6043878,-6.9042234,0.0 107.6044168,-6.9042582,0.0 107.604454,-6.9042842,0.0</coordinates>
            </LineString>
        </Placemark>
        <Placemark id="29625">
            <name>Jalan Wastukencana</name>
            <styleUrl>#29626</styleUrl>
            <LineString id="29624">
                <coordinates>107.604454,-6.9042842,0.0 107.6045194,-6.9042857,0.0</coordinates>
            </LineString>
        </Placemark>
        <Placemark id="29629">
            <name>Jalan Wastukancana</name>
            <styleUrl>#29630</styleUrl>
            <LineString id="29628">
                <coordinates>107.6075644,-6.9054686,0.0 107.607609,-6.9055867,0.0 107.6076511,-6.9057161,0.0 107.6076853,-6.905845,0.0</coordinates>
            </LineString>
        </Placemark>
        <Placemark id="29633">
            <name>Jalan Aceh</name>
            <styleUrl>#29634</styleUrl>
            <LineString id="29632">
                <coordinates>107.610654,-6.909795,0.0 107.610777,-6.9097754,0.0 107.6108205,-6.9097714,0.0 107.6109188,-6.9097687,0.0 107.6111566,-6.9097687,0.0 107.6116178,-6.90977,0.0 107.6117465,-6.9097693,0.0 107.6121344,-6.9097777,0.0</coordinates>
            </LineString>
        </Placemark>
        <Placemark id="29637">
            <name>Jalan Sumatra</name>
            <styleUrl>#29638</styleUrl>
            <LineString id="29636">
                <coordinates>107.6132624,-6.9126239,0.0 107.6132209,-6.9126652,0.0 107.6131878,-6.9127127,0.0 107.6131654,-6.9127661,0.0 107.6131547,-6.9128228,0.0 107.6131561,-6.9128806,0.0 107.6131733,-6.9129717,0.0</coordinates>
            </LineString>
        </Placemark>
        <Placemark id="29641">
            <name>Jalan Ibu Inggit Ganarsih</name>
            <styleUrl>#29642</styleUrl>
            <LineString id="29640">
                <coordinates>107.6054273,-6.9316877,0.0 107.6059974,-6.9317627,0.0 107.6060299,-6.9317669,0.0 107.6064523,-6.9318239,0.0 107.606653,-6.9318519,0.0</coordinates>
            </LineString>
        </Placemark>
        <Placemark id="29645">
            <name>Jalan Aceh</name>
            <styleUrl>#29646</styleUrl>
            <LineString id="29644">
                <coordinates>107.6126151,-6.9098105,0.0 107.6127279,-6.909855,0.0 107.6131518,-6.9100607,0.0 107.6137485,-6.9103432,0.0 107.6137788,-6.9103556,0.0</coordinates>
            </LineString>
        </Placemark>
        <Placemark id="29649">
            <name>Jalan Cihampelas</name>
            <styleUrl>#29650</styleUrl>
            <LineString id="29648">
                <coordinates>107.6039484,-6.8877565,0.0 107.6039743,-6.8881464,0.0 107.6039772,-6.8881744,0.0 107.6039991,-6.8883924,0.0 107.6040179,-6.8885512,0.0 107.6040214,-6.8885821,0.0 107.6040236,-6.8886013,0.0 107.6040387,-6.8887215,0.0 107.6040455,-6.8887679,0.0 107.6041808,-6.8898823,0.0 107.604194,-6.8899911,0.0 107.6041992,-6.8900884,0.0 107.6042179,-6.8906239,0.0 107.6042285,-6.8909117,0.0 107.6042314,-6.8912099,0.0 107.6042338,-6.8914499,0.0 107.6042355,-6.8916244,0.0</coordinates>
            </LineString>
        </Placemark>
        <Placemark id="29653">
            <name>Jalan Dr. Setiabudi</name>
            <styleUrl>#29654</styleUrl>
            <LineString id="29652">
                <coordinates>107.6042802,-6.8845469,0.0 107.6044564,-6.8849265,0.0 107.6044776,-6.8849776,0.0 107.6044986,-6.8850612,0.0</coordinates>
            </LineString>
        </Placemark>
        <Placemark id="29657">
            <name>Jalan Dr. Setiabudi</name>
            <styleUrl>#29658</styleUrl>
            <LineString id="29656">
                <coordinates>107.5947487,-6.8601046,0.0 107.5947415,-6.8601534,0.0 107.5947299,-6.8602278,0.0 107.5946876,-6.860499,0.0 107.5946834,-6.8605895,0.0 107.594682,-6.8607123,0.0 107.594691,-6.8607829,0.0 107.5947113,-6.8608802,0.0 107.5947543,-6.8609845,0.0 107.5947885,-6.8610543,0.0 107.5948338,-6.861136,0.0 107.5948731,-6.8611888,0.0 107.5949141,-6.8612418,0.0 107.595009,-6.861346,0.0 107.5950885,-6.8614258,0.0 107.5951733,-6.8614881,0.0 107.595248,-6.861538,0.0 107.5954158,-6.8616512,0.0 107.5955484,-6.8617416,0.0 107.5958307,-6.8619379,0.0 107.5959866,-6.8620463,0.0 107.5961672,-6.8621719,0.0 107.5961991,-6.8622073,0.0 107.5962242,-6.8622608,0.0 107.5962237,-6.8623248,0.0 107.5962141,-6.862385,0.0 107.5961999,-6.8624213,0.0 107.5960469,-6.8627747,0.0 107.5959257,-6.8629855,0.0 107.5958359,-6.8630694,0.0 107.5957803,-6.8631238,0.0 107.5957352,-6.8631536,0.0 107.5956823,-6.8631776,0.0 107.5955819,-6.8632153,0.0 107.594751,-6.8634425,0.0</coordinates>
            </LineString>
        </Placemark>
        <Placemark id="29661">
            <name>Jalan Dr. Setiabudi</name>
            <styleUrl>#29662</styleUrl>
            <LineString id="29660">
                <coordinates>107.601438,-6.882774,0.0 107.6015569,-6.8827985,0.0 107.6017237,-6.8828213,0.0 107.6021029,-6.8828925,0.0 107.6023609,-6.8829555,0.0 107.6024888,-6.8829949,0.0 107.6025819,-6.8830235,0.0 107.6029936,-6.8831527,0.0 107.6030454,-6.88317,0.0 107.603268,-6.883261,0.0 107.6033875,-6.8833091,0.0 107.6034531,-6.8833355,0.0 107.6035506,-6.8833918,0.0 107.6036432,-6.8834648,0.0 107.6037953,-6.8836394,0.0 107.6039104,-6.8837975,0.0 107.6039405,-6.8838513,0.0 107.6040202,-6.8839936,0.0 107.6042133,-6.8843933,0.0 107.6042213,-6.8844117,0.0</coordinates>
            </LineString>
        </Placemark>
        <Placemark id="29665">
            <name>Jalan Wastukancana</name>
            <styleUrl>#29666</styleUrl>
            <LineString id="29664">
                <coordinates>107.6077246,-6.9060495,0.0 107.6077494,-6.9061802,0.0 107.6077784,-6.906285,0.0 107.6078246,-6.906372,0.0 107.607872,-6.9064327,0.0 107.6079412,-6.9065104,0.0</coordinates>
            </LineString>
        </Placemark>
        <Placemark id="29669">
            <name>Jalan Aceh</name>
            <styleUrl>#29670</styleUrl>
            <LineString id="29668">
                <coordinates>107.6092148,-6.9103044,0.0 107.6097114,-6.9101169,0.0 107.6103674,-6.9098792,0.0 107.610426,-6.9098591,0.0 107.6105905,-6.9098058,0.0</coordinates>
            </LineString>
        </Placemark>
        <Placemark id="29673">
            <name>Jalan Ibu Inggit Ganarsih</name>
            <styleUrl>#29674</styleUrl>
            <LineString id="29672">
                <coordinates>107.6114263,-6.9324291,0.0 107.6115743,-6.9323207,0.0 107.6119021,-6.9320223,0.0 107.6121586,-6.9316762,0.0 107.6122593,-6.9315442,0.0 107.6124017,-6.9313355,0.0</coordinates>
            </LineString>
        </Placemark>
        <Placemark id="29677">
            <name>Jalan Cihampelas</name>
            <styleUrl>#29678</styleUrl>
            <LineString id="29676">
                <coordinates>107.6039496,-6.8971371,0.0 107.6039675,-6.8974513,0.0 107.6040028,-6.8978417,0.0 107.6040588,-6.8985578,0.0 107.6040773,-6.8988321,0.0 107.6040857,-6.8989874,0.0 107.6040897,-6.899022,0.0 107.6041494,-6.8996569,0.0 107.6041726,-6.9000527,0.0 107.6041743,-6.9000737,0.0 107.6041803,-6.900144,0.0</coordinates>
            </LineString>
        </Placemark>
        <Placemark id="29681">
            <name>Jalan Cihampelas</name>
            <styleUrl>#29682</styleUrl>
            <LineString id="29680">
                <coordinates>107.6042355,-6.8916244,0.0 107.6042345,-6.8917434,0.0 107.6042347,-6.8922554,0.0 107.6042213,-6.8925111,0.0 107.6041814,-6.8929367,0.0 107.6041718,-6.8930371,0.0 107.6041704,-6.8930508,0.0 107.6041675,-6.8930723,0.0 107.6041636,-6.893105,0.0 107.6041399,-6.8936073,0.0</coordinates>
            </LineString>
        </Placemark>
        <Placemark id="29685">
            <name>Jalan Wastukancana</name>
            <styleUrl>#29686</styleUrl>
            <LineString id="29684">
                <coordinates>107.604907,-6.904268,0.0 107.6050035,-6.9041885,0.0 107.6051531,-6.9040927,0.0 107.605225,-6.9040549,0.0 107.6052645,-6.9040341,0.0 107.605369,-6.9039986,0.0 107.6054495,-6.9039862,0.0 107.6055461,-6.9039795,0.0 107.6056396,-6.9039773,0.0 107.6058035,-6.9039995,0.0 107.6059967,-6.9040381,0.0 107.6061616,-6.9040807,0.0 107.606306,-6.9041384,0.0 107.6063615,-6.9041606,0.0 107.6065841,-6.9042698,0.0</coordinates>
            </LineString>
        </Placemark>
        <Placemark id="29689">
            <name>Jalan Cihampelas</name>
            <styleUrl>#29690</styleUrl>
            <LineString id="29688">
                <coordinates>107.604264,-6.9008715,0.0 107.6042787,-6.9010952,0.0 107.6042858,-6.9012975,0.0 107.6043224,-6.9023437,0.0 107.6043266,-6.9027188,0.0 107.6043559,-6.9036874,0.0 107.6043657,-6.9040669,0.0 107.6043665,-6.9040981,0.0 107.604369,-6.9041823,0.0</coordinates>
            </LineString>
        </Placemark>
        <Placemark id="29693">
            <name>Jalan Lengkong Besar</name>
            <styleUrl>#29694</styleUrl>
            <LineString id="29692">
                <coordinates>107.613137,-6.9274559,0.0 107.6131272,-6.9275689,0.0 107.6130412,-6.9283504,0.0 107.6129922,-6.9290293,0.0 107.6129813,-6.9291796,0.0 107.6129684,-6.9293583,0.0 107.6129608,-6.9294632,0.0 107.6129597,-6.9294789,0.0</coordinates>
            </LineString>
        </Placemark>
        <Placemark id="29697">
            <name>Jalan Lengkong Besar</name>
            <styleUrl>#29698</styleUrl>
            <LineString id="29696">
                <coordinates>107.6118585,-6.9230332,0.0 107.6118166,-6.9234656,0.0 107.6117934,-6.9237378,0.0 107.611746,-6.9242192,0.0 107.6117142,-6.9246889,0.0 107.6117081,-6.9247371,0.0 107.6117028,-6.9248556,0.0 107.6117078,-6.9249159,0.0 107.6117224,-6.9249903,0.0 107.6117513,-6.925068,0.0 107.6117998,-6.9251562,0.0 107.6118687,-6.9252698,0.0 107.6119571,-6.9254045,0.0 107.6120282,-6.9254956,0.0 107.6120768,-6.9255532,0.0 107.6121706,-6.9256697,0.0 107.6126055,-6.9261738,0.0 107.6126274,-6.9261996,0.0 107.612647,-6.9262231,0.0</coordinates>
            </LineString>
        </Placemark>
        <Placemark id="29701">
            <name>Jalan Kalimantan</name>
            <styleUrl>#29702</styleUrl>
            <LineString id="29700">
                <coordinates>107.6137788,-6.9103556,0.0 107.613845,-6.9104133,0.0 107.6139066,-6.9105285,0.0</coordinates>
            </LineString>
        </Placemark>
        <Placemark id="29705">
            <name>Jalan Sumatra</name>
            <styleUrl>#29706</styleUrl>
            <LineString id="29704">
                <coordinates>107.6139552,-6.9149332,0.0 107.6138375,-6.9156373,0.0 107.6138145,-6.9157591,0.0 107.6138075,-6.9157964,0.0 107.6137957,-6.9158688,0.0 107.6137272,-6.9162973,0.0 107.6137087,-6.9163993,0.0 107.6135654,-6.9171914,0.0</coordinates>
            </LineString>
        </Placemark>
        <Placemark id="29709">
            <name>Route Segment</name>
            <styleUrl>#29710</styleUrl>
            <LineString id="29708">
                <coordinates>107.5951942,-6.85933,0.0 107.5951855,-6.8593963,0.0 107.5951822,-6.8594053,0.0 107.5951748,-6.8594103,0.0 107.5948433,-6.8593552,0.0</coordinates>
            </LineString>
        </Placemark>
        <Placemark id="29713">
            <name>Jalan Sumatra</name>
            <styleUrl>#29714</styleUrl>
            <LineString id="29712">
                <coordinates>107.6131733,-6.9129717,0.0 107.6132641,-6.9131737,0.0 107.6132994,-6.9132491,0.0 107.6133515,-6.9133639,0.0</coordinates>
            </LineString>
        </Placemark>
        <Placemark id="29717">
            <name>Jalan Dr. Setiabudi</name>
            <styleUrl>#29718</styleUrl>
            <LineString id="29716">
                <coordinates>107.5940961,-6.8651081,0.0 107.5940723,-6.8653071,0.0 107.5940489,-6.8655021,0.0 107.5940436,-6.8655555,0.0 107.5939941,-6.866016,0.0 107.59398,-6.8661473,0.0 107.5939484,-6.8664124,0.0 107.5939402,-6.8664718,0.0 107.5939135,-6.8666897,0.0 107.593824,-6.8674042,0.0 107.5937888,-6.8677009,0.0 107.5937561,-6.8679333,0.0 107.5937127,-6.8682235,0.0 107.5937093,-6.8682462,0.0 107.593703,-6.868294,0.0 107.5936933,-6.8683616,0.0 107.5936592,-6.8686283,0.0 107.5936527,-6.8686846,0.0 107.5936366,-6.868816,0.0 107.5936184,-6.8689604,0.0 107.5936057,-6.869061,0.0 107.5935721,-6.8693613,0.0 107.5935632,-6.8694388,0.0 107.5935337,-6.8696955,0.0 107.5935252,-6.8697698,0.0 107.5935167,-6.8698675,0.0 107.5935096,-6.8699573,0.0 107.593506,-6.8701005,0.0 107.5935249,-6.8704256,0.0</coordinates>
            </LineString>
        </Placemark>
        <Placemark id="29721">
            <name>Jalan Cihampelas</name>
            <styleUrl>#29722</styleUrl>
            <LineString id="29720">
                <coordinates>107.6041399,-6.8936073,0.0 107.6040966,-6.8943213,0.0 107.6040947,-6.8943366,0.0 107.6040642,-6.8945463,0.0 107.6040533,-6.8946215,0.0 107.6040475,-6.8946762,0.0 107.6040253,-6.8948583,0.0 107.6040077,-6.8950101,0.0 107.6040043,-6.8950495,0.0 107.6040014,-6.895093,0.0 107.6039768,-6.8955786,0.0 107.6039637,-6.8957293,0.0</coordinates>
            </LineString>
        </Placemark>
        <Placemark id="29725">
            <name>Jalan Tamblong</name>
            <styleUrl>#29726</styleUrl>
            <LineString id="29724">
                <coordinates>107.61235,-6.918793,0.0 107.6123364,-6.9189576,0.0 107.6122952,-6.9194549,0.0 107.6122402,-6.9198677,0.0 107.6122212,-6.9200158,0.0 107.6122183,-6.920038,0.0 107.6122118,-6.9200856,0.0 107.6122092,-6.9201091,0.0</coordinates>
            </LineString>
        </Placemark>
        <Placemark id="29729">
            <name>Jalan Aceh</name>
            <styleUrl>#29730</styleUrl>
            <LineString id="29728">
                <coordinates>107.6088855,-6.9102984,0.0 107.6089872,-6.9102881,0.0 107.6090327,-6.910287,0.0 107.6091344,-6.9102886,0.0 107.6092148,-6.9103044,0.0</coordinates>
            </LineString>
        </Placemark>
        <Placemark id="29733">
            <name>Jalan Cihampelas</name>
            <styleUrl>#29734</styleUrl>
            <LineString id="29732">
                <coordinates>107.6039637,-6.8957293,0.0 107.6039485,-6.8958668,0.0 107.6039451,-6.8959031,0.0 107.6039338,-6.8960782,0.0 107.6039314,-6.8961372,0.0 107.6039298,-6.896266,0.0 107.603945,-6.8970293,0.0 107.6039453,-6.8970466,0.0 107.6039496,-6.8971371,0.0</coordinates>
            </LineString>
        </Placemark>
        <Placemark id="29737">
            <name>Jalan Wastukancana</name>
            <styleUrl>#29738</styleUrl>
            <LineString id="29736">
                <coordinates>107.607556,-6.9054463,0.0 107.6075644,-6.9054686,0.0</coordinates>
            </LineString>
        </Placemark>
        <Placemark id="29741">
            <name>Jalan Dr. Setiabudi</name>
            <styleUrl>#29742</styleUrl>
            <LineString id="29740">
                <coordinates>107.594751,-6.8634425,0.0 107.5946342,-6.8634956,0.0</coordinates>
            </LineString>
        </Placemark>
        <Placemark id="29745">
            <name>Jalan Aceh</name>
            <styleUrl>#29746</styleUrl>
            <LineString id="29744">
                <coordinates>107.6105905,-6.9098058,0.0 107.610654,-6.909795,0.0</coordinates>
            </LineString>
        </Placemark>
        <Placemark id="29749">
            <name>Jalan Aceh</name>
            <styleUrl>#29750</styleUrl>
            <LineString id="29748">
                <coordinates>107.6121344,-6.9097777,0.0 107.6122207,-6.9097673,0.0 107.6122697,-6.9097633,0.0 107.6123913,-6.909767,0.0</coordinates>
            </LineString>
        </Placemark>
        <Placemark id="29753">
            <name>Jalan Dr. Setiabudi</name>
            <styleUrl>#29754</styleUrl>
            <LineString id="29752">
                <coordinates>107.5975476,-6.8775669,0.0 107.5976126,-6.8777607,0.0 107.5976714,-6.8779208,0.0 107.5977931,-6.8782315,0.0</coordinates>
            </LineString>
        </Placemark>
        <Placemark id="29757">
            <name>Jalan Wastukancana</name>
            <styleUrl>#29758</styleUrl>
            <LineString id="29756">
                <coordinates>107.6047378,-6.9043028,0.0 107.604907,-6.904268,0.0</coordinates>
            </LineString>
        </Placemark>
        <Placemark id="29761">
            <name>Jalan Wastukancana</name>
            <styleUrl>#29762</styleUrl>
            <LineString id="29760">
                <coordinates>107.6045194,-6.9042857,0.0 107.6045928,-6.9042871,0.0 107.6046289,-6.9042878,0.0 107.6047378,-6.9043028,0.0</coordinates>
            </LineString>
        </Placemark>
        <Placemark id="29765">
            <name>Jalan Wastukancana</name>
            <styleUrl>#29766</styleUrl>
            <LineString id="29764">
                <coordinates>107.6074587,-6.9052269,0.0 107.607556,-6.9054463,0.0</coordinates>
            </LineString>
        </Placemark>
        <Placemark id="29769">
            <name>Jalan Aceh</name>
            <styleUrl>#29770</styleUrl>
            <LineString id="29768">
                <coordinates>107.6123913,-6.909767,0.0 107.612472,-6.9097787,0.0 107.6126151,-6.9098105,0.0</coordinates>
            </LineString>
        </Placemark>
        <Placemark id="29773">
            <name>Jalan Dr. Setiabudi</name>
            <styleUrl>#29774</styleUrl>
            <LineString id="29772">
                <coordinates>107.5993479,-6.8813024,0.0 107.5994309,-6.8814326,0.0 107.5994716,-6.8814891,0.0 107.5996471,-6.8817279,0.0 107.5996965,-6.881795,0.0 107.6000907,-6.8822275,0.0 107.6001689,-6.8823036,0.0 107.6003584,-6.8824654,0.0 107.600512,-6.8825853,0.0</coordinates>
            </LineString>
        </Placemark>
        <Placemark id="29777">
            <name>Jalan Lengkong Besar</name>
            <styleUrl>#29778</styleUrl>
            <LineString id="29776">
                <coordinates>107.6131443,-6.9269688,0.0 107.613137,-6.9274559,0.0</coordinates>
            </LineString>
        </Placemark>
        <Placemark id="29781">
            <name>Jalan Wastukancana</name>
            <styleUrl>#29782</styleUrl>
            <LineString id="29780">
                <coordinates>107.6076853,-6.905845,0.0 107.6077246,-6.9060495,0.0</coordinates>
            </LineString>
        </Placemark>
        <Placemark id="29785">
            <name>Jalan Dr. Setiabudi</name>
            <styleUrl>#29786</styleUrl>
            <LineString id="29784">
                <coordinates>107.5936179,-6.8707823,0.0 107.5937463,-6.8711539,0.0 107.5937922,-6.8712782,0.0 107.593895,-6.8715029,0.0 107.5940693,-6.8717924,0.0 107.5944136,-6.8722322,0.0 107.5948065,-6.8727176,0.0 107.5949802,-6.8729249,0.0 107.5951113,-6.8730936,0.0 107.5955371,-6.8736221,0.0 107.5956623,-6.8737793,0.0 107.5956814,-6.8738055,0.0 107.5956912,-6.8738171,0.0 107.5957307,-6.8738828,0.0 107.5957592,-6.8739356,0.0 107.5957878,-6.8739884,0.0 107.5958267,-6.874066,0.0</coordinates>
            </LineString>
        </Placemark>
        <Placemark id="29789">
            <name>Jalan Wastukancana</name>
            <styleUrl>#29790</styleUrl>
            <LineString id="29788">
                <coordinates>107.6070138,-6.9046,0.0 107.6071411,-6.9047305,0.0</coordinates>
            </LineString>
        </Placemark>
        <Placemark id="29793">
            <name>Jalan Wastukancana</name>
            <styleUrl>#29794</styleUrl>
            <LineString id="29792">
                <coordinates>107.6071411,-6.9047305,0.0 107.607265,-6.9048943,0.0 107.607283,-6.9049195,0.0 107.6074067,-6.905129,0.0 107.6074587,-6.9052269,0.0</coordinates>
            </LineString>
        </Placemark>
        <Placemark id="29797">
            <name>Jalan Dr. Setiabudi</name>
            <styleUrl>#29798</styleUrl>
            <LineString id="29796">
                <coordinates>107.5935249,-6.8704256,0.0 107.5936179,-6.8707823,0.0</coordinates>
            </LineString>
        </Placemark>
        <Placemark id="29801">
            <name>Jalan Wastukancana</name>
            <styleUrl>#29802</styleUrl>
            <LineString id="29800">
                <coordinates>107.6069187,-6.9045127,0.0 107.6070138,-6.9046,0.0</coordinates>
            </LineString>
        </Placemark>
        <Placemark id="29805">
            <name>Jalan Wastukancana</name>
            <styleUrl>#29806</styleUrl>
            <LineString id="29804">
                <coordinates>107.6065841,-6.9042698,0.0 107.6067222,-6.904359,0.0 107.6068568,-6.9044553,0.0 107.6069187,-6.9045127,0.0</coordinates>
            </LineString>
        </Placemark>
        <Placemark id="29809">
            <name>Jalan Dr. Setiabudi</name>
            <styleUrl>#29810</styleUrl>
            <LineString id="29808">
                <coordinates>107.5948433,-6.8593552,0.0 107.5948312,-6.8594241,0.0 107.5948088,-6.859551,0.0</coordinates>
            </LineString>
        </Placemark>
        <Placemark id="29813">
            <name>Jalan Dr. Setiabudi</name>
            <styleUrl>#29814</styleUrl>
            <LineString id="29812">
                <coordinates>107.5948052,-6.8595708,0.0 107.594757,-6.8600369,0.0 107.5947527,-6.8600724,0.0 107.5947487,-6.8601046,0.0</coordinates>
            </LineString>
        </Placemark>
        <Placemark id="29817">
            <name>Jalan Dr. Setiabudi</name>
            <styleUrl>#29818</styleUrl>
            <LineString id="29816">
                <coordinates>107.5948088,-6.859551,0.0 107.5948052,-6.8595708,0.0</coordinates>
            </LineString>
        </Placemark>
        <Placemark id="29821">
            <name>Jalan Tamblong</name>
            <styleUrl>#29822</styleUrl>
            <LineString id="29820">
                <coordinates>107.6124572,-6.9182764,0.0 107.6124385,-6.9184149,0.0 107.6124059,-6.9186557,0.0 107.6123835,-6.9187317,0.0 107.61235,-6.918793,0.0</coordinates>
            </LineString>
        </Placemark>
        <Placemark id="29825">
            <name>Jalan Purnawarman</name>
            <styleUrl>#29826</styleUrl>
            <LineString id="29824">
                <coordinates>107.6093359,-6.9068089,0.0 107.6093419,-6.9069882,0.0 107.6093518,-6.9074781,0.0 107.6093559,-6.9075881,0.0 107.609369,-6.9079424,0.0 107.6093694,-6.90798,0.0 107.6093716,-6.9080529,0.0 107.6093728,-6.9080931,0.0 107.6093744,-6.9081456,0.0</coordinates>
            </LineString>
        </Placemark>
        <Placemark id="29829">
            <name>Jalan Dewi Sartika</name>
            <styleUrl>#29830</styleUrl>
            <LineString id="29828">
                <coordinates>107.6055016,-6.9311384,0.0 107.6055192,-6.9309578,0.0 107.6055259,-6.9309078,0.0</coordinates>
            </LineString>
        </Placemark>
        <Placemark id="29833">
            <name>Jalan Dewi Sartika</name>
            <styleUrl>#29834</styleUrl>
            <LineString id="29832">
                <coordinates>107.6055259,-6.9309078,0.0 107.605557,-6.9305299,0.0 107.6055585,-6.9305004,0.0 107.6055781,-6.930239,0.0</coordinates>
            </LineString>
        </Placemark>
        <Placemark id="29837">
            <name>Jalan Dewi Sartika</name>
            <styleUrl>#29838</styleUrl>
            <LineString id="29836">
                <coordinates>107.6055781,-6.930239,0.0 107.6055888,-6.9300028,0.0</coordinates>
            </LineString>
        </Placemark>
        <Placemark id="29841">
            <name>Jalan Dewi Sartika</name>
            <styleUrl>#29842</styleUrl>
            <LineString id="29840">
                <coordinates>107.6055888,-6.9300028,0.0 107.6055993,-6.9298025,0.0</coordinates>
            </LineString>
        </Placemark>
        <Placemark id="29845">
            <name>Jalan Dewi Sartika</name>
            <styleUrl>#29846</styleUrl>
            <LineString id="29844">
                <coordinates>107.6055993,-6.9298025,0.0 107.6056708,-6.9290327,0.0</coordinates>
            </LineString>
        </Placemark>
        <Placemark id="29849">
            <name>Jalan Dewi Sartika</name>
            <styleUrl>#29850</styleUrl>
            <LineString id="29848">
                <coordinates>107.6056708,-6.9290327,0.0 107.6057162,-6.9286824,0.0</coordinates>
            </LineString>
        </Placemark>
        <Placemark id="29853">
            <name>Jalan Dewi Sartika</name>
            <styleUrl>#29854</styleUrl>
            <LineString id="29852">
                <coordinates>107.6057162,-6.9286824,0.0 107.6057961,-6.9281235,0.0</coordinates>
            </LineString>
        </Placemark>
        <Placemark id="29857">
            <name>Jalan Dewi Sartika</name>
            <styleUrl>#29858</styleUrl>
            <LineString id="29856">
                <coordinates>107.6057961,-6.9281235,0.0 107.6058055,-6.928016,0.0 107.6058217,-6.9278434,0.0</coordinates>
            </LineString>
        </Placemark>
        <Placemark id="29861">
            <name>Jalan Dewi Sartika</name>
            <styleUrl>#29862</styleUrl>
            <LineString id="29860">
                <coordinates>107.6058217,-6.9278434,0.0 107.6058322,-6.9276428,0.0</coordinates>
            </LineString>
        </Placemark>
        <Placemark id="29865">
            <name>Jalan Dr. Setiabudi</name>
            <styleUrl>#29866</styleUrl>
            <LineString id="29864">
                <coordinates>107.5946342,-6.8634956,0.0 107.594575,-6.8635338,0.0 107.5945119,-6.8636016,0.0 107.594469,-6.8636686,0.0 107.5943936,-6.8638479,0.0</coordinates>
            </LineString>
        </Placemark>
        <Placemark id="29869">
            <name>Jalan Dr. Setiabudi</name>
            <styleUrl>#29870</styleUrl>
            <LineString id="29868">
                <coordinates>107.5943936,-6.8638479,0.0 107.5943935,-6.8639227,0.0 107.594376,-6.8640132,0.0 107.5942986,-6.8642872,0.0 107.5942475,-6.8644965,0.0 107.594221,-6.8646108,0.0 107.5941843,-6.8648198,0.0 107.5941464,-6.8650627,0.0 107.5940961,-6.8651081,0.0</coordinates>
            </LineString>
        </Placemark>
        <Placemark id="29873">
            <name>Jalan Dr. Setiabudi</name>
            <styleUrl>#29874</styleUrl>
            <LineString id="29872">
                <coordinates>107.6042611,-6.884503,0.0 107.6042802,-6.8845469,0.0</coordinates>
            </LineString>
        </Placemark>
        <Placemark id="29877">
            <name>Jalan Dr. Setiabudi</name>
            <styleUrl>#29878</styleUrl>
            <LineString id="29876">
                <coordinates>107.6042213,-6.8844117,0.0 107.6042611,-6.884503,0.0</coordinates>
            </LineString>
        </Placemark>
    </Document>
</kml>
