<?xml version="1.0" encoding="UTF-8"?>
<kml xmlns="http://www.opengis.net/kml/2.2" xmlns:gx="http://www.google.com/kml/ext/2.2">
    <Document id="30155">
        <Style id="30161">
            <IconStyle id="30162">
                <colorMode>normal</colorMode>
                <scale>1</scale>
                <heading>0</heading>
                <Icon id="30163">
                    <href>http://maps.google.com/mapfiles/kml/pushpin/ylw-pushpin.png</href>
                </Icon>
            </IconStyle>
        </Style>
        <Style id="30166">
            <IconStyle id="30167">
                <colorMode>normal</colorMode>
                <scale>1</scale>
                <heading>0</heading>
                <Icon id="30168">
                    <href>http://maps.google.com/mapfiles/kml/pushpin/ylw-pushpin.png</href>
                </Icon>
            </IconStyle>
        </Style>
        <Style id="30171">
            <LineStyle id="30172">
                <color>ff356615</color>
                <colorMode>normal</colorMode>
                <width>4</width>
            </LineStyle>
        </Style>
        <Style id="30175">
            <LineStyle id="30176">
                <color>ff356615</color>
                <colorMode>normal</colorMode>
                <width>4</width>
            </LineStyle>
        </Style>
        <Style id="30179">
            <LineStyle id="30180">
                <color>ff356615</color>
                <colorMode>normal</colorMode>
                <width>4</width>
            </LineStyle>
        </Style>
        <Style id="30183">
            <LineStyle id="30184">
                <color>ff356615</color>
                <colorMode>normal</colorMode>
                <width>4</width>
            </LineStyle>
        </Style>
        <Style id="30187">
            <LineStyle id="30188">
                <color>ff356615</color>
                <colorMode>normal</colorMode>
                <width>4</width>
            </LineStyle>
        </Style>
        <Style id="30191">
            <LineStyle id="30192">
                <color>ff356615</color>
                <colorMode>normal</colorMode>
                <width>4</width>
            </LineStyle>
        </Style>
        <Style id="30195">
            <LineStyle id="30196">
                <color>ff356615</color>
                <colorMode>normal</colorMode>
                <width>4</width>
            </LineStyle>
        </Style>
        <Style id="30199">
            <LineStyle id="30200">
                <color>ff356615</color>
                <colorMode>normal</colorMode>
                <width>4</width>
            </LineStyle>
        </Style>
        <Style id="30203">
            <LineStyle id="30204">
                <color>ff356615</color>
                <colorMode>normal</colorMode>
                <width>4</width>
            </LineStyle>
        </Style>
        <Style id="30207">
            <LineStyle id="30208">
                <color>ff356615</color>
                <colorMode>normal</colorMode>
                <width>4</width>
            </LineStyle>
        </Style>
        <Style id="30211">
            <LineStyle id="30212">
                <color>ff356615</color>
                <colorMode>normal</colorMode>
                <width>4</width>
            </LineStyle>
        </Style>
        <Style id="30215">
            <LineStyle id="30216">
                <color>ff356615</color>
                <colorMode>normal</colorMode>
                <width>4</width>
            </LineStyle>
        </Style>
        <Style id="30219">
            <LineStyle id="30220">
                <color>ff356615</color>
                <colorMode>normal</colorMode>
                <width>4</width>
            </LineStyle>
        </Style>
        <Style id="30223">
            <LineStyle id="30224">
                <color>ff356615</color>
                <colorMode>normal</colorMode>
                <width>4</width>
            </LineStyle>
        </Style>
        <Style id="30227">
            <LineStyle id="30228">
                <color>ff356615</color>
                <colorMode>normal</colorMode>
                <width>4</width>
            </LineStyle>
        </Style>
        <Style id="30231">
            <LineStyle id="30232">
                <color>ff356615</color>
                <colorMode>normal</colorMode>
                <width>4</width>
            </LineStyle>
        </Style>
        <Style id="30235">
            <LineStyle id="30236">
                <color>ff356615</color>
                <colorMode>normal</colorMode>
                <width>4</width>
            </LineStyle>
        </Style>
        <Style id="30239">
            <LineStyle id="30240">
                <color>ff356615</color>
                <colorMode>normal</colorMode>
                <width>4</width>
            </LineStyle>
        </Style>
        <Style id="30243">
            <LineStyle id="30244">
                <color>ff356615</color>
                <colorMode>normal</colorMode>
                <width>4</width>
            </LineStyle>
        </Style>
        <Style id="30247">
            <LineStyle id="30248">
                <color>ff356615</color>
                <colorMode>normal</colorMode>
                <width>4</width>
            </LineStyle>
        </Style>
        <Style id="30251">
            <LineStyle id="30252">
                <color>ff356615</color>
                <colorMode>normal</colorMode>
                <width>4</width>
            </LineStyle>
        </Style>
        <Style id="30255">
            <LineStyle id="30256">
                <color>ff356615</color>
                <colorMode>normal</colorMode>
                <width>4</width>
            </LineStyle>
        </Style>
        <Style id="30259">
            <LineStyle id="30260">
                <color>ff356615</color>
                <colorMode>normal</colorMode>
                <width>4</width>
            </LineStyle>
        </Style>
        <Style id="30263">
            <LineStyle id="30264">
                <color>ff356615</color>
                <colorMode>normal</colorMode>
                <width>4</width>
            </LineStyle>
        </Style>
        <Style id="30267">
            <LineStyle id="30268">
                <color>ff356615</color>
                <colorMode>normal</colorMode>
                <width>4</width>
            </LineStyle>
        </Style>
        <Style id="30271">
            <LineStyle id="30272">
                <color>ff356615</color>
                <colorMode>normal</colorMode>
                <width>4</width>
            </LineStyle>
        </Style>
        <Style id="30275">
            <LineStyle id="30276">
                <color>ff356615</color>
                <colorMode>normal</colorMode>
                <width>4</width>
            </LineStyle>
        </Style>
        <Style id="30279">
            <LineStyle id="30280">
                <color>ff356615</color>
                <colorMode>normal</colorMode>
                <width>4</width>
            </LineStyle>
        </Style>
        <Style id="30283">
            <LineStyle id="30284">
                <color>ff356615</color>
                <colorMode>normal</colorMode>
                <width>4</width>
            </LineStyle>
        </Style>
        <Style id="30287">
            <LineStyle id="30288">
                <color>ff356615</color>
                <colorMode>normal</colorMode>
                <width>4</width>
            </LineStyle>
        </Style>
        <Style id="30291">
            <LineStyle id="30292">
                <color>ff356615</color>
                <colorMode>normal</colorMode>
                <width>4</width>
            </LineStyle>
        </Style>
        <Style id="30295">
            <LineStyle id="30296">
                <color>ff356615</color>
                <colorMode>normal</colorMode>
                <width>4</width>
            </LineStyle>
        </Style>
        <Style id="30299">
            <LineStyle id="30300">
                <color>ff356615</color>
                <colorMode>normal</colorMode>
                <width>4</width>
            </LineStyle>
        </Style>
        <Style id="30303">
            <LineStyle id="30304">
                <color>ff356615</color>
                <colorMode>normal</colorMode>
                <width>4</width>
            </LineStyle>
        </Style>
        <Style id="30307">
            <LineStyle id="30308">
                <color>ff356615</color>
                <colorMode>normal</colorMode>
                <width>4</width>
            </LineStyle>
        </Style>
        <Style id="30311">
            <LineStyle id="30312">
                <color>ff356615</color>
                <colorMode>normal</colorMode>
                <width>4</width>
            </LineStyle>
        </Style>
        <Style id="30315">
            <LineStyle id="30316">
                <color>ff356615</color>
                <colorMode>normal</colorMode>
                <width>4</width>
            </LineStyle>
        </Style>
        <Style id="30319">
            <LineStyle id="30320">
                <color>ff356615</color>
                <colorMode>normal</colorMode>
                <width>4</width>
            </LineStyle>
        </Style>
        <Style id="30323">
            <LineStyle id="30324">
                <color>ff356615</color>
                <colorMode>normal</colorMode>
                <width>4</width>
            </LineStyle>
        </Style>
        <Style id="30327">
            <LineStyle id="30328">
                <color>ff356615</color>
                <colorMode>normal</colorMode>
                <width>4</width>
            </LineStyle>
        </Style>
        <Style id="30331">
            <LineStyle id="30332">
                <color>ff356615</color>
                <colorMode>normal</colorMode>
                <width>4</width>
            </LineStyle>
        </Style>
        <Style id="30335">
            <LineStyle id="30336">
                <color>ff356615</color>
                <colorMode>normal</colorMode>
                <width>4</width>
            </LineStyle>
        </Style>
        <Style id="30339">
            <LineStyle id="30340">
                <color>ff356615</color>
                <colorMode>normal</colorMode>
                <width>4</width>
            </LineStyle>
        </Style>
        <Style id="30343">
            <LineStyle id="30344">
                <color>ff356615</color>
                <colorMode>normal</colorMode>
                <width>4</width>
            </LineStyle>
        </Style>
        <Style id="30347">
            <LineStyle id="30348">
                <color>ff356615</color>
                <colorMode>normal</colorMode>
                <width>4</width>
            </LineStyle>
        </Style>
        <Style id="30351">
            <LineStyle id="30352">
                <color>ff356615</color>
                <colorMode>normal</colorMode>
                <width>4</width>
            </LineStyle>
        </Style>
        <Style id="30355">
            <LineStyle id="30356">
                <color>ff356615</color>
                <colorMode>normal</colorMode>
                <width>4</width>
            </LineStyle>
        </Style>
        <Style id="30359">
            <LineStyle id="30360">
                <color>ff356615</color>
                <colorMode>normal</colorMode>
                <width>4</width>
            </LineStyle>
        </Style>
        <Style id="30363">
            <LineStyle id="30364">
                <color>ff356615</color>
                <colorMode>normal</colorMode>
                <width>4</width>
            </LineStyle>
        </Style>
        <Style id="30367">
            <LineStyle id="30368">
                <color>ff356615</color>
                <colorMode>normal</colorMode>
                <width>4</width>
            </LineStyle>
        </Style>
        <Style id="30371">
            <LineStyle id="30372">
                <color>ff356615</color>
                <colorMode>normal</colorMode>
                <width>4</width>
            </LineStyle>
        </Style>
        <Style id="30375">
            <LineStyle id="30376">
                <color>ff356615</color>
                <colorMode>normal</colorMode>
                <width>4</width>
            </LineStyle>
        </Style>
        <Style id="30379">
            <LineStyle id="30380">
                <color>ff356615</color>
                <colorMode>normal</colorMode>
                <width>4</width>
            </LineStyle>
        </Style>
        <Style id="30383">
            <LineStyle id="30384">
                <color>ff356615</color>
                <colorMode>normal</colorMode>
                <width>4</width>
            </LineStyle>
        </Style>
        <Style id="30387">
            <LineStyle id="30388">
                <color>ff356615</color>
                <colorMode>normal</colorMode>
                <width>4</width>
            </LineStyle>
        </Style>
        <Style id="30391">
            <LineStyle id="30392">
                <color>ff356615</color>
                <colorMode>normal</colorMode>
                <width>4</width>
            </LineStyle>
        </Style>
        <Style id="30395">
            <LineStyle id="30396">
                <color>ff356615</color>
                <colorMode>normal</colorMode>
                <width>4</width>
            </LineStyle>
        </Style>
        <Style id="30399">
            <LineStyle id="30400">
                <color>ff356615</color>
                <colorMode>normal</colorMode>
                <width>4</width>
            </LineStyle>
        </Style>
        <Style id="30403">
            <LineStyle id="30404">
                <color>ff356615</color>
                <colorMode>normal</colorMode>
                <width>4</width>
            </LineStyle>
        </Style>
        <Style id="30407">
            <LineStyle id="30408">
                <color>ff356615</color>
                <colorMode>normal</colorMode>
                <width>4</width>
            </LineStyle>
        </Style>
        <Style id="30411">
            <LineStyle id="30412">
                <color>ff356615</color>
                <colorMode>normal</colorMode>
                <width>4</width>
            </LineStyle>
        </Style>
        <Style id="30415">
            <LineStyle id="30416">
                <color>ff356615</color>
                <colorMode>normal</colorMode>
                <width>4</width>
            </LineStyle>
        </Style>
        <Style id="30419">
            <LineStyle id="30420">
                <color>ff356615</color>
                <colorMode>normal</colorMode>
                <width>4</width>
            </LineStyle>
        </Style>
        <Style id="30423">
            <LineStyle id="30424">
                <color>ff356615</color>
                <colorMode>normal</colorMode>
                <width>4</width>
            </LineStyle>
        </Style>
        <Style id="30427">
            <LineStyle id="30428">
                <color>ff356615</color>
                <colorMode>normal</colorMode>
                <width>4</width>
            </LineStyle>
        </Style>
        <Style id="30431">
            <LineStyle id="30432">
                <color>ff356615</color>
                <colorMode>normal</colorMode>
                <width>4</width>
            </LineStyle>
        </Style>
        <Style id="30435">
            <LineStyle id="30436">
                <color>ff356615</color>
                <colorMode>normal</colorMode>
                <width>4</width>
            </LineStyle>
        </Style>
        <Style id="30439">
            <LineStyle id="30440">
                <color>ff356615</color>
                <colorMode>normal</colorMode>
                <width>4</width>
            </LineStyle>
        </Style>
        <Style id="30443">
            <LineStyle id="30444">
                <color>ff356615</color>
                <colorMode>normal</colorMode>
                <width>4</width>
            </LineStyle>
        </Style>
        <Style id="30447">
            <LineStyle id="30448">
                <color>ff356615</color>
                <colorMode>normal</colorMode>
                <width>4</width>
            </LineStyle>
        </Style>
        <Style id="30451">
            <LineStyle id="30452">
                <color>ff356615</color>
                <colorMode>normal</colorMode>
                <width>4</width>
            </LineStyle>
        </Style>
        <Style id="30455">
            <LineStyle id="30456">
                <color>ff356615</color>
                <colorMode>normal</colorMode>
                <width>4</width>
            </LineStyle>
        </Style>
        <Style id="30459">
            <LineStyle id="30460">
                <color>ff356615</color>
                <colorMode>normal</colorMode>
                <width>4</width>
            </LineStyle>
        </Style>
        <Style id="30463">
            <LineStyle id="30464">
                <color>ff356615</color>
                <colorMode>normal</colorMode>
                <width>4</width>
            </LineStyle>
        </Style>
        <Style id="30467">
            <LineStyle id="30468">
                <color>ff356615</color>
                <colorMode>normal</colorMode>
                <width>4</width>
            </LineStyle>
        </Style>
        <Style id="30471">
            <LineStyle id="30472">
                <color>ff356615</color>
                <colorMode>normal</colorMode>
                <width>4</width>
            </LineStyle>
        </Style>
        <Style id="30475">
            <LineStyle id="30476">
                <color>ff356615</color>
                <colorMode>normal</colorMode>
                <width>4</width>
            </LineStyle>
        </Style>
        <Style id="30479">
            <LineStyle id="30480">
                <color>ff356615</color>
                <colorMode>normal</colorMode>
                <width>4</width>
            </LineStyle>
        </Style>
        <Style id="30483">
            <LineStyle id="30484">
                <color>ff356615</color>
                <colorMode>normal</colorMode>
                <width>4</width>
            </LineStyle>
        </Style>
        <Style id="30487">
            <LineStyle id="30488">
                <color>ff356615</color>
                <colorMode>normal</colorMode>
                <width>4</width>
            </LineStyle>
        </Style>
        <Style id="30491">
            <LineStyle id="30492">
                <color>ff356615</color>
                <colorMode>normal</colorMode>
                <width>4</width>
            </LineStyle>
        </Style>
        <Style id="30495">
            <LineStyle id="30496">
                <color>ff356615</color>
                <colorMode>normal</colorMode>
                <width>4</width>
            </LineStyle>
        </Style>
        <Style id="30499">
            <LineStyle id="30500">
                <color>ff356615</color>
                <colorMode>normal</colorMode>
                <width>4</width>
            </LineStyle>
        </Style>
        <Style id="30503">
            <LineStyle id="30504">
                <color>ff356615</color>
                <colorMode>normal</colorMode>
                <width>4</width>
            </LineStyle>
        </Style>
        <Style id="30507">
            <LineStyle id="30508">
                <color>ff356615</color>
                <colorMode>normal</colorMode>
                <width>4</width>
            </LineStyle>
        </Style>
        <Style id="30511">
            <LineStyle id="30512">
                <color>ff356615</color>
                <colorMode>normal</colorMode>
                <width>4</width>
            </LineStyle>
        </Style>
        <Style id="30515">
            <LineStyle id="30516">
                <color>ff356615</color>
                <colorMode>normal</colorMode>
                <width>4</width>
            </LineStyle>
        </Style>
        <Style id="30519">
            <LineStyle id="30520">
                <color>ff356615</color>
                <colorMode>normal</colorMode>
                <width>4</width>
            </LineStyle>
        </Style>
        <Style id="30523">
            <LineStyle id="30524">
                <color>ff356615</color>
                <colorMode>normal</colorMode>
                <width>4</width>
            </LineStyle>
        </Style>
        <Style id="30527">
            <LineStyle id="30528">
                <color>ff356615</color>
                <colorMode>normal</colorMode>
                <width>4</width>
            </LineStyle>
        </Style>
        <Style id="30531">
            <LineStyle id="30532">
                <color>ff356615</color>
                <colorMode>normal</colorMode>
                <width>4</width>
            </LineStyle>
        </Style>
        <Style id="30535">
            <LineStyle id="30536">
                <color>ff356615</color>
                <colorMode>normal</colorMode>
                <width>4</width>
            </LineStyle>
        </Style>
        <Style id="30539">
            <LineStyle id="30540">
                <color>ff356615</color>
                <colorMode>normal</colorMode>
                <width>4</width>
            </LineStyle>
        </Style>
        <Style id="30543">
            <LineStyle id="30544">
                <color>ff356615</color>
                <colorMode>normal</colorMode>
                <width>4</width>
            </LineStyle>
        </Style>
        <Style id="30547">
            <LineStyle id="30548">
                <color>ff356615</color>
                <colorMode>normal</colorMode>
                <width>4</width>
            </LineStyle>
        </Style>
        <Style id="30551">
            <LineStyle id="30552">
                <color>ff356615</color>
                <colorMode>normal</colorMode>
                <width>4</width>
            </LineStyle>
        </Style>
        <Style id="30555">
            <LineStyle id="30556">
                <color>ff356615</color>
                <colorMode>normal</colorMode>
                <width>4</width>
            </LineStyle>
        </Style>
        <Style id="30559">
            <LineStyle id="30560">
                <color>ff356615</color>
                <colorMode>normal</colorMode>
                <width>4</width>
            </LineStyle>
        </Style>
        <Style id="30563">
            <LineStyle id="30564">
                <color>ff356615</color>
                <colorMode>normal</colorMode>
                <width>4</width>
            </LineStyle>
        </Style>
        <Style id="30567">
            <LineStyle id="30568">
                <color>ff356615</color>
                <colorMode>normal</colorMode>
                <width>4</width>
            </LineStyle>
        </Style>
        <Style id="30571">
            <LineStyle id="30572">
                <color>ff356615</color>
                <colorMode>normal</colorMode>
                <width>4</width>
            </LineStyle>
        </Style>
        <Style id="30575">
            <LineStyle id="30576">
                <color>ff356615</color>
                <colorMode>normal</colorMode>
                <width>4</width>
            </LineStyle>
        </Style>
        <Style id="30579">
            <LineStyle id="30580">
                <color>ff356615</color>
                <colorMode>normal</colorMode>
                <width>4</width>
            </LineStyle>
        </Style>
        <Style id="30583">
            <LineStyle id="30584">
                <color>ff356615</color>
                <colorMode>normal</colorMode>
                <width>4</width>
            </LineStyle>
        </Style>
        <Style id="30587">
            <LineStyle id="30588">
                <color>ff356615</color>
                <colorMode>normal</colorMode>
                <width>4</width>
            </LineStyle>
        </Style>
        <Style id="30591">
            <LineStyle id="30592">
                <color>ff356615</color>
                <colorMode>normal</colorMode>
                <width>4</width>
            </LineStyle>
        </Style>
        <Style id="30595">
            <LineStyle id="30596">
                <color>ff356615</color>
                <colorMode>normal</colorMode>
                <width>4</width>
            </LineStyle>
        </Style>
        <Style id="30599">
            <LineStyle id="30600">
                <color>ff356615</color>
                <colorMode>normal</colorMode>
                <width>4</width>
            </LineStyle>
        </Style>
        <Style id="30603">
            <LineStyle id="30604">
                <color>ff356615</color>
                <colorMode>normal</colorMode>
                <width>4</width>
            </LineStyle>
        </Style>
        <Style id="30607">
            <LineStyle id="30608">
                <color>ff356615</color>
                <colorMode>normal</colorMode>
                <width>4</width>
            </LineStyle>
        </Style>
        <Style id="30611">
            <LineStyle id="30612">
                <color>ff356615</color>
                <colorMode>normal</colorMode>
                <width>4</width>
            </LineStyle>
        </Style>
        <Style id="30615">
            <LineStyle id="30616">
                <color>ff356615</color>
                <colorMode>normal</colorMode>
                <width>4</width>
            </LineStyle>
        </Style>
        <Style id="30619">
            <LineStyle id="30620">
                <color>ff356615</color>
                <colorMode>normal</colorMode>
                <width>4</width>
            </LineStyle>
        </Style>
        <Style id="30623">
            <LineStyle id="30624">
                <color>ff356615</color>
                <colorMode>normal</colorMode>
                <width>4</width>
            </LineStyle>
        </Style>
        <Style id="30627">
            <LineStyle id="30628">
                <color>ff356615</color>
                <colorMode>normal</colorMode>
                <width>4</width>
            </LineStyle>
        </Style>
        <Style id="30631">
            <LineStyle id="30632">
                <color>ff356615</color>
                <colorMode>normal</colorMode>
                <width>4</width>
            </LineStyle>
        </Style>
        <Style id="30635">
            <LineStyle id="30636">
                <color>ff356615</color>
                <colorMode>normal</colorMode>
                <width>4</width>
            </LineStyle>
        </Style>
        <Style id="30639">
            <LineStyle id="30640">
                <color>ff356615</color>
                <colorMode>normal</colorMode>
                <width>4</width>
            </LineStyle>
        </Style>
        <ExtendedData>
            <Data name="route-name">
                <value>05: Cicaheum → Ledeng</value>
            </Data>
            <Data name="source">
                <value>Transport for Bandung</value>
            </Data>
        </ExtendedData>
        <Placemark id="30160">
            <name>Terminal Angkot Cicaheum</name>
            <styleUrl>#30161</styleUrl>
            <Point id="30159">
                <coordinates>107.6562486,-6.9024172,0.0</coordinates>
            </Point>
        </Placemark>
        <Placemark id="30165">
            <name>Terminal Ledeng</name>
            <styleUrl>#30166</styleUrl>
            <Point id="30164">
                <coordinates>107.5951942,-6.85933,0.0</coordinates>
            </Point>
        </Placemark>
        <Placemark id="30170">
            <name>Jalan Sulanjana</name>
            <styleUrl>#30171</styleUrl>
            <LineString id="30169">
                <coordinates>107.6099669,-6.899504,0.0 107.6099959,-6.899509,0.0 107.6103008,-6.8995761,0.0 107.6105271,-6.8996458,0.0 107.6106103,-6.8996659,0.0 107.6106935,-6.8996859,0.0 107.611925,-6.8999352,0.0 107.6121864,-6.9000327,0.0 107.6122346,-6.9000541,0.0 107.6123733,-6.9001249,0.0 107.6124203,-6.9001524,0.0 107.6125313,-6.9002122,0.0</coordinates>
            </LineString>
        </Placemark>
        <Placemark id="30174">
            <name>Jalan Cihampelas</name>
            <styleUrl>#30175</styleUrl>
            <LineString id="30173">
                <coordinates>107.6044986,-6.8850612,0.0 107.6044348,-6.8853378,0.0 107.6043521,-6.8856962,0.0 107.6043346,-6.8857678,0.0 107.6042485,-6.8861202,0.0 107.6042216,-6.8862318,0.0 107.6041367,-6.886589,0.0 107.6041137,-6.8866842,0.0 107.6040712,-6.8868599,0.0 107.6040539,-6.8869313,0.0 107.6040408,-6.8869867,0.0 107.6039804,-6.8872428,0.0 107.6039534,-6.8874376,0.0 107.6039484,-6.8877565,0.0</coordinates>
            </LineString>
        </Placemark>
        <Placemark id="30178">
            <name>Jalan Diponegoro</name>
            <styleUrl>#30179</styleUrl>
            <LineString id="30177">
                <coordinates>107.6126165,-6.9002542,0.0 107.6127382,-6.9003059,0.0 107.612782,-6.900322,0.0 107.613037,-6.9003864,0.0 107.6131854,-6.9004134,0.0 107.6132475,-6.9004224,0.0 107.613349,-6.9004397,0.0 107.6134712,-6.9004601,0.0</coordinates>
            </LineString>
        </Placemark>
        <Placemark id="30182">
            <name>Jalan Sukajadi</name>
            <styleUrl>#30183</styleUrl>
            <LineString id="30181">
                <coordinates>107.5967323,-6.8873957,0.0 107.5967238,-6.8872476,0.0 107.5967027,-6.8868139,0.0 107.5967016,-6.8867916,0.0</coordinates>
            </LineString>
        </Placemark>
        <Placemark id="30186">
            <name>Jalan Sukajadi</name>
            <styleUrl>#30187</styleUrl>
            <LineString id="30185">
                <coordinates>107.5961957,-6.8768743,0.0 107.5961919,-6.8768247,0.0 107.5961498,-6.8762747,0.0 107.5961192,-6.8758667,0.0 107.5960887,-6.8756034,0.0 107.5960697,-6.8754397,0.0 107.5960058,-6.8749813,0.0 107.595994,-6.8749009,0.0 107.5959746,-6.8747745,0.0 107.5958725,-6.8743267,0.0 107.5958215,-6.8741565,0.0 107.5958267,-6.874066,0.0</coordinates>
            </LineString>
        </Placemark>
        <Placemark id="30190">
            <name>Jalan Tamansari</name>
            <styleUrl>#30191</styleUrl>
            <LineString id="30189">
                <coordinates>107.608451,-6.8938318,0.0 107.60846,-6.8936532,0.0 107.6084558,-6.8936249,0.0 107.608426,-6.8935213,0.0 107.6083698,-6.8933258,0.0 107.6082212,-6.8928049,0.0 107.6081093,-6.8923018,0.0 107.6080495,-6.8919857,0.0 107.6080235,-6.8916304,0.0 107.6080495,-6.8905569,0.0 107.6080694,-6.8898018,0.0 107.6080711,-6.8897574,0.0 107.6081,-6.8890127,0.0 107.6080995,-6.8888308,0.0 107.6080995,-6.8888141,0.0 107.6080994,-6.8887943,0.0 107.6080994,-6.8887783,0.0 107.6081,-6.8887636,0.0 107.6081192,-6.8883781,0.0 107.6081595,-6.8881431,0.0 107.6082549,-6.887912,0.0 107.6083288,-6.8878339,0.0 107.6084586,-6.8877649,0.0 107.609232,-6.8877401,0.0 107.6093376,-6.8877372,0.0 107.6099421,-6.8877204,0.0 107.6103013,-6.8876989,0.0 107.6103445,-6.8876924,0.0 107.6104398,-6.8876632,0.0 107.610522,-6.8876297,0.0 107.6113304,-6.8872945,0.0</coordinates>
            </LineString>
        </Placemark>
        <Placemark id="30194">
            <name>Jalan Jurang</name>
            <styleUrl>#30195</styleUrl>
            <LineString id="30193">
                <coordinates>107.5998881,-6.8900645,0.0 107.6001927,-6.8892748,0.0 107.6004083,-6.8887161,0.0 107.6004572,-6.8885822,0.0 107.6005,-6.8883194,0.0 107.6005162,-6.888101,0.0 107.6005481,-6.8875561,0.0 107.6005647,-6.8873092,0.0</coordinates>
            </LineString>
        </Placemark>
        <Placemark id="30198">
            <name>Jalan Lamping</name>
            <styleUrl>#30199</styleUrl>
            <LineString id="30197">
                <coordinates>107.601777,-6.887493,0.0 107.6016358,-6.8875138,0.0 107.6014675,-6.8875344,0.0 107.601267,-6.8875212,0.0 107.6005647,-6.8873092,0.0</coordinates>
            </LineString>
        </Placemark>
        <Placemark id="30202">
            <name>Jalan Sukamaju</name>
            <styleUrl>#30203</styleUrl>
            <LineString id="30201">
                <coordinates>107.5998881,-6.8900645,0.0 107.599301,-6.8898363,0.0 107.5992335,-6.8898068,0.0 107.5991517,-6.889768,0.0 107.5989654,-6.8896709,0.0 107.5987838,-6.8895599,0.0 107.5985842,-6.8894324,0.0 107.5984265,-6.8893317,0.0 107.5982945,-6.8892233,0.0 107.5975019,-6.8885472,0.0</coordinates>
            </LineString>
        </Placemark>
        <Placemark id="30206">
            <name>Jalan Lamping</name>
            <styleUrl>#30207</styleUrl>
            <LineString id="30205">
                <coordinates>107.6039484,-6.8877565,0.0 107.6037213,-6.8878237,0.0 107.6034826,-6.8878677,0.0 107.6033257,-6.887893,0.0 107.6031661,-6.8878916,0.0 107.603036,-6.887881,0.0 107.6027195,-6.8878237,0.0 107.6025251,-6.8878024,0.0 107.6023595,-6.8878004,0.0 107.602295,-6.8878072,0.0 107.6022349,-6.8878097,0.0</coordinates>
            </LineString>
        </Placemark>
        <Placemark id="30210">
            <name>Jalan PH. H. Mustofa</name>
            <styleUrl>#30211</styleUrl>
            <LineString id="30209">
                <coordinates>107.6370818,-6.8984481,0.0 107.637183,-6.8984713,0.0 107.6373036,-6.8984993,0.0 107.63734,-6.8985077,0.0 107.6374067,-6.8985235,0.0 107.6375247,-6.8985515,0.0 107.6376569,-6.8985829,0.0 107.6378565,-6.8986302,0.0 107.6379062,-6.898642,0.0 107.6379805,-6.8986596,0.0 107.6380614,-6.8986788,0.0 107.6382004,-6.8987117,0.0 107.6383016,-6.8987357,0.0 107.6385967,-6.8988043,0.0 107.6389496,-6.8988893,0.0 107.6392578,-6.8989624,0.0 107.6394338,-6.8990042,0.0 107.639528,-6.8990264,0.0 107.639689,-6.8990635,0.0 107.6397992,-6.8990899,0.0 107.6398962,-6.8991138,0.0 107.6399762,-6.8991322,0.0 107.640051,-6.8991472,0.0 107.6404383,-6.8992417,0.0 107.6405323,-6.8992646,0.0 107.6407134,-6.8993075,0.0 107.6407662,-6.89932,0.0 107.6408435,-6.8993384,0.0 107.6412764,-6.899441,0.0 107.641347,-6.8994578,0.0 107.6415516,-6.8995076,0.0 107.6416085,-6.8995205,0.0 107.6416794,-6.8995366,0.0 107.6416949,-6.8995403,0.0 107.6417385,-6.8995506,0.0 107.6417839,-6.8995613,0.0</coordinates>
            </LineString>
        </Placemark>
        <Placemark id="30214">
            <name>Jalan Siliwangi</name>
            <styleUrl>#30215</styleUrl>
            <LineString id="30213">
                <coordinates>107.6056014,-6.8835569,0.0 107.6055332,-6.8835045,0.0 107.6054534,-6.883418,0.0 107.6054157,-6.8833846,0.0 107.6053401,-6.8833426,0.0 107.6052627,-6.8833281,0.0 107.6051401,-6.8833246,0.0 107.6050556,-6.8833278,0.0 107.6049833,-6.8833306,0.0</coordinates>
            </LineString>
        </Placemark>
        <Placemark id="30218">
            <name>Jalan Tamansari</name>
            <styleUrl>#30219</styleUrl>
            <LineString id="30217">
                <coordinates>107.6116944,-6.8862782,0.0 107.6116791,-6.8858918,0.0 107.6116314,-6.8855076,0.0 107.6116067,-6.8853721,0.0 107.6115779,-6.8852374,0.0 107.6115555,-6.8851472,0.0 107.6115374,-6.8850743,0.0 107.6115252,-6.88503,0.0</coordinates>
            </LineString>
        </Placemark>
        <Placemark id="30222">
            <name>Jalan PH. H. Mustofa</name>
            <styleUrl>#30223</styleUrl>
            <LineString id="30221">
                <coordinates>107.643667,-6.8999883,0.0 107.6437562,-6.9000026,0.0</coordinates>
            </LineString>
        </Placemark>
        <Placemark id="30226">
            <name>Jalan PH. H. Mustofa</name>
            <styleUrl>#30227</styleUrl>
            <LineString id="30225">
                <coordinates>107.6437562,-6.9000026,0.0 107.6437845,-6.9000071,0.0 107.6438196,-6.9000127,0.0</coordinates>
            </LineString>
        </Placemark>
        <Placemark id="30230">
            <name>Jalan Sukajadi</name>
            <styleUrl>#30231</styleUrl>
            <LineString id="30229">
                <coordinates>107.5962548,-6.8783299,0.0 107.596246,-6.8780655,0.0 107.5962436,-6.8779934,0.0 107.5962315,-6.8776265,0.0 107.5962243,-6.8774107,0.0</coordinates>
            </LineString>
        </Placemark>
        <Placemark id="30234">
            <name>Jalan Sukajadi</name>
            <styleUrl>#30235</styleUrl>
            <LineString id="30233">
                <coordinates>107.5965234,-6.8840238,0.0 107.5965088,-6.8836453,0.0 107.5965062,-6.8835624,0.0 107.596503,-6.8834688,0.0 107.5964741,-6.8826331,0.0 107.5964702,-6.8825274,0.0 107.5964601,-6.8821498,0.0 107.5964542,-6.8820032,0.0 107.596444,-6.8817861,0.0 107.5964302,-6.8814833,0.0 107.5964257,-6.8813836,0.0 107.5964243,-6.8813611,0.0 107.5963984,-6.8809341,0.0</coordinates>
            </LineString>
        </Placemark>
        <Placemark id="30238">
            <name>Jalan Siliwangi</name>
            <styleUrl>#30239</styleUrl>
            <LineString id="30237">
                <coordinates>107.6049833,-6.8833306,0.0 107.6049259,-6.8833663,0.0</coordinates>
            </LineString>
        </Placemark>
        <Placemark id="30242">
            <name>Jalan Surapati</name>
            <styleUrl>#30243</styleUrl>
            <LineString id="30241">
                <coordinates>107.6167125,-6.8991863,0.0 107.6166576,-6.8991786,0.0</coordinates>
            </LineString>
        </Placemark>
        <Placemark id="30246">
            <name>Jalan Tamansari</name>
            <styleUrl>#30247</styleUrl>
            <LineString id="30245">
                <coordinates>107.6096024,-6.8976029,0.0 107.6096043,-6.8975557,0.0</coordinates>
            </LineString>
        </Placemark>
        <Placemark id="30250">
            <name>Jalan Tamansari</name>
            <styleUrl>#30251</styleUrl>
            <LineString id="30249">
                <coordinates>107.609539,-6.8982797,0.0 107.6095516,-6.8981418,0.0 107.6095612,-6.898037,0.0</coordinates>
            </LineString>
        </Placemark>
        <Placemark id="30254">
            <name>Jalan Aria Jipang</name>
            <styleUrl>#30255</styleUrl>
            <LineString id="30253">
                <coordinates>107.6166576,-6.8991786,0.0 107.6165356,-6.8992206,0.0 107.616428,-6.8992677,0.0 107.6162456,-6.8994129,0.0</coordinates>
            </LineString>
        </Placemark>
        <Placemark id="30258">
            <name>Jalan Siliwangi</name>
            <styleUrl>#30259</styleUrl>
            <LineString id="30257">
                <coordinates>107.6113963,-6.8848321,0.0 107.6113446,-6.8848052,0.0 107.6112344,-6.8847532,0.0 107.6106937,-6.8845224,0.0 107.6105207,-6.8844699,0.0 107.6102659,-6.8844619,0.0 107.6099548,-6.8845045,0.0 107.6096208,-6.884582,0.0 107.6091599,-6.8847557,0.0 107.608953,-6.8848337,0.0 107.6087276,-6.8849119,0.0 107.6086777,-6.8849287,0.0 107.6086137,-6.8849345,0.0 107.6085359,-6.8849159,0.0 107.6083984,-6.8848437,0.0 107.6082242,-6.8847452,0.0 107.6080413,-6.8846429,0.0 107.6079766,-6.8846017,0.0 107.6079042,-6.8845857,0.0 107.6078245,-6.8845753,0.0 107.6077048,-6.8845833,0.0</coordinates>
            </LineString>
        </Placemark>
        <Placemark id="30262">
            <name>Jalan Diponegoro</name>
            <styleUrl>#30263</styleUrl>
            <LineString id="30261">
                <coordinates>107.6261654,-6.9011784,0.0 107.6260467,-6.9011405,0.0 107.6258837,-6.9011178,0.0 107.6256026,-6.9011027,0.0 107.6255521,-6.9011033,0.0 107.6253574,-6.9011085,0.0</coordinates>
            </LineString>
        </Placemark>
        <Placemark id="30266">
            <name>Route Segment</name>
            <styleUrl>#30267</styleUrl>
            <LineString id="30265">
                <coordinates>107.6019032,-6.8878928,0.0 107.6018435,-6.8876974,0.0 107.601777,-6.887493,0.0</coordinates>
            </LineString>
        </Placemark>
        <Placemark id="30270">
            <name>Jalan Cihampelas</name>
            <styleUrl>#30271</styleUrl>
            <LineString id="30269">
                <coordinates>107.6049259,-6.8833663,0.0 107.6048893,-6.8834678,0.0 107.6048738,-6.8835107,0.0 107.6047793,-6.8839055,0.0 107.6046925,-6.8842883,0.0 107.6046192,-6.884589,0.0 107.6045738,-6.8847525,0.0 107.6045446,-6.8848576,0.0 107.6044986,-6.8850612,0.0</coordinates>
            </LineString>
        </Placemark>
        <Placemark id="30274">
            <name>Jalan Siliwangi</name>
            <styleUrl>#30275</styleUrl>
            <LineString id="30273">
                <coordinates>107.6077048,-6.8845833,0.0 107.6073923,-6.8846118,0.0</coordinates>
            </LineString>
        </Placemark>
        <Placemark id="30278">
            <name>Jalan Siliwangi</name>
            <styleUrl>#30279</styleUrl>
            <LineString id="30277">
                <coordinates>107.6073923,-6.8846118,0.0 107.6072525,-6.8846315,0.0 107.6071679,-6.8846428,0.0 107.6071009,-6.8846521,0.0 107.6068836,-6.8846722,0.0 107.6068454,-6.8846748,0.0 107.6067435,-6.8846483,0.0 107.6065328,-6.8845462,0.0 107.6062473,-6.8843143,0.0 107.6061478,-6.8842309,0.0 107.6058912,-6.8839573,0.0 107.6057249,-6.8837247,0.0 107.6056396,-6.8836088,0.0 107.6056014,-6.8835569,0.0</coordinates>
            </LineString>
        </Placemark>
        <Placemark id="30282">
            <name>Jalan Brigjend. Katamso</name>
            <styleUrl>#30283</styleUrl>
            <LineString id="30281">
                <coordinates>107.6299279,-6.9064699,0.0 107.6300708,-6.9063971,0.0 107.6302217,-6.9063503,0.0 107.6303214,-6.9063283,0.0</coordinates>
            </LineString>
        </Placemark>
        <Placemark id="30286">
            <name>Jalan Jenderal Ahmad Yani</name>
            <styleUrl>#30287</styleUrl>
            <LineString id="30285">
                <coordinates>107.6562379,-6.9021633,0.0 107.6561678,-6.9021519,0.0 107.6560981,-6.9021454,0.0 107.6557174,-6.902134,0.0</coordinates>
            </LineString>
        </Placemark>
        <Placemark id="30290">
            <name>Jalan Pahlawan</name>
            <styleUrl>#30291</styleUrl>
            <LineString id="30289">
                <coordinates>107.6350549,-6.9019378,0.0 107.6348987,-6.9016374,0.0 107.6348128,-6.9014729,0.0 107.634484,-6.9008227,0.0 107.6343436,-6.9005363,0.0 107.6342539,-6.9003269,0.0 107.6342453,-6.9003068,0.0 107.634226,-6.9002535,0.0 107.634169,-6.9000823,0.0 107.6341191,-6.8999094,0.0 107.6340678,-6.8997079,0.0 107.6340457,-6.8996181,0.0 107.6340202,-6.8994968,0.0 107.6339954,-6.8993522,0.0 107.6339847,-6.8991547,0.0 107.6339826,-6.8991154,0.0 107.6339837,-6.8989889,0.0 107.6339842,-6.8989336,0.0 107.6339847,-6.8988729,0.0 107.6340079,-6.8985508,0.0 107.6340622,-6.8982024,0.0 107.634127,-6.8979661,0.0 107.6341816,-6.8977908,0.0</coordinates>
            </LineString>
        </Placemark>
        <Placemark id="30294">
            <name>Jalan Sentot Alibasyah</name>
            <styleUrl>#30295</styleUrl>
            <LineString id="30293">
                <coordinates>107.6192733,-6.8999367,0.0 107.6192643,-6.8995771,0.0 107.61926,-6.89948,0.0 107.6192595,-6.8994625,0.0 107.6192514,-6.8994349,0.0</coordinates>
            </LineString>
        </Placemark>
        <Placemark id="30298">
            <name>Jalan Dr. Setiabudi</name>
            <styleUrl>#30299</styleUrl>
            <LineString id="30297">
                <coordinates>107.5947487,-6.8601046,0.0 107.5947415,-6.8601534,0.0 107.5947299,-6.8602278,0.0 107.5946876,-6.860499,0.0 107.5946834,-6.8605895,0.0 107.594682,-6.8607123,0.0 107.594691,-6.8607829,0.0 107.5947113,-6.8608802,0.0 107.5947543,-6.8609845,0.0 107.5947885,-6.8610543,0.0 107.5948338,-6.861136,0.0 107.5948731,-6.8611888,0.0 107.5949141,-6.8612418,0.0 107.595009,-6.861346,0.0 107.5950885,-6.8614258,0.0 107.5951733,-6.8614881,0.0 107.595248,-6.861538,0.0 107.5954158,-6.8616512,0.0 107.5955484,-6.8617416,0.0 107.5958307,-6.8619379,0.0 107.5959866,-6.8620463,0.0 107.5961672,-6.8621719,0.0 107.5961991,-6.8622073,0.0 107.5962242,-6.8622608,0.0 107.5962237,-6.8623248,0.0 107.5962141,-6.862385,0.0 107.5961999,-6.8624213,0.0 107.5960469,-6.8627747,0.0 107.5959257,-6.8629855,0.0 107.5958359,-6.8630694,0.0 107.5957803,-6.8631238,0.0 107.5957352,-6.8631536,0.0 107.5956823,-6.8631776,0.0 107.5955819,-6.8632153,0.0 107.594751,-6.8634425,0.0</coordinates>
            </LineString>
        </Placemark>
        <Placemark id="30302">
            <name>Jalan Sukajadi</name>
            <styleUrl>#30303</styleUrl>
            <LineString id="30301">
                <coordinates>107.5967016,-6.8867916,0.0 107.5964324,-6.88604,0.0 107.5964113,-6.8859394,0.0 107.5963989,-6.8858417,0.0 107.5964138,-6.8856254,0.0 107.5964457,-6.8854301,0.0 107.5965693,-6.8848932,0.0</coordinates>
            </LineString>
        </Placemark>
        <Placemark id="30306">
            <name>Jalan PH. H. Mustofa</name>
            <styleUrl>#30307</styleUrl>
            <LineString id="30305">
                <coordinates>107.6434139,-6.8999482,0.0 107.6435297,-6.8999663,0.0 107.6436124,-6.8999796,0.0 107.643667,-6.8999883,0.0</coordinates>
            </LineString>
        </Placemark>
        <Placemark id="30310">
            <name>Jalan Sukajadi</name>
            <styleUrl>#30311</styleUrl>
            <LineString id="30309">
                <coordinates>107.5965291,-6.8842065,0.0 107.5965234,-6.8840238,0.0</coordinates>
            </LineString>
        </Placemark>
        <Placemark id="30314">
            <name>Jalan Diponegoro</name>
            <styleUrl>#30315</styleUrl>
            <LineString id="30313">
                <coordinates>107.624855,-6.9011253,0.0 107.6248142,-6.9011269,0.0</coordinates>
            </LineString>
        </Placemark>
        <Placemark id="30318">
            <name>Jalan PH. H. Mustofa</name>
            <styleUrl>#30319</styleUrl>
            <LineString id="30317">
                <coordinates>107.6438196,-6.9000127,0.0 107.6439328,-6.9000256,0.0 107.643984,-6.9000314,0.0 107.6442214,-6.9000581,0.0 107.6446479,-6.9001485,0.0 107.6446782,-6.9001599,0.0 107.6448952,-6.9002413,0.0 107.6449808,-6.9002743,0.0 107.6452068,-6.9003719,0.0 107.6452442,-6.900388,0.0 107.6452841,-6.9004052,0.0 107.6453987,-6.9004547,0.0 107.6455117,-6.9005103,0.0 107.6455998,-6.9005537,0.0 107.6457674,-6.9006362,0.0 107.6458421,-6.900673,0.0 107.6461092,-6.9008033,0.0 107.6461914,-6.9008434,0.0 107.6463329,-6.9009168,0.0 107.6464296,-6.900967,0.0 107.6469046,-6.9012136,0.0 107.6469293,-6.9012264,0.0 107.6474504,-6.9014584,0.0 107.6477192,-6.901552,0.0 107.6478569,-6.9015852,0.0 107.6480152,-6.9016027,0.0 107.6481316,-6.9016115,0.0 107.6484583,-6.9016362,0.0 107.6485627,-6.9016441,0.0 107.6490533,-6.9016812,0.0 107.6491826,-6.901691,0.0 107.6497732,-6.9017359,0.0 107.6500375,-6.9017541,0.0 107.650317,-6.9017942,0.0 107.6505985,-6.9018158,0.0 107.65075,-6.9018006,0.0</coordinates>
            </LineString>
        </Placemark>
        <Placemark id="30322">
            <name>Jalan Brigjend. Katamso</name>
            <styleUrl>#30323</styleUrl>
            <LineString id="30321">
                <coordinates>107.6303214,-6.9063283,0.0 107.6303549,-6.9062732,0.0 107.6305171,-6.9060357,0.0 107.6306164,-6.9059132,0.0 107.6306329,-6.9058904,0.0 107.6312587,-6.905028,0.0 107.6316451,-6.9044669,0.0 107.6317894,-6.9042688,0.0 107.6320385,-6.9039297,0.0 107.6321582,-6.903793,0.0 107.6324558,-6.9034531,0.0 107.6329526,-6.9030314,0.0 107.6331455,-6.9029229,0.0</coordinates>
            </LineString>
        </Placemark>
        <Placemark id="30326">
            <name>Jalan Sentot Alibasyah</name>
            <styleUrl>#30327</styleUrl>
            <LineString id="30325">
                <coordinates>107.6193022,-6.9012716,0.0 107.6193024,-6.9011929,0.0</coordinates>
            </LineString>
        </Placemark>
        <Placemark id="30330">
            <name>Jalan Aria Jipang</name>
            <styleUrl>#30331</styleUrl>
            <LineString id="30329">
                <coordinates>107.6162456,-6.8994129,0.0 107.6162134,-6.8994493,0.0 107.6160568,-6.8995735,0.0 107.615847,-6.8997551,0.0 107.6156875,-6.8999054,0.0 107.6154024,-6.9002108,0.0 107.6153734,-6.9002409,0.0 107.6150711,-6.9006334,0.0</coordinates>
            </LineString>
        </Placemark>
        <Placemark id="30334">
            <name>Jalan Brigjend. Katamso</name>
            <styleUrl>#30335</styleUrl>
            <LineString id="30333">
                <coordinates>107.629845,-6.9065172,0.0 107.6299279,-6.9064699,0.0</coordinates>
            </LineString>
        </Placemark>
        <Placemark id="30338">
            <name>Jalan Supratman</name>
            <styleUrl>#30339</styleUrl>
            <LineString id="30337">
                <coordinates>107.629845,-6.9065172,0.0 107.6297558,-6.9063806,0.0 107.6296851,-6.9062724,0.0 107.6291361,-6.9054318,0.0 107.6286724,-6.9047363,0.0 107.6283588,-6.9042662,0.0 107.6283196,-6.9042087,0.0 107.6282502,-6.9041003,0.0 107.628213,-6.904045,0.0 107.6279578,-6.9036524,0.0 107.627865,-6.9035115,0.0 107.6272147,-6.9025295,0.0 107.6268259,-6.9019313,0.0 107.6265672,-6.9015367,0.0 107.6264463,-6.9013828,0.0 107.6262854,-6.901239,0.0 107.6261654,-6.9011784,0.0</coordinates>
            </LineString>
        </Placemark>
        <Placemark id="30342">
            <name>Jalan Sukajadi</name>
            <styleUrl>#30343</styleUrl>
            <LineString id="30341">
                <coordinates>107.5965693,-6.8848932,0.0 107.5965291,-6.8842065,0.0</coordinates>
            </LineString>
        </Placemark>
        <Placemark id="30346">
            <name>Jalan Surapati</name>
            <styleUrl>#30347</styleUrl>
            <LineString id="30345">
                <coordinates>107.6191372,-6.8993236,0.0 107.6190846,-6.8993251,0.0 107.618152,-6.8993732,0.0 107.6180165,-6.8993687,0.0 107.6176554,-6.8993298,0.0 107.6168232,-6.8991861,0.0 107.6167125,-6.8991863,0.0</coordinates>
            </LineString>
        </Placemark>
        <Placemark id="30350">
            <name>Jalan PH. H. Mustofa</name>
            <styleUrl>#30351</styleUrl>
            <LineString id="30349">
                <coordinates>107.6508611,-6.9018087,0.0 107.6511076,-6.9018211,0.0 107.6512496,-6.9018282,0.0 107.6514575,-6.9018387,0.0 107.6521919,-6.901873,0.0 107.6522785,-6.9018762,0.0 107.6525276,-6.9018908,0.0 107.6526167,-6.9018971,0.0 107.6528084,-6.9019067,0.0</coordinates>
            </LineString>
        </Placemark>
        <Placemark id="30354">
            <name>Jalan PH. H. Mustofa</name>
            <styleUrl>#30355</styleUrl>
            <LineString id="30353">
                <coordinates>107.6550496,-6.9021051,0.0 107.6548848,-6.9020918,0.0 107.6544663,-6.902058,0.0 107.6544249,-6.9020547,0.0 107.6539164,-6.9020071,0.0 107.6536574,-6.901985,0.0 107.6535575,-6.9019799,0.0 107.653422,-6.9019707,0.0 107.6532778,-6.9019616,0.0 107.6531598,-6.9019541,0.0 107.6531268,-6.901952,0.0 107.6529794,-6.9019446,0.0 107.6528084,-6.9019067,0.0</coordinates>
            </LineString>
        </Placemark>
        <Placemark id="30358">
            <name>Jalan Brigjend. Katamso</name>
            <styleUrl>#30359</styleUrl>
            <LineString id="30357">
                <coordinates>107.6332551,-6.9028646,0.0 107.6333952,-6.9027941,0.0 107.6334718,-6.902753,0.0 107.6337467,-6.9026114,0.0 107.6338639,-6.9025511,0.0 107.6342515,-6.9023515,0.0 107.6346604,-6.9021409,0.0 107.6348067,-6.9020656,0.0 107.6350549,-6.9019378,0.0</coordinates>
            </LineString>
        </Placemark>
        <Placemark id="30362">
            <name>Jalan Brigjend. Katamso</name>
            <styleUrl>#30363</styleUrl>
            <LineString id="30361">
                <coordinates>107.6331455,-6.9029229,0.0 107.6332551,-6.9028646,0.0</coordinates>
            </LineString>
        </Placemark>
        <Placemark id="30366">
            <name>Jalan Sulanjana</name>
            <styleUrl>#30367</styleUrl>
            <LineString id="30365">
                <coordinates>107.6125313,-6.9002122,0.0 107.6126165,-6.9002542,0.0</coordinates>
            </LineString>
        </Placemark>
        <Placemark id="30370">
            <name>Jalan Tamansari</name>
            <styleUrl>#30371</styleUrl>
            <LineString id="30369">
                <coordinates>107.6096024,-6.8976029,0.0 107.6095964,-6.8977261,0.0</coordinates>
            </LineString>
        </Placemark>
        <Placemark id="30374">
            <name>Jalan Tamansari</name>
            <styleUrl>#30375</styleUrl>
            <LineString id="30373">
                <coordinates>107.6113304,-6.8872945,0.0 107.6114034,-6.8871911,0.0 107.611494,-6.8870741,0.0 107.6115384,-6.8870061,0.0</coordinates>
            </LineString>
        </Placemark>
        <Placemark id="30378">
            <name>Jalan Dr. Setiabudi</name>
            <styleUrl>#30379</styleUrl>
            <LineString id="30377">
                <coordinates>107.5940961,-6.8651081,0.0 107.5940723,-6.8653071,0.0 107.5940489,-6.8655021,0.0 107.5940436,-6.8655555,0.0 107.5939941,-6.866016,0.0 107.59398,-6.8661473,0.0 107.5939484,-6.8664124,0.0 107.5939402,-6.8664718,0.0 107.5939135,-6.8666897,0.0 107.593824,-6.8674042,0.0 107.5937888,-6.8677009,0.0 107.5937561,-6.8679333,0.0 107.5937127,-6.8682235,0.0 107.5937093,-6.8682462,0.0 107.593703,-6.868294,0.0 107.5936933,-6.8683616,0.0 107.5936592,-6.8686283,0.0 107.5936527,-6.8686846,0.0 107.5936366,-6.868816,0.0 107.5936184,-6.8689604,0.0 107.5936057,-6.869061,0.0 107.5935721,-6.8693613,0.0 107.5935632,-6.8694388,0.0 107.5935337,-6.8696955,0.0 107.5935252,-6.8697698,0.0 107.5935167,-6.8698675,0.0 107.5935096,-6.8699573,0.0 107.593506,-6.8701005,0.0 107.5935249,-6.8704256,0.0</coordinates>
            </LineString>
        </Placemark>
        <Placemark id="30382">
            <name>Jalan Sukamaju</name>
            <styleUrl>#30383</styleUrl>
            <LineString id="30381">
                <coordinates>107.597422,-6.8884826,0.0 107.5972518,-6.8883124,0.0 107.5970608,-6.8880659,0.0 107.5967526,-6.887631,0.0</coordinates>
            </LineString>
        </Placemark>
        <Placemark id="30386">
            <name>Jalan Sukajadi</name>
            <styleUrl>#30387</styleUrl>
            <LineString id="30385">
                <coordinates>107.5967526,-6.887631,0.0 107.5967323,-6.8873957,0.0</coordinates>
            </LineString>
        </Placemark>
        <Placemark id="30390">
            <name>Jalan Boscha</name>
            <styleUrl>#30391</styleUrl>
            <LineString id="30389">
                <coordinates>107.6022349,-6.8878097,0.0 107.6019032,-6.8878928,0.0</coordinates>
            </LineString>
        </Placemark>
        <Placemark id="30394">
            <name>Jalan Tamansari</name>
            <styleUrl>#30395</styleUrl>
            <LineString id="30393">
                <coordinates>107.6093542,-6.8987039,0.0 107.6093403,-6.8987437,0.0 107.6093287,-6.8987769,0.0 107.6093124,-6.8988238,0.0 107.6093049,-6.898862,0.0</coordinates>
            </LineString>
        </Placemark>
        <Placemark id="30398">
            <name>Jalan Diponegoro</name>
            <styleUrl>#30399</styleUrl>
            <LineString id="30397">
                <coordinates>107.619423,-6.9012693,0.0 107.6193022,-6.9012716,0.0</coordinates>
            </LineString>
        </Placemark>
        <Placemark id="30402">
            <name>Jalan Diponegoro</name>
            <styleUrl>#30403</styleUrl>
            <LineString id="30401">
                <coordinates>107.625296,-6.9011083,0.0 107.624855,-6.9011253,0.0</coordinates>
            </LineString>
        </Placemark>
        <Placemark id="30406">
            <name>Jalan Dr. Setiabudi</name>
            <styleUrl>#30407</styleUrl>
            <LineString id="30405">
                <coordinates>107.594917,-6.8589109,0.0 107.5948727,-6.8591879,0.0 107.5948433,-6.8593552,0.0</coordinates>
            </LineString>
        </Placemark>
        <Placemark id="30410">
            <name>Jalan Dr. Setiabudi</name>
            <styleUrl>#30411</styleUrl>
            <LineString id="30409">
                <coordinates>107.594751,-6.8634425,0.0 107.5946342,-6.8634956,0.0</coordinates>
            </LineString>
        </Placemark>
        <Placemark id="30414">
            <name>Jalan Dr. Setiabudi</name>
            <styleUrl>#30415</styleUrl>
            <LineString id="30413">
                <coordinates>107.5941115,-6.864801,0.0 107.5941535,-6.8646065,0.0 107.5941832,-6.8644809,0.0 107.5942318,-6.8642799,0.0 107.5943139,-6.8639829,0.0 107.594348,-6.8639131,0.0 107.5943936,-6.8638479,0.0</coordinates>
            </LineString>
        </Placemark>
        <Placemark id="30418">
            <name>Jalan Tamansari</name>
            <styleUrl>#30419</styleUrl>
            <LineString id="30417">
                <coordinates>107.6115384,-6.8870061,0.0 107.6116475,-6.8866461,0.0</coordinates>
            </LineString>
        </Placemark>
        <Placemark id="30422">
            <name>Route Segment</name>
            <styleUrl>#30423</styleUrl>
            <LineString id="30421">
                <coordinates>107.594917,-6.8589109,0.0 107.5952388,-6.8589685,0.0 107.5952442,-6.8589728,0.0 107.5952455,-6.8589782,0.0 107.5952302,-6.8591252,0.0 107.5951942,-6.85933,0.0</coordinates>
            </LineString>
        </Placemark>
        <Placemark id="30426">
            <name>Jalan Tamansari</name>
            <styleUrl>#30427</styleUrl>
            <LineString id="30425">
                <coordinates>107.609539,-6.8982797,0.0 107.6095278,-6.898317,0.0 107.6095258,-6.8983236,0.0 107.6093542,-6.8987039,0.0</coordinates>
            </LineString>
        </Placemark>
        <Placemark id="30430">
            <name>Jalan Diponegoro</name>
            <styleUrl>#30431</styleUrl>
            <LineString id="30429">
                <coordinates>107.6253574,-6.9011085,0.0 107.625296,-6.9011083,0.0</coordinates>
            </LineString>
        </Placemark>
        <Placemark id="30434">
            <name>Jalan Tamansari</name>
            <styleUrl>#30435</styleUrl>
            <LineString id="30433">
                <coordinates>107.6116475,-6.8866461,0.0 107.6116944,-6.8862782,0.0</coordinates>
            </LineString>
        </Placemark>
        <Placemark id="30438">
            <name>Jalan Tamansari</name>
            <styleUrl>#30439</styleUrl>
            <LineString id="30437">
                <coordinates>107.609463,-6.8995343,0.0 107.6094417,-6.8995178,0.0 107.6094265,-6.8994956,0.0 107.6094191,-6.8994698,0.0 107.60942,-6.899443,0.0 107.6094292,-6.8994158,0.0 107.6094334,-6.8994087,0.0 107.6094395,-6.8994003,0.0</coordinates>
            </LineString>
        </Placemark>
        <Placemark id="30442">
            <name>Jalan Tamansari</name>
            <styleUrl>#30443</styleUrl>
            <LineString id="30441">
                <coordinates>107.6095896,-6.8994756,0.0 107.6095803,-6.8995008,0.0 107.6095637,-6.8995219,0.0 107.6095413,-6.8995369,0.0 107.6095154,-6.8995444,0.0 107.6094884,-6.8995434,0.0 107.609463,-6.8995343,0.0</coordinates>
            </LineString>
        </Placemark>
        <Placemark id="30446">
            <name>Jalan Tamansari</name>
            <styleUrl>#30447</styleUrl>
            <LineString id="30445">
                <coordinates>107.6093049,-6.898862,0.0 107.6093013,-6.8989051,0.0 107.6092963,-6.8989949,0.0 107.609301,-6.8990722,0.0 107.6093117,-6.8991401,0.0 107.6093337,-6.899255,0.0</coordinates>
            </LineString>
        </Placemark>
        <Placemark id="30450">
            <name>Jalan Tamansari</name>
            <styleUrl>#30451</styleUrl>
            <LineString id="30449">
                <coordinates>107.6093337,-6.899255,0.0 107.6093456,-6.8992955,0.0 107.6093737,-6.8993458,0.0 107.6094395,-6.8994003,0.0</coordinates>
            </LineString>
        </Placemark>
        <Placemark id="30454">
            <name>Jalan Jenderal Ahmad Yani</name>
            <styleUrl>#30455</styleUrl>
            <LineString id="30453">
                <coordinates>107.6557174,-6.902134,0.0 107.6553391,-6.9021168,0.0 107.6552235,-6.9021121,0.0 107.6550496,-6.9021051,0.0</coordinates>
            </LineString>
        </Placemark>
        <Placemark id="30458">
            <name>Jalan PH. H. Mustofa</name>
            <styleUrl>#30459</styleUrl>
            <LineString id="30457">
                <coordinates>107.6341816,-6.8977908,0.0 107.6343318,-6.8978054,0.0 107.6344445,-6.8978256,0.0 107.6345958,-6.8978604,0.0 107.6349905,-6.8979512,0.0 107.6353023,-6.8980235,0.0 107.6357319,-6.8981263,0.0 107.6358307,-6.8981511,0.0 107.6360412,-6.8982085,0.0 107.6360827,-6.8982198,0.0 107.6361323,-6.8982307,0.0 107.6362093,-6.8982483,0.0 107.6363508,-6.8982807,0.0 107.6365297,-6.8983213,0.0 107.6367332,-6.8983675,0.0 107.6369176,-6.8984093,0.0 107.6369418,-6.8984148,0.0 107.6369918,-6.8984267,0.0 107.6370818,-6.8984481,0.0</coordinates>
            </LineString>
        </Placemark>
        <Placemark id="30462">
            <name>Jalan Diponegoro</name>
            <styleUrl>#30463</styleUrl>
            <LineString id="30461">
                <coordinates>107.6134712,-6.9004601,0.0 107.613905,-6.900554,0.0 107.6143382,-6.9006167,0.0 107.614717,-6.9006273,0.0 107.6149941,-6.900621,0.0 107.6150711,-6.9006334,0.0</coordinates>
            </LineString>
        </Placemark>
        <Placemark id="30466">
            <name>Jalan Tamansari</name>
            <styleUrl>#30467</styleUrl>
            <LineString id="30465">
                <coordinates>107.6095612,-6.898037,0.0 107.6095795,-6.8979008,0.0</coordinates>
            </LineString>
        </Placemark>
        <Placemark id="30470">
            <name>Route Segment</name>
            <styleUrl>#30471</styleUrl>
            <LineString id="30469">
                <coordinates>107.6562486,-6.9024172,0.0 107.6562434,-6.9023005,0.0 107.6562379,-6.9021633,0.0</coordinates>
            </LineString>
        </Placemark>
        <Placemark id="30474">
            <name>Jalan Sukajadi</name>
            <styleUrl>#30475</styleUrl>
            <LineString id="30473">
                <coordinates>107.5963984,-6.8809341,0.0 107.5963847,-6.8806684,0.0 107.5963806,-6.8805716,0.0 107.596369,-6.8802996,0.0 107.5963356,-6.8796695,0.0 107.5963312,-6.8795732,0.0 107.5963111,-6.8792113,0.0 107.5962832,-6.8787501,0.0 107.5962548,-6.8783299,0.0</coordinates>
            </LineString>
        </Placemark>
        <Placemark id="30478">
            <name>Jalan Sukajadi</name>
            <styleUrl>#30479</styleUrl>
            <LineString id="30477">
                <coordinates>107.5962243,-6.8774107,0.0 107.5962202,-6.8773796,0.0 107.5962158,-6.8772881,0.0 107.5961957,-6.8768743,0.0</coordinates>
            </LineString>
        </Placemark>
        <Placemark id="30482">
            <name>Jalan Tamansari</name>
            <styleUrl>#30483</styleUrl>
            <LineString id="30481">
                <coordinates>107.6115252,-6.88503,0.0 107.6114877,-6.8849719,0.0 107.6114403,-6.8848984,0.0 107.6113963,-6.8848321,0.0</coordinates>
            </LineString>
        </Placemark>
        <Placemark id="30486">
            <name>Jalan Sukamaju</name>
            <styleUrl>#30487</styleUrl>
            <LineString id="30485">
                <coordinates>107.5975019,-6.8885472,0.0 107.597422,-6.8884826,0.0</coordinates>
            </LineString>
        </Placemark>
        <Placemark id="30490">
            <name>Jalan Dr. Setiabudi</name>
            <styleUrl>#30491</styleUrl>
            <LineString id="30489">
                <coordinates>107.5936179,-6.8707823,0.0 107.5937463,-6.8711539,0.0 107.5937922,-6.8712782,0.0 107.593895,-6.8715029,0.0 107.5940693,-6.8717924,0.0 107.5944136,-6.8722322,0.0 107.5948065,-6.8727176,0.0 107.5949802,-6.8729249,0.0 107.5951113,-6.8730936,0.0 107.5955371,-6.8736221,0.0 107.5956623,-6.8737793,0.0 107.5956814,-6.8738055,0.0 107.5956912,-6.8738171,0.0 107.5957307,-6.8738828,0.0 107.5957592,-6.8739356,0.0 107.5957878,-6.8739884,0.0 107.5958267,-6.874066,0.0</coordinates>
            </LineString>
        </Placemark>
        <Placemark id="30494">
            <name>Jalan PH. H. Mustofa</name>
            <styleUrl>#30495</styleUrl>
            <LineString id="30493">
                <coordinates>107.65075,-6.9018006,0.0 107.6508611,-6.9018087,0.0</coordinates>
            </LineString>
        </Placemark>
        <Placemark id="30498">
            <name>Jalan Dr. Setiabudi</name>
            <styleUrl>#30499</styleUrl>
            <LineString id="30497">
                <coordinates>107.5935249,-6.8704256,0.0 107.5936179,-6.8707823,0.0</coordinates>
            </LineString>
        </Placemark>
        <Placemark id="30502">
            <name>Jalan PH. H. Mustofa</name>
            <styleUrl>#30503</styleUrl>
            <LineString id="30501">
                <coordinates>107.6417839,-6.8995613,0.0 107.6420026,-6.8996132,0.0 107.6420884,-6.8996335,0.0 107.6421976,-6.8996594,0.0 107.6422944,-6.8996824,0.0 107.6424647,-6.8997229,0.0 107.6426735,-6.8997726,0.0 107.64279,-6.8998003,0.0 107.642932,-6.8998339,0.0 107.6429728,-6.8998436,0.0 107.6431044,-6.8998716,0.0 107.6434139,-6.8999482,0.0</coordinates>
            </LineString>
        </Placemark>
        <Placemark id="30506">
            <name>Jalan Tamansari</name>
            <styleUrl>#30507</styleUrl>
            <LineString id="30505">
                <coordinates>107.6095964,-6.8977261,0.0 107.6095907,-6.8977903,0.0 107.609583,-6.8978619,0.0 107.6095795,-6.8979008,0.0</coordinates>
            </LineString>
        </Placemark>
        <Placemark id="30510">
            <name>Jalan Tamansari</name>
            <styleUrl>#30511</styleUrl>
            <LineString id="30509">
                <coordinates>107.6096043,-6.8975557,0.0 107.6096138,-6.8972132,0.0 107.6096181,-6.8970719,0.0 107.6096252,-6.8968375,0.0 107.6096228,-6.89681,0.0 107.6096158,-6.8967239,0.0 107.6095891,-6.8965712,0.0 107.6095531,-6.8963864,0.0 107.6095485,-6.896363,0.0 107.6095093,-6.8962232,0.0 107.6094951,-6.8961724,0.0 107.6094398,-6.8959853,0.0 107.6093504,-6.8957793,0.0 107.6089556,-6.8950833,0.0 107.6088926,-6.8949846,0.0 107.6088287,-6.8948846,0.0</coordinates>
            </LineString>
        </Placemark>
        <Placemark id="30514">
            <name>Jalan Dr. Setiabudi</name>
            <styleUrl>#30515</styleUrl>
            <LineString id="30513">
                <coordinates>107.5948433,-6.8593552,0.0 107.5948312,-6.8594241,0.0 107.5948088,-6.859551,0.0</coordinates>
            </LineString>
        </Placemark>
        <Placemark id="30518">
            <name>Jalan Dr. Setiabudi</name>
            <styleUrl>#30519</styleUrl>
            <LineString id="30517">
                <coordinates>107.5948052,-6.8595708,0.0 107.594757,-6.8600369,0.0 107.5947527,-6.8600724,0.0 107.5947487,-6.8601046,0.0</coordinates>
            </LineString>
        </Placemark>
        <Placemark id="30522">
            <name>Jalan Dr. Setiabudi</name>
            <styleUrl>#30523</styleUrl>
            <LineString id="30521">
                <coordinates>107.5948088,-6.859551,0.0 107.5948052,-6.8595708,0.0</coordinates>
            </LineString>
        </Placemark>
        <Placemark id="30526">
            <name>Jalan Sentot Alibasyah</name>
            <styleUrl>#30527</styleUrl>
            <LineString id="30525">
                <coordinates>107.6192514,-6.8994349,0.0 107.6192218,-6.8994058,0.0 107.6191372,-6.8993236,0.0</coordinates>
            </LineString>
        </Placemark>
        <Placemark id="30530">
            <name>Jalan Dr. Setiabudi</name>
            <styleUrl>#30531</styleUrl>
            <LineString id="30529">
                <coordinates>107.5946342,-6.8634956,0.0 107.594575,-6.8635338,0.0 107.5945119,-6.8636016,0.0 107.594469,-6.8636686,0.0 107.5943936,-6.8638479,0.0</coordinates>
            </LineString>
        </Placemark>
        <Placemark id="30534">
            <name>Jalan Dr. Setiabudi</name>
            <styleUrl>#30535</styleUrl>
            <LineString id="30533">
                <coordinates>107.5940961,-6.8651081,0.0 107.5940725,-6.8650563,0.0 107.594078,-6.8649955,0.0 107.5941115,-6.864801,0.0</coordinates>
            </LineString>
        </Placemark>
        <Placemark id="30538">
            <name>Jalan Diponegoro</name>
            <styleUrl>#30539</styleUrl>
            <LineString id="30537">
                <coordinates>107.6236741,-6.9011631,0.0 107.6234939,-6.9011666,0.0</coordinates>
            </LineString>
        </Placemark>
        <Placemark id="30542">
            <name>Jalan Diponegoro</name>
            <styleUrl>#30543</styleUrl>
            <LineString id="30541">
                <coordinates>107.6234939,-6.9011666,0.0 107.6233793,-6.9011688,0.0 107.6232646,-6.901171,0.0</coordinates>
            </LineString>
        </Placemark>
        <Placemark id="30546">
            <name>Jalan Diponegoro</name>
            <styleUrl>#30547</styleUrl>
            <LineString id="30545">
                <coordinates>107.6232646,-6.901171,0.0 107.6231861,-6.9011725,0.0</coordinates>
            </LineString>
        </Placemark>
        <Placemark id="30550">
            <name>Jalan Diponegoro</name>
            <styleUrl>#30551</styleUrl>
            <LineString id="30549">
                <coordinates>107.6231861,-6.9011725,0.0 107.6229595,-6.9011769,0.0</coordinates>
            </LineString>
        </Placemark>
        <Placemark id="30554">
            <name>Jalan Diponegoro</name>
            <styleUrl>#30555</styleUrl>
            <LineString id="30553">
                <coordinates>107.6229595,-6.9011769,0.0 107.6229193,-6.9011777,0.0</coordinates>
            </LineString>
        </Placemark>
        <Placemark id="30558">
            <name>Jalan Diponegoro</name>
            <styleUrl>#30559</styleUrl>
            <LineString id="30557">
                <coordinates>107.6229193,-6.9011777,0.0 107.6227,-6.901182,0.0</coordinates>
            </LineString>
        </Placemark>
        <Placemark id="30562">
            <name>Jalan Diponegoro</name>
            <styleUrl>#30563</styleUrl>
            <LineString id="30561">
                <coordinates>107.6227,-6.901182,0.0 107.6226543,-6.9011828,0.0</coordinates>
            </LineString>
        </Placemark>
        <Placemark id="30566">
            <name>Jalan Diponegoro</name>
            <styleUrl>#30567</styleUrl>
            <LineString id="30565">
                <coordinates>107.6226543,-6.9011828,0.0 107.6224364,-6.9011901,0.0</coordinates>
            </LineString>
        </Placemark>
        <Placemark id="30570">
            <name>Jalan Diponegoro</name>
            <styleUrl>#30571</styleUrl>
            <LineString id="30569">
                <coordinates>107.6224364,-6.9011901,0.0 107.6223306,-6.9011924,0.0</coordinates>
            </LineString>
        </Placemark>
        <Placemark id="30574">
            <name>Jalan Diponegoro</name>
            <styleUrl>#30575</styleUrl>
            <LineString id="30573">
                <coordinates>107.6223306,-6.9011924,0.0 107.6222064,-6.9011951,0.0</coordinates>
            </LineString>
        </Placemark>
        <Placemark id="30578">
            <name>Jalan Diponegoro</name>
            <styleUrl>#30579</styleUrl>
            <LineString id="30577">
                <coordinates>107.6222064,-6.9011951,0.0 107.6216513,-6.9012073,0.0</coordinates>
            </LineString>
        </Placemark>
        <Placemark id="30582">
            <name>Jalan Diponegoro</name>
            <styleUrl>#30583</styleUrl>
            <LineString id="30581">
                <coordinates>107.6216513,-6.9012073,0.0 107.6215707,-6.9012091,0.0</coordinates>
            </LineString>
        </Placemark>
        <Placemark id="30586">
            <name>Jalan Diponegoro</name>
            <styleUrl>#30587</styleUrl>
            <LineString id="30585">
                <coordinates>107.6215707,-6.9012091,0.0 107.6211128,-6.9012203,0.0 107.6210608,-6.9012202,0.0</coordinates>
            </LineString>
        </Placemark>
        <Placemark id="30590">
            <name>Jalan Diponegoro</name>
            <styleUrl>#30591</styleUrl>
            <LineString id="30589">
                <coordinates>107.6210608,-6.9012202,0.0 107.6208411,-6.9012258,0.0</coordinates>
            </LineString>
        </Placemark>
        <Placemark id="30594">
            <name>Jalan Diponegoro</name>
            <styleUrl>#30595</styleUrl>
            <LineString id="30593">
                <coordinates>107.6248142,-6.9011269,0.0 107.6245024,-6.9011404,0.0</coordinates>
            </LineString>
        </Placemark>
        <Placemark id="30598">
            <name>Jalan Diponegoro</name>
            <styleUrl>#30599</styleUrl>
            <LineString id="30597">
                <coordinates>107.6245024,-6.9011404,0.0 107.6243173,-6.9011486,0.0</coordinates>
            </LineString>
        </Placemark>
        <Placemark id="30602">
            <name>Jalan Diponegoro</name>
            <styleUrl>#30603</styleUrl>
            <LineString id="30601">
                <coordinates>107.6243173,-6.9011486,0.0 107.6241682,-6.9011517,0.0 107.6240859,-6.9011536,0.0</coordinates>
            </LineString>
        </Placemark>
        <Placemark id="30606">
            <name>Jalan Diponegoro</name>
            <styleUrl>#30607</styleUrl>
            <LineString id="30605">
                <coordinates>107.6240859,-6.9011536,0.0 107.6240223,-6.9011551,0.0</coordinates>
            </LineString>
        </Placemark>
        <Placemark id="30610">
            <name>Jalan Diponegoro</name>
            <styleUrl>#30611</styleUrl>
            <LineString id="30609">
                <coordinates>107.6240223,-6.9011551,0.0 107.6238271,-6.9011596,0.0</coordinates>
            </LineString>
        </Placemark>
        <Placemark id="30614">
            <name>Jalan Diponegoro</name>
            <styleUrl>#30615</styleUrl>
            <LineString id="30613">
                <coordinates>107.6238271,-6.9011596,0.0 107.6237622,-6.9011611,0.0</coordinates>
            </LineString>
        </Placemark>
        <Placemark id="30618">
            <name>Jalan Diponegoro</name>
            <styleUrl>#30619</styleUrl>
            <LineString id="30617">
                <coordinates>107.6237622,-6.9011611,0.0 107.6236741,-6.9011631,0.0</coordinates>
            </LineString>
        </Placemark>
        <Placemark id="30622">
            <name>Jalan Diponegoro</name>
            <styleUrl>#30623</styleUrl>
            <LineString id="30621">
                <coordinates>107.6208411,-6.9012258,0.0 107.6201283,-6.9012501,0.0 107.619705,-6.9012645,0.0</coordinates>
            </LineString>
        </Placemark>
        <Placemark id="30626">
            <name>Jalan Diponegoro</name>
            <styleUrl>#30627</styleUrl>
            <LineString id="30625">
                <coordinates>107.619705,-6.9012645,0.0 107.6195121,-6.9012668,0.0 107.619423,-6.9012693,0.0</coordinates>
            </LineString>
        </Placemark>
        <Placemark id="30630">
            <name>Jalan Sulanjana</name>
            <styleUrl>#30631</styleUrl>
            <LineString id="30629">
                <coordinates>107.6095896,-6.8994756,0.0 107.6097153,-6.8994722,0.0 107.6098137,-6.8994796,0.0 107.6099669,-6.899504,0.0</coordinates>
            </LineString>
        </Placemark>
        <Placemark id="30634">
            <name>Jalan Sentot Alibasyah</name>
            <styleUrl>#30635</styleUrl>
            <LineString id="30633">
                <coordinates>107.6193024,-6.9011929,0.0 107.6192996,-6.9010729,0.0 107.6192733,-6.8999367,0.0</coordinates>
            </LineString>
        </Placemark>
        <Placemark id="30638">
            <name>Jalan Tamansari</name>
            <styleUrl>#30639</styleUrl>
            <LineString id="30637">
                <coordinates>107.6088287,-6.8948846,0.0 107.6087143,-6.8947151,0.0 107.6086646,-6.8946314,0.0 107.6086077,-6.8945355,0.0 107.6085721,-6.8944755,0.0 107.6085446,-6.8944122,0.0 107.6085108,-6.8943345,0.0 107.6084937,-6.8942855,0.0 107.6084661,-6.8942039,0.0 107.6084541,-6.894096,0.0 107.6084513,-6.8939744,0.0 107.608451,-6.8938318,0.0</coordinates>
            </LineString>
        </Placemark>
    </Document>
</kml>
