<?xml version="1.0" encoding="UTF-8"?>
<kml xmlns="http://www.opengis.net/kml/2.2" xmlns:gx="http://www.google.com/kml/ext/2.2">
    <Document id="31037">
        <Style id="31043">
            <IconStyle id="31044">
                <colorMode>normal</colorMode>
                <scale>1</scale>
                <heading>0</heading>
                <Icon id="31045">
                    <href>http://maps.google.com/mapfiles/kml/pushpin/ylw-pushpin.png</href>
                </Icon>
            </IconStyle>
        </Style>
        <Style id="31048">
            <IconStyle id="31049">
                <colorMode>normal</colorMode>
                <scale>1</scale>
                <heading>0</heading>
                <Icon id="31050">
                    <href>http://maps.google.com/mapfiles/kml/pushpin/ylw-pushpin.png</href>
                </Icon>
            </IconStyle>
        </Style>
        <Style id="31053">
            <LineStyle id="31054">
                <color>ff295AF1</color>
                <colorMode>normal</colorMode>
                <width>4</width>
            </LineStyle>
        </Style>
        <Style id="31057">
            <LineStyle id="31058">
                <color>ff295AF1</color>
                <colorMode>normal</colorMode>
                <width>4</width>
            </LineStyle>
        </Style>
        <Style id="31061">
            <LineStyle id="31062">
                <color>ff295AF1</color>
                <colorMode>normal</colorMode>
                <width>4</width>
            </LineStyle>
        </Style>
        <Style id="31065">
            <LineStyle id="31066">
                <color>ff295AF1</color>
                <colorMode>normal</colorMode>
                <width>4</width>
            </LineStyle>
        </Style>
        <Style id="31069">
            <LineStyle id="31070">
                <color>ff295AF1</color>
                <colorMode>normal</colorMode>
                <width>4</width>
            </LineStyle>
        </Style>
        <Style id="31073">
            <LineStyle id="31074">
                <color>ff295AF1</color>
                <colorMode>normal</colorMode>
                <width>4</width>
            </LineStyle>
        </Style>
        <Style id="31077">
            <LineStyle id="31078">
                <color>ff295AF1</color>
                <colorMode>normal</colorMode>
                <width>4</width>
            </LineStyle>
        </Style>
        <Style id="31081">
            <LineStyle id="31082">
                <color>ff295AF1</color>
                <colorMode>normal</colorMode>
                <width>4</width>
            </LineStyle>
        </Style>
        <Style id="31085">
            <LineStyle id="31086">
                <color>ff295AF1</color>
                <colorMode>normal</colorMode>
                <width>4</width>
            </LineStyle>
        </Style>
        <Style id="31089">
            <LineStyle id="31090">
                <color>ff295AF1</color>
                <colorMode>normal</colorMode>
                <width>4</width>
            </LineStyle>
        </Style>
        <Style id="31093">
            <LineStyle id="31094">
                <color>ff295AF1</color>
                <colorMode>normal</colorMode>
                <width>4</width>
            </LineStyle>
        </Style>
        <Style id="31097">
            <LineStyle id="31098">
                <color>ff295AF1</color>
                <colorMode>normal</colorMode>
                <width>4</width>
            </LineStyle>
        </Style>
        <Style id="31101">
            <LineStyle id="31102">
                <color>ff295AF1</color>
                <colorMode>normal</colorMode>
                <width>4</width>
            </LineStyle>
        </Style>
        <Style id="31105">
            <LineStyle id="31106">
                <color>ff295AF1</color>
                <colorMode>normal</colorMode>
                <width>4</width>
            </LineStyle>
        </Style>
        <Style id="31109">
            <LineStyle id="31110">
                <color>ff295AF1</color>
                <colorMode>normal</colorMode>
                <width>4</width>
            </LineStyle>
        </Style>
        <Style id="31113">
            <LineStyle id="31114">
                <color>ff295AF1</color>
                <colorMode>normal</colorMode>
                <width>4</width>
            </LineStyle>
        </Style>
        <Style id="31117">
            <LineStyle id="31118">
                <color>ff295AF1</color>
                <colorMode>normal</colorMode>
                <width>4</width>
            </LineStyle>
        </Style>
        <Style id="31121">
            <LineStyle id="31122">
                <color>ff295AF1</color>
                <colorMode>normal</colorMode>
                <width>4</width>
            </LineStyle>
        </Style>
        <Style id="31125">
            <LineStyle id="31126">
                <color>ff295AF1</color>
                <colorMode>normal</colorMode>
                <width>4</width>
            </LineStyle>
        </Style>
        <Style id="31129">
            <LineStyle id="31130">
                <color>ff295AF1</color>
                <colorMode>normal</colorMode>
                <width>4</width>
            </LineStyle>
        </Style>
        <Style id="31133">
            <LineStyle id="31134">
                <color>ff295AF1</color>
                <colorMode>normal</colorMode>
                <width>4</width>
            </LineStyle>
        </Style>
        <Style id="31137">
            <LineStyle id="31138">
                <color>ff295AF1</color>
                <colorMode>normal</colorMode>
                <width>4</width>
            </LineStyle>
        </Style>
        <Style id="31141">
            <LineStyle id="31142">
                <color>ff295AF1</color>
                <colorMode>normal</colorMode>
                <width>4</width>
            </LineStyle>
        </Style>
        <Style id="31145">
            <LineStyle id="31146">
                <color>ff295AF1</color>
                <colorMode>normal</colorMode>
                <width>4</width>
            </LineStyle>
        </Style>
        <Style id="31149">
            <LineStyle id="31150">
                <color>ff295AF1</color>
                <colorMode>normal</colorMode>
                <width>4</width>
            </LineStyle>
        </Style>
        <Style id="31153">
            <LineStyle id="31154">
                <color>ff295AF1</color>
                <colorMode>normal</colorMode>
                <width>4</width>
            </LineStyle>
        </Style>
        <Style id="31157">
            <LineStyle id="31158">
                <color>ff295AF1</color>
                <colorMode>normal</colorMode>
                <width>4</width>
            </LineStyle>
        </Style>
        <Style id="31161">
            <LineStyle id="31162">
                <color>ff295AF1</color>
                <colorMode>normal</colorMode>
                <width>4</width>
            </LineStyle>
        </Style>
        <Style id="31165">
            <LineStyle id="31166">
                <color>ff295AF1</color>
                <colorMode>normal</colorMode>
                <width>4</width>
            </LineStyle>
        </Style>
        <Style id="31169">
            <LineStyle id="31170">
                <color>ff295AF1</color>
                <colorMode>normal</colorMode>
                <width>4</width>
            </LineStyle>
        </Style>
        <Style id="31173">
            <LineStyle id="31174">
                <color>ff295AF1</color>
                <colorMode>normal</colorMode>
                <width>4</width>
            </LineStyle>
        </Style>
        <Style id="31177">
            <LineStyle id="31178">
                <color>ff295AF1</color>
                <colorMode>normal</colorMode>
                <width>4</width>
            </LineStyle>
        </Style>
        <Style id="31181">
            <LineStyle id="31182">
                <color>ff295AF1</color>
                <colorMode>normal</colorMode>
                <width>4</width>
            </LineStyle>
        </Style>
        <Style id="31185">
            <LineStyle id="31186">
                <color>ff295AF1</color>
                <colorMode>normal</colorMode>
                <width>4</width>
            </LineStyle>
        </Style>
        <Style id="31189">
            <LineStyle id="31190">
                <color>ff295AF1</color>
                <colorMode>normal</colorMode>
                <width>4</width>
            </LineStyle>
        </Style>
        <Style id="31193">
            <LineStyle id="31194">
                <color>ff295AF1</color>
                <colorMode>normal</colorMode>
                <width>4</width>
            </LineStyle>
        </Style>
        <Style id="31197">
            <LineStyle id="31198">
                <color>ff295AF1</color>
                <colorMode>normal</colorMode>
                <width>4</width>
            </LineStyle>
        </Style>
        <Style id="31201">
            <LineStyle id="31202">
                <color>ff295AF1</color>
                <colorMode>normal</colorMode>
                <width>4</width>
            </LineStyle>
        </Style>
        <Style id="31205">
            <LineStyle id="31206">
                <color>ff295AF1</color>
                <colorMode>normal</colorMode>
                <width>4</width>
            </LineStyle>
        </Style>
        <Style id="31209">
            <LineStyle id="31210">
                <color>ff295AF1</color>
                <colorMode>normal</colorMode>
                <width>4</width>
            </LineStyle>
        </Style>
        <Style id="31213">
            <LineStyle id="31214">
                <color>ff295AF1</color>
                <colorMode>normal</colorMode>
                <width>4</width>
            </LineStyle>
        </Style>
        <Style id="31217">
            <LineStyle id="31218">
                <color>ff295AF1</color>
                <colorMode>normal</colorMode>
                <width>4</width>
            </LineStyle>
        </Style>
        <Style id="31221">
            <LineStyle id="31222">
                <color>ff295AF1</color>
                <colorMode>normal</colorMode>
                <width>4</width>
            </LineStyle>
        </Style>
        <Style id="31225">
            <LineStyle id="31226">
                <color>ff295AF1</color>
                <colorMode>normal</colorMode>
                <width>4</width>
            </LineStyle>
        </Style>
        <Style id="31229">
            <LineStyle id="31230">
                <color>ff295AF1</color>
                <colorMode>normal</colorMode>
                <width>4</width>
            </LineStyle>
        </Style>
        <Style id="31233">
            <LineStyle id="31234">
                <color>ff295AF1</color>
                <colorMode>normal</colorMode>
                <width>4</width>
            </LineStyle>
        </Style>
        <Style id="31237">
            <LineStyle id="31238">
                <color>ff295AF1</color>
                <colorMode>normal</colorMode>
                <width>4</width>
            </LineStyle>
        </Style>
        <Style id="31241">
            <LineStyle id="31242">
                <color>ff295AF1</color>
                <colorMode>normal</colorMode>
                <width>4</width>
            </LineStyle>
        </Style>
        <Style id="31245">
            <LineStyle id="31246">
                <color>ff295AF1</color>
                <colorMode>normal</colorMode>
                <width>4</width>
            </LineStyle>
        </Style>
        <Style id="31249">
            <LineStyle id="31250">
                <color>ff295AF1</color>
                <colorMode>normal</colorMode>
                <width>4</width>
            </LineStyle>
        </Style>
        <Style id="31253">
            <LineStyle id="31254">
                <color>ff295AF1</color>
                <colorMode>normal</colorMode>
                <width>4</width>
            </LineStyle>
        </Style>
        <Style id="31257">
            <LineStyle id="31258">
                <color>ff295AF1</color>
                <colorMode>normal</colorMode>
                <width>4</width>
            </LineStyle>
        </Style>
        <Style id="31261">
            <LineStyle id="31262">
                <color>ff295AF1</color>
                <colorMode>normal</colorMode>
                <width>4</width>
            </LineStyle>
        </Style>
        <Style id="31265">
            <LineStyle id="31266">
                <color>ff295AF1</color>
                <colorMode>normal</colorMode>
                <width>4</width>
            </LineStyle>
        </Style>
        <Style id="31269">
            <LineStyle id="31270">
                <color>ff295AF1</color>
                <colorMode>normal</colorMode>
                <width>4</width>
            </LineStyle>
        </Style>
        <Style id="31273">
            <LineStyle id="31274">
                <color>ff295AF1</color>
                <colorMode>normal</colorMode>
                <width>4</width>
            </LineStyle>
        </Style>
        <Style id="31277">
            <LineStyle id="31278">
                <color>ff295AF1</color>
                <colorMode>normal</colorMode>
                <width>4</width>
            </LineStyle>
        </Style>
        <Style id="31281">
            <LineStyle id="31282">
                <color>ff295AF1</color>
                <colorMode>normal</colorMode>
                <width>4</width>
            </LineStyle>
        </Style>
        <Style id="31285">
            <LineStyle id="31286">
                <color>ff295AF1</color>
                <colorMode>normal</colorMode>
                <width>4</width>
            </LineStyle>
        </Style>
        <Style id="31289">
            <LineStyle id="31290">
                <color>ff295AF1</color>
                <colorMode>normal</colorMode>
                <width>4</width>
            </LineStyle>
        </Style>
        <Style id="31293">
            <LineStyle id="31294">
                <color>ff295AF1</color>
                <colorMode>normal</colorMode>
                <width>4</width>
            </LineStyle>
        </Style>
        <Style id="31297">
            <LineStyle id="31298">
                <color>ff295AF1</color>
                <colorMode>normal</colorMode>
                <width>4</width>
            </LineStyle>
        </Style>
        <Style id="31301">
            <LineStyle id="31302">
                <color>ff295AF1</color>
                <colorMode>normal</colorMode>
                <width>4</width>
            </LineStyle>
        </Style>
        <Style id="31305">
            <LineStyle id="31306">
                <color>ff295AF1</color>
                <colorMode>normal</colorMode>
                <width>4</width>
            </LineStyle>
        </Style>
        <Style id="31309">
            <LineStyle id="31310">
                <color>ff295AF1</color>
                <colorMode>normal</colorMode>
                <width>4</width>
            </LineStyle>
        </Style>
        <Style id="31313">
            <LineStyle id="31314">
                <color>ff295AF1</color>
                <colorMode>normal</colorMode>
                <width>4</width>
            </LineStyle>
        </Style>
        <Style id="31317">
            <LineStyle id="31318">
                <color>ff295AF1</color>
                <colorMode>normal</colorMode>
                <width>4</width>
            </LineStyle>
        </Style>
        <Style id="31321">
            <LineStyle id="31322">
                <color>ff295AF1</color>
                <colorMode>normal</colorMode>
                <width>4</width>
            </LineStyle>
        </Style>
        <Style id="31325">
            <LineStyle id="31326">
                <color>ff295AF1</color>
                <colorMode>normal</colorMode>
                <width>4</width>
            </LineStyle>
        </Style>
        <Style id="31329">
            <LineStyle id="31330">
                <color>ff295AF1</color>
                <colorMode>normal</colorMode>
                <width>4</width>
            </LineStyle>
        </Style>
        <Style id="31333">
            <LineStyle id="31334">
                <color>ff295AF1</color>
                <colorMode>normal</colorMode>
                <width>4</width>
            </LineStyle>
        </Style>
        <Style id="31337">
            <LineStyle id="31338">
                <color>ff295AF1</color>
                <colorMode>normal</colorMode>
                <width>4</width>
            </LineStyle>
        </Style>
        <Style id="31341">
            <LineStyle id="31342">
                <color>ff295AF1</color>
                <colorMode>normal</colorMode>
                <width>4</width>
            </LineStyle>
        </Style>
        <Style id="31345">
            <LineStyle id="31346">
                <color>ff295AF1</color>
                <colorMode>normal</colorMode>
                <width>4</width>
            </LineStyle>
        </Style>
        <Style id="31349">
            <LineStyle id="31350">
                <color>ff295AF1</color>
                <colorMode>normal</colorMode>
                <width>4</width>
            </LineStyle>
        </Style>
        <Style id="31353">
            <LineStyle id="31354">
                <color>ff295AF1</color>
                <colorMode>normal</colorMode>
                <width>4</width>
            </LineStyle>
        </Style>
        <Style id="31357">
            <LineStyle id="31358">
                <color>ff295AF1</color>
                <colorMode>normal</colorMode>
                <width>4</width>
            </LineStyle>
        </Style>
        <Style id="31361">
            <LineStyle id="31362">
                <color>ff295AF1</color>
                <colorMode>normal</colorMode>
                <width>4</width>
            </LineStyle>
        </Style>
        <Style id="31365">
            <LineStyle id="31366">
                <color>ff295AF1</color>
                <colorMode>normal</colorMode>
                <width>4</width>
            </LineStyle>
        </Style>
        <Style id="31369">
            <LineStyle id="31370">
                <color>ff295AF1</color>
                <colorMode>normal</colorMode>
                <width>4</width>
            </LineStyle>
        </Style>
        <Style id="31373">
            <LineStyle id="31374">
                <color>ff295AF1</color>
                <colorMode>normal</colorMode>
                <width>4</width>
            </LineStyle>
        </Style>
        <Style id="31377">
            <LineStyle id="31378">
                <color>ff295AF1</color>
                <colorMode>normal</colorMode>
                <width>4</width>
            </LineStyle>
        </Style>
        <Style id="31381">
            <LineStyle id="31382">
                <color>ff295AF1</color>
                <colorMode>normal</colorMode>
                <width>4</width>
            </LineStyle>
        </Style>
        <Style id="31385">
            <LineStyle id="31386">
                <color>ff295AF1</color>
                <colorMode>normal</colorMode>
                <width>4</width>
            </LineStyle>
        </Style>
        <Style id="31389">
            <LineStyle id="31390">
                <color>ff295AF1</color>
                <colorMode>normal</colorMode>
                <width>4</width>
            </LineStyle>
        </Style>
        <Style id="31393">
            <LineStyle id="31394">
                <color>ff295AF1</color>
                <colorMode>normal</colorMode>
                <width>4</width>
            </LineStyle>
        </Style>
        <Style id="31397">
            <LineStyle id="31398">
                <color>ff295AF1</color>
                <colorMode>normal</colorMode>
                <width>4</width>
            </LineStyle>
        </Style>
        <Style id="31401">
            <LineStyle id="31402">
                <color>ff295AF1</color>
                <colorMode>normal</colorMode>
                <width>4</width>
            </LineStyle>
        </Style>
        <Style id="31405">
            <LineStyle id="31406">
                <color>ff295AF1</color>
                <colorMode>normal</colorMode>
                <width>4</width>
            </LineStyle>
        </Style>
        <Style id="31409">
            <LineStyle id="31410">
                <color>ff295AF1</color>
                <colorMode>normal</colorMode>
                <width>4</width>
            </LineStyle>
        </Style>
        <Style id="31413">
            <LineStyle id="31414">
                <color>ff295AF1</color>
                <colorMode>normal</colorMode>
                <width>4</width>
            </LineStyle>
        </Style>
        <Style id="31417">
            <LineStyle id="31418">
                <color>ff295AF1</color>
                <colorMode>normal</colorMode>
                <width>4</width>
            </LineStyle>
        </Style>
        <Style id="31421">
            <LineStyle id="31422">
                <color>ff295AF1</color>
                <colorMode>normal</colorMode>
                <width>4</width>
            </LineStyle>
        </Style>
        <Style id="31425">
            <LineStyle id="31426">
                <color>ff295AF1</color>
                <colorMode>normal</colorMode>
                <width>4</width>
            </LineStyle>
        </Style>
        <Style id="31429">
            <LineStyle id="31430">
                <color>ff295AF1</color>
                <colorMode>normal</colorMode>
                <width>4</width>
            </LineStyle>
        </Style>
        <Style id="31433">
            <LineStyle id="31434">
                <color>ff295AF1</color>
                <colorMode>normal</colorMode>
                <width>4</width>
            </LineStyle>
        </Style>
        <Style id="31437">
            <LineStyle id="31438">
                <color>ff295AF1</color>
                <colorMode>normal</colorMode>
                <width>4</width>
            </LineStyle>
        </Style>
        <Style id="31441">
            <LineStyle id="31442">
                <color>ff295AF1</color>
                <colorMode>normal</colorMode>
                <width>4</width>
            </LineStyle>
        </Style>
        <Style id="31445">
            <LineStyle id="31446">
                <color>ff295AF1</color>
                <colorMode>normal</colorMode>
                <width>4</width>
            </LineStyle>
        </Style>
        <Style id="31449">
            <LineStyle id="31450">
                <color>ff295AF1</color>
                <colorMode>normal</colorMode>
                <width>4</width>
            </LineStyle>
        </Style>
        <Style id="31453">
            <LineStyle id="31454">
                <color>ff295AF1</color>
                <colorMode>normal</colorMode>
                <width>4</width>
            </LineStyle>
        </Style>
        <Style id="31457">
            <LineStyle id="31458">
                <color>ff295AF1</color>
                <colorMode>normal</colorMode>
                <width>4</width>
            </LineStyle>
        </Style>
        <Style id="31461">
            <LineStyle id="31462">
                <color>ff295AF1</color>
                <colorMode>normal</colorMode>
                <width>4</width>
            </LineStyle>
        </Style>
        <Style id="31465">
            <LineStyle id="31466">
                <color>ff295AF1</color>
                <colorMode>normal</colorMode>
                <width>4</width>
            </LineStyle>
        </Style>
        <Style id="31469">
            <LineStyle id="31470">
                <color>ff295AF1</color>
                <colorMode>normal</colorMode>
                <width>4</width>
            </LineStyle>
        </Style>
        <Style id="31473">
            <LineStyle id="31474">
                <color>ff295AF1</color>
                <colorMode>normal</colorMode>
                <width>4</width>
            </LineStyle>
        </Style>
        <Style id="31477">
            <LineStyle id="31478">
                <color>ff295AF1</color>
                <colorMode>normal</colorMode>
                <width>4</width>
            </LineStyle>
        </Style>
        <Style id="31481">
            <LineStyle id="31482">
                <color>ff295AF1</color>
                <colorMode>normal</colorMode>
                <width>4</width>
            </LineStyle>
        </Style>
        <Style id="31485">
            <LineStyle id="31486">
                <color>ff295AF1</color>
                <colorMode>normal</colorMode>
                <width>4</width>
            </LineStyle>
        </Style>
        <Style id="31489">
            <LineStyle id="31490">
                <color>ff295AF1</color>
                <colorMode>normal</colorMode>
                <width>4</width>
            </LineStyle>
        </Style>
        <Style id="31493">
            <LineStyle id="31494">
                <color>ff295AF1</color>
                <colorMode>normal</colorMode>
                <width>4</width>
            </LineStyle>
        </Style>
        <Style id="31497">
            <LineStyle id="31498">
                <color>ff295AF1</color>
                <colorMode>normal</colorMode>
                <width>4</width>
            </LineStyle>
        </Style>
        <Style id="31501">
            <LineStyle id="31502">
                <color>ff295AF1</color>
                <colorMode>normal</colorMode>
                <width>4</width>
            </LineStyle>
        </Style>
        <Style id="31505">
            <LineStyle id="31506">
                <color>ff295AF1</color>
                <colorMode>normal</colorMode>
                <width>4</width>
            </LineStyle>
        </Style>
        <Style id="31509">
            <LineStyle id="31510">
                <color>ff295AF1</color>
                <colorMode>normal</colorMode>
                <width>4</width>
            </LineStyle>
        </Style>
        <Style id="31513">
            <LineStyle id="31514">
                <color>ff295AF1</color>
                <colorMode>normal</colorMode>
                <width>4</width>
            </LineStyle>
        </Style>
        <Style id="31517">
            <LineStyle id="31518">
                <color>ff295AF1</color>
                <colorMode>normal</colorMode>
                <width>4</width>
            </LineStyle>
        </Style>
        <Style id="31521">
            <LineStyle id="31522">
                <color>ff295AF1</color>
                <colorMode>normal</colorMode>
                <width>4</width>
            </LineStyle>
        </Style>
        <Style id="31525">
            <LineStyle id="31526">
                <color>ff295AF1</color>
                <colorMode>normal</colorMode>
                <width>4</width>
            </LineStyle>
        </Style>
        <Style id="31529">
            <LineStyle id="31530">
                <color>ff295AF1</color>
                <colorMode>normal</colorMode>
                <width>4</width>
            </LineStyle>
        </Style>
        <Style id="31533">
            <LineStyle id="31534">
                <color>ff295AF1</color>
                <colorMode>normal</colorMode>
                <width>4</width>
            </LineStyle>
        </Style>
        <Style id="31537">
            <LineStyle id="31538">
                <color>ff295AF1</color>
                <colorMode>normal</colorMode>
                <width>4</width>
            </LineStyle>
        </Style>
        <Style id="31541">
            <LineStyle id="31542">
                <color>ff295AF1</color>
                <colorMode>normal</colorMode>
                <width>4</width>
            </LineStyle>
        </Style>
        <ExtendedData>
            <Data name="route-name">
                <value>06: Cicaheum → Ciroyom</value>
            </Data>
            <Data name="source">
                <value>Transport for Bandung</value>
            </Data>
        </ExtendedData>
        <Placemark id="31042">
            <name>Terminal Angkot Cicaheum</name>
            <styleUrl>#31043</styleUrl>
            <Point id="31041">
                <coordinates>107.6562486,-6.9024172,0.0</coordinates>
            </Point>
        </Placemark>
        <Placemark id="31047">
            <name>Stasiun Ciroyom</name>
            <styleUrl>#31048</styleUrl>
            <Point id="31046">
                <coordinates>107.5890644,-6.914151,0.0</coordinates>
            </Point>
        </Placemark>
        <Placemark id="31052">
            <name>Jalan Cihampelas</name>
            <styleUrl>#31053</styleUrl>
            <LineString id="31051">
                <coordinates>107.6044986,-6.8850612,0.0 107.6044348,-6.8853378,0.0 107.6043521,-6.8856962,0.0 107.6043346,-6.8857678,0.0 107.6042485,-6.8861202,0.0 107.6042216,-6.8862318,0.0 107.6041367,-6.886589,0.0 107.6041137,-6.8866842,0.0 107.6040712,-6.8868599,0.0 107.6040539,-6.8869313,0.0 107.6040408,-6.8869867,0.0 107.6039804,-6.8872428,0.0 107.6039534,-6.8874376,0.0 107.6039484,-6.8877565,0.0</coordinates>
            </LineString>
        </Placemark>
        <Placemark id="31056">
            <name>Jalan HOS. Cokroaminoto</name>
            <styleUrl>#31057</styleUrl>
            <LineString id="31055">
                <coordinates>107.5976101,-6.9055012,0.0 107.5976119,-6.9055512,0.0 107.5976179,-6.9058357,0.0 107.5976349,-6.9062206,0.0 107.5976387,-6.9064293,0.0</coordinates>
            </LineString>
        </Placemark>
        <Placemark id="31060">
            <name>Jalan Aruna</name>
            <styleUrl>#31061</styleUrl>
            <LineString id="31059">
                <coordinates>107.5894511,-6.9112342,0.0 107.5891899,-6.9105353,0.0 107.5885406,-6.9088993,0.0 107.5884207,-6.9086068,0.0 107.5883107,-6.9083352,0.0 107.5883022,-6.9083129,0.0 107.5882157,-6.908086,0.0 107.5879895,-6.9075052,0.0 107.587786,-6.907013,0.0</coordinates>
            </LineString>
        </Placemark>
        <Placemark id="31064">
            <name>Jalan PH. H. Mustofa</name>
            <styleUrl>#31065</styleUrl>
            <LineString id="31063">
                <coordinates>107.6370818,-6.8984481,0.0 107.637183,-6.8984713,0.0 107.6373036,-6.8984993,0.0 107.63734,-6.8985077,0.0 107.6374067,-6.8985235,0.0 107.6375247,-6.8985515,0.0 107.6376569,-6.8985829,0.0 107.6378565,-6.8986302,0.0 107.6379062,-6.898642,0.0 107.6379805,-6.8986596,0.0 107.6380614,-6.8986788,0.0 107.6382004,-6.8987117,0.0 107.6383016,-6.8987357,0.0 107.6385967,-6.8988043,0.0 107.6389496,-6.8988893,0.0 107.6392578,-6.8989624,0.0 107.6394338,-6.8990042,0.0 107.639528,-6.8990264,0.0 107.639689,-6.8990635,0.0 107.6397992,-6.8990899,0.0 107.6398962,-6.8991138,0.0 107.6399762,-6.8991322,0.0 107.640051,-6.8991472,0.0 107.6404383,-6.8992417,0.0 107.6405323,-6.8992646,0.0 107.6407134,-6.8993075,0.0 107.6407662,-6.89932,0.0 107.6408435,-6.8993384,0.0 107.6412764,-6.899441,0.0 107.641347,-6.8994578,0.0 107.6415516,-6.8995076,0.0 107.6416085,-6.8995205,0.0 107.6416794,-6.8995366,0.0 107.6416949,-6.8995403,0.0 107.6417385,-6.8995506,0.0 107.6417839,-6.8995613,0.0</coordinates>
            </LineString>
        </Placemark>
        <Placemark id="31068">
            <name>Jalan Surapati</name>
            <styleUrl>#31069</styleUrl>
            <LineString id="31067">
                <coordinates>107.6132841,-6.8988423,0.0 107.6135004,-6.898852,0.0 107.6140011,-6.8988575,0.0 107.6147331,-6.8988511,0.0 107.615213,-6.8988527,0.0 107.6156959,-6.8989008,0.0 107.6158827,-6.8989216,0.0 107.6160286,-6.8989397,0.0</coordinates>
            </LineString>
        </Placemark>
        <Placemark id="31072">
            <name>Jalan Siliwangi</name>
            <styleUrl>#31073</styleUrl>
            <LineString id="31071">
                <coordinates>107.6056014,-6.8835569,0.0 107.6055332,-6.8835045,0.0 107.6054534,-6.883418,0.0 107.6054157,-6.8833846,0.0 107.6053401,-6.8833426,0.0 107.6052627,-6.8833281,0.0 107.6051401,-6.8833246,0.0 107.6050556,-6.8833278,0.0 107.6049833,-6.8833306,0.0</coordinates>
            </LineString>
        </Placemark>
        <Placemark id="31076">
            <name>Jalan Sederhana</name>
            <styleUrl>#31077</styleUrl>
            <LineString id="31075">
                <coordinates>107.5982533,-6.8959337,0.0 107.598061,-6.8961075,0.0 107.597854,-6.8962946,0.0 107.5975318,-6.8966067,0.0</coordinates>
            </LineString>
        </Placemark>
        <Placemark id="31080">
            <name>Jalan Tamansari</name>
            <styleUrl>#31081</styleUrl>
            <LineString id="31079">
                <coordinates>107.6116944,-6.8862782,0.0 107.6116791,-6.8858918,0.0 107.6116314,-6.8855076,0.0 107.6116067,-6.8853721,0.0 107.6115779,-6.8852374,0.0 107.6115555,-6.8851472,0.0 107.6115374,-6.8850743,0.0 107.6115252,-6.88503,0.0</coordinates>
            </LineString>
        </Placemark>
        <Placemark id="31084">
            <name>Jalan PH. H. Mustofa</name>
            <styleUrl>#31085</styleUrl>
            <LineString id="31083">
                <coordinates>107.643667,-6.8999883,0.0 107.6437562,-6.9000026,0.0</coordinates>
            </LineString>
        </Placemark>
        <Placemark id="31088">
            <name>Jalan PH. H. Mustofa</name>
            <styleUrl>#31089</styleUrl>
            <LineString id="31087">
                <coordinates>107.6437562,-6.9000026,0.0 107.6437845,-6.9000071,0.0 107.6438196,-6.9000127,0.0</coordinates>
            </LineString>
        </Placemark>
        <Placemark id="31092">
            <name>Jalan Pasir Kaliki</name>
            <styleUrl>#31093</styleUrl>
            <LineString id="31091">
                <coordinates>107.5974217,-6.8991501,0.0 107.597458,-6.899457,0.0 107.5974799,-6.8999882,0.0 107.5974825,-6.9000048,0.0 107.5974905,-6.9000261,0.0 107.5974993,-6.9000414,0.0 107.5975127,-6.9000574,0.0 107.5975315,-6.900076,0.0 107.5975596,-6.900098,0.0 107.5975838,-6.9001146,0.0 107.5976133,-6.9001333,0.0 107.5976491,-6.9001556,0.0 107.5976841,-6.9001782,0.0 107.5977317,-6.9002067,0.0</coordinates>
            </LineString>
        </Placemark>
        <Placemark id="31096">
            <name>Jalan Pasteur</name>
            <styleUrl>#31097</styleUrl>
            <LineString id="31095">
                <coordinates>107.5982442,-6.9003802,0.0 107.597773,-6.9003861,0.0 107.5977337,-6.9003863,0.0</coordinates>
            </LineString>
        </Placemark>
        <Placemark id="31100">
            <name>Jalan Siliwangi</name>
            <styleUrl>#31101</styleUrl>
            <LineString id="31099">
                <coordinates>107.6049833,-6.8833306,0.0 107.6049259,-6.8833663,0.0</coordinates>
            </LineString>
        </Placemark>
        <Placemark id="31104">
            <name>Jalan Surapati</name>
            <styleUrl>#31105</styleUrl>
            <LineString id="31103">
                <coordinates>107.6167125,-6.8991863,0.0 107.6166576,-6.8991786,0.0</coordinates>
            </LineString>
        </Placemark>
        <Placemark id="31108">
            <name>Jalan Surapati</name>
            <styleUrl>#31109</styleUrl>
            <LineString id="31107">
                <coordinates>107.6199187,-6.8992847,0.0 107.6198037,-6.8993127,0.0</coordinates>
            </LineString>
        </Placemark>
        <Placemark id="31112">
            <name>Jalan Siliwangi</name>
            <styleUrl>#31113</styleUrl>
            <LineString id="31111">
                <coordinates>107.6113963,-6.8848321,0.0 107.6113446,-6.8848052,0.0 107.6112344,-6.8847532,0.0 107.6106937,-6.8845224,0.0 107.6105207,-6.8844699,0.0 107.6102659,-6.8844619,0.0 107.6099548,-6.8845045,0.0 107.6096208,-6.884582,0.0 107.6091599,-6.8847557,0.0 107.608953,-6.8848337,0.0 107.6087276,-6.8849119,0.0 107.6086777,-6.8849287,0.0 107.6086137,-6.8849345,0.0 107.6085359,-6.8849159,0.0 107.6083984,-6.8848437,0.0 107.6082242,-6.8847452,0.0 107.6080413,-6.8846429,0.0 107.6079766,-6.8846017,0.0 107.6079042,-6.8845857,0.0 107.6078245,-6.8845753,0.0 107.6077048,-6.8845833,0.0</coordinates>
            </LineString>
        </Placemark>
        <Placemark id="31116">
            <name>Jalan Surapati</name>
            <styleUrl>#31117</styleUrl>
            <LineString id="31115">
                <coordinates>107.6272181,-6.8994982,0.0 107.6276128,-6.8995937,0.0 107.6279771,-6.8996818,0.0 107.62811,-6.8997221,0.0 107.6284084,-6.8998071,0.0 107.6284753,-6.8998262,0.0 107.6285873,-6.8998503,0.0 107.6287094,-6.8998644,0.0 107.6289085,-6.8998766,0.0 107.6292369,-6.8998595,0.0 107.6293496,-6.8998537,0.0 107.6294234,-6.8998417,0.0 107.6294905,-6.8998265,0.0 107.629705,-6.8997733,0.0 107.6298923,-6.8997215,0.0 107.6301923,-6.8996062,0.0 107.6303142,-6.8995517,0.0 107.6305872,-6.8993785,0.0 107.6307582,-6.8992701,0.0</coordinates>
            </LineString>
        </Placemark>
        <Placemark id="31120">
            <name>Jalan Prabudimuntur</name>
            <styleUrl>#31121</styleUrl>
            <LineString id="31119">
                <coordinates>107.6161849,-6.8991228,0.0 107.6158534,-6.8991356,0.0</coordinates>
            </LineString>
        </Placemark>
        <Placemark id="31124">
            <name>Jalan Cihampelas</name>
            <styleUrl>#31125</styleUrl>
            <LineString id="31123">
                <coordinates>107.6049259,-6.8833663,0.0 107.6048893,-6.8834678,0.0 107.6048738,-6.8835107,0.0 107.6047793,-6.8839055,0.0 107.6046925,-6.8842883,0.0 107.6046192,-6.884589,0.0 107.6045738,-6.8847525,0.0 107.6045446,-6.8848576,0.0 107.6044986,-6.8850612,0.0</coordinates>
            </LineString>
        </Placemark>
        <Placemark id="31128">
            <name>Jalan Siliwangi</name>
            <styleUrl>#31129</styleUrl>
            <LineString id="31127">
                <coordinates>107.6077048,-6.8845833,0.0 107.6073923,-6.8846118,0.0</coordinates>
            </LineString>
        </Placemark>
        <Placemark id="31132">
            <name>Jalan Siliwangi</name>
            <styleUrl>#31133</styleUrl>
            <LineString id="31131">
                <coordinates>107.6073923,-6.8846118,0.0 107.6072525,-6.8846315,0.0 107.6071679,-6.8846428,0.0 107.6071009,-6.8846521,0.0 107.6068836,-6.8846722,0.0 107.6068454,-6.8846748,0.0 107.6067435,-6.8846483,0.0 107.6065328,-6.8845462,0.0 107.6062473,-6.8843143,0.0 107.6061478,-6.8842309,0.0 107.6058912,-6.8839573,0.0 107.6057249,-6.8837247,0.0 107.6056396,-6.8836088,0.0 107.6056014,-6.8835569,0.0</coordinates>
            </LineString>
        </Placemark>
        <Placemark id="31136">
            <name>Jalan Penata Yudha</name>
            <styleUrl>#31137</styleUrl>
            <LineString id="31135">
                <coordinates>107.616019,-6.8975661,0.0 107.6160824,-6.8976971,0.0 107.6161206,-6.8977917,0.0 107.6161489,-6.8978851,0.0 107.6161542,-6.8979225,0.0 107.6161572,-6.8979434,0.0 107.6161675,-6.8980166,0.0 107.6161662,-6.8981131,0.0 107.6161577,-6.8981816,0.0 107.6161352,-6.898308,0.0</coordinates>
            </LineString>
        </Placemark>
        <Placemark id="31140">
            <name>Jalan Profesor Christiaan Eijkman</name>
            <styleUrl>#31141</styleUrl>
            <LineString id="31139">
                <coordinates>107.6039637,-6.8957293,0.0 107.6036466,-6.8957246,0.0 107.603284,-6.8957513,0.0 107.603193,-6.8957591,0.0 107.6029736,-6.8957696,0.0</coordinates>
            </LineString>
        </Placemark>
        <Placemark id="31144">
            <name>Jalan Pajajaran</name>
            <styleUrl>#31145</styleUrl>
            <LineString id="31143">
                <coordinates>107.5975328,-6.9064531,0.0 107.5972812,-6.9064634,0.0 107.5971648,-6.9064676,0.0 107.5970224,-6.9064779,0.0 107.5968205,-6.9064928,0.0</coordinates>
            </LineString>
        </Placemark>
        <Placemark id="31148">
            <name>Jalan HOS. Cokroaminoto</name>
            <styleUrl>#31149</styleUrl>
            <LineString id="31147">
                <coordinates>107.5975702,-6.9053954,0.0 107.5976013,-6.9054493,0.0 107.5976101,-6.9055012,0.0</coordinates>
            </LineString>
        </Placemark>
        <Placemark id="31152">
            <name>Jalan Siliwangi</name>
            <styleUrl>#31153</styleUrl>
            <LineString id="31151">
                <coordinates>107.6137073,-6.8852448,0.0 107.6135891,-6.8852209,0.0 107.6135694,-6.8852178,0.0 107.6134857,-6.8852066,0.0 107.6134575,-6.8852021,0.0 107.6132866,-6.8851941,0.0 107.6132059,-6.8852235,0.0 107.6130773,-6.8852823,0.0 107.6129012,-6.885391,0.0</coordinates>
            </LineString>
        </Placemark>
        <Placemark id="31156">
            <name>Jalan Dipatiukur</name>
            <styleUrl>#31157</styleUrl>
            <LineString id="31155">
                <coordinates>107.6143025,-6.885397,0.0 107.6144095,-6.8854607,0.0 107.6144244,-6.8854715,0.0 107.6144864,-6.8855164,0.0 107.6145427,-6.885571,0.0 107.6146308,-6.8856691,0.0 107.6146614,-6.8857145,0.0 107.6147051,-6.8858155,0.0 107.6148464,-6.8862613,0.0 107.6148507,-6.8862747,0.0 107.6148713,-6.8863397,0.0 107.6149493,-6.8865743,0.0 107.6149671,-6.8866267,0.0 107.6150918,-6.8870114,0.0 107.6151092,-6.8870641,0.0 107.6152037,-6.8873511,0.0 107.6152406,-6.8874631,0.0 107.6152794,-6.8875681,0.0 107.6156977,-6.8886991,0.0</coordinates>
            </LineString>
        </Placemark>
        <Placemark id="31160">
            <name>Jalan Pasir Kaliki</name>
            <styleUrl>#31161</styleUrl>
            <LineString id="31159">
                <coordinates>107.5974,-6.8987139,0.0 107.5974075,-6.898977,0.0</coordinates>
            </LineString>
        </Placemark>
        <Placemark id="31164">
            <name>Jalan Jenderal Ahmad Yani</name>
            <styleUrl>#31165</styleUrl>
            <LineString id="31163">
                <coordinates>107.6562379,-6.9021633,0.0 107.6561678,-6.9021519,0.0 107.6560981,-6.9021454,0.0 107.6557174,-6.902134,0.0</coordinates>
            </LineString>
        </Placemark>
        <Placemark id="31168">
            <name>Jalan Surapati</name>
            <styleUrl>#31169</styleUrl>
            <LineString id="31167">
                <coordinates>107.6271231,-6.8994764,0.0 107.6270152,-6.8994551,0.0</coordinates>
            </LineString>
        </Placemark>
        <Placemark id="31172">
            <name>Jalan Profesor Christiaan Eijkman</name>
            <styleUrl>#31173</styleUrl>
            <LineString id="31171">
                <coordinates>107.6014463,-6.8957141,0.0 107.6011223,-6.8958109,0.0 107.6008463,-6.8959681,0.0</coordinates>
            </LineString>
        </Placemark>
        <Placemark id="31176">
            <name>Jalan Pasteur</name>
            <styleUrl>#31177</styleUrl>
            <LineString id="31175">
                <coordinates>107.6010646,-6.9003568,0.0 107.6010291,-6.9003565,0.0 107.600771,-6.9003544,0.0 107.6005268,-6.9003545,0.0 107.6003874,-6.9003546,0.0 107.5999891,-6.9003576,0.0 107.5995868,-6.9003613,0.0</coordinates>
            </LineString>
        </Placemark>
        <Placemark id="31180">
            <name>Jalan Pasteur</name>
            <styleUrl>#31181</styleUrl>
            <LineString id="31179">
                <coordinates>107.5993001,-6.900202,0.0 107.599805,-6.900195,0.0 107.6003645,-6.900192,0.0 107.6008037,-6.9002057,0.0 107.6010655,-6.9002051,0.0</coordinates>
            </LineString>
        </Placemark>
        <Placemark id="31184">
            <name>Jalan Prabu Dimuntur</name>
            <styleUrl>#31185</styleUrl>
            <LineString id="31183">
                <coordinates>107.6158534,-6.8991356,0.0 107.6148451,-6.8991266,0.0 107.6136829,-6.8990999,0.0 107.6131076,-6.8990838,0.0 107.6130507,-6.8990822,0.0</coordinates>
            </LineString>
        </Placemark>
        <Placemark id="31188">
            <name>Jalan Sumur Bandung</name>
            <styleUrl>#31189</styleUrl>
            <LineString id="31187">
                <coordinates>107.6129012,-6.885391,0.0 107.6127803,-6.8855865,0.0 107.6127322,-6.8856716,0.0 107.6127217,-6.8856909,0.0 107.6126028,-6.8859095,0.0 107.6124501,-6.886114,0.0 107.6124063,-6.8861467,0.0 107.6123476,-6.8861609,0.0 107.6120373,-6.8862094,0.0 107.6120097,-6.886218,0.0 107.6119852,-6.8862298,0.0 107.611879,-6.8863036,0.0</coordinates>
            </LineString>
        </Placemark>
        <Placemark id="31192">
            <name>Jalan Cihampelas</name>
            <styleUrl>#31193</styleUrl>
            <LineString id="31191">
                <coordinates>107.6039484,-6.8877565,0.0 107.6039743,-6.8881464,0.0 107.6039772,-6.8881744,0.0 107.6039991,-6.8883924,0.0 107.6040179,-6.8885512,0.0 107.6040214,-6.8885821,0.0 107.6040236,-6.8886013,0.0 107.6040387,-6.8887215,0.0 107.6040455,-6.8887679,0.0 107.6041808,-6.8898823,0.0 107.604194,-6.8899911,0.0 107.6041992,-6.8900884,0.0 107.6042179,-6.8906239,0.0 107.6042285,-6.8909117,0.0 107.6042314,-6.8912099,0.0 107.6042338,-6.8914499,0.0 107.6042355,-6.8916244,0.0</coordinates>
            </LineString>
        </Placemark>
        <Placemark id="31196">
            <name>Jalan Dipatiukur</name>
            <styleUrl>#31197</styleUrl>
            <LineString id="31195">
                <coordinates>107.6168823,-6.8955917,0.0 107.6166188,-6.8959561,0.0 107.6162817,-6.8963301,0.0 107.6159883,-6.8966062,0.0 107.6155865,-6.8969383,0.0</coordinates>
            </LineString>
        </Placemark>
        <Placemark id="31200">
            <name>Jalan Profesor Christiaan Eijkman</name>
            <styleUrl>#31201</styleUrl>
            <LineString id="31199">
                <coordinates>107.6014463,-6.8957141,0.0 107.6015518,-6.8957058,0.0 107.6021098,-6.8957803,0.0 107.6022353,-6.8957953,0.0 107.602268,-6.8958001,0.0</coordinates>
            </LineString>
        </Placemark>
        <Placemark id="31204">
            <name>Jalan HOS. Cokroaminoto</name>
            <styleUrl>#31205</styleUrl>
            <LineString id="31203">
                <coordinates>107.5974523,-6.9006598,0.0 107.5974536,-6.9007224,0.0 107.5974543,-6.9007808,0.0 107.5974649,-6.9013037,0.0 107.5974913,-6.9019914,0.0 107.5975373,-6.9033184,0.0 107.5975385,-6.9033942,0.0 107.5975276,-6.9034547,0.0 107.5975116,-6.9035067,0.0</coordinates>
            </LineString>
        </Placemark>
        <Placemark id="31208">
            <name>Jalan PH. H. Mustofa</name>
            <styleUrl>#31209</styleUrl>
            <LineString id="31207">
                <coordinates>107.6434139,-6.8999482,0.0 107.6435297,-6.8999663,0.0 107.6436124,-6.8999796,0.0 107.643667,-6.8999883,0.0</coordinates>
            </LineString>
        </Placemark>
        <Placemark id="31212">
            <name>Jalan Pasteur</name>
            <styleUrl>#31213</styleUrl>
            <LineString id="31211">
                <coordinates>107.5985704,-6.900207,0.0 107.5988449,-6.9002092,0.0 107.5988968,-6.9002096,0.0</coordinates>
            </LineString>
        </Placemark>
        <Placemark id="31216">
            <name>Route Segment</name>
            <styleUrl>#31217</styleUrl>
            <LineString id="31215">
                <coordinates>107.5977337,-6.9003863,0.0 107.5976719,-6.900404,0.0 107.5976493,-6.9004086,0.0 107.5976271,-6.9004144,0.0 107.597606,-6.9004235,0.0 107.5975891,-6.9004348,0.0 107.5975669,-6.9004529,0.0 107.5975478,-6.9004761,0.0 107.5975307,-6.9005049,0.0 107.5975109,-6.9005434,0.0 107.5974955,-6.9005724,0.0 107.5974759,-6.9006116,0.0 107.5974523,-6.9006598,0.0</coordinates>
            </LineString>
        </Placemark>
        <Placemark id="31220">
            <name>Jalan Dipatiukur</name>
            <styleUrl>#31221</styleUrl>
            <LineString id="31219">
                <coordinates>107.6174318,-6.8947388,0.0 107.6172839,-6.8949841,0.0 107.617258,-6.8950233,0.0 107.6172155,-6.8950876,0.0 107.6168823,-6.8955917,0.0</coordinates>
            </LineString>
        </Placemark>
        <Placemark id="31224">
            <name>Jalan Pajajaran</name>
            <styleUrl>#31225</styleUrl>
            <LineString id="31223">
                <coordinates>107.5976387,-6.9064293,0.0 107.5976191,-6.9064414,0.0 107.5975949,-6.9064488,0.0 107.5975328,-6.9064531,0.0</coordinates>
            </LineString>
        </Placemark>
        <Placemark id="31228">
            <name>Jalan Cihampelas</name>
            <styleUrl>#31229</styleUrl>
            <LineString id="31227">
                <coordinates>107.6042355,-6.8916244,0.0 107.6042345,-6.8917434,0.0 107.6042347,-6.8922554,0.0 107.6042213,-6.8925111,0.0 107.6041814,-6.8929367,0.0 107.6041718,-6.8930371,0.0 107.6041704,-6.8930508,0.0 107.6041675,-6.8930723,0.0 107.6041636,-6.893105,0.0 107.6041399,-6.8936073,0.0</coordinates>
            </LineString>
        </Placemark>
        <Placemark id="31232">
            <name>Jalan PH. H. Mustofa</name>
            <styleUrl>#31233</styleUrl>
            <LineString id="31231">
                <coordinates>107.6438196,-6.9000127,0.0 107.6439328,-6.9000256,0.0 107.643984,-6.9000314,0.0 107.6442214,-6.9000581,0.0 107.6446479,-6.9001485,0.0 107.6446782,-6.9001599,0.0 107.6448952,-6.9002413,0.0 107.6449808,-6.9002743,0.0 107.6452068,-6.9003719,0.0 107.6452442,-6.900388,0.0 107.6452841,-6.9004052,0.0 107.6453987,-6.9004547,0.0 107.6455117,-6.9005103,0.0 107.6455998,-6.9005537,0.0 107.6457674,-6.9006362,0.0 107.6458421,-6.900673,0.0 107.6461092,-6.9008033,0.0 107.6461914,-6.9008434,0.0 107.6463329,-6.9009168,0.0 107.6464296,-6.900967,0.0 107.6469046,-6.9012136,0.0 107.6469293,-6.9012264,0.0 107.6474504,-6.9014584,0.0 107.6477192,-6.901552,0.0 107.6478569,-6.9015852,0.0 107.6480152,-6.9016027,0.0 107.6481316,-6.9016115,0.0 107.6484583,-6.9016362,0.0 107.6485627,-6.9016441,0.0 107.6490533,-6.9016812,0.0 107.6491826,-6.901691,0.0 107.6497732,-6.9017359,0.0 107.6500375,-6.9017541,0.0 107.650317,-6.9017942,0.0 107.6505985,-6.9018158,0.0 107.65075,-6.9018006,0.0</coordinates>
            </LineString>
        </Placemark>
        <Placemark id="31236">
            <name>Jalan Profesor Christiaan Eijkman</name>
            <styleUrl>#31237</styleUrl>
            <LineString id="31235">
                <coordinates>107.6008463,-6.8959681,0.0 107.6005885,-6.8961348,0.0 107.6003014,-6.8962499,0.0 107.6001433,-6.8962722,0.0 107.5999789,-6.8962674,0.0 107.5993726,-6.8961604,0.0</coordinates>
            </LineString>
        </Placemark>
        <Placemark id="31240">
            <name>Jalan Surapati</name>
            <styleUrl>#31241</styleUrl>
            <LineString id="31239">
                <coordinates>107.6317478,-6.89851,0.0 107.6317973,-6.8984824,0.0 107.6318468,-6.8984548,0.0 107.6318874,-6.8984409,0.0 107.6321413,-6.8983546,0.0 107.6322627,-6.8983133,0.0 107.6323113,-6.8982992,0.0 107.6323546,-6.8982866,0.0 107.6324173,-6.8982682,0.0 107.6324886,-6.8982473,0.0 107.6326134,-6.8982107,0.0 107.632649,-6.8982011,0.0 107.6328162,-6.8981559,0.0 107.6328451,-6.8981481,0.0 107.6329499,-6.8981174,0.0 107.6330521,-6.8980875,0.0 107.6332834,-6.8980179,0.0 107.6336231,-6.897911,0.0 107.6336669,-6.8978975,0.0 107.633968,-6.8978245,0.0 107.6341816,-6.8977908,0.0</coordinates>
            </LineString>
        </Placemark>
        <Placemark id="31244">
            <name>Jalan Surapati</name>
            <styleUrl>#31245</styleUrl>
            <LineString id="31243">
                <coordinates>107.6271231,-6.8994764,0.0 107.6271702,-6.8994872,0.0</coordinates>
            </LineString>
        </Placemark>
        <Placemark id="31248">
            <name>Jalan Surapati</name>
            <styleUrl>#31249</styleUrl>
            <LineString id="31247">
                <coordinates>107.6196186,-6.8993139,0.0 107.6195284,-6.899317,0.0 107.6193467,-6.8993194,0.0</coordinates>
            </LineString>
        </Placemark>
        <Placemark id="31252">
            <name>Jalan HOS. Cokroaminoto</name>
            <styleUrl>#31253</styleUrl>
            <LineString id="31251">
                <coordinates>107.5975702,-6.9053954,0.0 107.5975685,-6.9053623,0.0 107.5975647,-6.9052979,0.0 107.5975641,-6.9052785,0.0 107.5975561,-6.9050098,0.0 107.5975537,-6.9049333,0.0</coordinates>
            </LineString>
        </Placemark>
        <Placemark id="31256">
            <name>Jalan Pasteur</name>
            <styleUrl>#31257</styleUrl>
            <LineString id="31255">
                <coordinates>107.5977317,-6.9002067,0.0 107.5979866,-6.900214,0.0</coordinates>
            </LineString>
        </Placemark>
        <Placemark id="31260">
            <name>Jalan Pasteur</name>
            <styleUrl>#31261</styleUrl>
            <LineString id="31259">
                <coordinates>107.5988975,-6.9003711,0.0 107.5988453,-6.9003703,0.0 107.5985681,-6.9003769,0.0</coordinates>
            </LineString>
        </Placemark>
        <Placemark id="31264">
            <name>Jalan Profesor Christiaan Eijkman</name>
            <styleUrl>#31265</styleUrl>
            <LineString id="31263">
                <coordinates>107.5993726,-6.8961604,0.0 107.5993061,-6.8961476,0.0 107.5989287,-6.8960775,0.0 107.5988179,-6.8960559,0.0 107.5986468,-6.8960201,0.0 107.5985248,-6.8959937,0.0</coordinates>
            </LineString>
        </Placemark>
        <Placemark id="31268">
            <name>Jalan Dipatiukur</name>
            <styleUrl>#31269</styleUrl>
            <LineString id="31267">
                <coordinates>107.6176835,-6.8943336,0.0 107.6177104,-6.8942378,0.0 107.6177564,-6.8941579,0.0 107.6178531,-6.8940151,0.0 107.6178962,-6.8939401,0.0 107.6179191,-6.893871,0.0 107.6179139,-6.8934868,0.0 107.6179108,-6.8934136,0.0 107.6179071,-6.8932726,0.0 107.6178942,-6.8927885,0.0 107.6178794,-6.8926864,0.0 107.6178188,-6.8923923,0.0</coordinates>
            </LineString>
        </Placemark>
        <Placemark id="31272">
            <name>Jalan Dipatiukur</name>
            <styleUrl>#31273</styleUrl>
            <LineString id="31271">
                <coordinates>107.6176835,-6.8943336,0.0 107.6175117,-6.8946008,0.0 107.6174318,-6.8947388,0.0</coordinates>
            </LineString>
        </Placemark>
        <Placemark id="31276">
            <name>Jalan Surapati</name>
            <styleUrl>#31277</styleUrl>
            <LineString id="31275">
                <coordinates>107.6191372,-6.8993236,0.0 107.6190846,-6.8993251,0.0 107.618152,-6.8993732,0.0 107.6180165,-6.8993687,0.0 107.6176554,-6.8993298,0.0 107.6168232,-6.8991861,0.0 107.6167125,-6.8991863,0.0</coordinates>
            </LineString>
        </Placemark>
        <Placemark id="31280">
            <name>Jalan PH. H. Mustofa</name>
            <styleUrl>#31281</styleUrl>
            <LineString id="31279">
                <coordinates>107.6508611,-6.9018087,0.0 107.6511076,-6.9018211,0.0 107.6512496,-6.9018282,0.0 107.6514575,-6.9018387,0.0 107.6521919,-6.901873,0.0 107.6522785,-6.9018762,0.0 107.6525276,-6.9018908,0.0 107.6526167,-6.9018971,0.0 107.6528084,-6.9019067,0.0</coordinates>
            </LineString>
        </Placemark>
        <Placemark id="31284">
            <name>Jalan Surapati</name>
            <styleUrl>#31285</styleUrl>
            <LineString id="31283">
                <coordinates>107.6307582,-6.8992701,0.0 107.6308381,-6.8992037,0.0</coordinates>
            </LineString>
        </Placemark>
        <Placemark id="31288">
            <name>Jalan Surapati</name>
            <styleUrl>#31289</styleUrl>
            <LineString id="31287">
                <coordinates>107.6308381,-6.8992037,0.0 107.6311531,-6.8989603,0.0 107.6312287,-6.8989035,0.0 107.6312754,-6.8988684,0.0 107.6313109,-6.8988418,0.0 107.6313558,-6.8988028,0.0 107.631476,-6.8987124,0.0 107.6317478,-6.89851,0.0</coordinates>
            </LineString>
        </Placemark>
        <Placemark id="31292">
            <name>Jalan Profesor Christiaan Eijkman</name>
            <styleUrl>#31293</styleUrl>
            <LineString id="31291">
                <coordinates>107.5985248,-6.8959937,0.0 107.5984723,-6.8959815,0.0</coordinates>
            </LineString>
        </Placemark>
        <Placemark id="31296">
            <name>Jalan Pajajaran</name>
            <styleUrl>#31297</styleUrl>
            <LineString id="31295">
                <coordinates>107.5959262,-6.9065893,0.0 107.5952568,-6.9066609,0.0 107.595037,-6.9066943,0.0 107.5945793,-6.9067595,0.0 107.5945435,-6.9067649,0.0 107.5942472,-6.906822,0.0 107.5941987,-6.9068309,0.0 107.594084,-6.9068527,0.0 107.5937537,-6.9069123,0.0 107.5936226,-6.9069359,0.0 107.5930436,-6.9070358,0.0</coordinates>
            </LineString>
        </Placemark>
        <Placemark id="31300">
            <name>Jalan Pajajaran</name>
            <styleUrl>#31301</styleUrl>
            <LineString id="31299">
                <coordinates>107.5920701,-6.9071489,0.0 107.5918373,-6.9071242,0.0 107.5916612,-6.9071113,0.0 107.5915994,-6.9071068,0.0 107.5913085,-6.9070897,0.0 107.5911224,-6.9070825,0.0</coordinates>
            </LineString>
        </Placemark>
        <Placemark id="31304">
            <name>Jalan Pajajaran</name>
            <styleUrl>#31305</styleUrl>
            <LineString id="31303">
                <coordinates>107.5906383,-6.9070791,0.0 107.5904897,-6.9070683,0.0 107.5902528,-6.9070511,0.0 107.5892287,-6.9069531,0.0 107.5890575,-6.9069317,0.0 107.5889568,-6.9069197,0.0 107.5888977,-6.9069111,0.0 107.5887781,-6.9068994,0.0 107.5886037,-6.906884,0.0 107.5883918,-6.9068594,0.0 107.588209,-6.9068423,0.0</coordinates>
            </LineString>
        </Placemark>
        <Placemark id="31308">
            <name>Jalan PH. H. Mustofa</name>
            <styleUrl>#31309</styleUrl>
            <LineString id="31307">
                <coordinates>107.6550496,-6.9021051,0.0 107.6548848,-6.9020918,0.0 107.6544663,-6.902058,0.0 107.6544249,-6.9020547,0.0 107.6539164,-6.9020071,0.0 107.6536574,-6.901985,0.0 107.6535575,-6.9019799,0.0 107.653422,-6.9019707,0.0 107.6532778,-6.9019616,0.0 107.6531598,-6.9019541,0.0 107.6531268,-6.901952,0.0 107.6529794,-6.9019446,0.0 107.6528084,-6.9019067,0.0</coordinates>
            </LineString>
        </Placemark>
        <Placemark id="31312">
            <name>Jalan Profesor Christiaan Eijkman</name>
            <styleUrl>#31313</styleUrl>
            <LineString id="31311">
                <coordinates>107.5984723,-6.8959815,0.0 107.5982533,-6.8959337,0.0</coordinates>
            </LineString>
        </Placemark>
        <Placemark id="31316">
            <name>Jalan HOS. Cokroaminoto</name>
            <styleUrl>#31317</styleUrl>
            <LineString id="31315">
                <coordinates>107.5975537,-6.9049333,0.0 107.5975448,-6.904529,0.0 107.5975406,-6.9043005,0.0 107.5975343,-6.9039924,0.0</coordinates>
            </LineString>
        </Placemark>
        <Placemark id="31320">
            <name>Jalan Pajajaran</name>
            <styleUrl>#31321</styleUrl>
            <LineString id="31319">
                <coordinates>107.5968205,-6.9064928,0.0 107.5966166,-6.906518,0.0 107.5964032,-6.9065473,0.0 107.5961119,-6.9066005,0.0 107.5960526,-6.9066041,0.0 107.5959951,-6.9065992,0.0 107.5959262,-6.9065893,0.0</coordinates>
            </LineString>
        </Placemark>
        <Placemark id="31324">
            <name>Jalan Dipatiukur</name>
            <styleUrl>#31325</styleUrl>
            <LineString id="31323">
                <coordinates>107.6143025,-6.885397,0.0 107.614244,-6.8854002,0.0 107.6141397,-6.8853692,0.0</coordinates>
            </LineString>
        </Placemark>
        <Placemark id="31328">
            <name>Jalan Surapati</name>
            <styleUrl>#31329</styleUrl>
            <LineString id="31327">
                <coordinates>107.6271702,-6.8994872,0.0 107.6272181,-6.8994982,0.0</coordinates>
            </LineString>
        </Placemark>
        <Placemark id="31332">
            <name>Route Segment</name>
            <styleUrl>#31333</styleUrl>
            <LineString id="31331">
                <coordinates>107.6010655,-6.9002051,0.0 107.6010646,-6.9003371,0.0 107.6010646,-6.9003568,0.0</coordinates>
            </LineString>
        </Placemark>
        <Placemark id="31336">
            <name>Jalan Cihampelas</name>
            <styleUrl>#31337</styleUrl>
            <LineString id="31335">
                <coordinates>107.6041399,-6.8936073,0.0 107.6040966,-6.8943213,0.0 107.6040947,-6.8943366,0.0 107.6040642,-6.8945463,0.0 107.6040533,-6.8946215,0.0 107.6040475,-6.8946762,0.0 107.6040253,-6.8948583,0.0 107.6040077,-6.8950101,0.0 107.6040043,-6.8950495,0.0 107.6040014,-6.895093,0.0 107.6039768,-6.8955786,0.0 107.6039637,-6.8957293,0.0</coordinates>
            </LineString>
        </Placemark>
        <Placemark id="31340">
            <name>Jalan Dipatiukur</name>
            <styleUrl>#31341</styleUrl>
            <LineString id="31339">
                <coordinates>107.6168134,-6.8905914,0.0 107.6167811,-6.8905771,0.0 107.6166296,-6.8903696,0.0 107.6166223,-6.8903544,0.0 107.6166188,-6.8903399,0.0 107.6166228,-6.8903248,0.0</coordinates>
            </LineString>
        </Placemark>
        <Placemark id="31344">
            <name>Jalan Dipatiukur</name>
            <styleUrl>#31345</styleUrl>
            <LineString id="31343">
                <coordinates>107.6168134,-6.8905914,0.0 107.6169111,-6.890724,0.0 107.6169359,-6.8907603,0.0 107.6170495,-6.8909264,0.0 107.61713,-6.8910441,0.0 107.617163,-6.8910925,0.0 107.6174351,-6.8916075,0.0 107.6174672,-6.8916726,0.0 107.6175776,-6.8918986,0.0 107.6177262,-6.8922028,0.0 107.6177764,-6.8923055,0.0</coordinates>
            </LineString>
        </Placemark>
        <Placemark id="31348">
            <name>Jalan Aruna</name>
            <styleUrl>#31349</styleUrl>
            <LineString id="31347">
                <coordinates>107.5877897,-6.9068561,0.0 107.587786,-6.907013,0.0</coordinates>
            </LineString>
        </Placemark>
        <Placemark id="31352">
            <name>Jalan Sumur Bandung</name>
            <styleUrl>#31353</styleUrl>
            <LineString id="31351">
                <coordinates>107.611879,-6.8863036,0.0 107.6118315,-6.8863082,0.0 107.6117844,-6.8863056,0.0 107.6117382,-6.8862955,0.0 107.6116944,-6.8862782,0.0</coordinates>
            </LineString>
        </Placemark>
        <Placemark id="31356">
            <name>Jalan Siliwangi</name>
            <styleUrl>#31357</styleUrl>
            <LineString id="31355">
                <coordinates>107.6137795,-6.8852589,0.0 107.6137073,-6.8852448,0.0</coordinates>
            </LineString>
        </Placemark>
        <Placemark id="31360">
            <name>Jalan Sederhana</name>
            <styleUrl>#31361</styleUrl>
            <LineString id="31359">
                <coordinates>107.5975318,-6.8966067,0.0 107.5974852,-6.8966564,0.0 107.5974629,-6.8966804,0.0</coordinates>
            </LineString>
        </Placemark>
        <Placemark id="31364">
            <name>Jalan Pasir Kaliki</name>
            <styleUrl>#31365</styleUrl>
            <LineString id="31363">
                <coordinates>107.5974629,-6.8966804,0.0 107.5973832,-6.8967895,0.0 107.5973739,-6.8968101,0.0 107.5973632,-6.8968394,0.0 107.5973563,-6.8969183,0.0 107.5973743,-6.8978579,0.0 107.5973757,-6.8980113,0.0 107.5973829,-6.8982378,0.0 107.5973873,-6.8983517,0.0 107.5973974,-6.8986245,0.0 107.5974,-6.8987139,0.0</coordinates>
            </LineString>
        </Placemark>
        <Placemark id="31368">
            <name>Jalan Surapati</name>
            <styleUrl>#31369</styleUrl>
            <LineString id="31367">
                <coordinates>107.6203167,-6.899282,0.0 107.6200546,-6.8992858,0.0 107.6199728,-6.8992862,0.0 107.6199187,-6.8992847,0.0</coordinates>
            </LineString>
        </Placemark>
        <Placemark id="31372">
            <name>Jalan Pajajaran</name>
            <styleUrl>#31373</styleUrl>
            <LineString id="31371">
                <coordinates>107.5906641,-6.907081,0.0 107.5906383,-6.9070791,0.0</coordinates>
            </LineString>
        </Placemark>
        <Placemark id="31376">
            <name>Jalan Pajajaran</name>
            <styleUrl>#31377</styleUrl>
            <LineString id="31375">
                <coordinates>107.5911224,-6.9070825,0.0 107.5910022,-6.9071149,0.0 107.5906641,-6.907081,0.0</coordinates>
            </LineString>
        </Placemark>
        <Placemark id="31380">
            <name>Jalan Surapati</name>
            <styleUrl>#31381</styleUrl>
            <LineString id="31379">
                <coordinates>107.6193467,-6.8993194,0.0 107.6191372,-6.8993236,0.0</coordinates>
            </LineString>
        </Placemark>
        <Placemark id="31384">
            <name>Jalan Penata Yudha</name>
            <styleUrl>#31385</styleUrl>
            <LineString id="31383">
                <coordinates>107.6155865,-6.8969383,0.0 107.616019,-6.8975661,0.0</coordinates>
            </LineString>
        </Placemark>
        <Placemark id="31388">
            <name>Route Segment</name>
            <styleUrl>#31389</styleUrl>
            <LineString id="31387">
                <coordinates>107.6130507,-6.8990822,0.0 107.6129909,-6.8990718,0.0 107.6129463,-6.8990311,0.0 107.6129308,-6.8989728,0.0 107.6129556,-6.8989156,0.0 107.6129902,-6.89889,0.0 107.6130429,-6.8988772,0.0 107.6131341,-6.8988745,0.0 107.6131975,-6.8988744,0.0 107.6132233,-6.8988692,0.0 107.6132555,-6.8988522,0.0 107.6132841,-6.8988423,0.0</coordinates>
            </LineString>
        </Placemark>
        <Placemark id="31392">
            <name>Jalan Surapati</name>
            <styleUrl>#31393</styleUrl>
            <LineString id="31391">
                <coordinates>107.6198037,-6.8993127,0.0 107.6196186,-6.8993139,0.0</coordinates>
            </LineString>
        </Placemark>
        <Placemark id="31396">
            <name>Jalan Dipatiukur</name>
            <styleUrl>#31397</styleUrl>
            <LineString id="31395">
                <coordinates>107.6141397,-6.8853692,0.0 107.6139313,-6.8853133,0.0 107.6139191,-6.88531,0.0 107.6137795,-6.8852589,0.0</coordinates>
            </LineString>
        </Placemark>
        <Placemark id="31400">
            <name>Jalan Pasir Kaliki</name>
            <styleUrl>#31401</styleUrl>
            <LineString id="31399">
                <coordinates>107.5974075,-6.898977,0.0 107.5974217,-6.8991501,0.0</coordinates>
            </LineString>
        </Placemark>
        <Placemark id="31404">
            <name>Jalan Jenderal Ahmad Yani</name>
            <styleUrl>#31405</styleUrl>
            <LineString id="31403">
                <coordinates>107.6557174,-6.902134,0.0 107.6553391,-6.9021168,0.0 107.6552235,-6.9021121,0.0 107.6550496,-6.9021051,0.0</coordinates>
            </LineString>
        </Placemark>
        <Placemark id="31408">
            <name>Jalan PH. H. Mustofa</name>
            <styleUrl>#31409</styleUrl>
            <LineString id="31407">
                <coordinates>107.6341816,-6.8977908,0.0 107.6343318,-6.8978054,0.0 107.6344445,-6.8978256,0.0 107.6345958,-6.8978604,0.0 107.6349905,-6.8979512,0.0 107.6353023,-6.8980235,0.0 107.6357319,-6.8981263,0.0 107.6358307,-6.8981511,0.0 107.6360412,-6.8982085,0.0 107.6360827,-6.8982198,0.0 107.6361323,-6.8982307,0.0 107.6362093,-6.8982483,0.0 107.6363508,-6.8982807,0.0 107.6365297,-6.8983213,0.0 107.6367332,-6.8983675,0.0 107.6369176,-6.8984093,0.0 107.6369418,-6.8984148,0.0 107.6369918,-6.8984267,0.0 107.6370818,-6.8984481,0.0</coordinates>
            </LineString>
        </Placemark>
        <Placemark id="31412">
            <name>Jalan HOS. Cokroaminoto</name>
            <styleUrl>#31413</styleUrl>
            <LineString id="31411">
                <coordinates>107.5975343,-6.9039924,0.0 107.5975116,-6.9035067,0.0</coordinates>
            </LineString>
        </Placemark>
        <Placemark id="31416">
            <name>Jalan Pasteur</name>
            <styleUrl>#31417</styleUrl>
            <LineString id="31415">
                <coordinates>107.5979866,-6.900214,0.0 107.5985704,-6.900207,0.0</coordinates>
            </LineString>
        </Placemark>
        <Placemark id="31420">
            <name>Jalan Pasteur</name>
            <styleUrl>#31421</styleUrl>
            <LineString id="31419">
                <coordinates>107.5985681,-6.9003769,0.0 107.5982442,-6.9003802,0.0</coordinates>
            </LineString>
        </Placemark>
        <Placemark id="31424">
            <name>Route Segment</name>
            <styleUrl>#31425</styleUrl>
            <LineString id="31423">
                <coordinates>107.6562486,-6.9024172,0.0 107.6562434,-6.9023005,0.0 107.6562379,-6.9021633,0.0</coordinates>
            </LineString>
        </Placemark>
        <Placemark id="31428">
            <name>Jalan Pasteur</name>
            <styleUrl>#31429</styleUrl>
            <LineString id="31427">
                <coordinates>107.5988968,-6.9002096,0.0 107.5993001,-6.900202,0.0</coordinates>
            </LineString>
        </Placemark>
        <Placemark id="31432">
            <name>Jalan Pasteur</name>
            <styleUrl>#31433</styleUrl>
            <LineString id="31431">
                <coordinates>107.5995868,-6.9003613,0.0 107.5988975,-6.9003711,0.0</coordinates>
            </LineString>
        </Placemark>
        <Placemark id="31436">
            <name>Jalan Pajajaran</name>
            <styleUrl>#31437</styleUrl>
            <LineString id="31435">
                <coordinates>107.5930436,-6.9070358,0.0 107.592893,-6.9070548,0.0 107.5928538,-6.9070598,0.0 107.5926825,-6.9070846,0.0 107.5925401,-6.9070991,0.0 107.5923942,-6.9071118,0.0 107.592239,-6.9071272,0.0 107.5920701,-6.9071489,0.0</coordinates>
            </LineString>
        </Placemark>
        <Placemark id="31440">
            <name>Jalan Arjuna</name>
            <styleUrl>#31441</styleUrl>
            <LineString id="31439">
                <coordinates>107.5894771,-6.9112533,0.0 107.5894865,-6.9112733,0.0 107.5894871,-6.9112953,0.0 107.5894789,-6.9113158,0.0 107.5894633,-6.9113314,0.0</coordinates>
            </LineString>
        </Placemark>
        <Placemark id="31444">
            <name>Jalan Arjuna</name>
            <styleUrl>#31445</styleUrl>
            <LineString id="31443">
                <coordinates>107.5894511,-6.9112342,0.0 107.5894655,-6.9112418,0.0 107.5894771,-6.9112533,0.0</coordinates>
            </LineString>
        </Placemark>
        <Placemark id="31448">
            <name>Jalan Layang Ciroyom</name>
            <styleUrl>#31449</styleUrl>
            <LineString id="31447">
                <coordinates>107.5869574,-6.9132909,0.0 107.587254,-6.913434,0.0</coordinates>
            </LineString>
        </Placemark>
        <Placemark id="31452">
            <name>Jalan Layang Ciroyom</name>
            <styleUrl>#31453</styleUrl>
            <LineString id="31451">
                <coordinates>107.5893166,-6.9121005,0.0 107.5893455,-6.911919,0.0</coordinates>
            </LineString>
        </Placemark>
        <Placemark id="31456">
            <name>Jalan Layang Ciroyom</name>
            <styleUrl>#31457</styleUrl>
            <LineString id="31455">
                <coordinates>107.587254,-6.913434,0.0 107.588191,-6.9137939,0.0 107.588437,-6.9138722,0.0 107.5885401,-6.9138874,0.0 107.5886196,-6.9138868,0.0 107.588728,-6.9138625,0.0 107.5888188,-6.9138239,0.0 107.588893,-6.9137668,0.0 107.5889601,-6.9136911,0.0 107.5890025,-6.9136299,0.0 107.5890418,-6.9135555,0.0 107.5890796,-6.9134472,0.0 107.5890983,-6.9133449,0.0 107.5891155,-6.9132456,0.0 107.5893166,-6.9121005,0.0</coordinates>
            </LineString>
        </Placemark>
        <Placemark id="31460">
            <name>Jalan Tamansari</name>
            <styleUrl>#31461</styleUrl>
            <LineString id="31459">
                <coordinates>107.6115252,-6.88503,0.0 107.6114877,-6.8849719,0.0 107.6114403,-6.8848984,0.0 107.6113963,-6.8848321,0.0</coordinates>
            </LineString>
        </Placemark>
        <Placemark id="31464">
            <name>Jalan Pajajaran</name>
            <styleUrl>#31465</styleUrl>
            <LineString id="31463">
                <coordinates>107.588209,-6.9068423,0.0 107.5881464,-6.9068364,0.0 107.5880555,-6.9068315,0.0 107.5879978,-6.9068303,0.0 107.5879768,-6.9068298,0.0 107.5879555,-6.9068304,0.0 107.5879312,-6.9068311,0.0 107.5878886,-6.9068344,0.0 107.5878356,-6.9068448,0.0 107.5877897,-6.9068561,0.0</coordinates>
            </LineString>
        </Placemark>
        <Placemark id="31468">
            <name>Jalan Surapati</name>
            <styleUrl>#31469</styleUrl>
            <LineString id="31467">
                <coordinates>107.6223481,-6.8992387,0.0 107.6222912,-6.89924,0.0 107.6219809,-6.8992472,0.0 107.621918,-6.8992487,0.0 107.6217223,-6.8992532,0.0 107.6214704,-6.899259,0.0 107.6211738,-6.8992659,0.0 107.6211439,-6.8992666,0.0 107.6209968,-6.89927,0.0 107.6208185,-6.8992742,0.0 107.6207835,-6.8992747,0.0 107.6206166,-6.8992773,0.0 107.6204436,-6.89928,0.0 107.6203701,-6.8992825,0.0 107.6203167,-6.899282,0.0</coordinates>
            </LineString>
        </Placemark>
        <Placemark id="31472">
            <name>Jalan Penata Yudha</name>
            <styleUrl>#31473</styleUrl>
            <LineString id="31471">
                <coordinates>107.6161352,-6.898308,0.0 107.6160286,-6.8989397,0.0</coordinates>
            </LineString>
        </Placemark>
        <Placemark id="31476">
            <name>Jalan Profesor Christiaan Eijkman</name>
            <styleUrl>#31477</styleUrl>
            <LineString id="31475">
                <coordinates>107.6029736,-6.8957696,0.0 107.6024711,-6.8957932,0.0 107.6022992,-6.895799,0.0 107.602268,-6.8958001,0.0</coordinates>
            </LineString>
        </Placemark>
        <Placemark id="31480">
            <name>Jalan PH. H. Mustofa</name>
            <styleUrl>#31481</styleUrl>
            <LineString id="31479">
                <coordinates>107.65075,-6.9018006,0.0 107.6508611,-6.9018087,0.0</coordinates>
            </LineString>
        </Placemark>
        <Placemark id="31484">
            <name>Jalan Ciroyom</name>
            <styleUrl>#31485</styleUrl>
            <LineString id="31483">
                <coordinates>107.5867539,-6.9131493,0.0 107.5869544,-6.9132359,0.0 107.5872782,-6.9133614,0.0 107.5877361,-6.9135372,0.0 107.5883921,-6.9137814,0.0 107.5889327,-6.9139693,0.0 107.5890718,-6.914024,0.0</coordinates>
            </LineString>
        </Placemark>
        <Placemark id="31488">
            <name>Jalan PH. H. Mustofa</name>
            <styleUrl>#31489</styleUrl>
            <LineString id="31487">
                <coordinates>107.6417839,-6.8995613,0.0 107.6420026,-6.8996132,0.0 107.6420884,-6.8996335,0.0 107.6421976,-6.8996594,0.0 107.6422944,-6.8996824,0.0 107.6424647,-6.8997229,0.0 107.6426735,-6.8997726,0.0 107.64279,-6.8998003,0.0 107.642932,-6.8998339,0.0 107.6429728,-6.8998436,0.0 107.6431044,-6.8998716,0.0 107.6434139,-6.8999482,0.0</coordinates>
            </LineString>
        </Placemark>
        <Placemark id="31492">
            <name>Jalan Layang Ciroyom</name>
            <styleUrl>#31493</styleUrl>
            <LineString id="31491">
                <coordinates>107.5869574,-6.9132909,0.0 107.5867121,-6.9132166,0.0</coordinates>
            </LineString>
        </Placemark>
        <Placemark id="31496">
            <name>Route Segment</name>
            <styleUrl>#31497</styleUrl>
            <LineString id="31495">
                <coordinates>107.5860843,-6.9128486,0.0 107.5860597,-6.9128206,0.0 107.5860543,-6.912807,0.0 107.586055,-6.9127863,0.0 107.5860709,-6.9127681,0.0 107.5860877,-6.9127622,0.0 107.586119,-6.9127619,0.0</coordinates>
            </LineString>
        </Placemark>
        <Placemark id="31500">
            <name>Jalan Dipatiukur</name>
            <styleUrl>#31501</styleUrl>
            <LineString id="31499">
                <coordinates>107.6177764,-6.8923055,0.0 107.6178188,-6.8923923,0.0</coordinates>
            </LineString>
        </Placemark>
        <Placemark id="31504">
            <name>Jalan Layang Ciroyom</name>
            <styleUrl>#31505</styleUrl>
            <LineString id="31503">
                <coordinates>107.5894064,-6.9117422,0.0 107.5893455,-6.911919,0.0</coordinates>
            </LineString>
        </Placemark>
        <Placemark id="31508">
            <name>Jalan Arjuna</name>
            <styleUrl>#31509</styleUrl>
            <LineString id="31507">
                <coordinates>107.5894633,-6.9113314,0.0 107.5894584,-6.9114138,0.0 107.5894414,-6.9115309,0.0 107.5894278,-6.9116169,0.0 107.5894064,-6.9117422,0.0</coordinates>
            </LineString>
        </Placemark>
        <Placemark id="31512">
            <name>Jalan Ciroyom</name>
            <styleUrl>#31513</styleUrl>
            <LineString id="31511">
                <coordinates>107.586119,-6.9127619,0.0 107.5867539,-6.9131493,0.0</coordinates>
            </LineString>
        </Placemark>
        <Placemark id="31516">
            <name>Jalan Surapati</name>
            <styleUrl>#31517</styleUrl>
            <LineString id="31515">
                <coordinates>107.6270152,-6.8994551,0.0 107.6266471,-6.8993704,0.0 107.6263009,-6.8992772,0.0 107.6261407,-6.8992562,0.0 107.6259835,-6.8992435,0.0 107.6249087,-6.8992398,0.0 107.6247134,-6.899237,0.0 107.6246032,-6.8992359,0.0 107.6245252,-6.8992351,0.0 107.6244668,-6.8992345,0.0 107.6240029,-6.8992263,0.0 107.6238928,-6.8992271,0.0 107.623733,-6.8992253,0.0 107.623673,-6.8992256,0.0 107.6236214,-6.8992259,0.0 107.6234921,-6.8992266,0.0 107.6232693,-6.8992279,0.0 107.6232237,-6.8992281,0.0 107.6228751,-6.89923,0.0 107.6227599,-6.8992307,0.0 107.6226727,-6.8992312,0.0 107.6225131,-6.8992349,0.0 107.6224238,-6.899237,0.0 107.6223481,-6.8992387,0.0</coordinates>
            </LineString>
        </Placemark>
        <Placemark id="31520">
            <name>Jalan Dipatiukur</name>
            <styleUrl>#31521</styleUrl>
            <LineString id="31519">
                <coordinates>107.6156977,-6.8886991,0.0 107.6158021,-6.8889815,0.0 107.6158539,-6.889097,0.0 107.6158888,-6.8891749,0.0 107.6160343,-6.8894728,0.0</coordinates>
            </LineString>
        </Placemark>
        <Placemark id="31524">
            <name>Jalan Dipatiukur</name>
            <styleUrl>#31525</styleUrl>
            <LineString id="31523">
                <coordinates>107.6160343,-6.8894728,0.0 107.6165653,-6.8902412,0.0 107.616618,-6.8903175,0.0 107.6166228,-6.8903248,0.0</coordinates>
            </LineString>
        </Placemark>
        <Placemark id="31528">
            <name>Jalan Ciroyom</name>
            <styleUrl>#31529</styleUrl>
            <LineString id="31527">
                <coordinates>107.5867121,-6.9132166,0.0 107.586425,-6.9130541,0.0</coordinates>
            </LineString>
        </Placemark>
        <Placemark id="31532">
            <name>Jalan Ciroyom</name>
            <styleUrl>#31533</styleUrl>
            <LineString id="31531">
                <coordinates>107.586425,-6.9130541,0.0 107.5860843,-6.9128486,0.0</coordinates>
            </LineString>
        </Placemark>
        <Placemark id="31536">
            <name>Jalan Arjuna</name>
            <styleUrl>#31537</styleUrl>
            <LineString id="31535">
                <coordinates>107.5890718,-6.914024,0.0 107.5890644,-6.914151,0.0</coordinates>
            </LineString>
        </Placemark>
        <Placemark id="31540">
            <name>Jalan Surapati</name>
            <styleUrl>#31541</styleUrl>
            <LineString id="31539">
                <coordinates>107.6166576,-6.8991786,0.0 107.616386,-6.8991446,0.0 107.6161849,-6.8991228,0.0</coordinates>
            </LineString>
        </Placemark>
    </Document>
</kml>
