<?xml version="1.0" encoding="UTF-8"?>
<kml xmlns="http://www.opengis.net/kml/2.2" xmlns:gx="http://www.google.com/kml/ext/2.2">
    <Document id="33356">
        <Style id="33362">
            <IconStyle id="33363">
                <colorMode>normal</colorMode>
                <scale>1</scale>
                <heading>0</heading>
                <Icon id="33364">
                    <href>http://maps.google.com/mapfiles/kml/pushpin/ylw-pushpin.png</href>
                </Icon>
            </IconStyle>
        </Style>
        <Style id="33367">
            <IconStyle id="33368">
                <colorMode>normal</colorMode>
                <scale>1</scale>
                <heading>0</heading>
                <Icon id="33369">
                    <href>http://maps.google.com/mapfiles/kml/pushpin/ylw-pushpin.png</href>
                </Icon>
            </IconStyle>
        </Style>
        <Style id="33372">
            <LineStyle id="33373">
                <color>ff45C27C</color>
                <colorMode>normal</colorMode>
                <width>4</width>
            </LineStyle>
        </Style>
        <Style id="33376">
            <LineStyle id="33377">
                <color>ff45C27C</color>
                <colorMode>normal</colorMode>
                <width>4</width>
            </LineStyle>
        </Style>
        <Style id="33380">
            <LineStyle id="33381">
                <color>ff45C27C</color>
                <colorMode>normal</colorMode>
                <width>4</width>
            </LineStyle>
        </Style>
        <Style id="33384">
            <LineStyle id="33385">
                <color>ff45C27C</color>
                <colorMode>normal</colorMode>
                <width>4</width>
            </LineStyle>
        </Style>
        <Style id="33388">
            <LineStyle id="33389">
                <color>ff45C27C</color>
                <colorMode>normal</colorMode>
                <width>4</width>
            </LineStyle>
        </Style>
        <Style id="33392">
            <LineStyle id="33393">
                <color>ff45C27C</color>
                <colorMode>normal</colorMode>
                <width>4</width>
            </LineStyle>
        </Style>
        <Style id="33396">
            <LineStyle id="33397">
                <color>ff45C27C</color>
                <colorMode>normal</colorMode>
                <width>4</width>
            </LineStyle>
        </Style>
        <Style id="33400">
            <LineStyle id="33401">
                <color>ff45C27C</color>
                <colorMode>normal</colorMode>
                <width>4</width>
            </LineStyle>
        </Style>
        <Style id="33404">
            <LineStyle id="33405">
                <color>ff45C27C</color>
                <colorMode>normal</colorMode>
                <width>4</width>
            </LineStyle>
        </Style>
        <Style id="33408">
            <LineStyle id="33409">
                <color>ff45C27C</color>
                <colorMode>normal</colorMode>
                <width>4</width>
            </LineStyle>
        </Style>
        <Style id="33412">
            <LineStyle id="33413">
                <color>ff45C27C</color>
                <colorMode>normal</colorMode>
                <width>4</width>
            </LineStyle>
        </Style>
        <Style id="33416">
            <LineStyle id="33417">
                <color>ff45C27C</color>
                <colorMode>normal</colorMode>
                <width>4</width>
            </LineStyle>
        </Style>
        <Style id="33420">
            <LineStyle id="33421">
                <color>ff45C27C</color>
                <colorMode>normal</colorMode>
                <width>4</width>
            </LineStyle>
        </Style>
        <Style id="33424">
            <LineStyle id="33425">
                <color>ff45C27C</color>
                <colorMode>normal</colorMode>
                <width>4</width>
            </LineStyle>
        </Style>
        <Style id="33428">
            <LineStyle id="33429">
                <color>ff45C27C</color>
                <colorMode>normal</colorMode>
                <width>4</width>
            </LineStyle>
        </Style>
        <Style id="33432">
            <LineStyle id="33433">
                <color>ff45C27C</color>
                <colorMode>normal</colorMode>
                <width>4</width>
            </LineStyle>
        </Style>
        <Style id="33436">
            <LineStyle id="33437">
                <color>ff45C27C</color>
                <colorMode>normal</colorMode>
                <width>4</width>
            </LineStyle>
        </Style>
        <Style id="33440">
            <LineStyle id="33441">
                <color>ff45C27C</color>
                <colorMode>normal</colorMode>
                <width>4</width>
            </LineStyle>
        </Style>
        <Style id="33444">
            <LineStyle id="33445">
                <color>ff45C27C</color>
                <colorMode>normal</colorMode>
                <width>4</width>
            </LineStyle>
        </Style>
        <Style id="33448">
            <LineStyle id="33449">
                <color>ff45C27C</color>
                <colorMode>normal</colorMode>
                <width>4</width>
            </LineStyle>
        </Style>
        <Style id="33452">
            <LineStyle id="33453">
                <color>ff45C27C</color>
                <colorMode>normal</colorMode>
                <width>4</width>
            </LineStyle>
        </Style>
        <Style id="33456">
            <LineStyle id="33457">
                <color>ff45C27C</color>
                <colorMode>normal</colorMode>
                <width>4</width>
            </LineStyle>
        </Style>
        <Style id="33460">
            <LineStyle id="33461">
                <color>ff45C27C</color>
                <colorMode>normal</colorMode>
                <width>4</width>
            </LineStyle>
        </Style>
        <Style id="33464">
            <LineStyle id="33465">
                <color>ff45C27C</color>
                <colorMode>normal</colorMode>
                <width>4</width>
            </LineStyle>
        </Style>
        <Style id="33468">
            <LineStyle id="33469">
                <color>ff45C27C</color>
                <colorMode>normal</colorMode>
                <width>4</width>
            </LineStyle>
        </Style>
        <Style id="33472">
            <LineStyle id="33473">
                <color>ff45C27C</color>
                <colorMode>normal</colorMode>
                <width>4</width>
            </LineStyle>
        </Style>
        <Style id="33476">
            <LineStyle id="33477">
                <color>ff45C27C</color>
                <colorMode>normal</colorMode>
                <width>4</width>
            </LineStyle>
        </Style>
        <Style id="33480">
            <LineStyle id="33481">
                <color>ff45C27C</color>
                <colorMode>normal</colorMode>
                <width>4</width>
            </LineStyle>
        </Style>
        <Style id="33484">
            <LineStyle id="33485">
                <color>ff45C27C</color>
                <colorMode>normal</colorMode>
                <width>4</width>
            </LineStyle>
        </Style>
        <Style id="33488">
            <LineStyle id="33489">
                <color>ff45C27C</color>
                <colorMode>normal</colorMode>
                <width>4</width>
            </LineStyle>
        </Style>
        <Style id="33492">
            <LineStyle id="33493">
                <color>ff45C27C</color>
                <colorMode>normal</colorMode>
                <width>4</width>
            </LineStyle>
        </Style>
        <Style id="33496">
            <LineStyle id="33497">
                <color>ff45C27C</color>
                <colorMode>normal</colorMode>
                <width>4</width>
            </LineStyle>
        </Style>
        <Style id="33500">
            <LineStyle id="33501">
                <color>ff45C27C</color>
                <colorMode>normal</colorMode>
                <width>4</width>
            </LineStyle>
        </Style>
        <Style id="33504">
            <LineStyle id="33505">
                <color>ff45C27C</color>
                <colorMode>normal</colorMode>
                <width>4</width>
            </LineStyle>
        </Style>
        <Style id="33508">
            <LineStyle id="33509">
                <color>ff45C27C</color>
                <colorMode>normal</colorMode>
                <width>4</width>
            </LineStyle>
        </Style>
        <Style id="33512">
            <LineStyle id="33513">
                <color>ff45C27C</color>
                <colorMode>normal</colorMode>
                <width>4</width>
            </LineStyle>
        </Style>
        <Style id="33516">
            <LineStyle id="33517">
                <color>ff45C27C</color>
                <colorMode>normal</colorMode>
                <width>4</width>
            </LineStyle>
        </Style>
        <Style id="33520">
            <LineStyle id="33521">
                <color>ff45C27C</color>
                <colorMode>normal</colorMode>
                <width>4</width>
            </LineStyle>
        </Style>
        <Style id="33524">
            <LineStyle id="33525">
                <color>ff45C27C</color>
                <colorMode>normal</colorMode>
                <width>4</width>
            </LineStyle>
        </Style>
        <Style id="33528">
            <LineStyle id="33529">
                <color>ff45C27C</color>
                <colorMode>normal</colorMode>
                <width>4</width>
            </LineStyle>
        </Style>
        <Style id="33532">
            <LineStyle id="33533">
                <color>ff45C27C</color>
                <colorMode>normal</colorMode>
                <width>4</width>
            </LineStyle>
        </Style>
        <Style id="33536">
            <LineStyle id="33537">
                <color>ff45C27C</color>
                <colorMode>normal</colorMode>
                <width>4</width>
            </LineStyle>
        </Style>
        <Style id="33540">
            <LineStyle id="33541">
                <color>ff45C27C</color>
                <colorMode>normal</colorMode>
                <width>4</width>
            </LineStyle>
        </Style>
        <Style id="33544">
            <LineStyle id="33545">
                <color>ff45C27C</color>
                <colorMode>normal</colorMode>
                <width>4</width>
            </LineStyle>
        </Style>
        <Style id="33548">
            <LineStyle id="33549">
                <color>ff45C27C</color>
                <colorMode>normal</colorMode>
                <width>4</width>
            </LineStyle>
        </Style>
        <Style id="33552">
            <LineStyle id="33553">
                <color>ff45C27C</color>
                <colorMode>normal</colorMode>
                <width>4</width>
            </LineStyle>
        </Style>
        <Style id="33556">
            <LineStyle id="33557">
                <color>ff45C27C</color>
                <colorMode>normal</colorMode>
                <width>4</width>
            </LineStyle>
        </Style>
        <Style id="33560">
            <LineStyle id="33561">
                <color>ff45C27C</color>
                <colorMode>normal</colorMode>
                <width>4</width>
            </LineStyle>
        </Style>
        <Style id="33564">
            <LineStyle id="33565">
                <color>ff45C27C</color>
                <colorMode>normal</colorMode>
                <width>4</width>
            </LineStyle>
        </Style>
        <Style id="33568">
            <LineStyle id="33569">
                <color>ff45C27C</color>
                <colorMode>normal</colorMode>
                <width>4</width>
            </LineStyle>
        </Style>
        <Style id="33572">
            <LineStyle id="33573">
                <color>ff45C27C</color>
                <colorMode>normal</colorMode>
                <width>4</width>
            </LineStyle>
        </Style>
        <Style id="33576">
            <LineStyle id="33577">
                <color>ff45C27C</color>
                <colorMode>normal</colorMode>
                <width>4</width>
            </LineStyle>
        </Style>
        <Style id="33580">
            <LineStyle id="33581">
                <color>ff45C27C</color>
                <colorMode>normal</colorMode>
                <width>4</width>
            </LineStyle>
        </Style>
        <Style id="33584">
            <LineStyle id="33585">
                <color>ff45C27C</color>
                <colorMode>normal</colorMode>
                <width>4</width>
            </LineStyle>
        </Style>
        <Style id="33588">
            <LineStyle id="33589">
                <color>ff45C27C</color>
                <colorMode>normal</colorMode>
                <width>4</width>
            </LineStyle>
        </Style>
        <Style id="33592">
            <LineStyle id="33593">
                <color>ff45C27C</color>
                <colorMode>normal</colorMode>
                <width>4</width>
            </LineStyle>
        </Style>
        <Style id="33596">
            <LineStyle id="33597">
                <color>ff45C27C</color>
                <colorMode>normal</colorMode>
                <width>4</width>
            </LineStyle>
        </Style>
        <Style id="33600">
            <LineStyle id="33601">
                <color>ff45C27C</color>
                <colorMode>normal</colorMode>
                <width>4</width>
            </LineStyle>
        </Style>
        <Style id="33604">
            <LineStyle id="33605">
                <color>ff45C27C</color>
                <colorMode>normal</colorMode>
                <width>4</width>
            </LineStyle>
        </Style>
        <Style id="33608">
            <LineStyle id="33609">
                <color>ff45C27C</color>
                <colorMode>normal</colorMode>
                <width>4</width>
            </LineStyle>
        </Style>
        <Style id="33612">
            <LineStyle id="33613">
                <color>ff45C27C</color>
                <colorMode>normal</colorMode>
                <width>4</width>
            </LineStyle>
        </Style>
        <Style id="33616">
            <LineStyle id="33617">
                <color>ff45C27C</color>
                <colorMode>normal</colorMode>
                <width>4</width>
            </LineStyle>
        </Style>
        <Style id="33620">
            <LineStyle id="33621">
                <color>ff45C27C</color>
                <colorMode>normal</colorMode>
                <width>4</width>
            </LineStyle>
        </Style>
        <Style id="33624">
            <LineStyle id="33625">
                <color>ff45C27C</color>
                <colorMode>normal</colorMode>
                <width>4</width>
            </LineStyle>
        </Style>
        <Style id="33628">
            <LineStyle id="33629">
                <color>ff45C27C</color>
                <colorMode>normal</colorMode>
                <width>4</width>
            </LineStyle>
        </Style>
        <Style id="33632">
            <LineStyle id="33633">
                <color>ff45C27C</color>
                <colorMode>normal</colorMode>
                <width>4</width>
            </LineStyle>
        </Style>
        <Style id="33636">
            <LineStyle id="33637">
                <color>ff45C27C</color>
                <colorMode>normal</colorMode>
                <width>4</width>
            </LineStyle>
        </Style>
        <Style id="33640">
            <LineStyle id="33641">
                <color>ff45C27C</color>
                <colorMode>normal</colorMode>
                <width>4</width>
            </LineStyle>
        </Style>
        <Style id="33644">
            <LineStyle id="33645">
                <color>ff45C27C</color>
                <colorMode>normal</colorMode>
                <width>4</width>
            </LineStyle>
        </Style>
        <Style id="33648">
            <LineStyle id="33649">
                <color>ff45C27C</color>
                <colorMode>normal</colorMode>
                <width>4</width>
            </LineStyle>
        </Style>
        <Style id="33652">
            <LineStyle id="33653">
                <color>ff45C27C</color>
                <colorMode>normal</colorMode>
                <width>4</width>
            </LineStyle>
        </Style>
        <ExtendedData>
            <Data name="route-name">
                <value>08: Leuwipanjang → Kiara Artha</value>
            </Data>
            <Data name="source">
                <value>Transport for Bandung</value>
            </Data>
        </ExtendedData>
        <Placemark id="33361">
            <name>Leuwipanjang Soekarno Hatta</name>
            <styleUrl>#33362</styleUrl>
            <Point id="33360">
                <coordinates>107.5934341,-6.9468277,0.0</coordinates>
            </Point>
        </Placemark>
        <Placemark id="33366">
            <name>Seberang Kiara Artha</name>
            <styleUrl>#33367</styleUrl>
            <Point id="33365">
                <coordinates>107.6438226,-6.9146708,0.0</coordinates>
            </Point>
        </Placemark>
        <Placemark id="33371">
            <name>Jalan Soekarno-Hatta</name>
            <styleUrl>#33372</styleUrl>
            <LineString id="33370">
                <coordinates>107.6336406,-6.9478818,0.0 107.6337248,-6.9478543,0.0 107.6338763,-6.9478077,0.0 107.6340014,-6.9477692,0.0 107.6341745,-6.9477159,0.0 107.6348946,-6.9474943,0.0 107.6350137,-6.9474577,0.0 107.6350586,-6.9474439,0.0 107.6350976,-6.9474319,0.0 107.6352499,-6.947385,0.0 107.6355559,-6.9472909,0.0 107.6359684,-6.9471669,0.0 107.6359872,-6.9471621,0.0 107.6360687,-6.9471331,0.0 107.636143,-6.9471102,0.0 107.6363926,-6.9470334,0.0 107.636644,-6.9469561,0.0 107.6367049,-6.9469373,0.0 107.6370708,-6.9468247,0.0 107.6373665,-6.9467337,0.0 107.638253,-6.946461,0.0 107.638452,-6.9463942,0.0 107.6385798,-6.9463604,0.0 107.6390869,-6.9462044,0.0 107.6391553,-6.9461833,0.0 107.6395007,-6.946077,0.0 107.6395637,-6.9460577,0.0 107.639643,-6.9460333,0.0 107.6399381,-6.9459425,0.0 107.6400313,-6.9459138,0.0 107.6400988,-6.945893,0.0</coordinates>
            </LineString>
        </Placemark>
        <Placemark id="33375">
            <name>Jalan Soekarno-Hatta</name>
            <styleUrl>#33376</styleUrl>
            <LineString id="33374">
                <coordinates>107.621611,-6.9491677,0.0 107.6219888,-6.9491964,0.0</coordinates>
            </LineString>
        </Placemark>
        <Placemark id="33379">
            <name>Jalan Soekarno-Hatta</name>
            <styleUrl>#33380</styleUrl>
            <LineString id="33378">
                <coordinates>107.6219888,-6.9491964,0.0 107.6225159,-6.949235,0.0 107.6230228,-6.9492832,0.0 107.6232787,-6.9493075,0.0 107.6236074,-6.9493402,0.0 107.6244902,-6.949411,0.0 107.6248137,-6.9494301,0.0 107.6249026,-6.9494354,0.0</coordinates>
            </LineString>
        </Placemark>
        <Placemark id="33383">
            <name>Jalan Soekarno-Hatta</name>
            <styleUrl>#33384</styleUrl>
            <LineString id="33382">
                <coordinates>107.6124767,-6.9485183,0.0 107.6126412,-6.9485299,0.0 107.6133504,-6.9485797,0.0 107.6138166,-6.9486125,0.0 107.6139137,-6.9486193,0.0 107.6139666,-6.9486231,0.0 107.6149203,-6.9486901,0.0 107.617101,-6.9488435,0.0 107.6176781,-6.9488841,0.0 107.6184763,-6.9489402,0.0 107.6185979,-6.9489488,0.0 107.619152,-6.9489877,0.0 107.6192839,-6.948997,0.0 107.6196694,-6.9490241,0.0</coordinates>
            </LineString>
        </Placemark>
        <Placemark id="33387">
            <name>Jalan Soekarno-Hatta</name>
            <styleUrl>#33388</styleUrl>
            <LineString id="33386">
                <coordinates>107.6215191,-6.9491613,0.0 107.6215656,-6.9491645,0.0 107.621611,-6.9491677,0.0</coordinates>
            </LineString>
        </Placemark>
        <Placemark id="33391">
            <name>Jalan Soekarno-Hatta</name>
            <styleUrl>#33392</styleUrl>
            <LineString id="33390">
                <coordinates>107.6094101,-6.9482727,0.0 107.6097206,-6.9482923,0.0</coordinates>
            </LineString>
        </Placemark>
        <Placemark id="33395">
            <name>Jalan Soekarno-Hatta</name>
            <styleUrl>#33396</styleUrl>
            <LineString id="33394">
                <coordinates>107.6400988,-6.945893,0.0 107.6404015,-6.9458025,0.0</coordinates>
            </LineString>
        </Placemark>
        <Placemark id="33399">
            <name>Jalan H. Ibrahim Adjie</name>
            <styleUrl>#33400</styleUrl>
            <LineString id="33398">
                <coordinates>107.6444657,-6.9265517,0.0 107.6444244,-6.9252812,0.0 107.6444061,-6.9246399,0.0 107.6443982,-6.9245298,0.0 107.6443956,-6.9244413,0.0 107.6443928,-6.9243799,0.0 107.6443899,-6.9243186,0.0 107.644388,-6.924264,0.0 107.6443857,-6.9242173,0.0 107.6443827,-6.9241638,0.0 107.6443757,-6.9240244,0.0 107.6443679,-6.9238694,0.0 107.6443617,-6.9237462,0.0 107.6443436,-6.9232255,0.0 107.6443266,-6.9228161,0.0 107.6443166,-6.9225944,0.0 107.6442979,-6.9222722,0.0 107.6442877,-6.9220961,0.0 107.6442701,-6.9217938,0.0</coordinates>
            </LineString>
        </Placemark>
        <Placemark id="33403">
            <name>Jalan H. Ibrahim Adjie</name>
            <styleUrl>#33404</styleUrl>
            <LineString id="33402">
                <coordinates>107.6437464,-6.9137765,0.0 107.6437495,-6.9138071,0.0 107.6437714,-6.9141195,0.0</coordinates>
            </LineString>
        </Placemark>
        <Placemark id="33407">
            <name>Jalan H. Ibrahim Adjie</name>
            <styleUrl>#33408</styleUrl>
            <LineString id="33406">
                <coordinates>107.6420981,-6.9411497,0.0 107.6421015,-6.9410976,0.0</coordinates>
            </LineString>
        </Placemark>
        <Placemark id="33411">
            <name>Jalan Soekarno-Hatta</name>
            <styleUrl>#33412</styleUrl>
            <LineString id="33410">
                <coordinates>107.6404015,-6.9458025,0.0 107.6404102,-6.9458005,0.0 107.6404977,-6.9457738,0.0 107.6405916,-6.9457492,0.0 107.6406739,-6.9457264,0.0 107.6408783,-6.9456725,0.0 107.6410307,-6.9456323,0.0 107.6411836,-6.9455872,0.0 107.641371,-6.945532,0.0 107.6413988,-6.945524,0.0</coordinates>
            </LineString>
        </Placemark>
        <Placemark id="33415">
            <name>Jalan H. Ibrahim Adjie</name>
            <styleUrl>#33416</styleUrl>
            <LineString id="33414">
                <coordinates>107.6436788,-6.9137868,0.0 107.6436624,-6.9136323,0.0</coordinates>
            </LineString>
        </Placemark>
        <Placemark id="33419">
            <name>Jalan H. Ibrahim Adjie</name>
            <styleUrl>#33420</styleUrl>
            <LineString id="33418">
                <coordinates>107.6437311,-6.913624,0.0 107.6437464,-6.9137765,0.0</coordinates>
            </LineString>
        </Placemark>
        <Placemark id="33423">
            <name>Jalan Soekarno-Hatta</name>
            <styleUrl>#33424</styleUrl>
            <LineString id="33422">
                <coordinates>107.6054387,-6.9480071,0.0 107.6057218,-6.9480258,0.0 107.6059845,-6.9480432,0.0 107.6061148,-6.9480518,0.0 107.6064402,-6.9480733,0.0 107.6065499,-6.9480806,0.0 107.6067107,-6.9480912,0.0 107.6070517,-6.9481138,0.0 107.6072302,-6.9481255,0.0 107.6072587,-6.9481274,0.0 107.6073396,-6.9481328,0.0 107.6077353,-6.9481589,0.0 107.6080187,-6.9481777,0.0 107.6086542,-6.9482197,0.0 107.6089854,-6.9482416,0.0</coordinates>
            </LineString>
        </Placemark>
        <Placemark id="33427">
            <name>Jalan Soekarno-Hatta</name>
            <styleUrl>#33428</styleUrl>
            <LineString id="33426">
                <coordinates>107.6039667,-6.9478945,0.0 107.6041277,-6.947905,0.0</coordinates>
            </LineString>
        </Placemark>
        <Placemark id="33431">
            <name>Jalan Soekarno-Hatta</name>
            <styleUrl>#33432</styleUrl>
            <LineString id="33430">
                <coordinates>107.6249026,-6.9494354,0.0 107.625063,-6.9494435,0.0 107.6251736,-6.9494469,0.0 107.6254122,-6.949452,0.0 107.6255564,-6.949455,0.0 107.6257226,-6.9494585,0.0 107.6258124,-6.9494604,0.0 107.6258467,-6.9494612,0.0 107.6258629,-6.9494614,0.0 107.6259741,-6.9494625,0.0</coordinates>
            </LineString>
        </Placemark>
        <Placemark id="33435">
            <name>Jalan Terusan Jakarta</name>
            <styleUrl>#33436</styleUrl>
            <LineString id="33434">
                <coordinates>107.6436624,-6.9136323,0.0 107.6437311,-6.913624,0.0</coordinates>
            </LineString>
        </Placemark>
        <Placemark id="33439">
            <name>Jalan H. Ibrahim Adjie</name>
            <styleUrl>#33440</styleUrl>
            <LineString id="33438">
                <coordinates>107.6441408,-6.9193272,0.0 107.6441381,-6.9192711,0.0 107.644128,-6.9190672,0.0 107.6440855,-6.9185996,0.0 107.6440727,-6.9184616,0.0 107.6440177,-6.9178882,0.0 107.6438994,-6.916833,0.0 107.6438819,-6.9165842,0.0 107.6438696,-6.9164357,0.0 107.6438628,-6.916367,0.0 107.6438444,-6.9161586,0.0 107.6438277,-6.9159687,0.0 107.6438209,-6.9158898,0.0 107.6437252,-6.9148646,0.0 107.6437224,-6.9148349,0.0 107.6437294,-6.9147964,0.0 107.6437472,-6.9147194,0.0 107.643757,-6.9146763,0.0</coordinates>
            </LineString>
        </Placemark>
        <Placemark id="33443">
            <name>Jalan H. Ibrahim Adjie</name>
            <styleUrl>#33444</styleUrl>
            <LineString id="33442">
                <coordinates>107.6431304,-6.9317573,0.0 107.6431586,-6.9317203,0.0 107.6435367,-6.9312959,0.0 107.6437964,-6.9309966,0.0 107.6438483,-6.9308789,0.0 107.643882,-6.9307183,0.0 107.6439463,-6.9299218,0.0</coordinates>
            </LineString>
        </Placemark>
        <Placemark id="33447">
            <name>Jalan H. Ibrahim Adjie</name>
            <styleUrl>#33448</styleUrl>
            <LineString id="33446">
                <coordinates>107.6425801,-6.9344518,0.0 107.6426419,-6.934114,0.0 107.6427034,-6.9338245,0.0 107.6427458,-6.9336408,0.0 107.6428114,-6.9333527,0.0 107.6428453,-6.9332036,0.0 107.6429329,-6.9327429,0.0 107.6429396,-6.932706,0.0 107.6430775,-6.9319479,0.0</coordinates>
            </LineString>
        </Placemark>
        <Placemark id="33451">
            <name>Jalan Soekarno-Hatta</name>
            <styleUrl>#33452</styleUrl>
            <LineString id="33450">
                <coordinates>107.6262747,-6.9494594,0.0 107.6263148,-6.9494581,0.0 107.626731,-6.9494396,0.0 107.6268727,-6.9494332,0.0 107.6269742,-6.9494286,0.0 107.6272227,-6.9494137,0.0 107.6274709,-6.9493974,0.0 107.6278794,-6.9493563,0.0 107.627934,-6.9493489,0.0 107.6280918,-6.9493306,0.0 107.6281318,-6.9493252,0.0 107.6282234,-6.9493154,0.0 107.6285395,-6.9492726,0.0 107.6287484,-6.9492381,0.0 107.6289154,-6.9492105,0.0 107.6291337,-6.9491745,0.0 107.6293745,-6.9491302,0.0 107.6294404,-6.9491179,0.0 107.6298246,-6.949046,0.0 107.6301232,-6.94899,0.0 107.6303157,-6.9489398,0.0 107.6307487,-6.9488067,0.0 107.6309791,-6.9487354,0.0</coordinates>
            </LineString>
        </Placemark>
        <Placemark id="33455">
            <name>Jalan H. Ibrahim Adjie</name>
            <styleUrl>#33456</styleUrl>
            <LineString id="33454">
                <coordinates>107.6439463,-6.9299218,0.0 107.6439317,-6.9298097,0.0 107.6439344,-6.929653,0.0 107.6439464,-6.9294702,0.0 107.6439645,-6.9293351,0.0 107.6439922,-6.9291998,0.0 107.6440965,-6.9289532,0.0 107.6441455,-6.9288288,0.0 107.64417,-6.9287415,0.0 107.6442064,-6.9286091,0.0 107.6442254,-6.9284438,0.0 107.6442374,-6.9283107,0.0 107.6442459,-6.9279591,0.0 107.6442567,-6.9277157,0.0 107.6442828,-6.9275461,0.0 107.6443294,-6.9273645,0.0 107.644384,-6.9272085,0.0 107.6444091,-6.9271102,0.0 107.6444251,-6.9270482,0.0 107.6444287,-6.9270343,0.0</coordinates>
            </LineString>
        </Placemark>
        <Placemark id="33459">
            <name>Jalan Soekarno-Hatta</name>
            <styleUrl>#33460</styleUrl>
            <LineString id="33458">
                <coordinates>107.6097206,-6.9482923,0.0 107.610001,-6.9483188,0.0 107.6115641,-6.9484447,0.0 107.6121553,-6.9484924,0.0 107.6123363,-6.948507,0.0 107.6124434,-6.9485156,0.0 107.6124767,-6.9485183,0.0</coordinates>
            </LineString>
        </Placemark>
        <Placemark id="33463">
            <name>Jalan Soekarno-Hatta</name>
            <styleUrl>#33464</styleUrl>
            <LineString id="33462">
                <coordinates>107.6309791,-6.9487354,0.0 107.6315445,-6.948554,0.0 107.631909,-6.9484347,0.0 107.6321622,-6.9483559,0.0 107.6329015,-6.9481249,0.0 107.6330447,-6.9480758,0.0</coordinates>
            </LineString>
        </Placemark>
        <Placemark id="33467">
            <name>Jalan Soekarno-Hatta</name>
            <styleUrl>#33468</styleUrl>
            <LineString id="33466">
                <coordinates>107.6330447,-6.9480758,0.0 107.633231,-6.9480103,0.0 107.6332967,-6.9479888,0.0</coordinates>
            </LineString>
        </Placemark>
        <Placemark id="33471">
            <name>Jalan Soekarno-Hatta</name>
            <styleUrl>#33472</styleUrl>
            <LineString id="33470">
                <coordinates>107.6332967,-6.9479888,0.0 107.6333973,-6.9479551,0.0</coordinates>
            </LineString>
        </Placemark>
        <Placemark id="33475">
            <name>Route Segment</name>
            <styleUrl>#33476</styleUrl>
            <LineString id="33474">
                <coordinates>107.6413988,-6.945524,0.0 107.641478,-6.9454564,0.0 107.641522,-6.9454131,0.0 107.6415655,-6.9453826,0.0 107.6416019,-6.9453619,0.0 107.6416594,-6.9453291,0.0 107.6417256,-6.9452756,0.0 107.6417714,-6.9451963,0.0 107.641807,-6.9451329,0.0 107.6418353,-6.9450299,0.0 107.6418464,-6.9449724,0.0 107.6418558,-6.9449238,0.0</coordinates>
            </LineString>
        </Placemark>
        <Placemark id="33479">
            <name>Jalan H. Ibrahim Adjie</name>
            <styleUrl>#33480</styleUrl>
            <LineString id="33478">
                <coordinates>107.6437064,-6.9141291,0.0 107.6436808,-6.9138141,0.0 107.6436788,-6.9137868,0.0</coordinates>
            </LineString>
        </Placemark>
        <Placemark id="33483">
            <name>Jalan Soekarno-Hatta</name>
            <styleUrl>#33484</styleUrl>
            <LineString id="33482">
                <coordinates>107.6041277,-6.947905,0.0 107.6041522,-6.9479059,0.0 107.6043426,-6.9479195,0.0 107.6047969,-6.9479564,0.0 107.6051067,-6.947983,0.0 107.6051379,-6.9479853,0.0 107.6053226,-6.947999,0.0 107.6054387,-6.9480071,0.0</coordinates>
            </LineString>
        </Placemark>
        <Placemark id="33487">
            <name>Jalan Soekarno-Hatta</name>
            <styleUrl>#33488</styleUrl>
            <LineString id="33486">
                <coordinates>107.6089854,-6.9482416,0.0 107.6094101,-6.9482727,0.0</coordinates>
            </LineString>
        </Placemark>
        <Placemark id="33491">
            <name>Jalan Soekarno-Hatta</name>
            <styleUrl>#33492</styleUrl>
            <LineString id="33490">
                <coordinates>107.5952745,-6.9472037,0.0 107.5954049,-6.9472261,0.0 107.5955093,-6.9472465,0.0</coordinates>
            </LineString>
        </Placemark>
        <Placemark id="33495">
            <name>Jalan H. Ibrahim Adjie</name>
            <styleUrl>#33496</styleUrl>
            <LineString id="33494">
                <coordinates>107.643757,-6.9146763,0.0 107.6437064,-6.9141291,0.0</coordinates>
            </LineString>
        </Placemark>
        <Placemark id="33499">
            <name>Jalan H. Ibrahim Adjie</name>
            <styleUrl>#33500</styleUrl>
            <LineString id="33498">
                <coordinates>107.6430775,-6.9319479,0.0 107.6431304,-6.9317573,0.0</coordinates>
            </LineString>
        </Placemark>
        <Placemark id="33503">
            <name>Jalan Soekarno-Hatta</name>
            <styleUrl>#33504</styleUrl>
            <LineString id="33502">
                <coordinates>107.5955093,-6.9472465,0.0 107.5960242,-6.9472981,0.0 107.5960901,-6.9473051,0.0 107.596192,-6.9473128,0.0 107.5964458,-6.9473347,0.0 107.5967222,-6.9473584,0.0 107.5968908,-6.9473718,0.0 107.5973744,-6.9474033,0.0 107.5975687,-6.9474199,0.0 107.5980357,-6.9474645,0.0 107.598288,-6.947504,0.0</coordinates>
            </LineString>
        </Placemark>
        <Placemark id="33507">
            <name>Jalan Soekarno-Hatta</name>
            <styleUrl>#33508</styleUrl>
            <LineString id="33506">
                <coordinates>107.598288,-6.947504,0.0 107.5983813,-6.9475112,0.0 107.59885,-6.9475473,0.0 107.5989661,-6.9475565,0.0 107.5990579,-6.9475634,0.0 107.5992219,-6.9475759,0.0 107.5992807,-6.9475804,0.0 107.5995536,-6.9476014,0.0 107.5996333,-6.9476076,0.0 107.5999206,-6.9476297,0.0 107.5999463,-6.9476316,0.0</coordinates>
            </LineString>
        </Placemark>
        <Placemark id="33511">
            <name>Jalan Soekarno-Hatta</name>
            <styleUrl>#33512</styleUrl>
            <LineString id="33510">
                <coordinates>107.6025818,-6.9478249,0.0 107.602694,-6.9478287,0.0 107.6028213,-6.947833,0.0 107.6029031,-6.9478358,0.0 107.6033305,-6.9478502,0.0 107.6039667,-6.9478945,0.0</coordinates>
            </LineString>
        </Placemark>
        <Placemark id="33515">
            <name>Jalan Soekarno-Hatta</name>
            <styleUrl>#33516</styleUrl>
            <LineString id="33514">
                <coordinates>107.6000414,-6.9476386,0.0 107.6004105,-6.9476656,0.0 107.6005617,-6.9476767,0.0 107.6008389,-6.9476971,0.0 107.6010847,-6.9477151,0.0 107.6012883,-6.94773,0.0 107.6013862,-6.9477372,0.0 107.6014937,-6.9477451,0.0 107.6016723,-6.9477582,0.0</coordinates>
            </LineString>
        </Placemark>
        <Placemark id="33519">
            <name>Jalan Soekarno-Hatta</name>
            <styleUrl>#33520</styleUrl>
            <LineString id="33518">
                <coordinates>107.5999463,-6.9476316,0.0 107.6000414,-6.9476386,0.0</coordinates>
            </LineString>
        </Placemark>
        <Placemark id="33523">
            <name>Jalan Soekarno-Hatta</name>
            <styleUrl>#33524</styleUrl>
            <LineString id="33522">
                <coordinates>107.6016723,-6.9477582,0.0 107.6022203,-6.9477997,0.0 107.6022466,-6.9478017,0.0 107.6024847,-6.9478198,0.0 107.6025818,-6.9478249,0.0</coordinates>
            </LineString>
        </Placemark>
        <Placemark id="33527">
            <name>Jalan Soekarno-Hatta</name>
            <styleUrl>#33528</styleUrl>
            <LineString id="33526">
                <coordinates>107.5951948,-6.9471897,0.0 107.5952745,-6.9472037,0.0</coordinates>
            </LineString>
        </Placemark>
        <Placemark id="33531">
            <name>Jalan Soekarno-Hatta</name>
            <styleUrl>#33532</styleUrl>
            <LineString id="33530">
                <coordinates>107.5946801,-6.9470993,0.0 107.5949575,-6.9471456,0.0 107.5950703,-6.9471682,0.0 107.5951948,-6.9471897,0.0</coordinates>
            </LineString>
        </Placemark>
        <Placemark id="33535">
            <name>Jalan H. Ibrahim Adjie</name>
            <styleUrl>#33536</styleUrl>
            <LineString id="33534">
                <coordinates>107.6420316,-6.942186,0.0 107.6420981,-6.9411497,0.0</coordinates>
            </LineString>
        </Placemark>
        <Placemark id="33539">
            <name>Jalan H. Ibrahim Adjie</name>
            <styleUrl>#33540</styleUrl>
            <LineString id="33538">
                <coordinates>107.6418558,-6.9449238,0.0 107.6418826,-6.9445066,0.0 107.6418944,-6.9443088,0.0 107.641916,-6.9439862,0.0 107.6419543,-6.9433902,0.0 107.6419747,-6.943072,0.0 107.6419842,-6.9429242,0.0 107.6419879,-6.9428669,0.0 107.6419915,-6.9428096,0.0 107.641994,-6.9427705,0.0 107.6420316,-6.942186,0.0</coordinates>
            </LineString>
        </Placemark>
        <Placemark id="33543">
            <name>Jalan H. Ibrahim Adjie</name>
            <styleUrl>#33544</styleUrl>
            <LineString id="33542">
                <coordinates>107.6444287,-6.9270343,0.0 107.6444385,-6.9269855,0.0 107.6444491,-6.9269381,0.0</coordinates>
            </LineString>
        </Placemark>
        <Placemark id="33547">
            <name>Jalan H. Ibrahim Adjie</name>
            <styleUrl>#33548</styleUrl>
            <LineString id="33546">
                <coordinates>107.6441491,-6.9195253,0.0 107.6441456,-6.9194414,0.0 107.6441408,-6.9193272,0.0</coordinates>
            </LineString>
        </Placemark>
        <Placemark id="33551">
            <name>Jalan Soekarno-Hatta</name>
            <styleUrl>#33552</styleUrl>
            <LineString id="33550">
                <coordinates>107.6333973,-6.9479551,0.0 107.6334979,-6.9479251,0.0 107.6336406,-6.9478818,0.0</coordinates>
            </LineString>
        </Placemark>
        <Placemark id="33555">
            <name>Jalan Soekarno-Hatta</name>
            <styleUrl>#33556</styleUrl>
            <LineString id="33554">
                <coordinates>107.6214527,-6.9491566,0.0 107.6215191,-6.9491613,0.0</coordinates>
            </LineString>
        </Placemark>
        <Placemark id="33559">
            <name>Jalan Soekarno-Hatta</name>
            <styleUrl>#33560</styleUrl>
            <LineString id="33558">
                <coordinates>107.6196694,-6.9490241,0.0 107.6201873,-6.9490626,0.0 107.6207586,-6.949105,0.0 107.6212731,-6.9491433,0.0 107.6214527,-6.9491566,0.0</coordinates>
            </LineString>
        </Placemark>
        <Placemark id="33563">
            <name>Jalan H. Ibrahim Adjie</name>
            <styleUrl>#33564</styleUrl>
            <LineString id="33562">
                <coordinates>107.6442126,-6.9206082,0.0 107.6441491,-6.9195253,0.0</coordinates>
            </LineString>
        </Placemark>
        <Placemark id="33567">
            <name>Jalan H. Ibrahim Adjie</name>
            <styleUrl>#33568</styleUrl>
            <LineString id="33566">
                <coordinates>107.6442701,-6.9217938,0.0 107.6442126,-6.9206082,0.0</coordinates>
            </LineString>
        </Placemark>
        <Placemark id="33571">
            <name>Jalan H. Ibrahim Adjie</name>
            <styleUrl>#33572</styleUrl>
            <LineString id="33570">
                <coordinates>107.6444491,-6.9269381,0.0 107.6444587,-6.9268515,0.0 107.6444641,-6.9267038,0.0 107.6444657,-6.9265517,0.0</coordinates>
            </LineString>
        </Placemark>
        <Placemark id="33575">
            <name>Jalan Soekarno-Hatta</name>
            <styleUrl>#33576</styleUrl>
            <LineString id="33574">
                <coordinates>107.6259741,-6.9494625,0.0 107.6261145,-6.9494645,0.0 107.6262003,-6.9494625,0.0 107.6262747,-6.9494594,0.0</coordinates>
            </LineString>
        </Placemark>
        <Placemark id="33579">
            <name>Jalan Soekarno-Hatta</name>
            <styleUrl>#33580</styleUrl>
            <LineString id="33578">
                <coordinates>107.5934341,-6.9468277,0.0 107.5935172,-6.946847,0.0 107.5935575,-6.9468564,0.0 107.5936688,-6.9468823,0.0 107.593986,-6.9469544,0.0 107.5940785,-6.9469738,0.0 107.5941765,-6.9469938,0.0 107.5942182,-6.9470057,0.0 107.5946413,-6.947092,0.0 107.5946801,-6.9470993,0.0</coordinates>
            </LineString>
        </Placemark>
        <Placemark id="33583">
            <name>Jalan H. Ibrahim Adjie</name>
            <styleUrl>#33584</styleUrl>
            <LineString id="33582">
                <coordinates>107.6437714,-6.9141195,0.0 107.643797,-6.914395,0.0 107.6438226,-6.9146708,0.0</coordinates>
            </LineString>
        </Placemark>
        <Placemark id="33587">
            <name>Jalan H. Ibrahim Adjie</name>
            <styleUrl>#33588</styleUrl>
            <LineString id="33586">
                <coordinates>107.6422207,-6.9392406,0.0 107.6422369,-6.9389882,0.0</coordinates>
            </LineString>
        </Placemark>
        <Placemark id="33591">
            <name>Jalan H. Ibrahim Adjie</name>
            <styleUrl>#33592</styleUrl>
            <LineString id="33590">
                <coordinates>107.6422369,-6.9389882,0.0 107.642268,-6.9385032,0.0</coordinates>
            </LineString>
        </Placemark>
        <Placemark id="33595">
            <name>Jalan H. Ibrahim Adjie</name>
            <styleUrl>#33596</styleUrl>
            <LineString id="33594">
                <coordinates>107.642268,-6.9385032,0.0 107.6422737,-6.9384148,0.0</coordinates>
            </LineString>
        </Placemark>
        <Placemark id="33599">
            <name>Jalan H. Ibrahim Adjie</name>
            <styleUrl>#33600</styleUrl>
            <LineString id="33598">
                <coordinates>107.6422737,-6.9384148,0.0 107.6422771,-6.9383619,0.0 107.6422805,-6.938309,0.0</coordinates>
            </LineString>
        </Placemark>
        <Placemark id="33603">
            <name>Jalan H. Ibrahim Adjie</name>
            <styleUrl>#33604</styleUrl>
            <LineString id="33602">
                <coordinates>107.6422805,-6.938309,0.0 107.6423103,-6.9378452,0.0</coordinates>
            </LineString>
        </Placemark>
        <Placemark id="33607">
            <name>Jalan H. Ibrahim Adjie</name>
            <styleUrl>#33608</styleUrl>
            <LineString id="33606">
                <coordinates>107.6423103,-6.9378452,0.0 107.6423303,-6.9375325,0.0</coordinates>
            </LineString>
        </Placemark>
        <Placemark id="33611">
            <name>Jalan H. Ibrahim Adjie</name>
            <styleUrl>#33612</styleUrl>
            <LineString id="33610">
                <coordinates>107.6423303,-6.9375325,0.0 107.6423524,-6.9371895,0.0</coordinates>
            </LineString>
        </Placemark>
        <Placemark id="33615">
            <name>Jalan H. Ibrahim Adjie</name>
            <styleUrl>#33616</styleUrl>
            <LineString id="33614">
                <coordinates>107.6423524,-6.9371895,0.0 107.6423606,-6.9370607,0.0 107.6423875,-6.9366422,0.0</coordinates>
            </LineString>
        </Placemark>
        <Placemark id="33619">
            <name>Jalan H. Ibrahim Adjie</name>
            <styleUrl>#33620</styleUrl>
            <LineString id="33618">
                <coordinates>107.6423875,-6.9366422,0.0 107.6424206,-6.9362218,0.0</coordinates>
            </LineString>
        </Placemark>
        <Placemark id="33623">
            <name>Jalan H. Ibrahim Adjie</name>
            <styleUrl>#33624</styleUrl>
            <LineString id="33622">
                <coordinates>107.6424206,-6.9362218,0.0 107.642469,-6.9354704,0.0 107.6424796,-6.9353265,0.0</coordinates>
            </LineString>
        </Placemark>
        <Placemark id="33627">
            <name>Jalan H. Ibrahim Adjie</name>
            <styleUrl>#33628</styleUrl>
            <LineString id="33626">
                <coordinates>107.6424796,-6.9353265,0.0 107.6424964,-6.9351047,0.0</coordinates>
            </LineString>
        </Placemark>
        <Placemark id="33631">
            <name>Jalan H. Ibrahim Adjie</name>
            <styleUrl>#33632</styleUrl>
            <LineString id="33630">
                <coordinates>107.6424964,-6.9351047,0.0 107.6425262,-6.9348226,0.0 107.6425372,-6.9347467,0.0</coordinates>
            </LineString>
        </Placemark>
        <Placemark id="33635">
            <name>Jalan H. Ibrahim Adjie</name>
            <styleUrl>#33636</styleUrl>
            <LineString id="33634">
                <coordinates>107.6425372,-6.9347467,0.0 107.6425801,-6.9344518,0.0</coordinates>
            </LineString>
        </Placemark>
        <Placemark id="33639">
            <name>Jalan H. Ibrahim Adjie</name>
            <styleUrl>#33640</styleUrl>
            <LineString id="33638">
                <coordinates>107.6421015,-6.9410976,0.0 107.6421202,-6.9408049,0.0</coordinates>
            </LineString>
        </Placemark>
        <Placemark id="33643">
            <name>Jalan H. Ibrahim Adjie</name>
            <styleUrl>#33644</styleUrl>
            <LineString id="33642">
                <coordinates>107.6421202,-6.9408049,0.0 107.6421234,-6.9407557,0.0</coordinates>
            </LineString>
        </Placemark>
        <Placemark id="33647">
            <name>Jalan H. Ibrahim Adjie</name>
            <styleUrl>#33648</styleUrl>
            <LineString id="33646">
                <coordinates>107.6421234,-6.9407557,0.0 107.6421688,-6.9400483,0.0</coordinates>
            </LineString>
        </Placemark>
        <Placemark id="33651">
            <name>Jalan H. Ibrahim Adjie</name>
            <styleUrl>#33652</styleUrl>
            <LineString id="33650">
                <coordinates>107.6421688,-6.9400483,0.0 107.6421744,-6.9399607,0.0 107.6421789,-6.9398908,0.0 107.6422207,-6.9392406,0.0</coordinates>
            </LineString>
        </Placemark>
    </Document>
</kml>
