<?xml version="1.0" encoding="UTF-8"?>
<kml xmlns="http://www.opengis.net/kml/2.2" xmlns:gx="http://www.google.com/kml/ext/2.2">
    <Document id="33655">
        <Style id="33661">
            <IconStyle id="33662">
                <colorMode>normal</colorMode>
                <scale>1</scale>
                <heading>0</heading>
                <Icon id="33663">
                    <href>http://maps.google.com/mapfiles/kml/pushpin/ylw-pushpin.png</href>
                </Icon>
            </IconStyle>
        </Style>
        <Style id="33666">
            <IconStyle id="33667">
                <colorMode>normal</colorMode>
                <scale>1</scale>
                <heading>0</heading>
                <Icon id="33668">
                    <href>http://maps.google.com/mapfiles/kml/pushpin/ylw-pushpin.png</href>
                </Icon>
            </IconStyle>
        </Style>
        <Style id="33671">
            <IconStyle id="33672">
                <colorMode>normal</colorMode>
                <scale>1</scale>
                <heading>0</heading>
                <Icon id="33673">
                    <href>http://maps.google.com/mapfiles/kml/pushpin/ylw-pushpin.png</href>
                </Icon>
            </IconStyle>
        </Style>
        <Style id="33676">
            <LineStyle id="33677">
                <color>ff295AF1</color>
                <colorMode>normal</colorMode>
                <width>4</width>
            </LineStyle>
        </Style>
        <Style id="33680">
            <LineStyle id="33681">
                <color>ff295AF1</color>
                <colorMode>normal</colorMode>
                <width>4</width>
            </LineStyle>
        </Style>
        <Style id="33684">
            <LineStyle id="33685">
                <color>ff295AF1</color>
                <colorMode>normal</colorMode>
                <width>4</width>
            </LineStyle>
        </Style>
        <Style id="33688">
            <LineStyle id="33689">
                <color>ff295AF1</color>
                <colorMode>normal</colorMode>
                <width>4</width>
            </LineStyle>
        </Style>
        <Style id="33692">
            <LineStyle id="33693">
                <color>ff295AF1</color>
                <colorMode>normal</colorMode>
                <width>4</width>
            </LineStyle>
        </Style>
        <Style id="33696">
            <LineStyle id="33697">
                <color>ff295AF1</color>
                <colorMode>normal</colorMode>
                <width>4</width>
            </LineStyle>
        </Style>
        <Style id="33700">
            <LineStyle id="33701">
                <color>ff295AF1</color>
                <colorMode>normal</colorMode>
                <width>4</width>
            </LineStyle>
        </Style>
        <Style id="33704">
            <LineStyle id="33705">
                <color>ff295AF1</color>
                <colorMode>normal</colorMode>
                <width>4</width>
            </LineStyle>
        </Style>
        <Style id="33708">
            <LineStyle id="33709">
                <color>ff295AF1</color>
                <colorMode>normal</colorMode>
                <width>4</width>
            </LineStyle>
        </Style>
        <Style id="33712">
            <LineStyle id="33713">
                <color>ff295AF1</color>
                <colorMode>normal</colorMode>
                <width>4</width>
            </LineStyle>
        </Style>
        <Style id="33716">
            <LineStyle id="33717">
                <color>ff295AF1</color>
                <colorMode>normal</colorMode>
                <width>4</width>
            </LineStyle>
        </Style>
        <Style id="33720">
            <LineStyle id="33721">
                <color>ff295AF1</color>
                <colorMode>normal</colorMode>
                <width>4</width>
            </LineStyle>
        </Style>
        <Style id="33724">
            <LineStyle id="33725">
                <color>ff295AF1</color>
                <colorMode>normal</colorMode>
                <width>4</width>
            </LineStyle>
        </Style>
        <Style id="33728">
            <LineStyle id="33729">
                <color>ff295AF1</color>
                <colorMode>normal</colorMode>
                <width>4</width>
            </LineStyle>
        </Style>
        <Style id="33732">
            <LineStyle id="33733">
                <color>ff295AF1</color>
                <colorMode>normal</colorMode>
                <width>4</width>
            </LineStyle>
        </Style>
        <Style id="33736">
            <LineStyle id="33737">
                <color>ff295AF1</color>
                <colorMode>normal</colorMode>
                <width>4</width>
            </LineStyle>
        </Style>
        <Style id="33740">
            <LineStyle id="33741">
                <color>ff295AF1</color>
                <colorMode>normal</colorMode>
                <width>4</width>
            </LineStyle>
        </Style>
        <Style id="33744">
            <LineStyle id="33745">
                <color>ff295AF1</color>
                <colorMode>normal</colorMode>
                <width>4</width>
            </LineStyle>
        </Style>
        <Style id="33748">
            <LineStyle id="33749">
                <color>ff295AF1</color>
                <colorMode>normal</colorMode>
                <width>4</width>
            </LineStyle>
        </Style>
        <Style id="33752">
            <LineStyle id="33753">
                <color>ff295AF1</color>
                <colorMode>normal</colorMode>
                <width>4</width>
            </LineStyle>
        </Style>
        <Style id="33756">
            <LineStyle id="33757">
                <color>ff295AF1</color>
                <colorMode>normal</colorMode>
                <width>4</width>
            </LineStyle>
        </Style>
        <Style id="33760">
            <LineStyle id="33761">
                <color>ff295AF1</color>
                <colorMode>normal</colorMode>
                <width>4</width>
            </LineStyle>
        </Style>
        <Style id="33764">
            <LineStyle id="33765">
                <color>ff295AF1</color>
                <colorMode>normal</colorMode>
                <width>4</width>
            </LineStyle>
        </Style>
        <Style id="33768">
            <LineStyle id="33769">
                <color>ff295AF1</color>
                <colorMode>normal</colorMode>
                <width>4</width>
            </LineStyle>
        </Style>
        <Style id="33772">
            <LineStyle id="33773">
                <color>ff295AF1</color>
                <colorMode>normal</colorMode>
                <width>4</width>
            </LineStyle>
        </Style>
        <Style id="33776">
            <LineStyle id="33777">
                <color>ff295AF1</color>
                <colorMode>normal</colorMode>
                <width>4</width>
            </LineStyle>
        </Style>
        <Style id="33780">
            <LineStyle id="33781">
                <color>ff295AF1</color>
                <colorMode>normal</colorMode>
                <width>4</width>
            </LineStyle>
        </Style>
        <Style id="33784">
            <LineStyle id="33785">
                <color>ff295AF1</color>
                <colorMode>normal</colorMode>
                <width>4</width>
            </LineStyle>
        </Style>
        <Style id="33788">
            <LineStyle id="33789">
                <color>ff295AF1</color>
                <colorMode>normal</colorMode>
                <width>4</width>
            </LineStyle>
        </Style>
        <Style id="33792">
            <LineStyle id="33793">
                <color>ff295AF1</color>
                <colorMode>normal</colorMode>
                <width>4</width>
            </LineStyle>
        </Style>
        <Style id="33796">
            <LineStyle id="33797">
                <color>ff295AF1</color>
                <colorMode>normal</colorMode>
                <width>4</width>
            </LineStyle>
        </Style>
        <Style id="33800">
            <LineStyle id="33801">
                <color>ff295AF1</color>
                <colorMode>normal</colorMode>
                <width>4</width>
            </LineStyle>
        </Style>
        <Style id="33804">
            <LineStyle id="33805">
                <color>ff295AF1</color>
                <colorMode>normal</colorMode>
                <width>4</width>
            </LineStyle>
        </Style>
        <Style id="33808">
            <LineStyle id="33809">
                <color>ff295AF1</color>
                <colorMode>normal</colorMode>
                <width>4</width>
            </LineStyle>
        </Style>
        <Style id="33812">
            <LineStyle id="33813">
                <color>ff295AF1</color>
                <colorMode>normal</colorMode>
                <width>4</width>
            </LineStyle>
        </Style>
        <Style id="33816">
            <LineStyle id="33817">
                <color>ff295AF1</color>
                <colorMode>normal</colorMode>
                <width>4</width>
            </LineStyle>
        </Style>
        <Style id="33820">
            <LineStyle id="33821">
                <color>ff295AF1</color>
                <colorMode>normal</colorMode>
                <width>4</width>
            </LineStyle>
        </Style>
        <Style id="33824">
            <LineStyle id="33825">
                <color>ff295AF1</color>
                <colorMode>normal</colorMode>
                <width>4</width>
            </LineStyle>
        </Style>
        <Style id="33828">
            <LineStyle id="33829">
                <color>ff295AF1</color>
                <colorMode>normal</colorMode>
                <width>4</width>
            </LineStyle>
        </Style>
        <Style id="33832">
            <LineStyle id="33833">
                <color>ff295AF1</color>
                <colorMode>normal</colorMode>
                <width>4</width>
            </LineStyle>
        </Style>
        <Style id="33836">
            <LineStyle id="33837">
                <color>ff295AF1</color>
                <colorMode>normal</colorMode>
                <width>4</width>
            </LineStyle>
        </Style>
        <Style id="33840">
            <LineStyle id="33841">
                <color>ff295AF1</color>
                <colorMode>normal</colorMode>
                <width>4</width>
            </LineStyle>
        </Style>
        <Style id="33844">
            <LineStyle id="33845">
                <color>ff295AF1</color>
                <colorMode>normal</colorMode>
                <width>4</width>
            </LineStyle>
        </Style>
        <Style id="33848">
            <LineStyle id="33849">
                <color>ff295AF1</color>
                <colorMode>normal</colorMode>
                <width>4</width>
            </LineStyle>
        </Style>
        <Style id="33852">
            <LineStyle id="33853">
                <color>ff295AF1</color>
                <colorMode>normal</colorMode>
                <width>4</width>
            </LineStyle>
        </Style>
        <Style id="33856">
            <LineStyle id="33857">
                <color>ff295AF1</color>
                <colorMode>normal</colorMode>
                <width>4</width>
            </LineStyle>
        </Style>
        <Style id="33860">
            <LineStyle id="33861">
                <color>ff295AF1</color>
                <colorMode>normal</colorMode>
                <width>4</width>
            </LineStyle>
        </Style>
        <Style id="33864">
            <LineStyle id="33865">
                <color>ff295AF1</color>
                <colorMode>normal</colorMode>
                <width>4</width>
            </LineStyle>
        </Style>
        <Style id="33868">
            <LineStyle id="33869">
                <color>ff295AF1</color>
                <colorMode>normal</colorMode>
                <width>4</width>
            </LineStyle>
        </Style>
        <Style id="33872">
            <LineStyle id="33873">
                <color>ff295AF1</color>
                <colorMode>normal</colorMode>
                <width>4</width>
            </LineStyle>
        </Style>
        <Style id="33876">
            <LineStyle id="33877">
                <color>ff295AF1</color>
                <colorMode>normal</colorMode>
                <width>4</width>
            </LineStyle>
        </Style>
        <ExtendedData>
            <Data name="route-name">
                <value>09: Stasiun Hall → Dago</value>
            </Data>
            <Data name="source">
                <value>Transport for Bandung</value>
            </Data>
        </ExtendedData>
        <Placemark id="33660">
            <name>Stasiun Timur</name>
            <styleUrl>#33661</styleUrl>
            <Point id="33659">
                <coordinates>107.604546,-6.9153572,0.0</coordinates>
            </Point>
        </Placemark>
        <Placemark id="33665">
            <name>Terminal Dago</name>
            <styleUrl>#33666</styleUrl>
            <Point id="33664">
                <coordinates>107.6212119,-6.8670778,0.0</coordinates>
            </Point>
        </Placemark>
        <Placemark id="33670">
            <name>Taman Budaya</name>
            <styleUrl>#33671</styleUrl>
            <Point id="33669">
                <coordinates>107.6205719,-6.8682321,0.0</coordinates>
            </Point>
        </Placemark>
        <Placemark id="33675">
            <name>Jalan L.L. RE. Martadinata</name>
            <styleUrl>#33676</styleUrl>
            <LineString id="33674">
                <coordinates>107.6079412,-6.9065104,0.0 107.6081981,-6.9065975,0.0 107.6083321,-6.9066257,0.0 107.6092299,-6.9067838,0.0 107.6093359,-6.9068089,0.0</coordinates>
            </LineString>
        </Placemark>
        <Placemark id="33679">
            <name>Jalan Perintis Kemerdekaan</name>
            <styleUrl>#33680</styleUrl>
            <LineString id="33678">
                <coordinates>107.6071931,-6.9145156,0.0 107.6072105,-6.9144549,0.0 107.6072378,-6.9143977,0.0 107.6072741,-6.9143458,0.0 107.6073185,-6.9143005,0.0</coordinates>
            </LineString>
        </Placemark>
        <Placemark id="33683">
            <name>Jalan Perintis Kemerdekaan</name>
            <styleUrl>#33684</styleUrl>
            <LineString id="33682">
                <coordinates>107.6075641,-6.9142136,0.0 107.6078626,-6.9140606,0.0 107.607935,-6.9140241,0.0 107.6079799,-6.9140014,0.0 107.6081711,-6.9139136,0.0 107.6082715,-6.9138902,0.0 107.6087543,-6.9138526,0.0 107.6088925,-6.9138457,0.0 107.6089516,-6.913844,0.0</coordinates>
            </LineString>
        </Placemark>
        <Placemark id="33687">
            <name>Jalan Stasiun Timur</name>
            <styleUrl>#33688</styleUrl>
            <LineString id="33686">
                <coordinates>107.6045889,-6.9148224,0.0 107.6045944,-6.9147921,0.0 107.6046031,-6.9147807,0.0 107.6046151,-6.914765,0.0 107.6046317,-6.9147543,0.0 107.6046427,-6.9147472,0.0 107.6046716,-6.9147379,0.0 107.6047205,-6.914736,0.0 107.6053917,-6.9148138,0.0 107.6063544,-6.9149336,0.0 107.6064066,-6.9149399,0.0</coordinates>
            </LineString>
        </Placemark>
        <Placemark id="33691">
            <name>Jalan Otto Iskandardinata</name>
            <styleUrl>#33692</styleUrl>
            <LineString id="33690">
                <coordinates>107.604546,-6.9153572,0.0 107.6045814,-6.9149387,0.0 107.6045889,-6.9148224,0.0</coordinates>
            </LineString>
        </Placemark>
        <Placemark id="33695">
            <name>Jalan Ir. H. Djuanda</name>
            <styleUrl>#33696</styleUrl>
            <LineString id="33694">
                <coordinates>107.6124649,-6.9003362,0.0 107.6125313,-6.9002122,0.0 107.6126167,-6.9000448,0.0 107.6126386,-6.9000031,0.0 107.6126645,-6.899934,0.0 107.6126882,-6.8998169,0.0 107.6127091,-6.8995197,0.0 107.6127127,-6.8994564,0.0 107.6127234,-6.8992285,0.0 107.6127283,-6.8991254,0.0 107.6127289,-6.8990723,0.0</coordinates>
            </LineString>
        </Placemark>
        <Placemark id="33699">
            <name>Jalan Wastukancana</name>
            <styleUrl>#33700</styleUrl>
            <LineString id="33698">
                <coordinates>107.6076596,-6.9080052,0.0 107.607639,-6.907824,0.0 107.6076363,-6.9078044,0.0 107.607628,-6.9077457,0.0 107.6076248,-6.9076459,0.0 107.6076283,-6.9075371,0.0 107.6076451,-6.9074166,0.0 107.6076711,-6.9072113,0.0 107.60775,-6.9066685,0.0 107.6077691,-6.9065879,0.0 107.6078013,-6.9065451,0.0 107.6078292,-6.9065262,0.0 107.6078734,-6.9065166,0.0 107.6079412,-6.9065104,0.0</coordinates>
            </LineString>
        </Placemark>
        <Placemark id="33703">
            <name>Jalan Wastukancana</name>
            <styleUrl>#33704</styleUrl>
            <LineString id="33702">
                <coordinates>107.6088855,-6.9102984,0.0 107.6088445,-6.9102299,0.0 107.6087639,-6.910086,0.0 107.608484,-6.9095465,0.0 107.6083912,-6.9093671,0.0</coordinates>
            </LineString>
        </Placemark>
        <Placemark id="33707">
            <name>Jalan Wastukancana</name>
            <styleUrl>#33708</styleUrl>
            <LineString id="33706">
                <coordinates>107.6083912,-6.9093671,0.0 107.6082885,-6.9092058,0.0 107.6082341,-6.9091403,0.0 107.608135,-6.9090242,0.0</coordinates>
            </LineString>
        </Placemark>
        <Placemark id="33711">
            <name>Jalan Ir. H. Djuanda</name>
            <styleUrl>#33712</styleUrl>
            <LineString id="33710">
                <coordinates>107.6127289,-6.8990723,0.0 107.6127424,-6.8988496,0.0</coordinates>
            </LineString>
        </Placemark>
        <Placemark id="33715">
            <name>Jalan Ir. H. Djuanda</name>
            <styleUrl>#33716</styleUrl>
            <LineString id="33714">
                <coordinates>107.6127424,-6.8988496,0.0 107.6127774,-6.8984395,0.0 107.6127783,-6.8984238,0.0 107.6127987,-6.8980229,0.0 107.6128028,-6.8978964,0.0 107.6128066,-6.89762,0.0 107.6128105,-6.897515,0.0 107.6128151,-6.8973491,0.0 107.6128176,-6.8972655,0.0 107.6128221,-6.8970784,0.0 107.6128708,-6.895905,0.0 107.6128953,-6.8955087,0.0 107.612944,-6.8948069,0.0</coordinates>
            </LineString>
        </Placemark>
        <Placemark id="33719">
            <name>Jalan Ir. H. Djuanda</name>
            <styleUrl>#33720</styleUrl>
            <LineString id="33718">
                <coordinates>107.61305,-6.8934554,0.0 107.6130728,-6.8931444,0.0 107.6131128,-6.8926642,0.0 107.6131302,-6.8924018,0.0 107.613173,-6.8918457,0.0</coordinates>
            </LineString>
        </Placemark>
        <Placemark id="33723">
            <name>Jalan L.L. RE. Martadinata</name>
            <styleUrl>#33724</styleUrl>
            <LineString id="33722">
                <coordinates>107.6093359,-6.9068089,0.0 107.6094718,-6.9068328,0.0 107.6096165,-6.9068537,0.0 107.6097643,-6.906873,0.0 107.6103896,-6.9069656,0.0 107.6104091,-6.9069683,0.0 107.6105769,-6.9069872,0.0</coordinates>
            </LineString>
        </Placemark>
        <Placemark id="33727">
            <name>Jalan Wastukancana</name>
            <styleUrl>#33728</styleUrl>
            <LineString id="33726">
                <coordinates>107.608135,-6.9090242,0.0 107.6079856,-6.9088682,0.0 107.6079388,-6.9087953,0.0 107.6078779,-6.9086773,0.0 107.6078276,-6.9085634,0.0 107.6077911,-6.9084463,0.0 107.6076596,-6.9080052,0.0</coordinates>
            </LineString>
        </Placemark>
        <Placemark id="33731">
            <name>Jalan Wastukancana</name>
            <styleUrl>#33732</styleUrl>
            <LineString id="33730">
                <coordinates>107.6090309,-6.9137833,0.0 107.6090355,-6.9136767,0.0 107.609036,-6.9135295,0.0 107.6090452,-6.9130028,0.0 107.6090502,-6.9127472,0.0 107.6090523,-6.9126675,0.0 107.6090858,-6.9111585,0.0 107.6090891,-6.9110401,0.0 107.6090928,-6.9109499,0.0 107.6090952,-6.910906,0.0 107.6090943,-6.9108169,0.0 107.6090871,-6.9107051,0.0 107.6090715,-6.9106208,0.0 107.609044,-6.9105515,0.0</coordinates>
            </LineString>
        </Placemark>
        <Placemark id="33735">
            <name>Jalan Perintis Kemerdekaan</name>
            <styleUrl>#33736</styleUrl>
            <LineString id="33734">
                <coordinates>107.6070945,-6.9151362,0.0 107.6071194,-6.9149776,0.0 107.6071865,-6.9145473,0.0 107.6071931,-6.9145156,0.0</coordinates>
            </LineString>
        </Placemark>
        <Placemark id="33739">
            <name>Jalan Ir. H. Djuanda</name>
            <styleUrl>#33740</styleUrl>
            <LineString id="33738">
                <coordinates>107.6132839,-6.8905794,0.0 107.6133126,-6.8903268,0.0 107.6133442,-6.8900471,0.0 107.6133933,-6.8896716,0.0 107.6134295,-6.8893965,0.0 107.613446,-6.8892558,0.0 107.6134757,-6.8890239,0.0 107.6135042,-6.888736,0.0 107.6135073,-6.8886992,0.0 107.6135194,-6.8885543,0.0 107.6135364,-6.8883093,0.0 107.6135395,-6.888223,0.0</coordinates>
            </LineString>
        </Placemark>
        <Placemark id="33743">
            <name>Jalan Ir. H. Djuanda</name>
            <styleUrl>#33744</styleUrl>
            <LineString id="33742">
                <coordinates>107.612944,-6.8948069,0.0 107.6129656,-6.8944678,0.0 107.612982,-6.8942326,0.0 107.6130211,-6.8937711,0.0</coordinates>
            </LineString>
        </Placemark>
        <Placemark id="33747">
            <name>Jalan Perintis Kemerdekaan</name>
            <styleUrl>#33748</styleUrl>
            <LineString id="33746">
                <coordinates>107.6089516,-6.913844,0.0 107.6089581,-6.9138231,0.0 107.6089707,-6.9138051,0.0 107.6089882,-6.9137917,0.0 107.6090089,-6.9137842,0.0 107.6090309,-6.9137833,0.0</coordinates>
            </LineString>
        </Placemark>
        <Placemark id="33751">
            <name>Jalan Ir. H. Djuanda</name>
            <styleUrl>#33752</styleUrl>
            <LineString id="33750">
                <coordinates>107.6114071,-6.9028334,0.0 107.611542,-6.9025041,0.0 107.6115965,-6.9023665,0.0 107.6117985,-6.9018784,0.0 107.6118395,-6.901786,0.0 107.6120925,-6.9011541,0.0 107.6121483,-6.9010258,0.0 107.6122218,-6.9008623,0.0 107.6123433,-6.9005887,0.0 107.6124276,-6.9004073,0.0 107.6124649,-6.9003362,0.0</coordinates>
            </LineString>
        </Placemark>
        <Placemark id="33755">
            <name>Jalan Ir. H. Djuanda</name>
            <styleUrl>#33756</styleUrl>
            <LineString id="33754">
                <coordinates>107.6137119,-6.8851905,0.0 107.6137266,-6.8850771,0.0 107.6137322,-6.8850395,0.0 107.6137459,-6.8849567,0.0 107.6138089,-6.884725,0.0 107.6138679,-6.8845059,0.0 107.613882,-6.8844449,0.0</coordinates>
            </LineString>
        </Placemark>
        <Placemark id="33759">
            <name>Jalan Ir. H. Djuanda</name>
            <styleUrl>#33760</styleUrl>
            <LineString id="33758">
                <coordinates>107.6158143,-6.8816134,0.0 107.615901,-6.8813322,0.0 107.6159307,-6.8812332,0.0 107.6159569,-6.8811413,0.0 107.6159994,-6.8809912,0.0 107.6161219,-6.8805516,0.0 107.6161668,-6.8803793,0.0 107.6162759,-6.8800049,0.0 107.6163156,-6.8798494,0.0 107.6164246,-6.8794377,0.0 107.6165054,-6.8791283,0.0 107.6165531,-6.8789436,0.0 107.6165935,-6.8787871,0.0 107.6166093,-6.878728,0.0 107.6166707,-6.8785163,0.0 107.6167998,-6.8780829,0.0 107.6168402,-6.8779952,0.0 107.6168774,-6.8779264,0.0 107.6169544,-6.8778124,0.0 107.6170262,-6.8777247,0.0 107.6171251,-6.8775949,0.0 107.6172852,-6.8773874,0.0 107.6173071,-6.8773552,0.0 107.6173842,-6.8772498,0.0 107.6178533,-6.8766301,0.0 107.6178704,-6.8766086,0.0 107.6180347,-6.8763814,0.0 107.6181264,-6.8762622,0.0 107.6182425,-6.8761012,0.0 107.6183604,-6.8759161,0.0 107.6184672,-6.8757254,0.0 107.6184938,-6.8756737,0.0 107.6185822,-6.8755055,0.0 107.6186615,-6.8753453,0.0 107.6188141,-6.8749961,0.0 107.6188846,-6.874828,0.0 107.6190216,-6.8745002,0.0 107.619128,-6.8742454,0.0</coordinates>
            </LineString>
        </Placemark>
        <Placemark id="33763">
            <name>Jalan Ir. H. Djuanda</name>
            <styleUrl>#33764</styleUrl>
            <LineString id="33762">
                <coordinates>107.6199224,-6.8719041,0.0 107.6199571,-6.8715521,0.0 107.6199613,-6.8714974,0.0 107.6199693,-6.8713535,0.0 107.6200017,-6.8710233,0.0 107.6200117,-6.870949,0.0 107.6200253,-6.8708815,0.0 107.6200394,-6.8708195,0.0 107.6200659,-6.8707046,0.0</coordinates>
            </LineString>
        </Placemark>
        <Placemark id="33767">
            <name>Jalan Ir. H. Djuanda</name>
            <styleUrl>#33768</styleUrl>
            <LineString id="33766">
                <coordinates>107.6136013,-6.8868145,0.0 107.6136033,-6.886672,0.0 107.6136079,-6.8865214,0.0 107.6136179,-6.8863619,0.0 107.6136448,-6.886018,0.0 107.6136837,-6.8855287,0.0 107.6136924,-6.8854191,0.0 107.613697,-6.885366,0.0 107.6136997,-6.8853299,0.0 107.6137073,-6.8852448,0.0</coordinates>
            </LineString>
        </Placemark>
        <Placemark id="33771">
            <name>Jalan Ir. H. Djuanda</name>
            <styleUrl>#33772</styleUrl>
            <LineString id="33770">
                <coordinates>107.6105772,-6.906739,0.0 107.61058,-6.906459,0.0 107.6105888,-6.9058778,0.0 107.610597,-6.9054937,0.0</coordinates>
            </LineString>
        </Placemark>
        <Placemark id="33775">
            <name>Jalan Stasiun Timur</name>
            <styleUrl>#33776</styleUrl>
            <LineString id="33774">
                <coordinates>107.606909,-6.9153005,0.0 107.6070035,-6.9152646,0.0 107.6070659,-6.9152151,0.0 107.6070945,-6.9151362,0.0</coordinates>
            </LineString>
        </Placemark>
        <Placemark id="33779">
            <name>Jalan Ir. H. Djuanda</name>
            <styleUrl>#33780</styleUrl>
            <LineString id="33778">
                <coordinates>107.6132006,-6.891496,0.0 107.6132493,-6.8909453,0.0 107.6132839,-6.8905794,0.0</coordinates>
            </LineString>
        </Placemark>
        <Placemark id="33783">
            <name>Jalan Ir. H. Djuanda</name>
            <styleUrl>#33784</styleUrl>
            <LineString id="33782">
                <coordinates>107.619128,-6.8742454,0.0 107.6191643,-6.8741571,0.0 107.6191817,-6.874115,0.0 107.6193538,-6.8737093,0.0 107.6193995,-6.8735894,0.0 107.6194689,-6.873427,0.0 107.6195839,-6.8731592,0.0 107.6197015,-6.8728401,0.0 107.6197219,-6.8727859,0.0 107.6197462,-6.8727215,0.0 107.6197938,-6.8725787,0.0 107.6198709,-6.8723137,0.0 107.6198864,-6.87224,0.0 107.6198987,-6.872166,0.0 107.6199035,-6.8721317,0.0 107.6199224,-6.8719041,0.0</coordinates>
            </LineString>
        </Placemark>
        <Placemark id="33787">
            <name>Jalan Ir. H. Djuanda</name>
            <styleUrl>#33788</styleUrl>
            <LineString id="33786">
                <coordinates>107.6106453,-6.9048172,0.0 107.6106757,-6.9047009,0.0 107.610708,-6.9045998,0.0 107.6108549,-6.9041933,0.0</coordinates>
            </LineString>
        </Placemark>
        <Placemark id="33791">
            <name>Jalan Ir. H. Djuanda</name>
            <styleUrl>#33792</styleUrl>
            <LineString id="33790">
                <coordinates>107.6130211,-6.8937711,0.0 107.6130318,-6.8936687,0.0 107.61305,-6.8934554,0.0</coordinates>
            </LineString>
        </Placemark>
        <Placemark id="33795">
            <name>Jalan Wastukancana</name>
            <styleUrl>#33796</styleUrl>
            <LineString id="33794">
                <coordinates>107.609044,-6.9105515,0.0 107.6088855,-6.9102984,0.0</coordinates>
            </LineString>
        </Placemark>
        <Placemark id="33799">
            <name>Jalan Ir. H. Djuanda</name>
            <styleUrl>#33800</styleUrl>
            <LineString id="33798">
                <coordinates>107.6137073,-6.8852448,0.0 107.6137119,-6.8851905,0.0</coordinates>
            </LineString>
        </Placemark>
        <Placemark id="33803">
            <name>Jalan Ir. H. Djuanda</name>
            <styleUrl>#33804</styleUrl>
            <LineString id="33802">
                <coordinates>107.6209442,-6.866704,0.0 107.6209483,-6.8668113,0.0 107.6209351,-6.8668623,0.0</coordinates>
            </LineString>
        </Placemark>
        <Placemark id="33807">
            <name>Jalan Ir. H. Djuanda</name>
            <styleUrl>#33808</styleUrl>
            <LineString id="33806">
                <coordinates>107.620569,-6.8684751,0.0 107.6205719,-6.8682321,0.0 107.6205739,-6.8680595,0.0</coordinates>
            </LineString>
        </Placemark>
        <Placemark id="33811">
            <name>Jalan Ir. H. Djuanda</name>
            <styleUrl>#33812</styleUrl>
            <LineString id="33810">
                <coordinates>107.6135889,-6.8873815,0.0 107.6135927,-6.8872329,0.0 107.6135981,-6.8870016,0.0 107.6136013,-6.8868145,0.0</coordinates>
            </LineString>
        </Placemark>
        <Placemark id="33815">
            <name>Jalan Ir. H. Djuanda</name>
            <styleUrl>#33816</styleUrl>
            <LineString id="33814">
                <coordinates>107.6105769,-6.9069872,0.0 107.6105757,-6.9068302,0.0 107.6105772,-6.906739,0.0</coordinates>
            </LineString>
        </Placemark>
        <Placemark id="33819">
            <name>Jalan Stasiun Timur</name>
            <styleUrl>#33820</styleUrl>
            <LineString id="33818">
                <coordinates>107.6064066,-6.9149399,0.0 107.6065239,-6.9149519,0.0 107.6066003,-6.9149924,0.0 107.6066521,-6.9150384,0.0 107.6067855,-6.9152656,0.0 107.6068306,-6.9152963,0.0 107.606909,-6.9153005,0.0</coordinates>
            </LineString>
        </Placemark>
        <Placemark id="33823">
            <name>Jalan Ir. H. Djuanda</name>
            <styleUrl>#33824</styleUrl>
            <LineString id="33822">
                <coordinates>107.6108549,-6.9041933,0.0 107.611062,-6.9036685,0.0 107.6112178,-6.9033077,0.0 107.6114071,-6.9028334,0.0</coordinates>
            </LineString>
        </Placemark>
        <Placemark id="33827">
            <name>Jalan Ir. H. Djuanda</name>
            <styleUrl>#33828</styleUrl>
            <LineString id="33826">
                <coordinates>107.6135395,-6.888223,0.0 107.6135495,-6.8880297,0.0</coordinates>
            </LineString>
        </Placemark>
        <Placemark id="33831">
            <name>Jalan Ir. H. Djuanda</name>
            <styleUrl>#33832</styleUrl>
            <LineString id="33830">
                <coordinates>107.6135495,-6.8880297,0.0 107.6135787,-6.887513,0.0 107.6135889,-6.8873815,0.0</coordinates>
            </LineString>
        </Placemark>
        <Placemark id="33835">
            <name>Jalan Ir. H. Djuanda</name>
            <styleUrl>#33836</styleUrl>
            <LineString id="33834">
                <coordinates>107.6200659,-6.8707046,0.0 107.6201119,-6.8705153,0.0</coordinates>
            </LineString>
        </Placemark>
        <Placemark id="33839">
            <name>Jalan Ir. H. Djuanda</name>
            <styleUrl>#33840</styleUrl>
            <LineString id="33838">
                <coordinates>107.6201119,-6.8705153,0.0 107.6201919,-6.8702373,0.0 107.6202138,-6.8701726,0.0 107.620227,-6.8701301,0.0 107.6202478,-6.8700662,0.0 107.6202853,-6.8699517,0.0 107.6203081,-6.8698878,0.0 107.6203459,-6.8697953,0.0 107.6203864,-6.8696825,0.0 107.6204978,-6.8693725,0.0 107.620524,-6.8692766,0.0 107.6205569,-6.8691528,0.0 107.6205668,-6.8690885,0.0 107.6205683,-6.8690243,0.0 107.6205723,-6.8689584,0.0 107.6205696,-6.8688931,0.0 107.620569,-6.8684751,0.0</coordinates>
            </LineString>
        </Placemark>
        <Placemark id="33843">
            <name>Jalan Ir. H. Djuanda</name>
            <styleUrl>#33844</styleUrl>
            <LineString id="33842">
                <coordinates>107.6141003,-6.8837869,0.0 107.6141339,-6.8837382,0.0 107.6141748,-6.8836814,0.0 107.614271,-6.8835894,0.0 107.6145333,-6.8833182,0.0 107.6149531,-6.8828137,0.0 107.6151252,-6.8825877,0.0 107.6153854,-6.8822612,0.0 107.6156462,-6.8818987,0.0 107.6157866,-6.8816978,0.0 107.6158143,-6.8816134,0.0</coordinates>
            </LineString>
        </Placemark>
        <Placemark id="33847">
            <name>Jalan Ir. H. Djuanda</name>
            <styleUrl>#33848</styleUrl>
            <LineString id="33846">
                <coordinates>107.613173,-6.8918457,0.0 107.6132006,-6.891496,0.0</coordinates>
            </LineString>
        </Placemark>
        <Placemark id="33851">
            <name>Jalan Ir. H. Djuanda</name>
            <styleUrl>#33852</styleUrl>
            <LineString id="33850">
                <coordinates>107.610597,-6.9054937,0.0 107.6106015,-6.9052683,0.0 107.6106083,-6.905043,0.0 107.6106453,-6.9048172,0.0</coordinates>
            </LineString>
        </Placemark>
        <Placemark id="33855">
            <name>Jalan Perintis Kemerdekaan</name>
            <styleUrl>#33856</styleUrl>
            <LineString id="33854">
                <coordinates>107.6073185,-6.9143005,0.0 107.6073396,-6.9142915,0.0 107.6073918,-6.9142744,0.0 107.607494,-6.9142383,0.0 107.6075641,-6.9142136,0.0</coordinates>
            </LineString>
        </Placemark>
        <Placemark id="33859">
            <name>Terminal Dago</name>
            <styleUrl>#33860</styleUrl>
            <LineString id="33858">
                <coordinates>107.6209351,-6.8668623,0.0 107.6212402,-6.8669638,0.0 107.6212512,-6.8669765,0.0 107.6212498,-6.8669935,0.0 107.6212119,-6.8670778,0.0</coordinates>
            </LineString>
        </Placemark>
        <Placemark id="33863">
            <name>Jalan Ir. H. Djuanda</name>
            <styleUrl>#33864</styleUrl>
            <LineString id="33862">
                <coordinates>107.6205739,-6.8680595,0.0 107.6206005,-6.867828,0.0 107.6206139,-6.8677494,0.0 107.6206394,-6.8676482,0.0 107.6208039,-6.867019,0.0</coordinates>
            </LineString>
        </Placemark>
        <Placemark id="33867">
            <name>Jalan Ir. H. Djuanda</name>
            <styleUrl>#33868</styleUrl>
            <LineString id="33866">
                <coordinates>107.6208039,-6.867019,0.0 107.6208337,-6.8669052,0.0 107.6208647,-6.8667867,0.0</coordinates>
            </LineString>
        </Placemark>
        <Placemark id="33871">
            <name>Jalan Ir. H. Djuanda</name>
            <styleUrl>#33872</styleUrl>
            <LineString id="33870">
                <coordinates>107.6208647,-6.8667867,0.0 107.6209156,-6.8667269,0.0 107.6209442,-6.866704,0.0</coordinates>
            </LineString>
        </Placemark>
        <Placemark id="33875">
            <name>Jalan Ir. H. Djuanda</name>
            <styleUrl>#33876</styleUrl>
            <LineString id="33874">
                <coordinates>107.613882,-6.8844449,0.0 107.6138984,-6.8843845,0.0 107.6139865,-6.884078,0.0 107.6140439,-6.8838946,0.0 107.6140576,-6.8838685,0.0 107.614076,-6.8838333,0.0 107.6141003,-6.8837869,0.0</coordinates>
            </LineString>
        </Placemark>
    </Document>
</kml>
