<?xml version="1.0" encoding="UTF-8"?>
<kml xmlns="http://www.opengis.net/kml/2.2" xmlns:gx="http://www.google.com/kml/ext/2.2">
    <Document id="34650">
        <Style id="34656">
            <IconStyle id="34657">
                <colorMode>normal</colorMode>
                <scale>1</scale>
                <heading>0</heading>
                <Icon id="34658">
                    <href>http://maps.google.com/mapfiles/kml/pushpin/ylw-pushpin.png</href>
                </Icon>
            </IconStyle>
        </Style>
        <Style id="34661">
            <LineStyle id="34662">
                <color>ff92312E</color>
                <colorMode>normal</colorMode>
                <width>4</width>
            </LineStyle>
        </Style>
        <Style id="34665">
            <LineStyle id="34666">
                <color>ff92312E</color>
                <colorMode>normal</colorMode>
                <width>4</width>
            </LineStyle>
        </Style>
        <Style id="34669">
            <LineStyle id="34670">
                <color>ff92312E</color>
                <colorMode>normal</colorMode>
                <width>4</width>
            </LineStyle>
        </Style>
        <Style id="34673">
            <LineStyle id="34674">
                <color>ff92312E</color>
                <colorMode>normal</colorMode>
                <width>4</width>
            </LineStyle>
        </Style>
        <Style id="34677">
            <LineStyle id="34678">
                <color>ff92312E</color>
                <colorMode>normal</colorMode>
                <width>4</width>
            </LineStyle>
        </Style>
        <Style id="34681">
            <LineStyle id="34682">
                <color>ff92312E</color>
                <colorMode>normal</colorMode>
                <width>4</width>
            </LineStyle>
        </Style>
        <Style id="34685">
            <LineStyle id="34686">
                <color>ff92312E</color>
                <colorMode>normal</colorMode>
                <width>4</width>
            </LineStyle>
        </Style>
        <Style id="34689">
            <LineStyle id="34690">
                <color>ff92312E</color>
                <colorMode>normal</colorMode>
                <width>4</width>
            </LineStyle>
        </Style>
        <Style id="34693">
            <LineStyle id="34694">
                <color>ff92312E</color>
                <colorMode>normal</colorMode>
                <width>4</width>
            </LineStyle>
        </Style>
        <Style id="34697">
            <LineStyle id="34698">
                <color>ff92312E</color>
                <colorMode>normal</colorMode>
                <width>4</width>
            </LineStyle>
        </Style>
        <Style id="34701">
            <LineStyle id="34702">
                <color>ff92312E</color>
                <colorMode>normal</colorMode>
                <width>4</width>
            </LineStyle>
        </Style>
        <Style id="34705">
            <LineStyle id="34706">
                <color>ff92312E</color>
                <colorMode>normal</colorMode>
                <width>4</width>
            </LineStyle>
        </Style>
        <Style id="34709">
            <LineStyle id="34710">
                <color>ff92312E</color>
                <colorMode>normal</colorMode>
                <width>4</width>
            </LineStyle>
        </Style>
        <Style id="34713">
            <LineStyle id="34714">
                <color>ff92312E</color>
                <colorMode>normal</colorMode>
                <width>4</width>
            </LineStyle>
        </Style>
        <Style id="34717">
            <LineStyle id="34718">
                <color>ff92312E</color>
                <colorMode>normal</colorMode>
                <width>4</width>
            </LineStyle>
        </Style>
        <Style id="34721">
            <LineStyle id="34722">
                <color>ff92312E</color>
                <colorMode>normal</colorMode>
                <width>4</width>
            </LineStyle>
        </Style>
        <Style id="34725">
            <LineStyle id="34726">
                <color>ff92312E</color>
                <colorMode>normal</colorMode>
                <width>4</width>
            </LineStyle>
        </Style>
        <Style id="34729">
            <LineStyle id="34730">
                <color>ff92312E</color>
                <colorMode>normal</colorMode>
                <width>4</width>
            </LineStyle>
        </Style>
        <Style id="34733">
            <LineStyle id="34734">
                <color>ff92312E</color>
                <colorMode>normal</colorMode>
                <width>4</width>
            </LineStyle>
        </Style>
        <Style id="34737">
            <LineStyle id="34738">
                <color>ff92312E</color>
                <colorMode>normal</colorMode>
                <width>4</width>
            </LineStyle>
        </Style>
        <Style id="34741">
            <LineStyle id="34742">
                <color>ff92312E</color>
                <colorMode>normal</colorMode>
                <width>4</width>
            </LineStyle>
        </Style>
        <Style id="34745">
            <LineStyle id="34746">
                <color>ff92312E</color>
                <colorMode>normal</colorMode>
                <width>4</width>
            </LineStyle>
        </Style>
        <Style id="34749">
            <LineStyle id="34750">
                <color>ff92312E</color>
                <colorMode>normal</colorMode>
                <width>4</width>
            </LineStyle>
        </Style>
        <Style id="34753">
            <LineStyle id="34754">
                <color>ff92312E</color>
                <colorMode>normal</colorMode>
                <width>4</width>
            </LineStyle>
        </Style>
        <Style id="34757">
            <LineStyle id="34758">
                <color>ff92312E</color>
                <colorMode>normal</colorMode>
                <width>4</width>
            </LineStyle>
        </Style>
        <Style id="34761">
            <LineStyle id="34762">
                <color>ff92312E</color>
                <colorMode>normal</colorMode>
                <width>4</width>
            </LineStyle>
        </Style>
        <Style id="34765">
            <LineStyle id="34766">
                <color>ff92312E</color>
                <colorMode>normal</colorMode>
                <width>4</width>
            </LineStyle>
        </Style>
        <Style id="34769">
            <LineStyle id="34770">
                <color>ff92312E</color>
                <colorMode>normal</colorMode>
                <width>4</width>
            </LineStyle>
        </Style>
        <Style id="34773">
            <LineStyle id="34774">
                <color>ff92312E</color>
                <colorMode>normal</colorMode>
                <width>4</width>
            </LineStyle>
        </Style>
        <Style id="34777">
            <LineStyle id="34778">
                <color>ff92312E</color>
                <colorMode>normal</colorMode>
                <width>4</width>
            </LineStyle>
        </Style>
        <Style id="34781">
            <LineStyle id="34782">
                <color>ff92312E</color>
                <colorMode>normal</colorMode>
                <width>4</width>
            </LineStyle>
        </Style>
        <ExtendedData>
            <Data name="route-name">
                <value>11A: Sederhana → Ciumbuleuit</value>
            </Data>
            <Data name="source">
                <value>Transport for Bandung</value>
            </Data>
        </ExtendedData>
        <Placemark id="34655">
            <name>RSAU dr. Salamun</name>
            <styleUrl>#34656</styleUrl>
            <Point id="34654">
                <coordinates>107.6049689,-6.8635418,0.0</coordinates>
            </Point>
        </Placemark>
        <Placemark id="34660">
            <name>Jalan Sukajadi</name>
            <styleUrl>#34661</styleUrl>
            <LineString id="34659">
                <coordinates>107.5967323,-6.8873957,0.0 107.5967238,-6.8872476,0.0 107.5967027,-6.8868139,0.0 107.5967016,-6.8867916,0.0</coordinates>
            </LineString>
        </Placemark>
        <Placemark id="34664">
            <name>Jalan Sukamaju</name>
            <styleUrl>#34665</styleUrl>
            <LineString id="34663">
                <coordinates>107.5998881,-6.8900645,0.0 107.599301,-6.8898363,0.0 107.5992335,-6.8898068,0.0 107.5991517,-6.889768,0.0 107.5989654,-6.8896709,0.0 107.5987838,-6.8895599,0.0 107.5985842,-6.8894324,0.0 107.5984265,-6.8893317,0.0 107.5982945,-6.8892233,0.0 107.5975019,-6.8885472,0.0</coordinates>
            </LineString>
        </Placemark>
        <Placemark id="34668">
            <name>Jalan Karangsari</name>
            <styleUrl>#34669</styleUrl>
            <LineString id="34667">
                <coordinates>107.5973545,-6.8808747,0.0 107.5974508,-6.8808819,0.0 107.5975471,-6.8808891,0.0 107.5986782,-6.8811214,0.0</coordinates>
            </LineString>
        </Placemark>
        <Placemark id="34672">
            <name>Jalan Sederhana</name>
            <styleUrl>#34673</styleUrl>
            <LineString id="34671">
                <coordinates>107.5998881,-6.8900645,0.0 107.5997024,-6.8905681,0.0 107.5996153,-6.8908128,0.0</coordinates>
            </LineString>
        </Placemark>
        <Placemark id="34676">
            <name>Jalan Dr. Setiabudi</name>
            <styleUrl>#34677</styleUrl>
            <LineString id="34675">
                <coordinates>107.600512,-6.8825853,0.0 107.6006286,-6.8826207,0.0 107.6008076,-6.8826833,0.0 107.6009948,-6.8827158,0.0 107.6012097,-6.8827404,0.0 107.6013166,-6.8827564,0.0 107.601438,-6.882774,0.0</coordinates>
            </LineString>
        </Placemark>
        <Placemark id="34680">
            <name>Jalan Sederhana</name>
            <styleUrl>#34681</styleUrl>
            <LineString id="34679">
                <coordinates>107.5982533,-6.8959337,0.0 107.5984316,-6.8951102,0.0 107.5985705,-6.894601,0.0 107.5987172,-6.8940629,0.0</coordinates>
            </LineString>
        </Placemark>
        <Placemark id="34684">
            <name>Jalan Sukajadi</name>
            <styleUrl>#34685</styleUrl>
            <LineString id="34683">
                <coordinates>107.5965234,-6.8840238,0.0 107.5965088,-6.8836453,0.0 107.5965062,-6.8835624,0.0 107.596503,-6.8834688,0.0 107.5964741,-6.8826331,0.0 107.5964702,-6.8825274,0.0 107.5964601,-6.8821498,0.0 107.5964542,-6.8820032,0.0 107.596444,-6.8817861,0.0 107.5964302,-6.8814833,0.0 107.5964257,-6.8813836,0.0 107.5964243,-6.8813611,0.0 107.5963984,-6.8809341,0.0</coordinates>
            </LineString>
        </Placemark>
        <Placemark id="34688">
            <name>Jalan Cihampelas</name>
            <styleUrl>#34689</styleUrl>
            <LineString id="34687">
                <coordinates>107.6042802,-6.8845469,0.0 107.6043838,-6.884563,0.0 107.6044603,-6.8845564,0.0 107.6045313,-6.884531,0.0 107.6045769,-6.8844938,0.0 107.6046117,-6.8844392,0.0</coordinates>
            </LineString>
        </Placemark>
        <Placemark id="34692">
            <name>Jalan Ciumbuleuit</name>
            <styleUrl>#34693</styleUrl>
            <LineString id="34691">
                <coordinates>107.6034949,-6.8795381,0.0 107.6035171,-6.8794245,0.0 107.6035209,-6.8794092,0.0 107.6035601,-6.8792532,0.0 107.6037148,-6.8786367,0.0 107.6038662,-6.877964,0.0 107.6039379,-6.8776363,0.0 107.6039494,-6.8775789,0.0 107.6040125,-6.8773172,0.0 107.6040268,-6.8772555,0.0 107.6041216,-6.8768172,0.0 107.6041476,-6.8766913,0.0 107.6041899,-6.8765079,0.0 107.6041979,-6.876473,0.0 107.6042432,-6.8762898,0.0 107.6042824,-6.8761062,0.0 107.6043513,-6.8758194,0.0 107.604438,-6.8754322,0.0 107.6044647,-6.8753147,0.0 107.6045233,-6.8750312,0.0 107.604611,-6.8746597,0.0 107.6046227,-6.8746106,0.0 107.6046798,-6.8743741,0.0 107.6047041,-6.8742672,0.0 107.6048246,-6.8736699,0.0 107.6048709,-6.873397,0.0 107.6049339,-6.8731165,0.0 107.6049868,-6.8728913,0.0 107.6050002,-6.8728342,0.0 107.6050544,-6.872627,0.0 107.6050972,-6.8724542,0.0 107.6051692,-6.8721462,0.0 107.6052416,-6.8718629,0.0 107.6053805,-6.8711463,0.0 107.6054104,-6.870969,0.0 107.6054945,-6.8705769,0.0 107.6055874,-6.8701871,0.0 107.6058073,-6.8692127,0.0 107.6058517,-6.8689891,0.0 107.6058851,-6.8687427,0.0 107.6059107,-6.8682633,0.0 107.6059103,-6.8682113,0.0 107.6058864,-6.8676479,0.0 107.6058829,-6.8675346,0.0 107.6058819,-6.8671331,0.0 107.6059545,-6.8666121,0.0 107.6060767,-6.8659161,0.0</coordinates>
            </LineString>
        </Placemark>
        <Placemark id="34696">
            <name>Jalan Ciumbuleuit</name>
            <styleUrl>#34697</styleUrl>
            <LineString id="34695">
                <coordinates>107.6060367,-6.8658245,0.0 107.6057919,-6.8656927,0.0 107.6057155,-6.8656363,0.0 107.6056717,-6.8655988,0.0 107.6056273,-6.865533,0.0 107.6056136,-6.8654712,0.0 107.6056023,-6.8653707,0.0 107.605564,-6.8651077,0.0 107.6055448,-6.8650101,0.0 107.6055079,-6.8648828,0.0 107.6054492,-6.8647071,0.0 107.6053285,-6.8643915,0.0 107.6052564,-6.8641911,0.0 107.6052329,-6.8641277,0.0</coordinates>
            </LineString>
        </Placemark>
        <Placemark id="34700">
            <name>Jalan Dr. Setiabudi</name>
            <styleUrl>#34701</styleUrl>
            <LineString id="34699">
                <coordinates>107.601438,-6.882774,0.0 107.6015569,-6.8827985,0.0 107.6017237,-6.8828213,0.0 107.6021029,-6.8828925,0.0 107.6023609,-6.8829555,0.0 107.6024888,-6.8829949,0.0 107.6025819,-6.8830235,0.0 107.6029936,-6.8831527,0.0 107.6030454,-6.88317,0.0 107.603268,-6.883261,0.0 107.6033875,-6.8833091,0.0 107.6034531,-6.8833355,0.0 107.6035506,-6.8833918,0.0 107.6036432,-6.8834648,0.0 107.6037953,-6.8836394,0.0 107.6039104,-6.8837975,0.0 107.6039405,-6.8838513,0.0 107.6040202,-6.8839936,0.0 107.6042133,-6.8843933,0.0 107.6042213,-6.8844117,0.0</coordinates>
            </LineString>
        </Placemark>
        <Placemark id="34704">
            <name>Jalan Sukajadi</name>
            <styleUrl>#34705</styleUrl>
            <LineString id="34703">
                <coordinates>107.5967016,-6.8867916,0.0 107.5964324,-6.88604,0.0 107.5964113,-6.8859394,0.0 107.5963989,-6.8858417,0.0 107.5964138,-6.8856254,0.0 107.5964457,-6.8854301,0.0 107.5965693,-6.8848932,0.0</coordinates>
            </LineString>
        </Placemark>
        <Placemark id="34708">
            <name>Jalan Sukajadi</name>
            <styleUrl>#34709</styleUrl>
            <LineString id="34707">
                <coordinates>107.5965291,-6.8842065,0.0 107.5965234,-6.8840238,0.0</coordinates>
            </LineString>
        </Placemark>
        <Placemark id="34712">
            <name>Jalan Sederhana</name>
            <styleUrl>#34713</styleUrl>
            <LineString id="34711">
                <coordinates>107.5996153,-6.8908128,0.0 107.5995145,-6.8910995,0.0 107.5992715,-6.8920002,0.0 107.599254,-6.8920726,0.0 107.5991519,-6.8925236,0.0 107.5990518,-6.8929922,0.0 107.5990034,-6.8931579,0.0 107.5988798,-6.8935471,0.0 107.5987366,-6.8940012,0.0 107.5987172,-6.8940629,0.0</coordinates>
            </LineString>
        </Placemark>
        <Placemark id="34716">
            <name>Jalan Sukajadi</name>
            <styleUrl>#34717</styleUrl>
            <LineString id="34715">
                <coordinates>107.5965693,-6.8848932,0.0 107.5965291,-6.8842065,0.0</coordinates>
            </LineString>
        </Placemark>
        <Placemark id="34720">
            <name>Jalan Profesor Christiaan Eijkman</name>
            <styleUrl>#34721</styleUrl>
            <LineString id="34719">
                <coordinates>107.5993726,-6.8961604,0.0 107.5993061,-6.8961476,0.0 107.5989287,-6.8960775,0.0 107.5988179,-6.8960559,0.0 107.5986468,-6.8960201,0.0 107.5985248,-6.8959937,0.0</coordinates>
            </LineString>
        </Placemark>
        <Placemark id="34724">
            <name>Jalan Ciumbuleuit</name>
            <styleUrl>#34725</styleUrl>
            <LineString id="34723">
                <coordinates>107.6048818,-6.8832929,0.0 107.6048131,-6.8831805,0.0 107.6047615,-6.883063,0.0 107.6046532,-6.8828161,0.0 107.6046492,-6.88275,0.0</coordinates>
            </LineString>
        </Placemark>
        <Placemark id="34728">
            <name>Jalan Profesor Christiaan Eijkman</name>
            <styleUrl>#34729</styleUrl>
            <LineString id="34727">
                <coordinates>107.5985248,-6.8959937,0.0 107.5984723,-6.8959815,0.0</coordinates>
            </LineString>
        </Placemark>
        <Placemark id="34732">
            <name>Jalan Ciumbuleuit</name>
            <styleUrl>#34733</styleUrl>
            <LineString id="34731">
                <coordinates>107.6060767,-6.8659161,0.0 107.6060593,-6.8659083,0.0 107.6060448,-6.8658959,0.0 107.6060347,-6.8658798,0.0 107.6060298,-6.8658614,0.0 107.6060304,-6.8658424,0.0 107.6060367,-6.8658245,0.0</coordinates>
            </LineString>
        </Placemark>
        <Placemark id="34736">
            <name>Jalan Profesor Christiaan Eijkman</name>
            <styleUrl>#34737</styleUrl>
            <LineString id="34735">
                <coordinates>107.5984723,-6.8959815,0.0 107.5982533,-6.8959337,0.0</coordinates>
            </LineString>
        </Placemark>
        <Placemark id="34740">
            <name>Jalan Sukamaju</name>
            <styleUrl>#34741</styleUrl>
            <LineString id="34739">
                <coordinates>107.597422,-6.8884826,0.0 107.5972518,-6.8883124,0.0 107.5970608,-6.8880659,0.0 107.5967526,-6.887631,0.0</coordinates>
            </LineString>
        </Placemark>
        <Placemark id="34744">
            <name>Jalan Sukajadi</name>
            <styleUrl>#34745</styleUrl>
            <LineString id="34743">
                <coordinates>107.5967526,-6.887631,0.0 107.5967323,-6.8873957,0.0</coordinates>
            </LineString>
        </Placemark>
        <Placemark id="34748">
            <name>Jalan Ciumbuleuit</name>
            <styleUrl>#34749</styleUrl>
            <LineString id="34747">
                <coordinates>107.6052329,-6.8641277,0.0 107.6051745,-6.8639702,0.0 107.6051188,-6.8638055,0.0 107.6050935,-6.8637493,0.0 107.6050277,-6.8636331,0.0 107.6049689,-6.8635418,0.0</coordinates>
            </LineString>
        </Placemark>
        <Placemark id="34752">
            <name>Jalan Dr. Setiabudi</name>
            <styleUrl>#34753</styleUrl>
            <LineString id="34751">
                <coordinates>107.5993479,-6.8813024,0.0 107.5994309,-6.8814326,0.0 107.5994716,-6.8814891,0.0 107.5996471,-6.8817279,0.0 107.5996965,-6.881795,0.0 107.6000907,-6.8822275,0.0 107.6001689,-6.8823036,0.0 107.6003584,-6.8824654,0.0 107.600512,-6.8825853,0.0</coordinates>
            </LineString>
        </Placemark>
        <Placemark id="34756">
            <name>Jalan Sukamaju</name>
            <styleUrl>#34757</styleUrl>
            <LineString id="34755">
                <coordinates>107.5975019,-6.8885472,0.0 107.597422,-6.8884826,0.0</coordinates>
            </LineString>
        </Placemark>
        <Placemark id="34760">
            <name>Jalan Cihampelas</name>
            <styleUrl>#34761</styleUrl>
            <LineString id="34759">
                <coordinates>107.6046117,-6.8844392,0.0 107.6047937,-6.8836231,0.0 107.6048307,-6.8834525,0.0 107.6048509,-6.8833592,0.0 107.6048818,-6.8832929,0.0</coordinates>
            </LineString>
        </Placemark>
        <Placemark id="34764">
            <name>Jalan Ciumbuleuit</name>
            <styleUrl>#34765</styleUrl>
            <LineString id="34763">
                <coordinates>107.6046492,-6.88275,0.0 107.6046394,-6.8827329,0.0 107.6045745,-6.8825992,0.0 107.6044632,-6.8823827,0.0 107.6044008,-6.8822778,0.0 107.604313,-6.88206,0.0 107.6042565,-6.881931,0.0 107.6042226,-6.8818521,0.0 107.6041131,-6.8815484,0.0 107.6040603,-6.8813934,0.0 107.6040358,-6.8813221,0.0 107.6039663,-6.881111,0.0 107.603914,-6.8809445,0.0 107.6038795,-6.880847,0.0 107.6038314,-6.8806984,0.0 107.6038241,-6.8806746,0.0 107.6038148,-6.8806505,0.0 107.603801,-6.8806045,0.0 107.6037812,-6.8805383,0.0 107.6036228,-6.8800643,0.0 107.603606,-6.8800095,0.0 107.6035019,-6.8796698,0.0 107.6034949,-6.8795381,0.0</coordinates>
            </LineString>
        </Placemark>
        <Placemark id="34768">
            <name>Jalan Karangsari</name>
            <styleUrl>#34769</styleUrl>
            <LineString id="34767">
                <coordinates>107.5986782,-6.8811214,0.0 107.5987277,-6.881131,0.0 107.5990939,-6.8811971,0.0 107.5992232,-6.8812425,0.0 107.5993479,-6.8813024,0.0</coordinates>
            </LineString>
        </Placemark>
        <Placemark id="34772">
            <name>Jalan Karangsari</name>
            <styleUrl>#34773</styleUrl>
            <LineString id="34771">
                <coordinates>107.5963984,-6.8809341,0.0 107.5966959,-6.8809129,0.0 107.5969398,-6.8808891,0.0 107.5973545,-6.8808747,0.0</coordinates>
            </LineString>
        </Placemark>
        <Placemark id="34776">
            <name>Jalan Dr. Setiabudi</name>
            <styleUrl>#34777</styleUrl>
            <LineString id="34775">
                <coordinates>107.6042611,-6.884503,0.0 107.6042802,-6.8845469,0.0</coordinates>
            </LineString>
        </Placemark>
        <Placemark id="34780">
            <name>Jalan Dr. Setiabudi</name>
            <styleUrl>#34781</styleUrl>
            <LineString id="34779">
                <coordinates>107.6042213,-6.8844117,0.0 107.6042611,-6.884503,0.0</coordinates>
            </LineString>
        </Placemark>
    </Document>
</kml>
