<?xml version="1.0" encoding="UTF-8"?>
<kml xmlns="http://www.opengis.net/kml/2.2" xmlns:gx="http://www.google.com/kml/ext/2.2">
    <Document id="34784">
        <Style id="34790">
            <IconStyle id="34791">
                <colorMode>normal</colorMode>
                <scale>1</scale>
                <heading>0</heading>
                <Icon id="34792">
                    <href>http://maps.google.com/mapfiles/kml/pushpin/ylw-pushpin.png</href>
                </Icon>
            </IconStyle>
        </Style>
        <Style id="34795">
            <IconStyle id="34796">
                <colorMode>normal</colorMode>
                <scale>1</scale>
                <heading>0</heading>
                <Icon id="34797">
                    <href>http://maps.google.com/mapfiles/kml/pushpin/ylw-pushpin.png</href>
                </Icon>
            </IconStyle>
        </Style>
        <Style id="34800">
            <LineStyle id="34801">
                <color>ff92312E</color>
                <colorMode>normal</colorMode>
                <width>4</width>
            </LineStyle>
        </Style>
        <Style id="34804">
            <LineStyle id="34805">
                <color>ff92312E</color>
                <colorMode>normal</colorMode>
                <width>4</width>
            </LineStyle>
        </Style>
        <Style id="34808">
            <LineStyle id="34809">
                <color>ff92312E</color>
                <colorMode>normal</colorMode>
                <width>4</width>
            </LineStyle>
        </Style>
        <Style id="34812">
            <LineStyle id="34813">
                <color>ff92312E</color>
                <colorMode>normal</colorMode>
                <width>4</width>
            </LineStyle>
        </Style>
        <Style id="34816">
            <LineStyle id="34817">
                <color>ff92312E</color>
                <colorMode>normal</colorMode>
                <width>4</width>
            </LineStyle>
        </Style>
        <Style id="34820">
            <LineStyle id="34821">
                <color>ff92312E</color>
                <colorMode>normal</colorMode>
                <width>4</width>
            </LineStyle>
        </Style>
        <Style id="34824">
            <LineStyle id="34825">
                <color>ff92312E</color>
                <colorMode>normal</colorMode>
                <width>4</width>
            </LineStyle>
        </Style>
        <Style id="34828">
            <LineStyle id="34829">
                <color>ff92312E</color>
                <colorMode>normal</colorMode>
                <width>4</width>
            </LineStyle>
        </Style>
        <Style id="34832">
            <LineStyle id="34833">
                <color>ff92312E</color>
                <colorMode>normal</colorMode>
                <width>4</width>
            </LineStyle>
        </Style>
        <Style id="34836">
            <LineStyle id="34837">
                <color>ff92312E</color>
                <colorMode>normal</colorMode>
                <width>4</width>
            </LineStyle>
        </Style>
        <Style id="34840">
            <LineStyle id="34841">
                <color>ff92312E</color>
                <colorMode>normal</colorMode>
                <width>4</width>
            </LineStyle>
        </Style>
        <Style id="34844">
            <LineStyle id="34845">
                <color>ff92312E</color>
                <colorMode>normal</colorMode>
                <width>4</width>
            </LineStyle>
        </Style>
        <Style id="34848">
            <LineStyle id="34849">
                <color>ff92312E</color>
                <colorMode>normal</colorMode>
                <width>4</width>
            </LineStyle>
        </Style>
        <Style id="34852">
            <LineStyle id="34853">
                <color>ff92312E</color>
                <colorMode>normal</colorMode>
                <width>4</width>
            </LineStyle>
        </Style>
        <Style id="34856">
            <LineStyle id="34857">
                <color>ff92312E</color>
                <colorMode>normal</colorMode>
                <width>4</width>
            </LineStyle>
        </Style>
        <Style id="34860">
            <LineStyle id="34861">
                <color>ff92312E</color>
                <colorMode>normal</colorMode>
                <width>4</width>
            </LineStyle>
        </Style>
        <Style id="34864">
            <LineStyle id="34865">
                <color>ff92312E</color>
                <colorMode>normal</colorMode>
                <width>4</width>
            </LineStyle>
        </Style>
        <Style id="34868">
            <LineStyle id="34869">
                <color>ff92312E</color>
                <colorMode>normal</colorMode>
                <width>4</width>
            </LineStyle>
        </Style>
        <Style id="34872">
            <LineStyle id="34873">
                <color>ff92312E</color>
                <colorMode>normal</colorMode>
                <width>4</width>
            </LineStyle>
        </Style>
        <Style id="34876">
            <LineStyle id="34877">
                <color>ff92312E</color>
                <colorMode>normal</colorMode>
                <width>4</width>
            </LineStyle>
        </Style>
        <Style id="34880">
            <LineStyle id="34881">
                <color>ff92312E</color>
                <colorMode>normal</colorMode>
                <width>4</width>
            </LineStyle>
        </Style>
        <Style id="34884">
            <LineStyle id="34885">
                <color>ff92312E</color>
                <colorMode>normal</colorMode>
                <width>4</width>
            </LineStyle>
        </Style>
        <Style id="34888">
            <LineStyle id="34889">
                <color>ff92312E</color>
                <colorMode>normal</colorMode>
                <width>4</width>
            </LineStyle>
        </Style>
        <Style id="34892">
            <LineStyle id="34893">
                <color>ff92312E</color>
                <colorMode>normal</colorMode>
                <width>4</width>
            </LineStyle>
        </Style>
        <Style id="34896">
            <LineStyle id="34897">
                <color>ff92312E</color>
                <colorMode>normal</colorMode>
                <width>4</width>
            </LineStyle>
        </Style>
        <Style id="34900">
            <LineStyle id="34901">
                <color>ff92312E</color>
                <colorMode>normal</colorMode>
                <width>4</width>
            </LineStyle>
        </Style>
        <Style id="34904">
            <LineStyle id="34905">
                <color>ff92312E</color>
                <colorMode>normal</colorMode>
                <width>4</width>
            </LineStyle>
        </Style>
        <Style id="34908">
            <LineStyle id="34909">
                <color>ff92312E</color>
                <colorMode>normal</colorMode>
                <width>4</width>
            </LineStyle>
        </Style>
        <Style id="34912">
            <LineStyle id="34913">
                <color>ff92312E</color>
                <colorMode>normal</colorMode>
                <width>4</width>
            </LineStyle>
        </Style>
        <Style id="34916">
            <LineStyle id="34917">
                <color>ff92312E</color>
                <colorMode>normal</colorMode>
                <width>4</width>
            </LineStyle>
        </Style>
        <Style id="34920">
            <LineStyle id="34921">
                <color>ff92312E</color>
                <colorMode>normal</colorMode>
                <width>4</width>
            </LineStyle>
        </Style>
        <Style id="34924">
            <LineStyle id="34925">
                <color>ff92312E</color>
                <colorMode>normal</colorMode>
                <width>4</width>
            </LineStyle>
        </Style>
        <Style id="34928">
            <LineStyle id="34929">
                <color>ff92312E</color>
                <colorMode>normal</colorMode>
                <width>4</width>
            </LineStyle>
        </Style>
        <Style id="34932">
            <LineStyle id="34933">
                <color>ff92312E</color>
                <colorMode>normal</colorMode>
                <width>4</width>
            </LineStyle>
        </Style>
        <Style id="34936">
            <LineStyle id="34937">
                <color>ff92312E</color>
                <colorMode>normal</colorMode>
                <width>4</width>
            </LineStyle>
        </Style>
        <Style id="34940">
            <LineStyle id="34941">
                <color>ff92312E</color>
                <colorMode>normal</colorMode>
                <width>4</width>
            </LineStyle>
        </Style>
        <Style id="34944">
            <LineStyle id="34945">
                <color>ff92312E</color>
                <colorMode>normal</colorMode>
                <width>4</width>
            </LineStyle>
        </Style>
        <Style id="34948">
            <LineStyle id="34949">
                <color>ff92312E</color>
                <colorMode>normal</colorMode>
                <width>4</width>
            </LineStyle>
        </Style>
        <Style id="34952">
            <LineStyle id="34953">
                <color>ff92312E</color>
                <colorMode>normal</colorMode>
                <width>4</width>
            </LineStyle>
        </Style>
        <Style id="34956">
            <LineStyle id="34957">
                <color>ff92312E</color>
                <colorMode>normal</colorMode>
                <width>4</width>
            </LineStyle>
        </Style>
        <Style id="34960">
            <LineStyle id="34961">
                <color>ff92312E</color>
                <colorMode>normal</colorMode>
                <width>4</width>
            </LineStyle>
        </Style>
        <Style id="34964">
            <LineStyle id="34965">
                <color>ff92312E</color>
                <colorMode>normal</colorMode>
                <width>4</width>
            </LineStyle>
        </Style>
        <Style id="34968">
            <LineStyle id="34969">
                <color>ff92312E</color>
                <colorMode>normal</colorMode>
                <width>4</width>
            </LineStyle>
        </Style>
        <Style id="34972">
            <LineStyle id="34973">
                <color>ff92312E</color>
                <colorMode>normal</colorMode>
                <width>4</width>
            </LineStyle>
        </Style>
        <Style id="34976">
            <LineStyle id="34977">
                <color>ff92312E</color>
                <colorMode>normal</colorMode>
                <width>4</width>
            </LineStyle>
        </Style>
        <Style id="34980">
            <LineStyle id="34981">
                <color>ff92312E</color>
                <colorMode>normal</colorMode>
                <width>4</width>
            </LineStyle>
        </Style>
        <Style id="34984">
            <LineStyle id="34985">
                <color>ff92312E</color>
                <colorMode>normal</colorMode>
                <width>4</width>
            </LineStyle>
        </Style>
        <Style id="34988">
            <LineStyle id="34989">
                <color>ff92312E</color>
                <colorMode>normal</colorMode>
                <width>4</width>
            </LineStyle>
        </Style>
        <Style id="34992">
            <LineStyle id="34993">
                <color>ff92312E</color>
                <colorMode>normal</colorMode>
                <width>4</width>
            </LineStyle>
        </Style>
        <Style id="34996">
            <LineStyle id="34997">
                <color>ff92312E</color>
                <colorMode>normal</colorMode>
                <width>4</width>
            </LineStyle>
        </Style>
        <Style id="35000">
            <LineStyle id="35001">
                <color>ff92312E</color>
                <colorMode>normal</colorMode>
                <width>4</width>
            </LineStyle>
        </Style>
        <Style id="35004">
            <LineStyle id="35005">
                <color>ff92312E</color>
                <colorMode>normal</colorMode>
                <width>4</width>
            </LineStyle>
        </Style>
        <Style id="35008">
            <LineStyle id="35009">
                <color>ff92312E</color>
                <colorMode>normal</colorMode>
                <width>4</width>
            </LineStyle>
        </Style>
        <Style id="35012">
            <LineStyle id="35013">
                <color>ff92312E</color>
                <colorMode>normal</colorMode>
                <width>4</width>
            </LineStyle>
        </Style>
        <Style id="35016">
            <LineStyle id="35017">
                <color>ff92312E</color>
                <colorMode>normal</colorMode>
                <width>4</width>
            </LineStyle>
        </Style>
        <Style id="35020">
            <LineStyle id="35021">
                <color>ff92312E</color>
                <colorMode>normal</colorMode>
                <width>4</width>
            </LineStyle>
        </Style>
        <Style id="35024">
            <LineStyle id="35025">
                <color>ff92312E</color>
                <colorMode>normal</colorMode>
                <width>4</width>
            </LineStyle>
        </Style>
        <Style id="35028">
            <LineStyle id="35029">
                <color>ff92312E</color>
                <colorMode>normal</colorMode>
                <width>4</width>
            </LineStyle>
        </Style>
        <Style id="35032">
            <LineStyle id="35033">
                <color>ff92312E</color>
                <colorMode>normal</colorMode>
                <width>4</width>
            </LineStyle>
        </Style>
        <Style id="35036">
            <LineStyle id="35037">
                <color>ff92312E</color>
                <colorMode>normal</colorMode>
                <width>4</width>
            </LineStyle>
        </Style>
        <Style id="35040">
            <LineStyle id="35041">
                <color>ff92312E</color>
                <colorMode>normal</colorMode>
                <width>4</width>
            </LineStyle>
        </Style>
        <Style id="35044">
            <LineStyle id="35045">
                <color>ff92312E</color>
                <colorMode>normal</colorMode>
                <width>4</width>
            </LineStyle>
        </Style>
        <Style id="35048">
            <LineStyle id="35049">
                <color>ff92312E</color>
                <colorMode>normal</colorMode>
                <width>4</width>
            </LineStyle>
        </Style>
        <Style id="35052">
            <LineStyle id="35053">
                <color>ff92312E</color>
                <colorMode>normal</colorMode>
                <width>4</width>
            </LineStyle>
        </Style>
        <Style id="35056">
            <LineStyle id="35057">
                <color>ff92312E</color>
                <colorMode>normal</colorMode>
                <width>4</width>
            </LineStyle>
        </Style>
        <Style id="35060">
            <LineStyle id="35061">
                <color>ff92312E</color>
                <colorMode>normal</colorMode>
                <width>4</width>
            </LineStyle>
        </Style>
        <Style id="35064">
            <LineStyle id="35065">
                <color>ff92312E</color>
                <colorMode>normal</colorMode>
                <width>4</width>
            </LineStyle>
        </Style>
        <ExtendedData>
            <Data name="route-name">
                <value>11B: Ciumbuleuit → Stasiun Hall</value>
            </Data>
            <Data name="source">
                <value>Transport for Bandung</value>
            </Data>
        </ExtendedData>
        <Placemark id="34789">
            <name>UNPAR</name>
            <styleUrl>#34790</styleUrl>
            <Point id="34788">
                <coordinates>107.6044647,-6.8753147,0.0</coordinates>
            </Point>
        </Placemark>
        <Placemark id="34794">
            <name>Stasiun Hall</name>
            <styleUrl>#34795</styleUrl>
            <Point id="34793">
                <coordinates>107.6024325,-6.9161432,0.0</coordinates>
            </Point>
        </Placemark>
        <Placemark id="34799">
            <name>Jalan Cicendo</name>
            <styleUrl>#34800</styleUrl>
            <LineString id="34798">
                <coordinates>107.6044417,-6.9072201,0.0 107.6044521,-6.9072879,0.0 107.604458,-6.9073889,0.0 107.6044748,-6.9078654,0.0 107.6044776,-6.9079587,0.0 107.6044909,-6.9084617,0.0 107.6044917,-6.9087943,0.0 107.6044683,-6.9089756,0.0 107.6044333,-6.9091247,0.0 107.6043797,-6.9092856,0.0 107.6043042,-6.9094657,0.0 107.6042851,-6.9095101,0.0 107.6042598,-6.9095715,0.0 107.6042199,-6.9096823,0.0 107.6041664,-6.9098645,0.0 107.60413,-6.9100304,0.0 107.6041131,-6.910177,0.0 107.604095,-6.9104032,0.0 107.6040795,-6.910612,0.0 107.6040749,-6.9106747,0.0 107.6040736,-6.9106984,0.0 107.6040635,-6.9108642,0.0 107.6040608,-6.9109088,0.0 107.6039986,-6.911908,0.0 107.6039597,-6.9124977,0.0 107.6039561,-6.9125447,0.0</coordinates>
            </LineString>
        </Placemark>
        <Placemark id="34803">
            <name>Jalan Pajajaran</name>
            <styleUrl>#34804</styleUrl>
            <LineString id="34802">
                <coordinates>107.5976387,-6.9064293,0.0 107.5977572,-6.906505,0.0 107.5978766,-6.9065641,0.0</coordinates>
            </LineString>
        </Placemark>
        <Placemark id="34807">
            <name>Jalan Cihampelas</name>
            <styleUrl>#34808</styleUrl>
            <LineString id="34806">
                <coordinates>107.6044986,-6.8850612,0.0 107.6044348,-6.8853378,0.0 107.6043521,-6.8856962,0.0 107.6043346,-6.8857678,0.0 107.6042485,-6.8861202,0.0 107.6042216,-6.8862318,0.0 107.6041367,-6.886589,0.0 107.6041137,-6.8866842,0.0 107.6040712,-6.8868599,0.0 107.6040539,-6.8869313,0.0 107.6040408,-6.8869867,0.0 107.6039804,-6.8872428,0.0 107.6039534,-6.8874376,0.0 107.6039484,-6.8877565,0.0</coordinates>
            </LineString>
        </Placemark>
        <Placemark id="34811">
            <name>Jalan HOS. Cokroaminoto</name>
            <styleUrl>#34812</styleUrl>
            <LineString id="34810">
                <coordinates>107.5976101,-6.9055012,0.0 107.5976119,-6.9055512,0.0 107.5976179,-6.9058357,0.0 107.5976349,-6.9062206,0.0 107.5976387,-6.9064293,0.0</coordinates>
            </LineString>
        </Placemark>
        <Placemark id="34815">
            <name>Jalan HOS. Cokroaminoto</name>
            <styleUrl>#34816</styleUrl>
            <LineString id="34814">
                <coordinates>107.5981394,-6.9147779,0.0 107.5981365,-6.9148374,0.0 107.5981359,-6.91495,0.0 107.5981514,-6.9151141,0.0 107.5981684,-6.9152126,0.0 107.5981841,-6.9153059,0.0 107.5982121,-6.9155148,0.0 107.5982179,-6.9155581,0.0 107.5982323,-6.9156913,0.0 107.5982633,-6.916131,0.0 107.5982691,-6.91619,0.0</coordinates>
            </LineString>
        </Placemark>
        <Placemark id="34819">
            <name>Jalan Kebon Kawung</name>
            <styleUrl>#34820</styleUrl>
            <LineString id="34818">
                <coordinates>107.6019305,-6.9125353,0.0 107.601745,-6.9125245,0.0</coordinates>
            </LineString>
        </Placemark>
        <Placemark id="34823">
            <name>Jalan Kebon Jati</name>
            <styleUrl>#34824</styleUrl>
            <LineString id="34822">
                <coordinates>107.5984551,-6.9163007,0.0 107.5986452,-6.9162913,0.0 107.5986682,-6.9162902,0.0 107.5987499,-6.9162865,0.0 107.5988546,-6.916282,0.0 107.5991941,-6.9162673,0.0 107.5995626,-6.9162453,0.0 107.599627,-6.9162422,0.0 107.6002509,-6.9162121,0.0 107.600424,-6.9162116,0.0 107.6005777,-6.9162099,0.0 107.6007548,-6.9162056,0.0 107.6010558,-6.9162013,0.0 107.6016262,-6.916191,0.0 107.6019595,-6.9161867,0.0 107.6022008,-6.9161702,0.0</coordinates>
            </LineString>
        </Placemark>
        <Placemark id="34827">
            <name>Jalan HOS. Cokroaminoto</name>
            <styleUrl>#34828</styleUrl>
            <LineString id="34826">
                <coordinates>107.5981313,-6.9141206,0.0 107.5981201,-6.9145111,0.0</coordinates>
            </LineString>
        </Placemark>
        <Placemark id="34831">
            <name>Jalan Pasteur</name>
            <styleUrl>#34832</styleUrl>
            <LineString id="34830">
                <coordinates>107.6035222,-6.9004061,0.0 107.6032079,-6.9003993,0.0 107.6028919,-6.9003836,0.0 107.6025913,-6.9003714,0.0 107.6024256,-6.9003662,0.0 107.6023659,-6.9003639,0.0 107.602324,-6.9003628,0.0 107.602282,-6.9003617,0.0</coordinates>
            </LineString>
        </Placemark>
        <Placemark id="34835">
            <name>Jalan Pasteur</name>
            <styleUrl>#34836</styleUrl>
            <LineString id="34834">
                <coordinates>107.5982442,-6.9003802,0.0 107.597773,-6.9003861,0.0 107.5977337,-6.9003863,0.0</coordinates>
            </LineString>
        </Placemark>
        <Placemark id="34839">
            <name>Jalan Siliwangi</name>
            <styleUrl>#34840</styleUrl>
            <LineString id="34838">
                <coordinates>107.6049833,-6.8833306,0.0 107.6049259,-6.8833663,0.0</coordinates>
            </LineString>
        </Placemark>
        <Placemark id="34843">
            <name>Jalan Cihampelas</name>
            <styleUrl>#34844</styleUrl>
            <LineString id="34842">
                <coordinates>107.6049259,-6.8833663,0.0 107.6048893,-6.8834678,0.0 107.6048738,-6.8835107,0.0 107.6047793,-6.8839055,0.0 107.6046925,-6.8842883,0.0 107.6046192,-6.884589,0.0 107.6045738,-6.8847525,0.0 107.6045446,-6.8848576,0.0 107.6044986,-6.8850612,0.0</coordinates>
            </LineString>
        </Placemark>
        <Placemark id="34847">
            <name>Jalan HOS. Cokroaminoto</name>
            <styleUrl>#34848</styleUrl>
            <LineString id="34846">
                <coordinates>107.5975702,-6.9053954,0.0 107.5976013,-6.9054493,0.0 107.5976101,-6.9055012,0.0</coordinates>
            </LineString>
        </Placemark>
        <Placemark id="34851">
            <name>Jalan Ciumbuleuit</name>
            <styleUrl>#34852</styleUrl>
            <LineString id="34850">
                <coordinates>107.6034949,-6.8795381,0.0 107.6035171,-6.8794245,0.0 107.6035209,-6.8794092,0.0 107.6035601,-6.8792532,0.0 107.6037148,-6.8786367,0.0 107.6038662,-6.877964,0.0 107.6039379,-6.8776363,0.0 107.6039494,-6.8775789,0.0 107.6040125,-6.8773172,0.0 107.6040268,-6.8772555,0.0 107.6041216,-6.8768172,0.0 107.6041476,-6.8766913,0.0 107.6041899,-6.8765079,0.0 107.6041979,-6.876473,0.0 107.6042432,-6.8762898,0.0 107.6042824,-6.8761062,0.0 107.6043513,-6.8758194,0.0 107.604438,-6.8754322,0.0 107.6044647,-6.8753147,0.0 107.6045233,-6.8750312,0.0 107.604611,-6.8746597,0.0 107.6046227,-6.8746106,0.0 107.6046798,-6.8743741,0.0 107.6047041,-6.8742672,0.0 107.6048246,-6.8736699,0.0 107.6048709,-6.873397,0.0 107.6049339,-6.8731165,0.0 107.6049868,-6.8728913,0.0 107.6050002,-6.8728342,0.0 107.6050544,-6.872627,0.0 107.6050972,-6.8724542,0.0 107.6051692,-6.8721462,0.0 107.6052416,-6.8718629,0.0 107.6053805,-6.8711463,0.0 107.6054104,-6.870969,0.0 107.6054945,-6.8705769,0.0 107.6055874,-6.8701871,0.0 107.6058073,-6.8692127,0.0 107.6058517,-6.8689891,0.0 107.6058851,-6.8687427,0.0 107.6059107,-6.8682633,0.0 107.6059103,-6.8682113,0.0 107.6058864,-6.8676479,0.0 107.6058829,-6.8675346,0.0 107.6058819,-6.8671331,0.0 107.6059545,-6.8666121,0.0 107.6060767,-6.8659161,0.0</coordinates>
            </LineString>
        </Placemark>
        <Placemark id="34855">
            <name>Jalan Ciumbuleuit</name>
            <styleUrl>#34856</styleUrl>
            <LineString id="34854">
                <coordinates>107.6060367,-6.8658245,0.0 107.6057919,-6.8656927,0.0 107.6057155,-6.8656363,0.0 107.6056717,-6.8655988,0.0 107.6056273,-6.865533,0.0 107.6056136,-6.8654712,0.0 107.6056023,-6.8653707,0.0 107.605564,-6.8651077,0.0 107.6055448,-6.8650101,0.0 107.6055079,-6.8648828,0.0 107.6054492,-6.8647071,0.0 107.6053285,-6.8643915,0.0 107.6052564,-6.8641911,0.0 107.6052329,-6.8641277,0.0</coordinates>
            </LineString>
        </Placemark>
        <Placemark id="34859">
            <name>Jalan Cihampelas</name>
            <styleUrl>#34860</styleUrl>
            <LineString id="34858">
                <coordinates>107.6041803,-6.900144,0.0 107.6041813,-6.9001579,0.0 107.604189,-6.9002755,0.0 107.6041992,-6.9003596,0.0 107.6042016,-6.9003842,0.0</coordinates>
            </LineString>
        </Placemark>
        <Placemark id="34863">
            <name>Jalan Pasteur</name>
            <styleUrl>#34864</styleUrl>
            <LineString id="34862">
                <coordinates>107.6010646,-6.9003568,0.0 107.6010291,-6.9003565,0.0 107.600771,-6.9003544,0.0 107.6005268,-6.9003545,0.0 107.6003874,-6.9003546,0.0 107.5999891,-6.9003576,0.0 107.5995868,-6.9003613,0.0</coordinates>
            </LineString>
        </Placemark>
        <Placemark id="34867">
            <name>Jalan Cihampelas</name>
            <styleUrl>#34868</styleUrl>
            <LineString id="34866">
                <coordinates>107.6039484,-6.8877565,0.0 107.6039743,-6.8881464,0.0 107.6039772,-6.8881744,0.0 107.6039991,-6.8883924,0.0 107.6040179,-6.8885512,0.0 107.6040214,-6.8885821,0.0 107.6040236,-6.8886013,0.0 107.6040387,-6.8887215,0.0 107.6040455,-6.8887679,0.0 107.6041808,-6.8898823,0.0 107.604194,-6.8899911,0.0 107.6041992,-6.8900884,0.0 107.6042179,-6.8906239,0.0 107.6042285,-6.8909117,0.0 107.6042314,-6.8912099,0.0 107.6042338,-6.8914499,0.0 107.6042355,-6.8916244,0.0</coordinates>
            </LineString>
        </Placemark>
        <Placemark id="34871">
            <name>Jalan Pajajaran</name>
            <styleUrl>#34872</styleUrl>
            <LineString id="34870">
                <coordinates>107.5978766,-6.9065641,0.0 107.5979786,-6.9065883,0.0 107.5982101,-6.9066424,0.0 107.5983334,-6.9066643,0.0 107.5987941,-6.906746,0.0</coordinates>
            </LineString>
        </Placemark>
        <Placemark id="34875">
            <name>Jalan HOS. Cokroaminoto</name>
            <styleUrl>#34876</styleUrl>
            <LineString id="34874">
                <coordinates>107.5974523,-6.9006598,0.0 107.5974536,-6.9007224,0.0 107.5974543,-6.9007808,0.0 107.5974649,-6.9013037,0.0 107.5974913,-6.9019914,0.0 107.5975373,-6.9033184,0.0 107.5975385,-6.9033942,0.0 107.5975276,-6.9034547,0.0 107.5975116,-6.9035067,0.0</coordinates>
            </LineString>
        </Placemark>
        <Placemark id="34879">
            <name>Route Segment</name>
            <styleUrl>#34880</styleUrl>
            <LineString id="34878">
                <coordinates>107.5977337,-6.9003863,0.0 107.5976719,-6.900404,0.0 107.5976493,-6.9004086,0.0 107.5976271,-6.9004144,0.0 107.597606,-6.9004235,0.0 107.5975891,-6.9004348,0.0 107.5975669,-6.9004529,0.0 107.5975478,-6.9004761,0.0 107.5975307,-6.9005049,0.0 107.5975109,-6.9005434,0.0 107.5974955,-6.9005724,0.0 107.5974759,-6.9006116,0.0 107.5974523,-6.9006598,0.0</coordinates>
            </LineString>
        </Placemark>
        <Placemark id="34883">
            <name>Jalan Pajajaran</name>
            <styleUrl>#34884</styleUrl>
            <LineString id="34882">
                <coordinates>107.601582,-6.9069752,0.0 107.6018374,-6.9069939,0.0 107.6022676,-6.9070278,0.0 107.6024088,-6.9070386,0.0 107.6028154,-6.9070698,0.0 107.6030906,-6.9070909,0.0 107.6042719,-6.9071615,0.0 107.6043341,-6.9071602,0.0 107.6043882,-6.9071529,0.0</coordinates>
            </LineString>
        </Placemark>
        <Placemark id="34887">
            <name>Jalan Cihampelas</name>
            <styleUrl>#34888</styleUrl>
            <LineString id="34886">
                <coordinates>107.6039496,-6.8971371,0.0 107.6039675,-6.8974513,0.0 107.6040028,-6.8978417,0.0 107.6040588,-6.8985578,0.0 107.6040773,-6.8988321,0.0 107.6040857,-6.8989874,0.0 107.6040897,-6.899022,0.0 107.6041494,-6.8996569,0.0 107.6041726,-6.9000527,0.0 107.6041743,-6.9000737,0.0 107.6041803,-6.900144,0.0</coordinates>
            </LineString>
        </Placemark>
        <Placemark id="34891">
            <name>Jalan Cihampelas</name>
            <styleUrl>#34892</styleUrl>
            <LineString id="34890">
                <coordinates>107.6042355,-6.8916244,0.0 107.6042345,-6.8917434,0.0 107.6042347,-6.8922554,0.0 107.6042213,-6.8925111,0.0 107.6041814,-6.8929367,0.0 107.6041718,-6.8930371,0.0 107.6041704,-6.8930508,0.0 107.6041675,-6.8930723,0.0 107.6041636,-6.893105,0.0 107.6041399,-6.8936073,0.0</coordinates>
            </LineString>
        </Placemark>
        <Placemark id="34895">
            <name>Jalan Ciumbuleuit</name>
            <styleUrl>#34896</styleUrl>
            <LineString id="34894">
                <coordinates>107.6049395,-6.8832608,0.0 107.6049833,-6.8833306,0.0</coordinates>
            </LineString>
        </Placemark>
        <Placemark id="34899">
            <name>Jalan HOS. Cokroaminoto</name>
            <styleUrl>#34900</styleUrl>
            <LineString id="34898">
                <coordinates>107.5975702,-6.9053954,0.0 107.5975685,-6.9053623,0.0 107.5975647,-6.9052979,0.0 107.5975641,-6.9052785,0.0 107.5975561,-6.9050098,0.0 107.5975537,-6.9049333,0.0</coordinates>
            </LineString>
        </Placemark>
        <Placemark id="34903">
            <name>Jalan Pasteur</name>
            <styleUrl>#34904</styleUrl>
            <LineString id="34902">
                <coordinates>107.5988975,-6.9003711,0.0 107.5988453,-6.9003703,0.0 107.5985681,-6.9003769,0.0</coordinates>
            </LineString>
        </Placemark>
        <Placemark id="34907">
            <name>Jalan Ciumbuleuit</name>
            <styleUrl>#34908</styleUrl>
            <LineString id="34906">
                <coordinates>107.6046492,-6.88275,0.0 107.6047003,-6.8827903,0.0 107.6047888,-6.8829786,0.0 107.6048512,-6.8830998,0.0 107.6049395,-6.8832608,0.0</coordinates>
            </LineString>
        </Placemark>
        <Placemark id="34911">
            <name>Jalan Cicendo</name>
            <styleUrl>#34912</styleUrl>
            <LineString id="34910">
                <coordinates>107.6039561,-6.9125447,0.0 107.603934,-6.912602,0.0 107.6039133,-6.9126367,0.0 107.603885,-6.9126611,0.0</coordinates>
            </LineString>
        </Placemark>
        <Placemark id="34915">
            <name>Jalan HOS. Cokroaminoto</name>
            <styleUrl>#34916</styleUrl>
            <LineString id="34914">
                <coordinates>107.5975537,-6.9049333,0.0 107.5975448,-6.904529,0.0 107.5975406,-6.9043005,0.0 107.5975343,-6.9039924,0.0</coordinates>
            </LineString>
        </Placemark>
        <Placemark id="34919">
            <name>Jalan HOS. Cokroaminoto</name>
            <styleUrl>#34920</styleUrl>
            <LineString id="34918">
                <coordinates>107.5982527,-6.912368,0.0 107.5981712,-6.9123893,0.0 107.5981013,-6.9124336,0.0 107.5980813,-6.9124536,0.0 107.5980631,-6.9124827,0.0 107.5980572,-6.9125176,0.0 107.5980576,-6.912581,0.0 107.5980619,-6.912679,0.0 107.5980673,-6.9127983,0.0 107.5980682,-6.9128159,0.0 107.5980735,-6.9128984,0.0 107.5980862,-6.9131496,0.0 107.5980866,-6.9131574,0.0 107.5980924,-6.9133033,0.0 107.5980951,-6.9133446,0.0 107.5980899,-6.9133886,0.0 107.5980724,-6.9134153,0.0</coordinates>
            </LineString>
        </Placemark>
        <Placemark id="34923">
            <name>Jalan Pajajaran</name>
            <styleUrl>#34924</styleUrl>
            <LineString id="34922">
                <coordinates>107.5987941,-6.906746,0.0 107.5992067,-6.9068065,0.0 107.599567,-6.9068341,0.0</coordinates>
            </LineString>
        </Placemark>
        <Placemark id="34927">
            <name>Jalan Cihampelas</name>
            <styleUrl>#34928</styleUrl>
            <LineString id="34926">
                <coordinates>107.6041399,-6.8936073,0.0 107.6040966,-6.8943213,0.0 107.6040947,-6.8943366,0.0 107.6040642,-6.8945463,0.0 107.6040533,-6.8946215,0.0 107.6040475,-6.8946762,0.0 107.6040253,-6.8948583,0.0 107.6040077,-6.8950101,0.0 107.6040043,-6.8950495,0.0 107.6040014,-6.895093,0.0 107.6039768,-6.8955786,0.0 107.6039637,-6.8957293,0.0</coordinates>
            </LineString>
        </Placemark>
        <Placemark id="34931">
            <name>Jalan Cihampelas</name>
            <styleUrl>#34932</styleUrl>
            <LineString id="34930">
                <coordinates>107.6039637,-6.8957293,0.0 107.6039485,-6.8958668,0.0 107.6039451,-6.8959031,0.0 107.6039338,-6.8960782,0.0 107.6039314,-6.8961372,0.0 107.6039298,-6.896266,0.0 107.603945,-6.8970293,0.0 107.6039453,-6.8970466,0.0 107.6039496,-6.8971371,0.0</coordinates>
            </LineString>
        </Placemark>
        <Placemark id="34935">
            <name>Jalan HOS. Cokroaminoto</name>
            <styleUrl>#34936</styleUrl>
            <LineString id="34934">
                <coordinates>107.5981201,-6.9145111,0.0 107.5981205,-6.9145443,0.0</coordinates>
            </LineString>
        </Placemark>
        <Placemark id="34939">
            <name>Jalan HOS. Cokroaminoto</name>
            <styleUrl>#34940</styleUrl>
            <LineString id="34938">
                <coordinates>107.5981205,-6.9145443,0.0 107.5981401,-6.9145877,0.0 107.5981422,-6.9146201,0.0 107.5981394,-6.9147779,0.0</coordinates>
            </LineString>
        </Placemark>
        <Placemark id="34943">
            <name>Jalan Pajajaran</name>
            <styleUrl>#34944</styleUrl>
            <LineString id="34942">
                <coordinates>107.6043882,-6.9071529,0.0 107.6043885,-6.9071772,0.0 107.6043991,-6.9071992,0.0 107.604418,-6.9072147,0.0 107.6044417,-6.9072201,0.0</coordinates>
            </LineString>
        </Placemark>
        <Placemark id="34947">
            <name>Jalan Ciumbuleuit</name>
            <styleUrl>#34948</styleUrl>
            <LineString id="34946">
                <coordinates>107.6052329,-6.8641277,0.0 107.6051745,-6.8639702,0.0 107.6051188,-6.8638055,0.0 107.6050935,-6.8637493,0.0 107.6050277,-6.8636331,0.0 107.6049689,-6.8635418,0.0</coordinates>
            </LineString>
        </Placemark>
        <Placemark id="34951">
            <name>Jalan Kebon Kawung</name>
            <styleUrl>#34952</styleUrl>
            <LineString id="34950">
                <coordinates>107.603885,-6.9126611,0.0 107.6038515,-6.9126567,0.0 107.6036069,-6.9126444,0.0 107.6032433,-6.9126176,0.0 107.6029824,-6.9125986,0.0 107.6029303,-6.9125954,0.0 107.6027169,-6.9125813,0.0 107.6024779,-6.9125651,0.0 107.6023535,-6.9125612,0.0 107.6022742,-6.9125566,0.0 107.6020122,-6.91254,0.0</coordinates>
            </LineString>
        </Placemark>
        <Placemark id="34955">
            <name>Jalan Kebon Kawung</name>
            <styleUrl>#34956</styleUrl>
            <LineString id="34954">
                <coordinates>107.6020122,-6.91254,0.0 107.6019305,-6.9125353,0.0</coordinates>
            </LineString>
        </Placemark>
        <Placemark id="34959">
            <name>Jalan HOS. Cokroaminoto</name>
            <styleUrl>#34960</styleUrl>
            <LineString id="34958">
                <coordinates>107.5980758,-6.9134531,0.0 107.5981284,-6.913989,0.0 107.5981313,-6.9140657,0.0 107.5981313,-6.9141206,0.0</coordinates>
            </LineString>
        </Placemark>
        <Placemark id="34963">
            <name>Jalan HOS. Cokroaminoto</name>
            <styleUrl>#34964</styleUrl>
            <LineString id="34962">
                <coordinates>107.5980724,-6.9134153,0.0 107.5980758,-6.9134531,0.0</coordinates>
            </LineString>
        </Placemark>
        <Placemark id="34967">
            <name>Jalan HOS. Cokroaminoto</name>
            <styleUrl>#34968</styleUrl>
            <LineString id="34966">
                <coordinates>107.5975343,-6.9039924,0.0 107.5975116,-6.9035067,0.0</coordinates>
            </LineString>
        </Placemark>
        <Placemark id="34971">
            <name>Jalan Pasteur</name>
            <styleUrl>#34972</styleUrl>
            <LineString id="34970">
                <coordinates>107.6042016,-6.9003842,0.0 107.6040928,-6.9003949,0.0 107.604064,-6.9003966,0.0 107.6038997,-6.9004015,0.0 107.6035222,-6.9004061,0.0</coordinates>
            </LineString>
        </Placemark>
        <Placemark id="34975">
            <name>Jalan Pasteur</name>
            <styleUrl>#34976</styleUrl>
            <LineString id="34974">
                <coordinates>107.5985681,-6.9003769,0.0 107.5982442,-6.9003802,0.0</coordinates>
            </LineString>
        </Placemark>
        <Placemark id="34979">
            <name>Jalan Pasteur</name>
            <styleUrl>#34980</styleUrl>
            <LineString id="34978">
                <coordinates>107.5995868,-6.9003613,0.0 107.5988975,-6.9003711,0.0</coordinates>
            </LineString>
        </Placemark>
        <Placemark id="34983">
            <name>Jalan Ciumbuleuit</name>
            <styleUrl>#34984</styleUrl>
            <LineString id="34982">
                <coordinates>107.6060367,-6.8658245,0.0 107.6060528,-6.8658046,0.0 107.6060754,-6.8657926,0.0 107.606101,-6.8657902,0.0 107.6061255,-6.8657979,0.0 107.606145,-6.8658144,0.0 107.6061566,-6.8658372,0.0 107.6061583,-6.8658626,0.0 107.6061517,-6.8658835,0.0 107.6061385,-6.865901,0.0 107.6061201,-6.8659131,0.0 107.6060987,-6.8659183,0.0 107.6060767,-6.8659161,0.0</coordinates>
            </LineString>
        </Placemark>
        <Placemark id="34987">
            <name>Jalan Suniaraja</name>
            <styleUrl>#34988</styleUrl>
            <LineString id="34986">
                <coordinates>107.6022008,-6.9161702,0.0 107.6023308,-6.916154,0.0 107.6024325,-6.9161432,0.0</coordinates>
            </LineString>
        </Placemark>
        <Placemark id="34991">
            <name>Jalan Pasteur</name>
            <styleUrl>#34992</styleUrl>
            <LineString id="34990">
                <coordinates>107.602282,-6.9003617,0.0 107.6018744,-6.9003583,0.0 107.6018357,-6.9003585,0.0 107.6014571,-6.9003605,0.0 107.6011427,-6.9003575,0.0 107.6010646,-6.9003568,0.0</coordinates>
            </LineString>
        </Placemark>
        <Placemark id="34995">
            <name>Jalan HOS. Cokroaminoto</name>
            <styleUrl>#34996</styleUrl>
            <LineString id="34994">
                <coordinates>107.5982691,-6.91619,0.0 107.5982712,-6.9162489,0.0 107.5982716,-6.9162705,0.0 107.5982729,-6.9163191,0.0</coordinates>
            </LineString>
        </Placemark>
        <Placemark id="34999">
            <name>Jalan Kebon Jati</name>
            <styleUrl>#35000</styleUrl>
            <LineString id="34998">
                <coordinates>107.5982729,-6.9163191,0.0 107.5984551,-6.9163007,0.0</coordinates>
            </LineString>
        </Placemark>
        <Placemark id="35003">
            <name>Jalan Ciumbuleuit</name>
            <styleUrl>#35004</styleUrl>
            <LineString id="35002">
                <coordinates>107.6046492,-6.88275,0.0 107.6046394,-6.8827329,0.0 107.6045745,-6.8825992,0.0 107.6044632,-6.8823827,0.0 107.6044008,-6.8822778,0.0 107.604313,-6.88206,0.0 107.6042565,-6.881931,0.0 107.6042226,-6.8818521,0.0 107.6041131,-6.8815484,0.0 107.6040603,-6.8813934,0.0 107.6040358,-6.8813221,0.0 107.6039663,-6.881111,0.0 107.603914,-6.8809445,0.0 107.6038795,-6.880847,0.0 107.6038314,-6.8806984,0.0 107.6038241,-6.8806746,0.0 107.6038148,-6.8806505,0.0 107.603801,-6.8806045,0.0 107.6037812,-6.8805383,0.0 107.6036228,-6.8800643,0.0 107.603606,-6.8800095,0.0 107.6035019,-6.8796698,0.0 107.6034949,-6.8795381,0.0</coordinates>
            </LineString>
        </Placemark>
        <Placemark id="35007">
            <name>Jalan Kebon Kawung</name>
            <styleUrl>#35008</styleUrl>
            <LineString id="35006">
                <coordinates>107.6006435,-6.9124749,0.0 107.6002224,-6.9124495,0.0</coordinates>
            </LineString>
        </Placemark>
        <Placemark id="35011">
            <name>Jalan Kebon Kawung</name>
            <styleUrl>#35012</styleUrl>
            <LineString id="35010">
                <coordinates>107.6002224,-6.9124495,0.0 107.6000202,-6.912439,0.0</coordinates>
            </LineString>
        </Placemark>
        <Placemark id="35015">
            <name>Jalan Kebon Kawung</name>
            <styleUrl>#35016</styleUrl>
            <LineString id="35014">
                <coordinates>107.6000202,-6.912439,0.0 107.5993874,-6.9123994,0.0</coordinates>
            </LineString>
        </Placemark>
        <Placemark id="35019">
            <name>Jalan Kebon Kawung</name>
            <styleUrl>#35020</styleUrl>
            <LineString id="35018">
                <coordinates>107.5993874,-6.9123994,0.0 107.5990408,-6.912374,0.0 107.5990132,-6.912372,0.0</coordinates>
            </LineString>
        </Placemark>
        <Placemark id="35023">
            <name>Jalan Kebon Kawung</name>
            <styleUrl>#35024</styleUrl>
            <LineString id="35022">
                <coordinates>107.5990132,-6.912372,0.0 107.5982527,-6.912368,0.0</coordinates>
            </LineString>
        </Placemark>
        <Placemark id="35027">
            <name>Jalan Kebon Kawung</name>
            <styleUrl>#35028</styleUrl>
            <LineString id="35026">
                <coordinates>107.601745,-6.9125245,0.0 107.601624,-6.9125174,0.0</coordinates>
            </LineString>
        </Placemark>
        <Placemark id="35031">
            <name>Jalan Kebon Kawung</name>
            <styleUrl>#35032</styleUrl>
            <LineString id="35030">
                <coordinates>107.601624,-6.9125174,0.0 107.6015636,-6.9125139,0.0</coordinates>
            </LineString>
        </Placemark>
        <Placemark id="35035">
            <name>Jalan Kebon Kawung</name>
            <styleUrl>#35036</styleUrl>
            <LineString id="35034">
                <coordinates>107.6015636,-6.9125139,0.0 107.6010547,-6.9124917,0.0</coordinates>
            </LineString>
        </Placemark>
        <Placemark id="35039">
            <name>Jalan Kebon Kawung</name>
            <styleUrl>#35040</styleUrl>
            <LineString id="35038">
                <coordinates>107.6010547,-6.9124917,0.0 107.6009674,-6.9124878,0.0</coordinates>
            </LineString>
        </Placemark>
        <Placemark id="35043">
            <name>Jalan Kebon Kawung</name>
            <styleUrl>#35044</styleUrl>
            <LineString id="35042">
                <coordinates>107.6009674,-6.9124878,0.0 107.6007223,-6.9124771,0.0 107.6006435,-6.9124749,0.0</coordinates>
            </LineString>
        </Placemark>
        <Placemark id="35047">
            <name>Jalan Pajajaran</name>
            <styleUrl>#35048</styleUrl>
            <LineString id="35046">
                <coordinates>107.599567,-6.9068341,0.0 107.5998642,-6.9068525,0.0</coordinates>
            </LineString>
        </Placemark>
        <Placemark id="35051">
            <name>Jalan Pajajaran</name>
            <styleUrl>#35052</styleUrl>
            <LineString id="35050">
                <coordinates>107.5998642,-6.9068525,0.0 107.6000477,-6.9068645,0.0 107.6001281,-6.9068699,0.0 107.6004436,-6.9068911,0.0 107.6006155,-6.9069026,0.0</coordinates>
            </LineString>
        </Placemark>
        <Placemark id="35055">
            <name>Jalan Pajajaran</name>
            <styleUrl>#35056</styleUrl>
            <LineString id="35054">
                <coordinates>107.6006155,-6.9069026,0.0 107.6008643,-6.9069205,0.0</coordinates>
            </LineString>
        </Placemark>
        <Placemark id="35059">
            <name>Jalan Pajajaran</name>
            <styleUrl>#35060</styleUrl>
            <LineString id="35058">
                <coordinates>107.6008643,-6.9069205,0.0 107.6009527,-6.906927,0.0 107.6011922,-6.9069453,0.0</coordinates>
            </LineString>
        </Placemark>
        <Placemark id="35063">
            <name>Jalan Pajajaran</name>
            <styleUrl>#35064</styleUrl>
            <LineString id="35062">
                <coordinates>107.6011922,-6.9069453,0.0 107.6012851,-6.9069524,0.0 107.601582,-6.9069752,0.0</coordinates>
            </LineString>
        </Placemark>
    </Document>
</kml>
