<?xml version="1.0" encoding="UTF-8"?>
<kml xmlns="http://www.opengis.net/kml/2.2" xmlns:gx="http://www.google.com/kml/ext/2.2">
    <Document id="37277">
        <Style id="37283">
            <IconStyle id="37284">
                <colorMode>normal</colorMode>
                <scale>1</scale>
                <heading>0</heading>
                <Icon id="37285">
                    <href>http://maps.google.com/mapfiles/kml/pushpin/ylw-pushpin.png</href>
                </Icon>
            </IconStyle>
        </Style>
        <Style id="37288">
            <IconStyle id="37289">
                <colorMode>normal</colorMode>
                <scale>1</scale>
                <heading>0</heading>
                <Icon id="37290">
                    <href>http://maps.google.com/mapfiles/kml/pushpin/ylw-pushpin.png</href>
                </Icon>
            </IconStyle>
        </Style>
        <Style id="37293">
            <LineStyle id="37294">
                <color>ffE1AA27</color>
                <colorMode>normal</colorMode>
                <width>4</width>
            </LineStyle>
        </Style>
        <Style id="37297">
            <LineStyle id="37298">
                <color>ffE1AA27</color>
                <colorMode>normal</colorMode>
                <width>4</width>
            </LineStyle>
        </Style>
        <Style id="37301">
            <LineStyle id="37302">
                <color>ffE1AA27</color>
                <colorMode>normal</colorMode>
                <width>4</width>
            </LineStyle>
        </Style>
        <Style id="37305">
            <LineStyle id="37306">
                <color>ffE1AA27</color>
                <colorMode>normal</colorMode>
                <width>4</width>
            </LineStyle>
        </Style>
        <Style id="37309">
            <LineStyle id="37310">
                <color>ffE1AA27</color>
                <colorMode>normal</colorMode>
                <width>4</width>
            </LineStyle>
        </Style>
        <Style id="37313">
            <LineStyle id="37314">
                <color>ffE1AA27</color>
                <colorMode>normal</colorMode>
                <width>4</width>
            </LineStyle>
        </Style>
        <Style id="37317">
            <LineStyle id="37318">
                <color>ffE1AA27</color>
                <colorMode>normal</colorMode>
                <width>4</width>
            </LineStyle>
        </Style>
        <Style id="37321">
            <LineStyle id="37322">
                <color>ffE1AA27</color>
                <colorMode>normal</colorMode>
                <width>4</width>
            </LineStyle>
        </Style>
        <Style id="37325">
            <LineStyle id="37326">
                <color>ffE1AA27</color>
                <colorMode>normal</colorMode>
                <width>4</width>
            </LineStyle>
        </Style>
        <Style id="37329">
            <LineStyle id="37330">
                <color>ffE1AA27</color>
                <colorMode>normal</colorMode>
                <width>4</width>
            </LineStyle>
        </Style>
        <Style id="37333">
            <LineStyle id="37334">
                <color>ffE1AA27</color>
                <colorMode>normal</colorMode>
                <width>4</width>
            </LineStyle>
        </Style>
        <Style id="37337">
            <LineStyle id="37338">
                <color>ffE1AA27</color>
                <colorMode>normal</colorMode>
                <width>4</width>
            </LineStyle>
        </Style>
        <Style id="37341">
            <LineStyle id="37342">
                <color>ffE1AA27</color>
                <colorMode>normal</colorMode>
                <width>4</width>
            </LineStyle>
        </Style>
        <Style id="37345">
            <LineStyle id="37346">
                <color>ffE1AA27</color>
                <colorMode>normal</colorMode>
                <width>4</width>
            </LineStyle>
        </Style>
        <Style id="37349">
            <LineStyle id="37350">
                <color>ffE1AA27</color>
                <colorMode>normal</colorMode>
                <width>4</width>
            </LineStyle>
        </Style>
        <Style id="37353">
            <LineStyle id="37354">
                <color>ffE1AA27</color>
                <colorMode>normal</colorMode>
                <width>4</width>
            </LineStyle>
        </Style>
        <Style id="37357">
            <LineStyle id="37358">
                <color>ffE1AA27</color>
                <colorMode>normal</colorMode>
                <width>4</width>
            </LineStyle>
        </Style>
        <Style id="37361">
            <LineStyle id="37362">
                <color>ffE1AA27</color>
                <colorMode>normal</colorMode>
                <width>4</width>
            </LineStyle>
        </Style>
        <Style id="37365">
            <LineStyle id="37366">
                <color>ffE1AA27</color>
                <colorMode>normal</colorMode>
                <width>4</width>
            </LineStyle>
        </Style>
        <Style id="37369">
            <LineStyle id="37370">
                <color>ffE1AA27</color>
                <colorMode>normal</colorMode>
                <width>4</width>
            </LineStyle>
        </Style>
        <Style id="37373">
            <LineStyle id="37374">
                <color>ffE1AA27</color>
                <colorMode>normal</colorMode>
                <width>4</width>
            </LineStyle>
        </Style>
        <Style id="37377">
            <LineStyle id="37378">
                <color>ffE1AA27</color>
                <colorMode>normal</colorMode>
                <width>4</width>
            </LineStyle>
        </Style>
        <Style id="37381">
            <LineStyle id="37382">
                <color>ffE1AA27</color>
                <colorMode>normal</colorMode>
                <width>4</width>
            </LineStyle>
        </Style>
        <Style id="37385">
            <LineStyle id="37386">
                <color>ffE1AA27</color>
                <colorMode>normal</colorMode>
                <width>4</width>
            </LineStyle>
        </Style>
        <Style id="37389">
            <LineStyle id="37390">
                <color>ffE1AA27</color>
                <colorMode>normal</colorMode>
                <width>4</width>
            </LineStyle>
        </Style>
        <Style id="37393">
            <LineStyle id="37394">
                <color>ffE1AA27</color>
                <colorMode>normal</colorMode>
                <width>4</width>
            </LineStyle>
        </Style>
        <Style id="37397">
            <LineStyle id="37398">
                <color>ffE1AA27</color>
                <colorMode>normal</colorMode>
                <width>4</width>
            </LineStyle>
        </Style>
        <Style id="37401">
            <LineStyle id="37402">
                <color>ffE1AA27</color>
                <colorMode>normal</colorMode>
                <width>4</width>
            </LineStyle>
        </Style>
        <Style id="37405">
            <LineStyle id="37406">
                <color>ffE1AA27</color>
                <colorMode>normal</colorMode>
                <width>4</width>
            </LineStyle>
        </Style>
        <Style id="37409">
            <LineStyle id="37410">
                <color>ffE1AA27</color>
                <colorMode>normal</colorMode>
                <width>4</width>
            </LineStyle>
        </Style>
        <Style id="37413">
            <LineStyle id="37414">
                <color>ffE1AA27</color>
                <colorMode>normal</colorMode>
                <width>4</width>
            </LineStyle>
        </Style>
        <Style id="37417">
            <LineStyle id="37418">
                <color>ffE1AA27</color>
                <colorMode>normal</colorMode>
                <width>4</width>
            </LineStyle>
        </Style>
        <Style id="37421">
            <LineStyle id="37422">
                <color>ffE1AA27</color>
                <colorMode>normal</colorMode>
                <width>4</width>
            </LineStyle>
        </Style>
        <Style id="37425">
            <LineStyle id="37426">
                <color>ffE1AA27</color>
                <colorMode>normal</colorMode>
                <width>4</width>
            </LineStyle>
        </Style>
        <Style id="37429">
            <LineStyle id="37430">
                <color>ffE1AA27</color>
                <colorMode>normal</colorMode>
                <width>4</width>
            </LineStyle>
        </Style>
        <Style id="37433">
            <LineStyle id="37434">
                <color>ffE1AA27</color>
                <colorMode>normal</colorMode>
                <width>4</width>
            </LineStyle>
        </Style>
        <Style id="37437">
            <LineStyle id="37438">
                <color>ffE1AA27</color>
                <colorMode>normal</colorMode>
                <width>4</width>
            </LineStyle>
        </Style>
        <Style id="37441">
            <LineStyle id="37442">
                <color>ffE1AA27</color>
                <colorMode>normal</colorMode>
                <width>4</width>
            </LineStyle>
        </Style>
        <Style id="37445">
            <LineStyle id="37446">
                <color>ffE1AA27</color>
                <colorMode>normal</colorMode>
                <width>4</width>
            </LineStyle>
        </Style>
        <Style id="37449">
            <LineStyle id="37450">
                <color>ffE1AA27</color>
                <colorMode>normal</colorMode>
                <width>4</width>
            </LineStyle>
        </Style>
        <Style id="37453">
            <LineStyle id="37454">
                <color>ffE1AA27</color>
                <colorMode>normal</colorMode>
                <width>4</width>
            </LineStyle>
        </Style>
        <Style id="37457">
            <LineStyle id="37458">
                <color>ffE1AA27</color>
                <colorMode>normal</colorMode>
                <width>4</width>
            </LineStyle>
        </Style>
        <Style id="37461">
            <LineStyle id="37462">
                <color>ffE1AA27</color>
                <colorMode>normal</colorMode>
                <width>4</width>
            </LineStyle>
        </Style>
        <Style id="37465">
            <LineStyle id="37466">
                <color>ffE1AA27</color>
                <colorMode>normal</colorMode>
                <width>4</width>
            </LineStyle>
        </Style>
        <Style id="37469">
            <LineStyle id="37470">
                <color>ffE1AA27</color>
                <colorMode>normal</colorMode>
                <width>4</width>
            </LineStyle>
        </Style>
        <Style id="37473">
            <LineStyle id="37474">
                <color>ffE1AA27</color>
                <colorMode>normal</colorMode>
                <width>4</width>
            </LineStyle>
        </Style>
        <Style id="37477">
            <LineStyle id="37478">
                <color>ffE1AA27</color>
                <colorMode>normal</colorMode>
                <width>4</width>
            </LineStyle>
        </Style>
        <Style id="37481">
            <LineStyle id="37482">
                <color>ffE1AA27</color>
                <colorMode>normal</colorMode>
                <width>4</width>
            </LineStyle>
        </Style>
        <Style id="37485">
            <LineStyle id="37486">
                <color>ffE1AA27</color>
                <colorMode>normal</colorMode>
                <width>4</width>
            </LineStyle>
        </Style>
        <Style id="37489">
            <LineStyle id="37490">
                <color>ffE1AA27</color>
                <colorMode>normal</colorMode>
                <width>4</width>
            </LineStyle>
        </Style>
        <Style id="37493">
            <LineStyle id="37494">
                <color>ffE1AA27</color>
                <colorMode>normal</colorMode>
                <width>4</width>
            </LineStyle>
        </Style>
        <Style id="37497">
            <LineStyle id="37498">
                <color>ffE1AA27</color>
                <colorMode>normal</colorMode>
                <width>4</width>
            </LineStyle>
        </Style>
        <Style id="37501">
            <LineStyle id="37502">
                <color>ffE1AA27</color>
                <colorMode>normal</colorMode>
                <width>4</width>
            </LineStyle>
        </Style>
        <Style id="37505">
            <LineStyle id="37506">
                <color>ffE1AA27</color>
                <colorMode>normal</colorMode>
                <width>4</width>
            </LineStyle>
        </Style>
        <Style id="37509">
            <LineStyle id="37510">
                <color>ffE1AA27</color>
                <colorMode>normal</colorMode>
                <width>4</width>
            </LineStyle>
        </Style>
        <Style id="37513">
            <LineStyle id="37514">
                <color>ffE1AA27</color>
                <colorMode>normal</colorMode>
                <width>4</width>
            </LineStyle>
        </Style>
        <Style id="37517">
            <LineStyle id="37518">
                <color>ffE1AA27</color>
                <colorMode>normal</colorMode>
                <width>4</width>
            </LineStyle>
        </Style>
        <Style id="37521">
            <LineStyle id="37522">
                <color>ffE1AA27</color>
                <colorMode>normal</colorMode>
                <width>4</width>
            </LineStyle>
        </Style>
        <Style id="37525">
            <LineStyle id="37526">
                <color>ffE1AA27</color>
                <colorMode>normal</colorMode>
                <width>4</width>
            </LineStyle>
        </Style>
        <Style id="37529">
            <LineStyle id="37530">
                <color>ffE1AA27</color>
                <colorMode>normal</colorMode>
                <width>4</width>
            </LineStyle>
        </Style>
        <Style id="37533">
            <LineStyle id="37534">
                <color>ffE1AA27</color>
                <colorMode>normal</colorMode>
                <width>4</width>
            </LineStyle>
        </Style>
        <Style id="37537">
            <LineStyle id="37538">
                <color>ffE1AA27</color>
                <colorMode>normal</colorMode>
                <width>4</width>
            </LineStyle>
        </Style>
        <Style id="37541">
            <LineStyle id="37542">
                <color>ffE1AA27</color>
                <colorMode>normal</colorMode>
                <width>4</width>
            </LineStyle>
        </Style>
        <Style id="37545">
            <LineStyle id="37546">
                <color>ffE1AA27</color>
                <colorMode>normal</colorMode>
                <width>4</width>
            </LineStyle>
        </Style>
        <Style id="37549">
            <LineStyle id="37550">
                <color>ffE1AA27</color>
                <colorMode>normal</colorMode>
                <width>4</width>
            </LineStyle>
        </Style>
        <Style id="37553">
            <LineStyle id="37554">
                <color>ffE1AA27</color>
                <colorMode>normal</colorMode>
                <width>4</width>
            </LineStyle>
        </Style>
        <Style id="37557">
            <LineStyle id="37558">
                <color>ffE1AA27</color>
                <colorMode>normal</colorMode>
                <width>4</width>
            </LineStyle>
        </Style>
        <Style id="37561">
            <LineStyle id="37562">
                <color>ffE1AA27</color>
                <colorMode>normal</colorMode>
                <width>4</width>
            </LineStyle>
        </Style>
        <Style id="37565">
            <LineStyle id="37566">
                <color>ffE1AA27</color>
                <colorMode>normal</colorMode>
                <width>4</width>
            </LineStyle>
        </Style>
        <Style id="37569">
            <LineStyle id="37570">
                <color>ffE1AA27</color>
                <colorMode>normal</colorMode>
                <width>4</width>
            </LineStyle>
        </Style>
        <Style id="37573">
            <LineStyle id="37574">
                <color>ffE1AA27</color>
                <colorMode>normal</colorMode>
                <width>4</width>
            </LineStyle>
        </Style>
        <Style id="37577">
            <LineStyle id="37578">
                <color>ffE1AA27</color>
                <colorMode>normal</colorMode>
                <width>4</width>
            </LineStyle>
        </Style>
        <Style id="37581">
            <LineStyle id="37582">
                <color>ffE1AA27</color>
                <colorMode>normal</colorMode>
                <width>4</width>
            </LineStyle>
        </Style>
        <Style id="37585">
            <LineStyle id="37586">
                <color>ffE1AA27</color>
                <colorMode>normal</colorMode>
                <width>4</width>
            </LineStyle>
        </Style>
        <Style id="37589">
            <LineStyle id="37590">
                <color>ffE1AA27</color>
                <colorMode>normal</colorMode>
                <width>4</width>
            </LineStyle>
        </Style>
        <Style id="37593">
            <LineStyle id="37594">
                <color>ffE1AA27</color>
                <colorMode>normal</colorMode>
                <width>4</width>
            </LineStyle>
        </Style>
        <Style id="37597">
            <LineStyle id="37598">
                <color>ffE1AA27</color>
                <colorMode>normal</colorMode>
                <width>4</width>
            </LineStyle>
        </Style>
        <Style id="37601">
            <LineStyle id="37602">
                <color>ffE1AA27</color>
                <colorMode>normal</colorMode>
                <width>4</width>
            </LineStyle>
        </Style>
        <Style id="37605">
            <LineStyle id="37606">
                <color>ffE1AA27</color>
                <colorMode>normal</colorMode>
                <width>4</width>
            </LineStyle>
        </Style>
        <Style id="37609">
            <LineStyle id="37610">
                <color>ffE1AA27</color>
                <colorMode>normal</colorMode>
                <width>4</width>
            </LineStyle>
        </Style>
        <ExtendedData>
            <Data name="route-name">
                <value>14: Gunung Batu → Stasiun Hall</value>
            </Data>
            <Data name="source">
                <value>Transport for Bandung</value>
            </Data>
        </ExtendedData>
        <Placemark id="37282">
            <name>Gunung Batu</name>
            <styleUrl>#37283</styleUrl>
            <Point id="37281">
                <coordinates>107.5672467,-6.8875315,0.0</coordinates>
            </Point>
        </Placemark>
        <Placemark id="37287">
            <name>Stasiun Hall</name>
            <styleUrl>#37288</styleUrl>
            <Point id="37286">
                <coordinates>107.6024325,-6.9161432,0.0</coordinates>
            </Point>
        </Placemark>
        <Placemark id="37292">
            <name>Jalan Cicendo</name>
            <styleUrl>#37293</styleUrl>
            <LineString id="37291">
                <coordinates>107.6044417,-6.9072201,0.0 107.6044521,-6.9072879,0.0 107.604458,-6.9073889,0.0 107.6044748,-6.9078654,0.0 107.6044776,-6.9079587,0.0 107.6044909,-6.9084617,0.0 107.6044917,-6.9087943,0.0 107.6044683,-6.9089756,0.0 107.6044333,-6.9091247,0.0 107.6043797,-6.9092856,0.0 107.6043042,-6.9094657,0.0 107.6042851,-6.9095101,0.0 107.6042598,-6.9095715,0.0 107.6042199,-6.9096823,0.0 107.6041664,-6.9098645,0.0 107.60413,-6.9100304,0.0 107.6041131,-6.910177,0.0 107.604095,-6.9104032,0.0 107.6040795,-6.910612,0.0 107.6040749,-6.9106747,0.0 107.6040736,-6.9106984,0.0 107.6040635,-6.9108642,0.0 107.6040608,-6.9109088,0.0 107.6039986,-6.911908,0.0 107.6039597,-6.9124977,0.0 107.6039561,-6.9125447,0.0</coordinates>
            </LineString>
        </Placemark>
        <Placemark id="37296">
            <name>Jalan Pajajaran</name>
            <styleUrl>#37297</styleUrl>
            <LineString id="37295">
                <coordinates>107.6073865,-6.9076628,0.0 107.6073442,-6.9076324,0.0 107.6072754,-6.9075859,0.0 107.6071035,-6.9074752,0.0 107.6070242,-6.9074318,0.0 107.6068765,-6.907351,0.0 107.6066403,-6.907244,0.0 107.6065225,-6.9072053,0.0 107.6064209,-6.9071852,0.0 107.6062761,-6.9071663,0.0 107.6061572,-6.9071583,0.0 107.6058415,-6.9071486,0.0 107.6055894,-6.9071347,0.0</coordinates>
            </LineString>
        </Placemark>
        <Placemark id="37300">
            <name>Jalan HOS. Cokroaminoto</name>
            <styleUrl>#37301</styleUrl>
            <LineString id="37299">
                <coordinates>107.5981394,-6.9147779,0.0 107.5981365,-6.9148374,0.0 107.5981359,-6.91495,0.0 107.5981514,-6.9151141,0.0 107.5981684,-6.9152126,0.0 107.5981841,-6.9153059,0.0 107.5982121,-6.9155148,0.0 107.5982179,-6.9155581,0.0 107.5982323,-6.9156913,0.0 107.5982633,-6.916131,0.0 107.5982691,-6.91619,0.0</coordinates>
            </LineString>
        </Placemark>
        <Placemark id="37304">
            <name>Jalan Kebon Kawung</name>
            <styleUrl>#37305</styleUrl>
            <LineString id="37303">
                <coordinates>107.6019305,-6.9125353,0.0 107.601745,-6.9125245,0.0</coordinates>
            </LineString>
        </Placemark>
        <Placemark id="37308">
            <name>Jalan Kebon Jati</name>
            <styleUrl>#37309</styleUrl>
            <LineString id="37307">
                <coordinates>107.5984551,-6.9163007,0.0 107.5986452,-6.9162913,0.0 107.5986682,-6.9162902,0.0 107.5987499,-6.9162865,0.0 107.5988546,-6.916282,0.0 107.5991941,-6.9162673,0.0 107.5995626,-6.9162453,0.0 107.599627,-6.9162422,0.0 107.6002509,-6.9162121,0.0 107.600424,-6.9162116,0.0 107.6005777,-6.9162099,0.0 107.6007548,-6.9162056,0.0 107.6010558,-6.9162013,0.0 107.6016262,-6.916191,0.0 107.6019595,-6.9161867,0.0 107.6022008,-6.9161702,0.0</coordinates>
            </LineString>
        </Placemark>
        <Placemark id="37312">
            <name>Jalan HOS. Cokroaminoto</name>
            <styleUrl>#37313</styleUrl>
            <LineString id="37311">
                <coordinates>107.5981313,-6.9141206,0.0 107.5981201,-6.9145111,0.0</coordinates>
            </LineString>
        </Placemark>
        <Placemark id="37316">
            <name>Jalan Gunung Batu</name>
            <styleUrl>#37317</styleUrl>
            <LineString id="37315">
                <coordinates>107.5666744,-6.889252,0.0 107.566898,-6.8893002,0.0 107.5673426,-6.8893961,0.0 107.5674492,-6.8894061,0.0 107.5679818,-6.8894316,0.0 107.568348,-6.8894666,0.0 107.5686609,-6.8895118,0.0 107.5688326,-6.8895366,0.0 107.5695663,-6.8896411,0.0 107.5698608,-6.8896958,0.0 107.5698999,-6.889704,0.0 107.5710969,-6.889956,0.0 107.571799,-6.8901058,0.0 107.5718812,-6.8901307,0.0 107.5719509,-6.8901682,0.0 107.5720118,-6.890214,0.0 107.5720632,-6.8902745,0.0</coordinates>
            </LineString>
        </Placemark>
        <Placemark id="37320">
            <name>Jalan Sukaraja II</name>
            <styleUrl>#37321</styleUrl>
            <LineString id="37319">
                <coordinates>107.5726332,-6.8935801,0.0 107.5726514,-6.8936053,0.0 107.5726767,-6.8936228,0.0 107.5727163,-6.8936381,0.0 107.5733107,-6.8937105,0.0 107.5737486,-6.8937594,0.0 107.57427,-6.8938125,0.0 107.5743129,-6.8938131,0.0 107.5743531,-6.8938051,0.0 107.5743913,-6.8937881,0.0</coordinates>
            </LineString>
        </Placemark>
        <Placemark id="37324">
            <name>Jalan Dakota</name>
            <styleUrl>#37325</styleUrl>
            <LineString id="37323">
                <coordinates>107.5720632,-6.8902745,0.0 107.5721035,-6.8903481,0.0 107.5721384,-6.8904395,0.0 107.5721625,-6.8905452,0.0 107.5721993,-6.8907689,0.0 107.572217,-6.8908761,0.0 107.5722324,-6.8909698,0.0 107.5722426,-6.8910315,0.0 107.5722985,-6.8913707,0.0 107.5723059,-6.8914155,0.0 107.5723375,-6.8916076,0.0 107.5723693,-6.8918003,0.0 107.5723836,-6.8918872,0.0 107.572441,-6.8922359,0.0 107.5725513,-6.8929057,0.0 107.5725776,-6.8930836,0.0 107.5726156,-6.8935189,0.0 107.5726238,-6.8935635,0.0 107.5726332,-6.8935801,0.0</coordinates>
            </LineString>
        </Placemark>
        <Placemark id="37328">
            <name>Overpass Gunung Batu</name>
            <styleUrl>#37329</styleUrl>
            <LineString id="37327">
                <coordinates>107.5668171,-6.8885326,0.0 107.566899,-6.8882692,0.0 107.5672212,-6.8875923,0.0 107.5672467,-6.8875315,0.0</coordinates>
            </LineString>
        </Placemark>
        <Placemark id="37332">
            <name>Jalan Sukaraja</name>
            <styleUrl>#37333</styleUrl>
            <LineString id="37331">
                <coordinates>107.5807947,-6.892408,0.0 107.580577,-6.8923312,0.0 107.5804965,-6.8922996,0.0 107.5804139,-6.8922691,0.0 107.5802699,-6.8922159,0.0 107.5798198,-6.8919878,0.0 107.579514,-6.8918344,0.0 107.5794555,-6.8918038,0.0</coordinates>
            </LineString>
        </Placemark>
        <Placemark id="37336">
            <name>Jalan Pajajaran</name>
            <styleUrl>#37337</styleUrl>
            <LineString id="37335">
                <coordinates>107.6055894,-6.9071347,0.0 107.6053829,-6.907135,0.0</coordinates>
            </LineString>
        </Placemark>
        <Placemark id="37340">
            <name>Jalan Cihampelas</name>
            <styleUrl>#37341</styleUrl>
            <LineString id="37339">
                <coordinates>107.6042016,-6.9003842,0.0 107.604264,-6.9008715,0.0</coordinates>
            </LineString>
        </Placemark>
        <Placemark id="37344">
            <name>Jalan Cihampelas</name>
            <styleUrl>#37345</styleUrl>
            <LineString id="37343">
                <coordinates>107.6041803,-6.900144,0.0 107.6041813,-6.9001579,0.0 107.604189,-6.9002755,0.0 107.6041992,-6.9003596,0.0 107.6042016,-6.9003842,0.0</coordinates>
            </LineString>
        </Placemark>
        <Placemark id="37348">
            <name>Jalan Dr. Djunjunan</name>
            <styleUrl>#37349</styleUrl>
            <LineString id="37347">
                <coordinates>107.5810582,-6.8921467,0.0 107.5811571,-6.8921678,0.0</coordinates>
            </LineString>
        </Placemark>
        <Placemark id="37352">
            <name>Jalan Dr. Djunjunan</name>
            <styleUrl>#37353</styleUrl>
            <LineString id="37351">
                <coordinates>107.5936018,-6.898303,0.0 107.594085,-6.8986577,0.0 107.5941136,-6.8986787,0.0 107.5944451,-6.8989736,0.0 107.5947669,-6.8992747,0.0 107.5950127,-6.8995008,0.0 107.5952583,-6.8996846,0.0 107.5954259,-6.8997986,0.0 107.5955508,-6.8998655,0.0 107.595629,-6.8999074,0.0</coordinates>
            </LineString>
        </Placemark>
        <Placemark id="37356">
            <name>Jalan Sukaraja</name>
            <styleUrl>#37357</styleUrl>
            <LineString id="37355">
                <coordinates>107.5807947,-6.892408,0.0 107.5808748,-6.8923832,0.0 107.580914,-6.8923693,0.0 107.5809542,-6.8923465,0.0 107.5809794,-6.8923212,0.0 107.5809993,-6.8922941,0.0 107.581013,-6.8922632,0.0</coordinates>
            </LineString>
        </Placemark>
        <Placemark id="37360">
            <name>Jalan Pasteur</name>
            <styleUrl>#37361</styleUrl>
            <LineString id="37359">
                <coordinates>107.5993001,-6.900202,0.0 107.599805,-6.900195,0.0 107.6003645,-6.900192,0.0 107.6008037,-6.9002057,0.0 107.6010655,-6.9002051,0.0</coordinates>
            </LineString>
        </Placemark>
        <Placemark id="37364">
            <name>Jalan Cihampelas</name>
            <styleUrl>#37365</styleUrl>
            <LineString id="37363">
                <coordinates>107.604369,-6.9041823,0.0 107.6043878,-6.9042234,0.0 107.6044168,-6.9042582,0.0 107.604454,-6.9042842,0.0</coordinates>
            </LineString>
        </Placemark>
        <Placemark id="37368">
            <name>Jalan Wastukencana</name>
            <styleUrl>#37369</styleUrl>
            <LineString id="37367">
                <coordinates>107.604454,-6.9042842,0.0 107.6045194,-6.9042857,0.0</coordinates>
            </LineString>
        </Placemark>
        <Placemark id="37372">
            <name>Jalan Wastukancana</name>
            <styleUrl>#37373</styleUrl>
            <LineString id="37371">
                <coordinates>107.6075644,-6.9054686,0.0 107.607609,-6.9055867,0.0 107.6076511,-6.9057161,0.0 107.6076853,-6.905845,0.0</coordinates>
            </LineString>
        </Placemark>
        <Placemark id="37376">
            <name>Jalan Dr. Djunjunan</name>
            <styleUrl>#37377</styleUrl>
            <LineString id="37375">
                <coordinates>107.595629,-6.8999074,0.0 107.5957356,-6.8999574,0.0 107.5958578,-6.9000055,0.0 107.5960113,-6.9000567,0.0 107.5962502,-6.9001202,0.0 107.5963399,-6.9001472,0.0 107.5964623,-6.9001732,0.0 107.596578,-6.9001845,0.0 107.5967905,-6.9002045,0.0 107.5970495,-6.9002074,0.0</coordinates>
            </LineString>
        </Placemark>
        <Placemark id="37380">
            <name>Overpass Gunung Batu</name>
            <styleUrl>#37381</styleUrl>
            <LineString id="37379">
                <coordinates>107.5668171,-6.8885326,0.0 107.5667162,-6.8890247,0.0</coordinates>
            </LineString>
        </Placemark>
        <Placemark id="37384">
            <name>Jalan Dr. Djunjunan</name>
            <styleUrl>#37385</styleUrl>
            <LineString id="37383">
                <coordinates>107.5819472,-6.8922747,0.0 107.582151,-6.8922778,0.0 107.5824915,-6.8922676,0.0 107.5829072,-6.8922539,0.0 107.5830115,-6.8922505,0.0 107.5831666,-6.89225,0.0 107.5835209,-6.8922577,0.0 107.5836678,-6.892264,0.0 107.5837576,-6.892272,0.0 107.5839104,-6.8922944,0.0 107.58417,-6.8923379,0.0 107.5844712,-6.8924032,0.0 107.5845652,-6.8924203,0.0 107.5845966,-6.8924318,0.0 107.5849478,-6.8925604,0.0 107.5851106,-6.8926214,0.0 107.5851944,-6.8926652,0.0 107.5852992,-6.8927221,0.0 107.5853945,-6.8927739,0.0 107.5854858,-6.8928249,0.0 107.5855165,-6.8928413,0.0 107.585756,-6.8929666,0.0 107.5858569,-6.8930235,0.0 107.5869911,-6.8938819,0.0 107.5871385,-6.8939896,0.0</coordinates>
            </LineString>
        </Placemark>
        <Placemark id="37388">
            <name>Jalan Pasteur</name>
            <styleUrl>#37389</styleUrl>
            <LineString id="37387">
                <coordinates>107.5985704,-6.900207,0.0 107.5988449,-6.9002092,0.0 107.5988968,-6.9002096,0.0</coordinates>
            </LineString>
        </Placemark>
        <Placemark id="37392">
            <name>Jalan Wastukancana</name>
            <styleUrl>#37393</styleUrl>
            <LineString id="37391">
                <coordinates>107.604907,-6.904268,0.0 107.6050035,-6.9041885,0.0 107.6051531,-6.9040927,0.0 107.605225,-6.9040549,0.0 107.6052645,-6.9040341,0.0 107.605369,-6.9039986,0.0 107.6054495,-6.9039862,0.0 107.6055461,-6.9039795,0.0 107.6056396,-6.9039773,0.0 107.6058035,-6.9039995,0.0 107.6059967,-6.9040381,0.0 107.6061616,-6.9040807,0.0 107.606306,-6.9041384,0.0 107.6063615,-6.9041606,0.0 107.6065841,-6.9042698,0.0</coordinates>
            </LineString>
        </Placemark>
        <Placemark id="37396">
            <name>Jalan Cihampelas</name>
            <styleUrl>#37397</styleUrl>
            <LineString id="37395">
                <coordinates>107.604264,-6.9008715,0.0 107.6042787,-6.9010952,0.0 107.6042858,-6.9012975,0.0 107.6043224,-6.9023437,0.0 107.6043266,-6.9027188,0.0 107.6043559,-6.9036874,0.0 107.6043657,-6.9040669,0.0 107.6043665,-6.9040981,0.0 107.604369,-6.9041823,0.0</coordinates>
            </LineString>
        </Placemark>
        <Placemark id="37400">
            <name>Jalan Dr. Djunjunan</name>
            <styleUrl>#37401</styleUrl>
            <LineString id="37399">
                <coordinates>107.5811571,-6.8921678,0.0 107.5813175,-6.892198,0.0 107.5819472,-6.8922747,0.0</coordinates>
            </LineString>
        </Placemark>
        <Placemark id="37404">
            <name>Jalan Pasteur</name>
            <styleUrl>#37405</styleUrl>
            <LineString id="37403">
                <coordinates>107.5977317,-6.9002067,0.0 107.5979866,-6.900214,0.0</coordinates>
            </LineString>
        </Placemark>
        <Placemark id="37408">
            <name>Jalan Wastukancana</name>
            <styleUrl>#37409</styleUrl>
            <LineString id="37407">
                <coordinates>107.6076516,-6.9060628,0.0 107.607682,-6.9063009,0.0 107.6076926,-6.9064512,0.0 107.6076908,-6.9066043,0.0 107.6076724,-6.9068066,0.0 107.6076183,-6.907233,0.0 107.6075667,-6.9075563,0.0 107.6075461,-6.9076136,0.0 107.6074993,-6.9076457,0.0 107.6073865,-6.9076628,0.0</coordinates>
            </LineString>
        </Placemark>
        <Placemark id="37412">
            <name>Jalan Pajajaran</name>
            <styleUrl>#37413</styleUrl>
            <LineString id="37411">
                <coordinates>107.6053829,-6.907135,0.0 107.6051824,-6.9071438,0.0 107.6051387,-6.9071446,0.0 107.6045501,-6.9071569,0.0 107.6045,-6.907158,0.0</coordinates>
            </LineString>
        </Placemark>
        <Placemark id="37416">
            <name>Jalan Dr. Djunjunan</name>
            <styleUrl>#37417</styleUrl>
            <LineString id="37415">
                <coordinates>107.5871385,-6.8939896,0.0 107.5878578,-6.8945044,0.0 107.5880764,-6.894663,0.0 107.5882514,-6.89479,0.0 107.5883596,-6.8948674,0.0 107.5883918,-6.8948914,0.0 107.5887732,-6.8951757,0.0 107.5888526,-6.8952324,0.0 107.5889151,-6.8952824,0.0 107.5889641,-6.8953196,0.0 107.5890741,-6.8954031,0.0 107.5891588,-6.8954636,0.0 107.5894242,-6.8956585,0.0 107.5895178,-6.8957186,0.0 107.5897248,-6.8958301,0.0 107.589913,-6.8959339,0.0 107.5901962,-6.8960883,0.0 107.5904656,-6.8962229,0.0 107.5905302,-6.8962586,0.0 107.5907946,-6.8964009,0.0 107.591108,-6.8965587,0.0 107.5912792,-6.8966614,0.0 107.5916942,-6.8968726,0.0 107.5919664,-6.8970436,0.0 107.5921671,-6.8971698,0.0 107.5922221,-6.8972027,0.0 107.5924064,-6.8973127,0.0 107.5926529,-6.8974821,0.0 107.5929713,-6.8977117,0.0 107.5930174,-6.8977454,0.0 107.5932178,-6.8979319,0.0 107.5935309,-6.8982345,0.0 107.5936018,-6.898303,0.0</coordinates>
            </LineString>
        </Placemark>
        <Placemark id="37420">
            <name>Jalan Sukaraja</name>
            <styleUrl>#37421</styleUrl>
            <LineString id="37419">
                <coordinates>107.5763426,-6.8911426,0.0 107.576486,-6.8911581,0.0</coordinates>
            </LineString>
        </Placemark>
        <Placemark id="37424">
            <name>Jalan Sukaraja</name>
            <styleUrl>#37425</styleUrl>
            <LineString id="37423">
                <coordinates>107.5761887,-6.89111,0.0 107.5763426,-6.8911426,0.0</coordinates>
            </LineString>
        </Placemark>
        <Placemark id="37428">
            <name>Overpass Gunung Batu</name>
            <styleUrl>#37429</styleUrl>
            <LineString id="37427">
                <coordinates>107.5667162,-6.8890247,0.0 107.5666744,-6.889252,0.0</coordinates>
            </LineString>
        </Placemark>
        <Placemark id="37432">
            <name>Route Segment</name>
            <styleUrl>#37433</styleUrl>
            <LineString id="37431">
                <coordinates>107.6077246,-6.9060495,0.0 107.6076516,-6.9060628,0.0</coordinates>
            </LineString>
        </Placemark>
        <Placemark id="37436">
            <name>Jalan Cicendo</name>
            <styleUrl>#37437</styleUrl>
            <LineString id="37435">
                <coordinates>107.6039561,-6.9125447,0.0 107.603934,-6.912602,0.0 107.6039133,-6.9126367,0.0 107.603885,-6.9126611,0.0</coordinates>
            </LineString>
        </Placemark>
        <Placemark id="37440">
            <name>Jalan HOS. Cokroaminoto</name>
            <styleUrl>#37441</styleUrl>
            <LineString id="37439">
                <coordinates>107.5982527,-6.912368,0.0 107.5981712,-6.9123893,0.0 107.5981013,-6.9124336,0.0 107.5980813,-6.9124536,0.0 107.5980631,-6.9124827,0.0 107.5980572,-6.9125176,0.0 107.5980576,-6.912581,0.0 107.5980619,-6.912679,0.0 107.5980673,-6.9127983,0.0 107.5980682,-6.9128159,0.0 107.5980735,-6.9128984,0.0 107.5980862,-6.9131496,0.0 107.5980866,-6.9131574,0.0 107.5980924,-6.9133033,0.0 107.5980951,-6.9133446,0.0 107.5980899,-6.9133886,0.0 107.5980724,-6.9134153,0.0</coordinates>
            </LineString>
        </Placemark>
        <Placemark id="37444">
            <name>Jalan HOS. Cokroaminoto</name>
            <styleUrl>#37445</styleUrl>
            <LineString id="37443">
                <coordinates>107.5981201,-6.9145111,0.0 107.5981205,-6.9145443,0.0</coordinates>
            </LineString>
        </Placemark>
        <Placemark id="37448">
            <name>Jalan HOS. Cokroaminoto</name>
            <styleUrl>#37449</styleUrl>
            <LineString id="37447">
                <coordinates>107.5981205,-6.9145443,0.0 107.5981401,-6.9145877,0.0 107.5981422,-6.9146201,0.0 107.5981394,-6.9147779,0.0</coordinates>
            </LineString>
        </Placemark>
        <Placemark id="37452">
            <name>Jalan Pajajaran</name>
            <styleUrl>#37453</styleUrl>
            <LineString id="37451">
                <coordinates>107.6045,-6.907158,0.0 107.6044996,-6.907174,0.0 107.6044946,-6.9071893,0.0 107.6044854,-6.9072025,0.0 107.6044728,-6.9072125,0.0 107.6044578,-6.9072185,0.0 107.6044417,-6.9072201,0.0</coordinates>
            </LineString>
        </Placemark>
        <Placemark id="37456">
            <name>Jalan Wastukancana</name>
            <styleUrl>#37457</styleUrl>
            <LineString id="37455">
                <coordinates>107.607556,-6.9054463,0.0 107.6075644,-6.9054686,0.0</coordinates>
            </LineString>
        </Placemark>
        <Placemark id="37460">
            <name>Jalan Dokter Djundjunan Setiakusumah</name>
            <styleUrl>#37461</styleUrl>
            <LineString id="37459">
                <coordinates>107.5973566,-6.9002078,0.0 107.5974384,-6.9002085,0.0</coordinates>
            </LineString>
        </Placemark>
        <Placemark id="37464">
            <name>Jalan Sukaraja II</name>
            <styleUrl>#37465</styleUrl>
            <LineString id="37463">
                <coordinates>107.5743913,-6.8937881,0.0 107.5744352,-6.8937597,0.0 107.5745582,-6.8936245,0.0 107.5748149,-6.8931333,0.0 107.5750083,-6.8926448,0.0 107.5751116,-6.8923726,0.0 107.5751806,-6.8922407,0.0 107.5753845,-6.8919678,0.0 107.5754545,-6.8918515,0.0 107.5754894,-6.891774,0.0 107.5755267,-6.8914682,0.0 107.5755656,-6.8913711,0.0 107.5756474,-6.8913072,0.0 107.5759728,-6.8911239,0.0 107.5760447,-6.8911007,0.0 107.5760771,-6.8910903,0.0 107.5761887,-6.89111,0.0</coordinates>
            </LineString>
        </Placemark>
        <Placemark id="37468">
            <name>Jalan Pasteur</name>
            <styleUrl>#37469</styleUrl>
            <LineString id="37467">
                <coordinates>107.6035214,-6.9002184,0.0 107.6038638,-6.9002105,0.0 107.6039813,-6.9001984,0.0 107.6040453,-6.9001871,0.0 107.6040633,-6.9001819,0.0 107.6041064,-6.9001685,0.0 107.6041803,-6.900144,0.0</coordinates>
            </LineString>
        </Placemark>
        <Placemark id="37472">
            <name>Jalan Pasteur</name>
            <styleUrl>#37473</styleUrl>
            <LineString id="37471">
                <coordinates>107.6031071,-6.9002112,0.0 107.6035214,-6.9002184,0.0</coordinates>
            </LineString>
        </Placemark>
        <Placemark id="37476">
            <name>Jalan Wastukancana</name>
            <styleUrl>#37477</styleUrl>
            <LineString id="37475">
                <coordinates>107.6047378,-6.9043028,0.0 107.604907,-6.904268,0.0</coordinates>
            </LineString>
        </Placemark>
        <Placemark id="37480">
            <name>Jalan Wastukancana</name>
            <styleUrl>#37481</styleUrl>
            <LineString id="37479">
                <coordinates>107.6045194,-6.9042857,0.0 107.6045928,-6.9042871,0.0 107.6046289,-6.9042878,0.0 107.6047378,-6.9043028,0.0</coordinates>
            </LineString>
        </Placemark>
        <Placemark id="37484">
            <name>Jalan Pasteur</name>
            <styleUrl>#37485</styleUrl>
            <LineString id="37483">
                <coordinates>107.5974384,-6.9002085,0.0 107.5977317,-6.9002067,0.0</coordinates>
            </LineString>
        </Placemark>
        <Placemark id="37488">
            <name>Jalan Wastukancana</name>
            <styleUrl>#37489</styleUrl>
            <LineString id="37487">
                <coordinates>107.6074587,-6.9052269,0.0 107.607556,-6.9054463,0.0</coordinates>
            </LineString>
        </Placemark>
        <Placemark id="37492">
            <name>Jalan Kebon Kawung</name>
            <styleUrl>#37493</styleUrl>
            <LineString id="37491">
                <coordinates>107.603885,-6.9126611,0.0 107.6038515,-6.9126567,0.0 107.6036069,-6.9126444,0.0 107.6032433,-6.9126176,0.0 107.6029824,-6.9125986,0.0 107.6029303,-6.9125954,0.0 107.6027169,-6.9125813,0.0 107.6024779,-6.9125651,0.0 107.6023535,-6.9125612,0.0 107.6022742,-6.9125566,0.0 107.6020122,-6.91254,0.0</coordinates>
            </LineString>
        </Placemark>
        <Placemark id="37496">
            <name>Jalan Kebon Kawung</name>
            <styleUrl>#37497</styleUrl>
            <LineString id="37495">
                <coordinates>107.6020122,-6.91254,0.0 107.6019305,-6.9125353,0.0</coordinates>
            </LineString>
        </Placemark>
        <Placemark id="37500">
            <name>Jalan HOS. Cokroaminoto</name>
            <styleUrl>#37501</styleUrl>
            <LineString id="37499">
                <coordinates>107.5980758,-6.9134531,0.0 107.5981284,-6.913989,0.0 107.5981313,-6.9140657,0.0 107.5981313,-6.9141206,0.0</coordinates>
            </LineString>
        </Placemark>
        <Placemark id="37504">
            <name>Jalan HOS. Cokroaminoto</name>
            <styleUrl>#37505</styleUrl>
            <LineString id="37503">
                <coordinates>107.5980724,-6.9134153,0.0 107.5980758,-6.9134531,0.0</coordinates>
            </LineString>
        </Placemark>
        <Placemark id="37508">
            <name>Jalan Prof. Dr. Surya Soemantri</name>
            <styleUrl>#37509</styleUrl>
            <LineString id="37507">
                <coordinates>107.581013,-6.8922632,0.0 107.5810582,-6.8921467,0.0</coordinates>
            </LineString>
        </Placemark>
        <Placemark id="37512">
            <name>Jalan Pasteur</name>
            <styleUrl>#37513</styleUrl>
            <LineString id="37511">
                <coordinates>107.5979866,-6.900214,0.0 107.5985704,-6.900207,0.0</coordinates>
            </LineString>
        </Placemark>
        <Placemark id="37516">
            <name>Jalan Pasteur</name>
            <styleUrl>#37517</styleUrl>
            <LineString id="37515">
                <coordinates>107.6022753,-6.900203,0.0 107.6027269,-6.9002045,0.0 107.6027515,-6.9002046,0.0 107.6029796,-6.9002088,0.0 107.6031071,-6.9002112,0.0</coordinates>
            </LineString>
        </Placemark>
        <Placemark id="37520">
            <name>Jalan Dr. Djunjunan</name>
            <styleUrl>#37521</styleUrl>
            <LineString id="37519">
                <coordinates>107.5970495,-6.9002074,0.0 107.5973566,-6.9002078,0.0</coordinates>
            </LineString>
        </Placemark>
        <Placemark id="37524">
            <name>Jalan Pasteur</name>
            <styleUrl>#37525</styleUrl>
            <LineString id="37523">
                <coordinates>107.5988968,-6.9002096,0.0 107.5993001,-6.900202,0.0</coordinates>
            </LineString>
        </Placemark>
        <Placemark id="37528">
            <name>Jalan Suniaraja</name>
            <styleUrl>#37529</styleUrl>
            <LineString id="37527">
                <coordinates>107.6022008,-6.9161702,0.0 107.6023308,-6.916154,0.0 107.6024325,-6.9161432,0.0</coordinates>
            </LineString>
        </Placemark>
        <Placemark id="37532">
            <name>Jalan Wastukancana</name>
            <styleUrl>#37533</styleUrl>
            <LineString id="37531">
                <coordinates>107.6076853,-6.905845,0.0 107.6077246,-6.9060495,0.0</coordinates>
            </LineString>
        </Placemark>
        <Placemark id="37536">
            <name>Jalan Wastukancana</name>
            <styleUrl>#37537</styleUrl>
            <LineString id="37535">
                <coordinates>107.6070138,-6.9046,0.0 107.6071411,-6.9047305,0.0</coordinates>
            </LineString>
        </Placemark>
        <Placemark id="37540">
            <name>Jalan Wastukancana</name>
            <styleUrl>#37541</styleUrl>
            <LineString id="37539">
                <coordinates>107.6071411,-6.9047305,0.0 107.607265,-6.9048943,0.0 107.607283,-6.9049195,0.0 107.6074067,-6.905129,0.0 107.6074587,-6.9052269,0.0</coordinates>
            </LineString>
        </Placemark>
        <Placemark id="37544">
            <name>Jalan Wastukancana</name>
            <styleUrl>#37545</styleUrl>
            <LineString id="37543">
                <coordinates>107.6069187,-6.9045127,0.0 107.6070138,-6.9046,0.0</coordinates>
            </LineString>
        </Placemark>
        <Placemark id="37548">
            <name>Jalan Wastukancana</name>
            <styleUrl>#37549</styleUrl>
            <LineString id="37547">
                <coordinates>107.6065841,-6.9042698,0.0 107.6067222,-6.904359,0.0 107.6068568,-6.9044553,0.0 107.6069187,-6.9045127,0.0</coordinates>
            </LineString>
        </Placemark>
        <Placemark id="37552">
            <name>Jalan Pasteur</name>
            <styleUrl>#37553</styleUrl>
            <LineString id="37551">
                <coordinates>107.6010655,-6.9002051,0.0 107.6021013,-6.9002033,0.0 107.6021562,-6.9002043,0.0 107.6022098,-6.9002031,0.0 107.6022753,-6.900203,0.0</coordinates>
            </LineString>
        </Placemark>
        <Placemark id="37556">
            <name>Jalan Sukaraja</name>
            <styleUrl>#37557</styleUrl>
            <LineString id="37555">
                <coordinates>107.5794007,-6.8917752,0.0 107.5790567,-6.8916313,0.0 107.5786575,-6.8914927,0.0 107.5785226,-6.8914458,0.0 107.5779404,-6.8913106,0.0 107.5772675,-6.8911676,0.0 107.5770756,-6.8911417,0.0 107.5768762,-6.8911396,0.0 107.5766618,-6.891156,0.0 107.576486,-6.8911581,0.0</coordinates>
            </LineString>
        </Placemark>
        <Placemark id="37560">
            <name>Jalan Sukaraja</name>
            <styleUrl>#37561</styleUrl>
            <LineString id="37559">
                <coordinates>107.5794555,-6.8918038,0.0 107.5794007,-6.8917752,0.0</coordinates>
            </LineString>
        </Placemark>
        <Placemark id="37564">
            <name>Jalan HOS. Cokroaminoto</name>
            <styleUrl>#37565</styleUrl>
            <LineString id="37563">
                <coordinates>107.5982691,-6.91619,0.0 107.5982712,-6.9162489,0.0 107.5982716,-6.9162705,0.0 107.5982729,-6.9163191,0.0</coordinates>
            </LineString>
        </Placemark>
        <Placemark id="37568">
            <name>Jalan Kebon Jati</name>
            <styleUrl>#37569</styleUrl>
            <LineString id="37567">
                <coordinates>107.5982729,-6.9163191,0.0 107.5984551,-6.9163007,0.0</coordinates>
            </LineString>
        </Placemark>
        <Placemark id="37572">
            <name>Jalan Kebon Kawung</name>
            <styleUrl>#37573</styleUrl>
            <LineString id="37571">
                <coordinates>107.6006435,-6.9124749,0.0 107.6002224,-6.9124495,0.0</coordinates>
            </LineString>
        </Placemark>
        <Placemark id="37576">
            <name>Jalan Kebon Kawung</name>
            <styleUrl>#37577</styleUrl>
            <LineString id="37575">
                <coordinates>107.6002224,-6.9124495,0.0 107.6000202,-6.912439,0.0</coordinates>
            </LineString>
        </Placemark>
        <Placemark id="37580">
            <name>Jalan Kebon Kawung</name>
            <styleUrl>#37581</styleUrl>
            <LineString id="37579">
                <coordinates>107.6000202,-6.912439,0.0 107.5993874,-6.9123994,0.0</coordinates>
            </LineString>
        </Placemark>
        <Placemark id="37584">
            <name>Jalan Kebon Kawung</name>
            <styleUrl>#37585</styleUrl>
            <LineString id="37583">
                <coordinates>107.5993874,-6.9123994,0.0 107.5990408,-6.912374,0.0 107.5990132,-6.912372,0.0</coordinates>
            </LineString>
        </Placemark>
        <Placemark id="37588">
            <name>Jalan Kebon Kawung</name>
            <styleUrl>#37589</styleUrl>
            <LineString id="37587">
                <coordinates>107.5990132,-6.912372,0.0 107.5982527,-6.912368,0.0</coordinates>
            </LineString>
        </Placemark>
        <Placemark id="37592">
            <name>Jalan Kebon Kawung</name>
            <styleUrl>#37593</styleUrl>
            <LineString id="37591">
                <coordinates>107.601745,-6.9125245,0.0 107.601624,-6.9125174,0.0</coordinates>
            </LineString>
        </Placemark>
        <Placemark id="37596">
            <name>Jalan Kebon Kawung</name>
            <styleUrl>#37597</styleUrl>
            <LineString id="37595">
                <coordinates>107.601624,-6.9125174,0.0 107.6015636,-6.9125139,0.0</coordinates>
            </LineString>
        </Placemark>
        <Placemark id="37600">
            <name>Jalan Kebon Kawung</name>
            <styleUrl>#37601</styleUrl>
            <LineString id="37599">
                <coordinates>107.6015636,-6.9125139,0.0 107.6010547,-6.9124917,0.0</coordinates>
            </LineString>
        </Placemark>
        <Placemark id="37604">
            <name>Jalan Kebon Kawung</name>
            <styleUrl>#37605</styleUrl>
            <LineString id="37603">
                <coordinates>107.6010547,-6.9124917,0.0 107.6009674,-6.9124878,0.0</coordinates>
            </LineString>
        </Placemark>
        <Placemark id="37608">
            <name>Jalan Kebon Kawung</name>
            <styleUrl>#37609</styleUrl>
            <LineString id="37607">
                <coordinates>107.6009674,-6.9124878,0.0 107.6007223,-6.9124771,0.0 107.6006435,-6.9124749,0.0</coordinates>
            </LineString>
        </Placemark>
    </Document>
</kml>
