<?xml version="1.0" encoding="UTF-8"?>
<kml xmlns="http://www.opengis.net/kml/2.2" xmlns:gx="http://www.google.com/kml/ext/2.2">
    <Document id="37993">
        <Style id="37999">
            <LineStyle id="38000">
                <color>ffBC751C</color>
                <colorMode>normal</colorMode>
                <width>4</width>
            </LineStyle>
        </Style>
        <Style id="38003">
            <LineStyle id="38004">
                <color>ffBC751C</color>
                <colorMode>normal</colorMode>
                <width>4</width>
            </LineStyle>
        </Style>
        <Style id="38007">
            <LineStyle id="38008">
                <color>ffBC751C</color>
                <colorMode>normal</colorMode>
                <width>4</width>
            </LineStyle>
        </Style>
        <Style id="38011">
            <LineStyle id="38012">
                <color>ffBC751C</color>
                <colorMode>normal</colorMode>
                <width>4</width>
            </LineStyle>
        </Style>
        <Style id="38015">
            <LineStyle id="38016">
                <color>ffBC751C</color>
                <colorMode>normal</colorMode>
                <width>4</width>
            </LineStyle>
        </Style>
        <Style id="38019">
            <LineStyle id="38020">
                <color>ffBC751C</color>
                <colorMode>normal</colorMode>
                <width>4</width>
            </LineStyle>
        </Style>
        <Style id="38023">
            <LineStyle id="38024">
                <color>ffBC751C</color>
                <colorMode>normal</colorMode>
                <width>4</width>
            </LineStyle>
        </Style>
        <Style id="38027">
            <LineStyle id="38028">
                <color>ffBC751C</color>
                <colorMode>normal</colorMode>
                <width>4</width>
            </LineStyle>
        </Style>
        <Style id="38031">
            <LineStyle id="38032">
                <color>ffBC751C</color>
                <colorMode>normal</colorMode>
                <width>4</width>
            </LineStyle>
        </Style>
        <Style id="38035">
            <LineStyle id="38036">
                <color>ffBC751C</color>
                <colorMode>normal</colorMode>
                <width>4</width>
            </LineStyle>
        </Style>
        <Style id="38039">
            <LineStyle id="38040">
                <color>ffBC751C</color>
                <colorMode>normal</colorMode>
                <width>4</width>
            </LineStyle>
        </Style>
        <Style id="38043">
            <LineStyle id="38044">
                <color>ffBC751C</color>
                <colorMode>normal</colorMode>
                <width>4</width>
            </LineStyle>
        </Style>
        <Style id="38047">
            <LineStyle id="38048">
                <color>ffBC751C</color>
                <colorMode>normal</colorMode>
                <width>4</width>
            </LineStyle>
        </Style>
        <Style id="38051">
            <LineStyle id="38052">
                <color>ffBC751C</color>
                <colorMode>normal</colorMode>
                <width>4</width>
            </LineStyle>
        </Style>
        <Style id="38055">
            <LineStyle id="38056">
                <color>ffBC751C</color>
                <colorMode>normal</colorMode>
                <width>4</width>
            </LineStyle>
        </Style>
        <Style id="38059">
            <LineStyle id="38060">
                <color>ffBC751C</color>
                <colorMode>normal</colorMode>
                <width>4</width>
            </LineStyle>
        </Style>
        <Style id="38063">
            <LineStyle id="38064">
                <color>ffBC751C</color>
                <colorMode>normal</colorMode>
                <width>4</width>
            </LineStyle>
        </Style>
        <Style id="38067">
            <LineStyle id="38068">
                <color>ffBC751C</color>
                <colorMode>normal</colorMode>
                <width>4</width>
            </LineStyle>
        </Style>
        <Style id="38071">
            <LineStyle id="38072">
                <color>ffBC751C</color>
                <colorMode>normal</colorMode>
                <width>4</width>
            </LineStyle>
        </Style>
        <Style id="38075">
            <LineStyle id="38076">
                <color>ffBC751C</color>
                <colorMode>normal</colorMode>
                <width>4</width>
            </LineStyle>
        </Style>
        <Style id="38079">
            <LineStyle id="38080">
                <color>ffBC751C</color>
                <colorMode>normal</colorMode>
                <width>4</width>
            </LineStyle>
        </Style>
        <Style id="38083">
            <LineStyle id="38084">
                <color>ffBC751C</color>
                <colorMode>normal</colorMode>
                <width>4</width>
            </LineStyle>
        </Style>
        <Style id="38087">
            <LineStyle id="38088">
                <color>ffBC751C</color>
                <colorMode>normal</colorMode>
                <width>4</width>
            </LineStyle>
        </Style>
        <Style id="38091">
            <LineStyle id="38092">
                <color>ffBC751C</color>
                <colorMode>normal</colorMode>
                <width>4</width>
            </LineStyle>
        </Style>
        <Style id="38095">
            <LineStyle id="38096">
                <color>ffBC751C</color>
                <colorMode>normal</colorMode>
                <width>4</width>
            </LineStyle>
        </Style>
        <Style id="38099">
            <LineStyle id="38100">
                <color>ffBC751C</color>
                <colorMode>normal</colorMode>
                <width>4</width>
            </LineStyle>
        </Style>
        <Style id="38103">
            <LineStyle id="38104">
                <color>ffBC751C</color>
                <colorMode>normal</colorMode>
                <width>4</width>
            </LineStyle>
        </Style>
        <Style id="38107">
            <LineStyle id="38108">
                <color>ffBC751C</color>
                <colorMode>normal</colorMode>
                <width>4</width>
            </LineStyle>
        </Style>
        <Style id="38111">
            <LineStyle id="38112">
                <color>ffBC751C</color>
                <colorMode>normal</colorMode>
                <width>4</width>
            </LineStyle>
        </Style>
        <Style id="38115">
            <LineStyle id="38116">
                <color>ffBC751C</color>
                <colorMode>normal</colorMode>
                <width>4</width>
            </LineStyle>
        </Style>
        <Style id="38119">
            <LineStyle id="38120">
                <color>ffBC751C</color>
                <colorMode>normal</colorMode>
                <width>4</width>
            </LineStyle>
        </Style>
        <Style id="38123">
            <LineStyle id="38124">
                <color>ffBC751C</color>
                <colorMode>normal</colorMode>
                <width>4</width>
            </LineStyle>
        </Style>
        <Style id="38127">
            <LineStyle id="38128">
                <color>ffBC751C</color>
                <colorMode>normal</colorMode>
                <width>4</width>
            </LineStyle>
        </Style>
        <Style id="38131">
            <LineStyle id="38132">
                <color>ffBC751C</color>
                <colorMode>normal</colorMode>
                <width>4</width>
            </LineStyle>
        </Style>
        <Style id="38135">
            <LineStyle id="38136">
                <color>ffBC751C</color>
                <colorMode>normal</colorMode>
                <width>4</width>
            </LineStyle>
        </Style>
        <Style id="38139">
            <LineStyle id="38140">
                <color>ffBC751C</color>
                <colorMode>normal</colorMode>
                <width>4</width>
            </LineStyle>
        </Style>
        <Style id="38143">
            <LineStyle id="38144">
                <color>ffBC751C</color>
                <colorMode>normal</colorMode>
                <width>4</width>
            </LineStyle>
        </Style>
        <Style id="38147">
            <LineStyle id="38148">
                <color>ffBC751C</color>
                <colorMode>normal</colorMode>
                <width>4</width>
            </LineStyle>
        </Style>
        <Style id="38151">
            <LineStyle id="38152">
                <color>ffBC751C</color>
                <colorMode>normal</colorMode>
                <width>4</width>
            </LineStyle>
        </Style>
        <Style id="38155">
            <LineStyle id="38156">
                <color>ffBC751C</color>
                <colorMode>normal</colorMode>
                <width>4</width>
            </LineStyle>
        </Style>
        <Style id="38159">
            <LineStyle id="38160">
                <color>ffBC751C</color>
                <colorMode>normal</colorMode>
                <width>4</width>
            </LineStyle>
        </Style>
        <Style id="38163">
            <LineStyle id="38164">
                <color>ffBC751C</color>
                <colorMode>normal</colorMode>
                <width>4</width>
            </LineStyle>
        </Style>
        <Style id="38167">
            <LineStyle id="38168">
                <color>ffBC751C</color>
                <colorMode>normal</colorMode>
                <width>4</width>
            </LineStyle>
        </Style>
        <Style id="38171">
            <LineStyle id="38172">
                <color>ffBC751C</color>
                <colorMode>normal</colorMode>
                <width>4</width>
            </LineStyle>
        </Style>
        <Style id="38175">
            <LineStyle id="38176">
                <color>ffBC751C</color>
                <colorMode>normal</colorMode>
                <width>4</width>
            </LineStyle>
        </Style>
        <Style id="38179">
            <LineStyle id="38180">
                <color>ffBC751C</color>
                <colorMode>normal</colorMode>
                <width>4</width>
            </LineStyle>
        </Style>
        <Style id="38183">
            <LineStyle id="38184">
                <color>ffBC751C</color>
                <colorMode>normal</colorMode>
                <width>4</width>
            </LineStyle>
        </Style>
        <Style id="38187">
            <LineStyle id="38188">
                <color>ffBC751C</color>
                <colorMode>normal</colorMode>
                <width>4</width>
            </LineStyle>
        </Style>
        <Style id="38191">
            <LineStyle id="38192">
                <color>ffBC751C</color>
                <colorMode>normal</colorMode>
                <width>4</width>
            </LineStyle>
        </Style>
        <Style id="38195">
            <LineStyle id="38196">
                <color>ffBC751C</color>
                <colorMode>normal</colorMode>
                <width>4</width>
            </LineStyle>
        </Style>
        <Style id="38199">
            <LineStyle id="38200">
                <color>ffBC751C</color>
                <colorMode>normal</colorMode>
                <width>4</width>
            </LineStyle>
        </Style>
        <Style id="38203">
            <LineStyle id="38204">
                <color>ffBC751C</color>
                <colorMode>normal</colorMode>
                <width>4</width>
            </LineStyle>
        </Style>
        <Style id="38207">
            <LineStyle id="38208">
                <color>ffBC751C</color>
                <colorMode>normal</colorMode>
                <width>4</width>
            </LineStyle>
        </Style>
        <Style id="38211">
            <LineStyle id="38212">
                <color>ffBC751C</color>
                <colorMode>normal</colorMode>
                <width>4</width>
            </LineStyle>
        </Style>
        <Style id="38215">
            <LineStyle id="38216">
                <color>ffBC751C</color>
                <colorMode>normal</colorMode>
                <width>4</width>
            </LineStyle>
        </Style>
        <Style id="38219">
            <LineStyle id="38220">
                <color>ffBC751C</color>
                <colorMode>normal</colorMode>
                <width>4</width>
            </LineStyle>
        </Style>
        <Style id="38223">
            <LineStyle id="38224">
                <color>ffBC751C</color>
                <colorMode>normal</colorMode>
                <width>4</width>
            </LineStyle>
        </Style>
        <Style id="38227">
            <LineStyle id="38228">
                <color>ffBC751C</color>
                <colorMode>normal</colorMode>
                <width>4</width>
            </LineStyle>
        </Style>
        <Style id="38231">
            <LineStyle id="38232">
                <color>ffBC751C</color>
                <colorMode>normal</colorMode>
                <width>4</width>
            </LineStyle>
        </Style>
        <Style id="38235">
            <LineStyle id="38236">
                <color>ffBC751C</color>
                <colorMode>normal</colorMode>
                <width>4</width>
            </LineStyle>
        </Style>
        <Style id="38239">
            <LineStyle id="38240">
                <color>ffBC751C</color>
                <colorMode>normal</colorMode>
                <width>4</width>
            </LineStyle>
        </Style>
        <Style id="38243">
            <LineStyle id="38244">
                <color>ffBC751C</color>
                <colorMode>normal</colorMode>
                <width>4</width>
            </LineStyle>
        </Style>
        <Style id="38247">
            <LineStyle id="38248">
                <color>ffBC751C</color>
                <colorMode>normal</colorMode>
                <width>4</width>
            </LineStyle>
        </Style>
        <Style id="38251">
            <LineStyle id="38252">
                <color>ffBC751C</color>
                <colorMode>normal</colorMode>
                <width>4</width>
            </LineStyle>
        </Style>
        <Style id="38255">
            <LineStyle id="38256">
                <color>ffBC751C</color>
                <colorMode>normal</colorMode>
                <width>4</width>
            </LineStyle>
        </Style>
        <Style id="38259">
            <LineStyle id="38260">
                <color>ffBC751C</color>
                <colorMode>normal</colorMode>
                <width>4</width>
            </LineStyle>
        </Style>
        <Style id="38263">
            <LineStyle id="38264">
                <color>ffBC751C</color>
                <colorMode>normal</colorMode>
                <width>4</width>
            </LineStyle>
        </Style>
        <Style id="38267">
            <LineStyle id="38268">
                <color>ffBC751C</color>
                <colorMode>normal</colorMode>
                <width>4</width>
            </LineStyle>
        </Style>
        <Style id="38271">
            <LineStyle id="38272">
                <color>ffBC751C</color>
                <colorMode>normal</colorMode>
                <width>4</width>
            </LineStyle>
        </Style>
        <Style id="38275">
            <LineStyle id="38276">
                <color>ffBC751C</color>
                <colorMode>normal</colorMode>
                <width>4</width>
            </LineStyle>
        </Style>
        <Style id="38279">
            <LineStyle id="38280">
                <color>ffBC751C</color>
                <colorMode>normal</colorMode>
                <width>4</width>
            </LineStyle>
        </Style>
        <Style id="38283">
            <LineStyle id="38284">
                <color>ffBC751C</color>
                <colorMode>normal</colorMode>
                <width>4</width>
            </LineStyle>
        </Style>
        <Style id="38287">
            <LineStyle id="38288">
                <color>ffBC751C</color>
                <colorMode>normal</colorMode>
                <width>4</width>
            </LineStyle>
        </Style>
        <Style id="38291">
            <LineStyle id="38292">
                <color>ffBC751C</color>
                <colorMode>normal</colorMode>
                <width>4</width>
            </LineStyle>
        </Style>
        <Style id="38295">
            <LineStyle id="38296">
                <color>ffBC751C</color>
                <colorMode>normal</colorMode>
                <width>4</width>
            </LineStyle>
        </Style>
        <Style id="38299">
            <LineStyle id="38300">
                <color>ffBC751C</color>
                <colorMode>normal</colorMode>
                <width>4</width>
            </LineStyle>
        </Style>
        <Style id="38303">
            <LineStyle id="38304">
                <color>ffBC751C</color>
                <colorMode>normal</colorMode>
                <width>4</width>
            </LineStyle>
        </Style>
        <Style id="38307">
            <LineStyle id="38308">
                <color>ffBC751C</color>
                <colorMode>normal</colorMode>
                <width>4</width>
            </LineStyle>
        </Style>
        <Style id="38311">
            <LineStyle id="38312">
                <color>ffBC751C</color>
                <colorMode>normal</colorMode>
                <width>4</width>
            </LineStyle>
        </Style>
        <Style id="38315">
            <LineStyle id="38316">
                <color>ffBC751C</color>
                <colorMode>normal</colorMode>
                <width>4</width>
            </LineStyle>
        </Style>
        <Style id="38319">
            <LineStyle id="38320">
                <color>ffBC751C</color>
                <colorMode>normal</colorMode>
                <width>4</width>
            </LineStyle>
        </Style>
        <Style id="38323">
            <LineStyle id="38324">
                <color>ffBC751C</color>
                <colorMode>normal</colorMode>
                <width>4</width>
            </LineStyle>
        </Style>
        <Style id="38327">
            <LineStyle id="38328">
                <color>ffBC751C</color>
                <colorMode>normal</colorMode>
                <width>4</width>
            </LineStyle>
        </Style>
        <Style id="38331">
            <LineStyle id="38332">
                <color>ffBC751C</color>
                <colorMode>normal</colorMode>
                <width>4</width>
            </LineStyle>
        </Style>
        <Style id="38335">
            <LineStyle id="38336">
                <color>ffBC751C</color>
                <colorMode>normal</colorMode>
                <width>4</width>
            </LineStyle>
        </Style>
        <Style id="38339">
            <LineStyle id="38340">
                <color>ffBC751C</color>
                <colorMode>normal</colorMode>
                <width>4</width>
            </LineStyle>
        </Style>
        <Style id="38343">
            <LineStyle id="38344">
                <color>ffBC751C</color>
                <colorMode>normal</colorMode>
                <width>4</width>
            </LineStyle>
        </Style>
        <Style id="38347">
            <LineStyle id="38348">
                <color>ffBC751C</color>
                <colorMode>normal</colorMode>
                <width>4</width>
            </LineStyle>
        </Style>
        <Style id="38351">
            <LineStyle id="38352">
                <color>ffBC751C</color>
                <colorMode>normal</colorMode>
                <width>4</width>
            </LineStyle>
        </Style>
        <Style id="38355">
            <LineStyle id="38356">
                <color>ffBC751C</color>
                <colorMode>normal</colorMode>
                <width>4</width>
            </LineStyle>
        </Style>
        <Style id="38359">
            <LineStyle id="38360">
                <color>ffBC751C</color>
                <colorMode>normal</colorMode>
                <width>4</width>
            </LineStyle>
        </Style>
        <Style id="38363">
            <LineStyle id="38364">
                <color>ffBC751C</color>
                <colorMode>normal</colorMode>
                <width>4</width>
            </LineStyle>
        </Style>
        <Style id="38367">
            <LineStyle id="38368">
                <color>ffBC751C</color>
                <colorMode>normal</colorMode>
                <width>4</width>
            </LineStyle>
        </Style>
        <Style id="38371">
            <LineStyle id="38372">
                <color>ffBC751C</color>
                <colorMode>normal</colorMode>
                <width>4</width>
            </LineStyle>
        </Style>
        <Style id="38375">
            <LineStyle id="38376">
                <color>ffBC751C</color>
                <colorMode>normal</colorMode>
                <width>4</width>
            </LineStyle>
        </Style>
        <Style id="38379">
            <LineStyle id="38380">
                <color>ffBC751C</color>
                <colorMode>normal</colorMode>
                <width>4</width>
            </LineStyle>
        </Style>
        <Style id="38383">
            <LineStyle id="38384">
                <color>ffBC751C</color>
                <colorMode>normal</colorMode>
                <width>4</width>
            </LineStyle>
        </Style>
        <Style id="38387">
            <LineStyle id="38388">
                <color>ffBC751C</color>
                <colorMode>normal</colorMode>
                <width>4</width>
            </LineStyle>
        </Style>
        <Style id="38391">
            <LineStyle id="38392">
                <color>ffBC751C</color>
                <colorMode>normal</colorMode>
                <width>4</width>
            </LineStyle>
        </Style>
        <Style id="38395">
            <LineStyle id="38396">
                <color>ffBC751C</color>
                <colorMode>normal</colorMode>
                <width>4</width>
            </LineStyle>
        </Style>
        <Style id="38399">
            <LineStyle id="38400">
                <color>ffBC751C</color>
                <colorMode>normal</colorMode>
                <width>4</width>
            </LineStyle>
        </Style>
        <Style id="38403">
            <LineStyle id="38404">
                <color>ffBC751C</color>
                <colorMode>normal</colorMode>
                <width>4</width>
            </LineStyle>
        </Style>
        <Style id="38407">
            <LineStyle id="38408">
                <color>ffBC751C</color>
                <colorMode>normal</colorMode>
                <width>4</width>
            </LineStyle>
        </Style>
        <Style id="38411">
            <LineStyle id="38412">
                <color>ffBC751C</color>
                <colorMode>normal</colorMode>
                <width>4</width>
            </LineStyle>
        </Style>
        <Style id="38415">
            <LineStyle id="38416">
                <color>ffBC751C</color>
                <colorMode>normal</colorMode>
                <width>4</width>
            </LineStyle>
        </Style>
        <Style id="38419">
            <LineStyle id="38420">
                <color>ffBC751C</color>
                <colorMode>normal</colorMode>
                <width>4</width>
            </LineStyle>
        </Style>
        <Style id="38423">
            <LineStyle id="38424">
                <color>ffBC751C</color>
                <colorMode>normal</colorMode>
                <width>4</width>
            </LineStyle>
        </Style>
        <Style id="38427">
            <LineStyle id="38428">
                <color>ffBC751C</color>
                <colorMode>normal</colorMode>
                <width>4</width>
            </LineStyle>
        </Style>
        <Style id="38431">
            <LineStyle id="38432">
                <color>ffBC751C</color>
                <colorMode>normal</colorMode>
                <width>4</width>
            </LineStyle>
        </Style>
        <Style id="38435">
            <LineStyle id="38436">
                <color>ffBC751C</color>
                <colorMode>normal</colorMode>
                <width>4</width>
            </LineStyle>
        </Style>
        <Style id="38439">
            <LineStyle id="38440">
                <color>ffBC751C</color>
                <colorMode>normal</colorMode>
                <width>4</width>
            </LineStyle>
        </Style>
        <Style id="38443">
            <LineStyle id="38444">
                <color>ffBC751C</color>
                <colorMode>normal</colorMode>
                <width>4</width>
            </LineStyle>
        </Style>
        <Style id="38447">
            <LineStyle id="38448">
                <color>ffBC751C</color>
                <colorMode>normal</colorMode>
                <width>4</width>
            </LineStyle>
        </Style>
        <Style id="38451">
            <LineStyle id="38452">
                <color>ffBC751C</color>
                <colorMode>normal</colorMode>
                <width>4</width>
            </LineStyle>
        </Style>
        <Style id="38455">
            <LineStyle id="38456">
                <color>ffBC751C</color>
                <colorMode>normal</colorMode>
                <width>4</width>
            </LineStyle>
        </Style>
        <Style id="38459">
            <LineStyle id="38460">
                <color>ffBC751C</color>
                <colorMode>normal</colorMode>
                <width>4</width>
            </LineStyle>
        </Style>
        <Style id="38463">
            <LineStyle id="38464">
                <color>ffBC751C</color>
                <colorMode>normal</colorMode>
                <width>4</width>
            </LineStyle>
        </Style>
        <Style id="38467">
            <LineStyle id="38468">
                <color>ffBC751C</color>
                <colorMode>normal</colorMode>
                <width>4</width>
            </LineStyle>
        </Style>
        <Style id="38471">
            <LineStyle id="38472">
                <color>ffBC751C</color>
                <colorMode>normal</colorMode>
                <width>4</width>
            </LineStyle>
        </Style>
        <Style id="38475">
            <LineStyle id="38476">
                <color>ffBC751C</color>
                <colorMode>normal</colorMode>
                <width>4</width>
            </LineStyle>
        </Style>
        <Style id="38479">
            <LineStyle id="38480">
                <color>ffBC751C</color>
                <colorMode>normal</colorMode>
                <width>4</width>
            </LineStyle>
        </Style>
        <Style id="38483">
            <LineStyle id="38484">
                <color>ffBC751C</color>
                <colorMode>normal</colorMode>
                <width>4</width>
            </LineStyle>
        </Style>
        <Style id="38487">
            <LineStyle id="38488">
                <color>ffBC751C</color>
                <colorMode>normal</colorMode>
                <width>4</width>
            </LineStyle>
        </Style>
        <Style id="38491">
            <LineStyle id="38492">
                <color>ffBC751C</color>
                <colorMode>normal</colorMode>
                <width>4</width>
            </LineStyle>
        </Style>
        <Style id="38495">
            <LineStyle id="38496">
                <color>ffBC751C</color>
                <colorMode>normal</colorMode>
                <width>4</width>
            </LineStyle>
        </Style>
        <Style id="38499">
            <LineStyle id="38500">
                <color>ffBC751C</color>
                <colorMode>normal</colorMode>
                <width>4</width>
            </LineStyle>
        </Style>
        <Style id="38503">
            <LineStyle id="38504">
                <color>ffBC751C</color>
                <colorMode>normal</colorMode>
                <width>4</width>
            </LineStyle>
        </Style>
        <Style id="38507">
            <LineStyle id="38508">
                <color>ffBC751C</color>
                <colorMode>normal</colorMode>
                <width>4</width>
            </LineStyle>
        </Style>
        <Style id="38511">
            <LineStyle id="38512">
                <color>ffBC751C</color>
                <colorMode>normal</colorMode>
                <width>4</width>
            </LineStyle>
        </Style>
        <Style id="38515">
            <LineStyle id="38516">
                <color>ffBC751C</color>
                <colorMode>normal</colorMode>
                <width>4</width>
            </LineStyle>
        </Style>
        <Style id="38519">
            <LineStyle id="38520">
                <color>ffBC751C</color>
                <colorMode>normal</colorMode>
                <width>4</width>
            </LineStyle>
        </Style>
        <Style id="38523">
            <LineStyle id="38524">
                <color>ffBC751C</color>
                <colorMode>normal</colorMode>
                <width>4</width>
            </LineStyle>
        </Style>
        <Style id="38527">
            <LineStyle id="38528">
                <color>ffBC751C</color>
                <colorMode>normal</colorMode>
                <width>4</width>
            </LineStyle>
        </Style>
        <Style id="38531">
            <LineStyle id="38532">
                <color>ffBC751C</color>
                <colorMode>normal</colorMode>
                <width>4</width>
            </LineStyle>
        </Style>
        <Style id="38535">
            <LineStyle id="38536">
                <color>ffBC751C</color>
                <colorMode>normal</colorMode>
                <width>4</width>
            </LineStyle>
        </Style>
        <Style id="38539">
            <LineStyle id="38540">
                <color>ffBC751C</color>
                <colorMode>normal</colorMode>
                <width>4</width>
            </LineStyle>
        </Style>
        <Style id="38543">
            <LineStyle id="38544">
                <color>ffBC751C</color>
                <colorMode>normal</colorMode>
                <width>4</width>
            </LineStyle>
        </Style>
        <Style id="38547">
            <LineStyle id="38548">
                <color>ffBC751C</color>
                <colorMode>normal</colorMode>
                <width>4</width>
            </LineStyle>
        </Style>
        <Style id="38551">
            <LineStyle id="38552">
                <color>ffBC751C</color>
                <colorMode>normal</colorMode>
                <width>4</width>
            </LineStyle>
        </Style>
        <Style id="38555">
            <LineStyle id="38556">
                <color>ffBC751C</color>
                <colorMode>normal</colorMode>
                <width>4</width>
            </LineStyle>
        </Style>
        <Style id="38559">
            <LineStyle id="38560">
                <color>ffBC751C</color>
                <colorMode>normal</colorMode>
                <width>4</width>
            </LineStyle>
        </Style>
        <Style id="38563">
            <LineStyle id="38564">
                <color>ffBC751C</color>
                <colorMode>normal</colorMode>
                <width>4</width>
            </LineStyle>
        </Style>
        <Style id="38567">
            <LineStyle id="38568">
                <color>ffBC751C</color>
                <colorMode>normal</colorMode>
                <width>4</width>
            </LineStyle>
        </Style>
        <Style id="38571">
            <LineStyle id="38572">
                <color>ffBC751C</color>
                <colorMode>normal</colorMode>
                <width>4</width>
            </LineStyle>
        </Style>
        <Style id="38575">
            <IconStyle id="38576">
                <colorMode>normal</colorMode>
                <scale>1</scale>
                <heading>0</heading>
                <Icon id="38577">
                    <href>http://maps.google.com/mapfiles/kml/pushpin/ylw-pushpin.png</href>
                </Icon>
            </IconStyle>
        </Style>
        <Style id="38580">
            <IconStyle id="38581">
                <colorMode>normal</colorMode>
                <scale>1</scale>
                <heading>0</heading>
                <Icon id="38582">
                    <href>http://maps.google.com/mapfiles/kml/pushpin/ylw-pushpin.png</href>
                </Icon>
            </IconStyle>
        </Style>
        <ExtendedData>
            <Data name="route-name">
                <value>15: Margahayu Raya → Ledeng</value>
            </Data>
            <Data name="source">
                <value>Transport for Bandung</value>
            </Data>
        </ExtendedData>
        <Placemark id="37998">
            <name>Jalan Merdeka</name>
            <styleUrl>#37999</styleUrl>
            <LineString id="37997">
                <coordinates>107.6106377,-6.9069919,0.0 107.6106352,-6.9070989,0.0 107.6106494,-6.9075604,0.0 107.610662,-6.908124,0.0 107.610666,-6.9084915,0.0 107.6106694,-6.9088197,0.0 107.6106685,-6.9088817,0.0 107.6106745,-6.9090787,0.0 107.6106708,-6.9093054,0.0 107.6106596,-6.9096428,0.0 107.6106582,-6.909665,0.0 107.610654,-6.909795,0.0</coordinates>
            </LineString>
        </Placemark>
        <Placemark id="38002">
            <name>Jalan Pajajaran</name>
            <styleUrl>#38003</styleUrl>
            <LineString id="38001">
                <coordinates>107.6073865,-6.9076628,0.0 107.6073442,-6.9076324,0.0 107.6072754,-6.9075859,0.0 107.6071035,-6.9074752,0.0 107.6070242,-6.9074318,0.0 107.6068765,-6.907351,0.0 107.6066403,-6.907244,0.0 107.6065225,-6.9072053,0.0 107.6064209,-6.9071852,0.0 107.6062761,-6.9071663,0.0 107.6061572,-6.9071583,0.0 107.6058415,-6.9071486,0.0 107.6055894,-6.9071347,0.0</coordinates>
            </LineString>
        </Placemark>
        <Placemark id="38006">
            <name>Jalan Cihampelas</name>
            <styleUrl>#38007</styleUrl>
            <LineString id="38005">
                <coordinates>107.6044282,-6.9071102,0.0 107.6044133,-6.9065285,0.0 107.6044055,-6.9062288,0.0 107.6044014,-6.9058496,0.0 107.6043978,-6.9056926,0.0 107.6043877,-6.9049197,0.0 107.6043867,-6.9048271,0.0</coordinates>
            </LineString>
        </Placemark>
        <Placemark id="38010">
            <name>Jalan Raden Adipati Aria Wiranatakusumah</name>
            <styleUrl>#38011</styleUrl>
            <LineString id="38009">
                <coordinates>107.6029269,-6.904267,0.0 107.6030171,-6.9042324,0.0 107.603063,-6.9042006,0.0 107.6030788,-6.9041402,0.0 107.603069,-6.9040264,0.0 107.6030337,-6.9038169,0.0 107.6030058,-6.9036565,0.0 107.602946,-6.9033752,0.0 107.602896,-6.9032304,0.0 107.6028286,-6.9030636,0.0 107.6025777,-6.9026772,0.0 107.6024265,-6.9024472,0.0 107.6024141,-6.9024222,0.0 107.602401,-6.902382,0.0</coordinates>
            </LineString>
        </Placemark>
        <Placemark id="38014">
            <name>Jalan Pasir Kaliki</name>
            <styleUrl>#38015</styleUrl>
            <LineString id="38013">
                <coordinates>107.597321,-6.898017,0.0 107.5973143,-6.897839,0.0 107.5973006,-6.8973077,0.0 107.5972936,-6.8969114,0.0 107.5972895,-6.8968371,0.0</coordinates>
            </LineString>
        </Placemark>
        <Placemark id="38018">
            <name>Jalan Sukajadi</name>
            <styleUrl>#38019</styleUrl>
            <LineString id="38017">
                <coordinates>107.5967323,-6.8873957,0.0 107.5967238,-6.8872476,0.0 107.5967027,-6.8868139,0.0 107.5967016,-6.8867916,0.0</coordinates>
            </LineString>
        </Placemark>
        <Placemark id="38022">
            <name>Jalan Sukajadi</name>
            <styleUrl>#38023</styleUrl>
            <LineString id="38021">
                <coordinates>107.5961957,-6.8768743,0.0 107.5961919,-6.8768247,0.0 107.5961498,-6.8762747,0.0 107.5961192,-6.8758667,0.0 107.5960887,-6.8756034,0.0 107.5960697,-6.8754397,0.0 107.5960058,-6.8749813,0.0 107.595994,-6.8749009,0.0 107.5959746,-6.8747745,0.0 107.5958725,-6.8743267,0.0 107.5958215,-6.8741565,0.0 107.5958267,-6.874066,0.0</coordinates>
            </LineString>
        </Placemark>
        <Placemark id="38026">
            <name>Jalan Perintis Kemerdekaan</name>
            <styleUrl>#38027</styleUrl>
            <LineString id="38025">
                <coordinates>107.6103525,-6.9136021,0.0 107.6100125,-6.9139146,0.0 107.6099856,-6.9139284,0.0 107.6099474,-6.9139366,0.0 107.6099053,-6.913944,0.0 107.6098104,-6.9139382,0.0 107.6097898,-6.9139349,0.0 107.6097692,-6.9139315,0.0 107.6096401,-6.9139177,0.0 107.6091737,-6.9138665,0.0 107.609095,-6.9138574,0.0</coordinates>
            </LineString>
        </Placemark>
        <Placemark id="38030">
            <name>Jalan Sukajadi</name>
            <styleUrl>#38031</styleUrl>
            <LineString id="38029">
                <coordinates>107.5962548,-6.8783299,0.0 107.596246,-6.8780655,0.0 107.5962436,-6.8779934,0.0 107.5962315,-6.8776265,0.0 107.5962243,-6.8774107,0.0</coordinates>
            </LineString>
        </Placemark>
        <Placemark id="38034">
            <name>Jalan Layang Kiaracondong</name>
            <styleUrl>#38035</styleUrl>
            <LineString id="38033">
                <coordinates>107.6439995,-6.929747,0.0 107.6440269,-6.9293584,0.0 107.644051,-6.9292399,0.0 107.6440843,-6.9291574,0.0 107.6442124,-6.9288246,0.0 107.6442602,-6.9286941,0.0 107.6442794,-6.928577,0.0 107.6443237,-6.9277143,0.0 107.6443434,-6.9275465,0.0 107.6443746,-6.9274215,0.0 107.6444319,-6.927215,0.0 107.6444748,-6.9270206,0.0 107.6444947,-6.9268876,0.0 107.644507,-6.9267091,0.0 107.644509,-6.9265733,0.0 107.6445059,-6.9263603,0.0 107.6444607,-6.9248034,0.0 107.64445,-6.9245676,0.0 107.6442354,-6.9198162,0.0</coordinates>
            </LineString>
        </Placemark>
        <Placemark id="38038">
            <name>Jalan Sukajadi</name>
            <styleUrl>#38039</styleUrl>
            <LineString id="38037">
                <coordinates>107.5965234,-6.8840238,0.0 107.5965088,-6.8836453,0.0 107.5965062,-6.8835624,0.0 107.596503,-6.8834688,0.0 107.5964741,-6.8826331,0.0 107.5964702,-6.8825274,0.0 107.5964601,-6.8821498,0.0 107.5964542,-6.8820032,0.0 107.596444,-6.8817861,0.0 107.5964302,-6.8814833,0.0 107.5964257,-6.8813836,0.0 107.5964243,-6.8813611,0.0 107.5963984,-6.8809341,0.0</coordinates>
            </LineString>
        </Placemark>
        <Placemark id="38042">
            <name>Jalan Pasteur</name>
            <styleUrl>#38043</styleUrl>
            <LineString id="38041">
                <coordinates>107.5982442,-6.9003802,0.0 107.597773,-6.9003861,0.0 107.5977337,-6.9003863,0.0</coordinates>
            </LineString>
        </Placemark>
        <Placemark id="38046">
            <name>Jalan Pajajaran</name>
            <styleUrl>#38047</styleUrl>
            <LineString id="38045">
                <coordinates>107.6055894,-6.9071347,0.0 107.6053829,-6.907135,0.0</coordinates>
            </LineString>
        </Placemark>
        <Placemark id="38050">
            <name>Jalan Cendana</name>
            <styleUrl>#38051</styleUrl>
            <LineString id="38049">
                <coordinates>107.6277859,-6.9093517,0.0 107.6278013,-6.9093346,0.0 107.6278181,-6.9093161,0.0 107.6278963,-6.9092341,0.0 107.628258,-6.908846,0.0 107.6282951,-6.908808,0.0 107.6283467,-6.9087552,0.0 107.6284809,-6.9086325,0.0 107.6286271,-6.9085102,0.0 107.6290698,-6.9082008,0.0 107.6291731,-6.9081286,0.0</coordinates>
            </LineString>
        </Placemark>
        <Placemark id="38054">
            <name>Jalan Wastukancana</name>
            <styleUrl>#38055</styleUrl>
            <LineString id="38053">
                <coordinates>107.6088855,-6.9102984,0.0 107.6088445,-6.9102299,0.0 107.6087639,-6.910086,0.0 107.608484,-6.9095465,0.0 107.6083912,-6.9093671,0.0</coordinates>
            </LineString>
        </Placemark>
        <Placemark id="38058">
            <name>Jalan Supratman</name>
            <styleUrl>#38059</styleUrl>
            <LineString id="38057">
                <coordinates>107.6332282,-6.9117173,0.0 107.6331856,-6.9116524,0.0 107.6329432,-6.9112851,0.0 107.6328915,-6.9112089,0.0 107.6322045,-6.910162,0.0 107.6319439,-6.9097596,0.0 107.6317344,-6.9094313,0.0 107.6315704,-6.9091771,0.0 107.6314866,-6.9090452,0.0 107.6312417,-6.9086675,0.0 107.6311208,-6.9084816,0.0 107.6310204,-6.9083285,0.0 107.6309112,-6.9081623,0.0 107.6307619,-6.9079442,0.0 107.6306223,-6.907732,0.0</coordinates>
            </LineString>
        </Placemark>
        <Placemark id="38062">
            <name>Jalan Abdul Rivai</name>
            <styleUrl>#38063</styleUrl>
            <LineString id="38061">
                <coordinates>107.6042585,-6.9043799,0.0 107.6042031,-6.9043784,0.0 107.6041906,-6.9043785,0.0 107.6038123,-6.904381,0.0 107.6037017,-6.9043817,0.0 107.6032139,-6.9043917,0.0 107.60315,-6.9044117,0.0 107.603087,-6.9044423,0.0 107.6030408,-6.9044641,0.0 107.602977,-6.9044876,0.0 107.6029215,-6.9045028,0.0 107.6025713,-6.9045005,0.0</coordinates>
            </LineString>
        </Placemark>
        <Placemark id="38066">
            <name>Jalan Pasir Kaliki</name>
            <styleUrl>#38067</styleUrl>
            <LineString id="38065">
                <coordinates>107.5973503,-6.8989275,0.0 107.5973395,-6.8985629,0.0 107.5973325,-6.8983576,0.0 107.5973274,-6.898195,0.0 107.5973223,-6.8980478,0.0 107.597321,-6.898017,0.0</coordinates>
            </LineString>
        </Placemark>
        <Placemark id="38070">
            <name>Jalan Dokter Djunjunan</name>
            <styleUrl>#38071</styleUrl>
            <LineString id="38069">
                <coordinates>107.5974469,-6.9003919,0.0 107.5973654,-6.9003949,0.0</coordinates>
            </LineString>
        </Placemark>
        <Placemark id="38074">
            <name>Jalan Pasteur</name>
            <styleUrl>#38075</styleUrl>
            <LineString id="38073">
                <coordinates>107.6010646,-6.9003568,0.0 107.6010291,-6.9003565,0.0 107.600771,-6.9003544,0.0 107.6005268,-6.9003545,0.0 107.6003874,-6.9003546,0.0 107.5999891,-6.9003576,0.0 107.5995868,-6.9003613,0.0</coordinates>
            </LineString>
        </Placemark>
        <Placemark id="38078">
            <name>Jalan Cihampelas</name>
            <styleUrl>#38079</styleUrl>
            <LineString id="38077">
                <coordinates>107.6043435,-6.9046277,0.0 107.6043346,-6.9045425,0.0 107.6043345,-6.9045219,0.0 107.6043315,-6.9044861,0.0 107.6043182,-6.9044457,0.0 107.6042946,-6.9044123,0.0 107.6042585,-6.9043799,0.0</coordinates>
            </LineString>
        </Placemark>
        <Placemark id="38082">
            <name>Jalan Wastukancana</name>
            <styleUrl>#38083</styleUrl>
            <LineString id="38081">
                <coordinates>107.6083912,-6.9093671,0.0 107.6082885,-6.9092058,0.0 107.6082341,-6.9091403,0.0 107.608135,-6.9090242,0.0</coordinates>
            </LineString>
        </Placemark>
        <Placemark id="38086">
            <name>Jalan Merdeka</name>
            <styleUrl>#38087</styleUrl>
            <LineString id="38085">
                <coordinates>107.6106164,-6.9099691,0.0 107.6106159,-6.9099991,0.0 107.6106153,-6.9100253,0.0 107.6106014,-6.9104158,0.0 107.6105812,-6.9108691,0.0 107.6105492,-6.9114267,0.0 107.6105236,-6.9118509,0.0 107.610489,-6.9122567,0.0 107.6104606,-6.9125904,0.0 107.6104461,-6.9127255,0.0 107.6104424,-6.9127679,0.0 107.6103525,-6.9136021,0.0</coordinates>
            </LineString>
        </Placemark>
        <Placemark id="38090">
            <name>Jalan L.L. RE. Martadinata</name>
            <styleUrl>#38091</styleUrl>
            <LineString id="38089">
                <coordinates>107.6128139,-6.9070149,0.0 107.6126957,-6.9070364,0.0</coordinates>
            </LineString>
        </Placemark>
        <Placemark id="38094">
            <name>Jalan Dr. Setiabudi</name>
            <styleUrl>#38095</styleUrl>
            <LineString id="38093">
                <coordinates>107.5947487,-6.8601046,0.0 107.5947415,-6.8601534,0.0 107.5947299,-6.8602278,0.0 107.5946876,-6.860499,0.0 107.5946834,-6.8605895,0.0 107.594682,-6.8607123,0.0 107.594691,-6.8607829,0.0 107.5947113,-6.8608802,0.0 107.5947543,-6.8609845,0.0 107.5947885,-6.8610543,0.0 107.5948338,-6.861136,0.0 107.5948731,-6.8611888,0.0 107.5949141,-6.8612418,0.0 107.595009,-6.861346,0.0 107.5950885,-6.8614258,0.0 107.5951733,-6.8614881,0.0 107.595248,-6.861538,0.0 107.5954158,-6.8616512,0.0 107.5955484,-6.8617416,0.0 107.5958307,-6.8619379,0.0 107.5959866,-6.8620463,0.0 107.5961672,-6.8621719,0.0 107.5961991,-6.8622073,0.0 107.5962242,-6.8622608,0.0 107.5962237,-6.8623248,0.0 107.5962141,-6.862385,0.0 107.5961999,-6.8624213,0.0 107.5960469,-6.8627747,0.0 107.5959257,-6.8629855,0.0 107.5958359,-6.8630694,0.0 107.5957803,-6.8631238,0.0 107.5957352,-6.8631536,0.0 107.5956823,-6.8631776,0.0 107.5955819,-6.8632153,0.0 107.594751,-6.8634425,0.0</coordinates>
            </LineString>
        </Placemark>
        <Placemark id="38098">
            <name>Jalan Wastukancana</name>
            <styleUrl>#38099</styleUrl>
            <LineString id="38097">
                <coordinates>107.608135,-6.9090242,0.0 107.6079856,-6.9088682,0.0 107.6079388,-6.9087953,0.0 107.6078779,-6.9086773,0.0 107.6078276,-6.9085634,0.0 107.6077911,-6.9084463,0.0 107.6076596,-6.9080052,0.0</coordinates>
            </LineString>
        </Placemark>
        <Placemark id="38102">
            <name>Jalan Sukajadi</name>
            <styleUrl>#38103</styleUrl>
            <LineString id="38101">
                <coordinates>107.5967016,-6.8867916,0.0 107.5964324,-6.88604,0.0 107.5964113,-6.8859394,0.0 107.5963989,-6.8858417,0.0 107.5964138,-6.8856254,0.0 107.5964457,-6.8854301,0.0 107.5965693,-6.8848932,0.0</coordinates>
            </LineString>
        </Placemark>
        <Placemark id="38106">
            <name>Jalan L.L. RE. Martadinata</name>
            <styleUrl>#38107</styleUrl>
            <LineString id="38105">
                <coordinates>107.6167588,-6.9062016,0.0 107.6165829,-6.9062207,0.0 107.6165573,-6.9062249,0.0 107.6159699,-6.9063138,0.0 107.6153253,-6.9064176,0.0 107.6152682,-6.9064248,0.0 107.6150996,-6.906438,0.0 107.6149759,-6.9064471,0.0 107.6144094,-6.9064746,0.0 107.6140249,-6.9064932,0.0 107.6139043,-6.9065046,0.0 107.6138076,-6.9065285,0.0 107.6136926,-6.9065743,0.0 107.6135325,-6.9066553,0.0 107.6133145,-6.906779,0.0 107.6130652,-6.9069206,0.0 107.6129902,-6.9069606,0.0 107.6129322,-6.9069907,0.0 107.6128139,-6.9070149,0.0</coordinates>
            </LineString>
        </Placemark>
        <Placemark id="38110">
            <name>Jalan Wastukancana</name>
            <styleUrl>#38111</styleUrl>
            <LineString id="38109">
                <coordinates>107.6090309,-6.9137833,0.0 107.6090355,-6.9136767,0.0 107.609036,-6.9135295,0.0 107.6090452,-6.9130028,0.0 107.6090502,-6.9127472,0.0 107.6090523,-6.9126675,0.0 107.6090858,-6.9111585,0.0 107.6090891,-6.9110401,0.0 107.6090928,-6.9109499,0.0 107.6090952,-6.910906,0.0 107.6090943,-6.9108169,0.0 107.6090871,-6.9107051,0.0 107.6090715,-6.9106208,0.0 107.609044,-6.9105515,0.0</coordinates>
            </LineString>
        </Placemark>
        <Placemark id="38114">
            <name>Jalan Sukajadi</name>
            <styleUrl>#38115</styleUrl>
            <LineString id="38113">
                <coordinates>107.5965291,-6.8842065,0.0 107.5965234,-6.8840238,0.0</coordinates>
            </LineString>
        </Placemark>
        <Placemark id="38118">
            <name>Jalan Pasir Kaliki</name>
            <styleUrl>#38119</styleUrl>
            <LineString id="38117">
                <coordinates>107.5973566,-6.9002078,0.0 107.5973521,-6.9001109,0.0 107.5973452,-6.8999212,0.0</coordinates>
            </LineString>
        </Placemark>
        <Placemark id="38122">
            <name>Jalan L.L. RE. Martadinata</name>
            <styleUrl>#38123</styleUrl>
            <LineString id="38121">
                <coordinates>107.6203632,-6.9058522,0.0 107.6202779,-6.905853,0.0 107.6201683,-6.9058543,0.0 107.6199589,-6.9058757,0.0 107.6196754,-6.9059048,0.0 107.6196006,-6.9059116,0.0 107.6195329,-6.9059207,0.0 107.6193893,-6.9059526,0.0 107.6190569,-6.9060207,0.0 107.6189729,-6.9060333,0.0 107.6188902,-6.9060457,0.0 107.6187202,-6.9060666,0.0 107.6187042,-6.90607,0.0 107.6185277,-6.9060885,0.0 107.6184625,-6.9060947,0.0 107.6183784,-6.9060981,0.0 107.6174531,-6.906135,0.0 107.6174067,-6.9061389,0.0 107.6173359,-6.9061429,0.0 107.6172211,-6.9061507,0.0 107.6170218,-6.9061694,0.0 107.6169819,-6.9061731,0.0 107.6167588,-6.9062016,0.0</coordinates>
            </LineString>
        </Placemark>
        <Placemark id="38126">
            <name>Jalan L.L. RE. Martadinata</name>
            <styleUrl>#38127</styleUrl>
            <LineString id="38125">
                <coordinates>107.627074,-6.9110498,0.0 107.6269793,-6.9109538,0.0 107.6266345,-6.9106181,0.0 107.6265806,-6.9105638,0.0 107.6265596,-6.9105422,0.0 107.6265002,-6.9104819,0.0 107.6263409,-6.9103274,0.0 107.6262232,-6.9102114,0.0 107.6261674,-6.9101544,0.0 107.6260827,-6.9100761,0.0</coordinates>
            </LineString>
        </Placemark>
        <Placemark id="38130">
            <name>Jalan Abdul Rivai</name>
            <styleUrl>#38131</styleUrl>
            <LineString id="38129">
                <coordinates>107.6025713,-6.9045005,0.0 107.6025372,-6.9044602,0.0 107.6025209,-6.9044101,0.0 107.6025248,-6.9043576,0.0 107.6025484,-6.9043104,0.0 107.6025881,-6.9042756,0.0 107.6026381,-6.9042582,0.0</coordinates>
            </LineString>
        </Placemark>
        <Placemark id="38134">
            <name>Jalan Jakarta</name>
            <styleUrl>#38135</styleUrl>
            <LineString id="38133">
                <coordinates>107.6374221,-6.9145133,0.0 107.6374071,-6.9145151,0.0</coordinates>
            </LineString>
        </Placemark>
        <Placemark id="38138">
            <name>Jalan Jakarta</name>
            <styleUrl>#38139</styleUrl>
            <LineString id="38137">
                <coordinates>107.6375505,-6.9144979,0.0 107.6374221,-6.9145133,0.0</coordinates>
            </LineString>
        </Placemark>
        <Placemark id="38142">
            <name>Route Segment</name>
            <styleUrl>#38143</styleUrl>
            <LineString id="38141">
                <coordinates>107.6437064,-6.9141291,0.0 107.64364,-6.9139376,0.0 107.6436192,-6.9139023,0.0 107.6436004,-6.9138803,0.0 107.6435804,-6.9138673,0.0 107.6435595,-6.9138537,0.0 107.6434317,-6.9138202,0.0</coordinates>
            </LineString>
        </Placemark>
        <Placemark id="38146">
            <name>Jalan Soekarno-Hatta</name>
            <styleUrl>#38147</styleUrl>
            <LineString id="38145">
                <coordinates>107.6528653,-6.94202,0.0 107.652718,-6.9420676,0.0</coordinates>
            </LineString>
        </Placemark>
        <Placemark id="38150">
            <name>Jalan Lapang Supratman</name>
            <styleUrl>#38151</styleUrl>
            <LineString id="38149">
                <coordinates>107.6306223,-6.907732,0.0 107.6302838,-6.9079553,0.0 107.6301163,-6.9080655,0.0 107.6299488,-6.9081756,0.0 107.6297436,-6.9082432,0.0 107.629633,-6.9082512,0.0 107.6295506,-6.9082404,0.0 107.6294925,-6.9082151,0.0 107.629441,-6.9081795,0.0 107.6293885,-6.9081299,0.0</coordinates>
            </LineString>
        </Placemark>
        <Placemark id="38154">
            <name>Jalan Jakarta</name>
            <styleUrl>#38155</styleUrl>
            <LineString id="38153">
                <coordinates>107.6417884,-6.9139622,0.0 107.641697,-6.9139738,0.0 107.6414919,-6.9139998,0.0 107.641333,-6.91402,0.0 107.6412294,-6.9140332,0.0 107.6410867,-6.9140514,0.0 107.6409986,-6.9140626,0.0 107.6405342,-6.9141216,0.0 107.6404441,-6.914133,0.0 107.6403058,-6.9141506,0.0 107.6402235,-6.9141611,0.0 107.6399572,-6.9141974,0.0 107.6399016,-6.9142036,0.0 107.639752,-6.914221,0.0 107.6394886,-6.9142545,0.0 107.6393055,-6.9142777,0.0 107.6391705,-6.9142949,0.0 107.6390974,-6.9143035,0.0 107.6389372,-6.914324,0.0 107.6388474,-6.914336,0.0 107.6386476,-6.9143613,0.0 107.6385849,-6.9143693,0.0 107.6384709,-6.9143838,0.0 107.6381956,-6.9144188,0.0 107.6379503,-6.9144499,0.0 107.6378321,-6.9144641,0.0 107.6377113,-6.9144786,0.0 107.6376149,-6.9144902,0.0</coordinates>
            </LineString>
        </Placemark>
        <Placemark id="38158">
            <name>Jalan Jakarta</name>
            <styleUrl>#38159</styleUrl>
            <LineString id="38157">
                <coordinates>107.6373588,-6.9145209,0.0 107.6371438,-6.9145467,0.0 107.6369043,-6.9145755,0.0 107.6368147,-6.9145887,0.0 107.636513,-6.914633,0.0 107.6362469,-6.9146627,0.0 107.6362076,-6.9146671,0.0 107.6361335,-6.9146647,0.0 107.6360082,-6.9146453,0.0 107.6356952,-6.9145626,0.0 107.6356516,-6.9145514,0.0</coordinates>
            </LineString>
        </Placemark>
        <Placemark id="38162">
            <name>Jalan Taman Pramuka</name>
            <styleUrl>#38163</styleUrl>
            <LineString id="38161">
                <coordinates>107.6274721,-6.9097736,0.0 107.6275231,-6.9098318,0.0 107.6275876,-6.9099568,0.0 107.6276091,-6.9100234,0.0 107.6276252,-6.9100913,0.0 107.6276368,-6.9101834,0.0 107.6276346,-6.9102897,0.0 107.6276106,-6.9103897,0.0 107.6276024,-6.9104242,0.0 107.6275467,-6.9105478,0.0 107.6274766,-6.9106475,0.0 107.6272869,-6.9108345,0.0 107.6271232,-6.9109989,0.0 107.627074,-6.9110498,0.0</coordinates>
            </LineString>
        </Placemark>
        <Placemark id="38166">
            <name>Jalan Cihampelas</name>
            <styleUrl>#38167</styleUrl>
            <LineString id="38165">
                <coordinates>107.6043867,-6.9048271,0.0 107.6043543,-6.9047176,0.0 107.6043435,-6.9046277,0.0</coordinates>
            </LineString>
        </Placemark>
        <Placemark id="38170">
            <name>Jalan L.L. RE. Martadinata</name>
            <styleUrl>#38171</styleUrl>
            <LineString id="38169">
                <coordinates>107.6213811,-6.9060399,0.0 107.621213,-6.9059876,0.0</coordinates>
            </LineString>
        </Placemark>
        <Placemark id="38174">
            <name>Jalan Soekarno-Hatta</name>
            <styleUrl>#38175</styleUrl>
            <LineString id="38173">
                <coordinates>107.6638999,-6.9392127,0.0 107.6633094,-6.9392635,0.0 107.6632438,-6.9392691,0.0 107.6629584,-6.9393017,0.0 107.6628909,-6.9393103,0.0 107.662636,-6.9393368,0.0 107.6624379,-6.9393635,0.0 107.662399,-6.9393684,0.0 107.6619105,-6.9394464,0.0 107.6617801,-6.9394686,0.0 107.6614189,-6.9395381,0.0 107.6608708,-6.9396579,0.0 107.6607458,-6.9396857,0.0 107.6603815,-6.9397667,0.0 107.6601823,-6.9398122,0.0 107.6600955,-6.939832,0.0 107.6599232,-6.9398697,0.0 107.6598099,-6.939893,0.0 107.6596714,-6.9399267,0.0 107.659479,-6.9399734,0.0 107.6593929,-6.9399935,0.0 107.6591964,-6.9400441,0.0 107.6590642,-6.9400797,0.0 107.6583047,-6.9403106,0.0 107.6581816,-6.9403488,0.0</coordinates>
            </LineString>
        </Placemark>
        <Placemark id="38178">
            <name>Jalan L.L. RE. Martadinata</name>
            <styleUrl>#38179</styleUrl>
            <LineString id="38177">
                <coordinates>107.6260827,-6.9100761,0.0 107.6259817,-6.9099872,0.0 107.6259487,-6.9099584,0.0 107.6259228,-6.9099338,0.0 107.6258394,-6.9098536,0.0 107.6257448,-6.9097632,0.0 107.6253641,-6.9093848,0.0 107.6253092,-6.9093323,0.0 107.6252606,-6.9092859,0.0 107.625168,-6.9091975,0.0 107.6251205,-6.9091522,0.0 107.6250665,-6.909101,0.0 107.6250037,-6.9090443,0.0 107.6249642,-6.9090084,0.0 107.6247925,-6.9088693,0.0 107.6246431,-6.9087403,0.0 107.624592,-6.9086974,0.0 107.624424,-6.908556,0.0 107.6243689,-6.9085138,0.0 107.6242946,-6.9084569,0.0 107.6242211,-6.9084007,0.0 107.6241725,-6.9083672,0.0 107.6240359,-6.9082553,0.0 107.6239406,-6.9081795,0.0 107.623898,-6.9081445,0.0 107.6237961,-6.9080605,0.0 107.6236954,-6.9079639,0.0 107.6236448,-6.9079144,0.0 107.6235783,-6.9078372,0.0 107.6234169,-6.907648,0.0 107.6233782,-6.9076007,0.0 107.6233239,-6.9075344,0.0 107.6233077,-6.9075143,0.0 107.6232802,-6.9074803,0.0 107.6232385,-6.907429,0.0 107.6232063,-6.9073895,0.0 107.6231474,-6.9073112,0.0 107.6230407,-6.9071734,0.0 107.6230069,-6.9071302,0.0 107.6229227,-6.9070232,0.0 107.6228683,-6.9069596,0.0 107.6228138,-6.906896,0.0 107.622767,-6.9068426,0.0 107.6227125,-6.9067946,0.0 107.622637,-6.9067316,0.0 107.6225154,-6.9066302,0.0 107.6224543,-6.9065793,0.0 107.6222395,-6.9064426,0.0 107.6221784,-6.9064038,0.0 107.6221309,-6.9063741,0.0 107.622066,-6.9063335,0.0 107.6220332,-6.9063102,0.0 107.6220004,-6.9062923,0.0 107.6218623,-6.9062167,0.0 107.6216984,-6.9061395,0.0 107.6215291,-6.9060859,0.0 107.6214607,-6.9060648,0.0 107.6213811,-6.9060399,0.0</coordinates>
            </LineString>
        </Placemark>
        <Placemark id="38182">
            <name>Jalan H. Ibrahim Adjie</name>
            <styleUrl>#38183</styleUrl>
            <LineString id="38181">
                <coordinates>107.6420981,-6.9411497,0.0 107.6421015,-6.9410976,0.0</coordinates>
            </LineString>
        </Placemark>
        <Placemark id="38186">
            <name>Jalan Sukajadi</name>
            <styleUrl>#38187</styleUrl>
            <LineString id="38185">
                <coordinates>107.5972816,-6.8966817,0.0 107.5972787,-6.8966241,0.0 107.5972616,-6.8963456,0.0 107.5972601,-6.8962772,0.0 107.5972557,-6.8962319,0.0 107.597252,-6.8961231,0.0 107.5972487,-6.8960662,0.0 107.5972328,-6.8957942,0.0 107.5972172,-6.8955656,0.0 107.5971842,-6.8950939,0.0 107.5971773,-6.8950042,0.0 107.5971398,-6.8945401,0.0 107.5971049,-6.8940789,0.0 107.5970982,-6.8939774,0.0 107.5970769,-6.893622,0.0 107.5970644,-6.8934134,0.0 107.5970391,-6.8930157,0.0</coordinates>
            </LineString>
        </Placemark>
        <Placemark id="38190">
            <name>Jalan Sukajadi</name>
            <styleUrl>#38191</styleUrl>
            <LineString id="38189">
                <coordinates>107.5969097,-6.8902486,0.0 107.5969052,-6.8900717,0.0 107.5969028,-6.8899793,0.0 107.5969032,-6.8898955,0.0 107.596901,-6.8897159,0.0 107.5968858,-6.8894176,0.0 107.5968696,-6.889221,0.0 107.5968625,-6.8891028,0.0 107.5968398,-6.888674,0.0 107.5968348,-6.8885657,0.0 107.5968303,-6.8885035,0.0 107.5968078,-6.8882126,0.0 107.5967817,-6.8879179,0.0 107.5967633,-6.8877297,0.0 107.5967526,-6.887631,0.0</coordinates>
            </LineString>
        </Placemark>
        <Placemark id="38194">
            <name>Jalan Sukajadi</name>
            <styleUrl>#38195</styleUrl>
            <LineString id="38193">
                <coordinates>107.5965693,-6.8848932,0.0 107.5965291,-6.8842065,0.0</coordinates>
            </LineString>
        </Placemark>
        <Placemark id="38198">
            <name>Jalan Pasteur</name>
            <styleUrl>#38199</styleUrl>
            <LineString id="38197">
                <coordinates>107.5988975,-6.9003711,0.0 107.5988453,-6.9003703,0.0 107.5985681,-6.9003769,0.0</coordinates>
            </LineString>
        </Placemark>
        <Placemark id="38202">
            <name>Jalan Abdul Rivai</name>
            <styleUrl>#38203</styleUrl>
            <LineString id="38201">
                <coordinates>107.6026381,-6.9042582,0.0 107.6029269,-6.904267,0.0</coordinates>
            </LineString>
        </Placemark>
        <Placemark id="38206">
            <name>Jalan Pajajaran</name>
            <styleUrl>#38207</styleUrl>
            <LineString id="38205">
                <coordinates>107.6076596,-6.9080052,0.0 107.607602,-6.9079117,0.0 107.607563,-6.9078579,0.0 107.607537,-6.907823,0.0 107.607465,-6.9077399,0.0 107.6073865,-6.9076628,0.0</coordinates>
            </LineString>
        </Placemark>
        <Placemark id="38210">
            <name>Jalan Rancabolang</name>
            <styleUrl>#38211</styleUrl>
            <LineString id="38209">
                <coordinates>107.6627393,-6.9465348,0.0 107.6628409,-6.945985,0.0 107.6629062,-6.945677,0.0 107.6629491,-6.9454965,0.0 107.662964,-6.9454441,0.0 107.6629981,-6.9453838,0.0 107.6630343,-6.9453372,0.0 107.6632047,-6.9451341,0.0 107.6632449,-6.9450855,0.0 107.6632729,-6.9450451,0.0 107.6632831,-6.9450043,0.0 107.6632895,-6.9449577,0.0 107.6632932,-6.9448998,0.0 107.6633049,-6.9447181,0.0 107.6633109,-6.9445944,0.0 107.6633416,-6.9439847,0.0 107.6633497,-6.9439456,0.0 107.663379,-6.9438528,0.0 107.6633934,-6.9438225,0.0 107.663407,-6.9438006,0.0 107.6634816,-6.943703,0.0 107.663528,-6.943616,0.0 107.6635407,-6.9433869,0.0 107.6635625,-6.9431569,0.0 107.6635697,-6.943081,0.0 107.6635769,-6.9430179,0.0 107.6636111,-6.9427353,0.0 107.6636118,-6.9427313,0.0 107.663619,-6.9426664,0.0 107.6636167,-6.9426347,0.0 107.6636114,-6.9425991,0.0 107.6635832,-6.9424849,0.0 107.663581,-6.9424719,0.0 107.6635812,-6.942459,0.0 107.6635832,-6.9424216,0.0 107.6636072,-6.9420781,0.0 107.6636136,-6.9419871,0.0 107.6636177,-6.9419288,0.0 107.6636575,-6.9416161,0.0 107.6636805,-6.9414356,0.0 107.6637003,-6.9412455,0.0 107.6637178,-6.9411002,0.0 107.6637428,-6.940874,0.0 107.6637681,-6.9406529,0.0 107.6637848,-6.9405211,0.0 107.6637932,-6.9404553,0.0 107.6637966,-6.9404287,0.0 107.6638134,-6.9402828,0.0 107.6638153,-6.9402603,0.0 107.6638305,-6.9401254,0.0 107.6638512,-6.9399341,0.0 107.6638553,-6.9398906,0.0 107.6638666,-6.9397903,0.0 107.6638812,-6.9396474,0.0 107.6638872,-6.9395739,0.0 107.6638947,-6.9394825,0.0 107.6638999,-6.9392127,0.0</coordinates>
            </LineString>
        </Placemark>
        <Placemark id="38214">
            <name>Route Segment</name>
            <styleUrl>#38215</styleUrl>
            <LineString id="38213">
                <coordinates>107.6626652,-6.9465292,0.0 107.6627393,-6.9465348,0.0</coordinates>
            </LineString>
        </Placemark>
        <Placemark id="38218">
            <name>Jalan Pajajaran</name>
            <styleUrl>#38219</styleUrl>
            <LineString id="38217">
                <coordinates>107.6053829,-6.907135,0.0 107.6051824,-6.9071438,0.0 107.6051387,-6.9071446,0.0 107.6045501,-6.9071569,0.0 107.6045,-6.907158,0.0</coordinates>
            </LineString>
        </Placemark>
        <Placemark id="38222">
            <name>Jalan Jakarta</name>
            <styleUrl>#38223</styleUrl>
            <LineString id="38221">
                <coordinates>107.6422888,-6.9139602,0.0 107.6421252,-6.9139589,0.0 107.6417884,-6.9139622,0.0</coordinates>
            </LineString>
        </Placemark>
        <Placemark id="38226">
            <name>Jalan Pajajaran</name>
            <styleUrl>#38227</styleUrl>
            <LineString id="38225">
                <coordinates>107.6045,-6.907158,0.0 107.6044924,-6.907135,0.0 107.6044754,-6.9071175,0.0 107.6044526,-6.9071087,0.0 107.6044282,-6.9071102,0.0</coordinates>
            </LineString>
        </Placemark>
        <Placemark id="38230">
            <name>Jalan Sukajadi</name>
            <styleUrl>#38231</styleUrl>
            <LineString id="38229">
                <coordinates>107.5970391,-6.8930157,0.0 107.5970212,-6.8924855,0.0 107.596988,-6.8919756,0.0 107.5969852,-6.8919419,0.0 107.5969612,-6.8915359,0.0 107.5969542,-6.8914244,0.0 107.5969493,-6.8913097,0.0 107.5969393,-6.8910002,0.0 107.5969258,-6.8906657,0.0 107.5969183,-6.8904777,0.0 107.5969097,-6.8902486,0.0</coordinates>
            </LineString>
        </Placemark>
        <Placemark id="38234">
            <name>Jalan Dr. Setiabudi</name>
            <styleUrl>#38235</styleUrl>
            <LineString id="38233">
                <coordinates>107.5940961,-6.8651081,0.0 107.5940723,-6.8653071,0.0 107.5940489,-6.8655021,0.0 107.5940436,-6.8655555,0.0 107.5939941,-6.866016,0.0 107.59398,-6.8661473,0.0 107.5939484,-6.8664124,0.0 107.5939402,-6.8664718,0.0 107.5939135,-6.8666897,0.0 107.593824,-6.8674042,0.0 107.5937888,-6.8677009,0.0 107.5937561,-6.8679333,0.0 107.5937127,-6.8682235,0.0 107.5937093,-6.8682462,0.0 107.593703,-6.868294,0.0 107.5936933,-6.8683616,0.0 107.5936592,-6.8686283,0.0 107.5936527,-6.8686846,0.0 107.5936366,-6.868816,0.0 107.5936184,-6.8689604,0.0 107.5936057,-6.869061,0.0 107.5935721,-6.8693613,0.0 107.5935632,-6.8694388,0.0 107.5935337,-6.8696955,0.0 107.5935252,-6.8697698,0.0 107.5935167,-6.8698675,0.0 107.5935096,-6.8699573,0.0 107.593506,-6.8701005,0.0 107.5935249,-6.8704256,0.0</coordinates>
            </LineString>
        </Placemark>
        <Placemark id="38238">
            <name>Jalan Sukajadi</name>
            <styleUrl>#38239</styleUrl>
            <LineString id="38237">
                <coordinates>107.5967526,-6.887631,0.0 107.5967323,-6.8873957,0.0</coordinates>
            </LineString>
        </Placemark>
        <Placemark id="38242">
            <name>Jalan H. Ibrahim Adjie</name>
            <styleUrl>#38243</styleUrl>
            <LineString id="38241">
                <coordinates>107.6441408,-6.9193272,0.0 107.6441381,-6.9192711,0.0 107.644128,-6.9190672,0.0 107.6440855,-6.9185996,0.0 107.6440727,-6.9184616,0.0 107.6440177,-6.9178882,0.0 107.6438994,-6.916833,0.0 107.6438819,-6.9165842,0.0 107.6438696,-6.9164357,0.0 107.6438628,-6.916367,0.0 107.6438444,-6.9161586,0.0 107.6438277,-6.9159687,0.0 107.6438209,-6.9158898,0.0 107.6437252,-6.9148646,0.0 107.6437224,-6.9148349,0.0 107.6437294,-6.9147964,0.0 107.6437472,-6.9147194,0.0 107.643757,-6.9146763,0.0</coordinates>
            </LineString>
        </Placemark>
        <Placemark id="38246">
            <name>Jalan Pasteur</name>
            <styleUrl>#38247</styleUrl>
            <LineString id="38245">
                <coordinates>107.5977337,-6.9003863,0.0 107.5974469,-6.9003919,0.0</coordinates>
            </LineString>
        </Placemark>
        <Placemark id="38250">
            <name>Jalan H. Ibrahim Adjie</name>
            <styleUrl>#38251</styleUrl>
            <LineString id="38249">
                <coordinates>107.6431304,-6.9317573,0.0 107.6431586,-6.9317203,0.0 107.6435367,-6.9312959,0.0 107.6437964,-6.9309966,0.0 107.6438483,-6.9308789,0.0 107.643882,-6.9307183,0.0 107.6439463,-6.9299218,0.0</coordinates>
            </LineString>
        </Placemark>
        <Placemark id="38254">
            <name>Jalan H. Ibrahim Adjie</name>
            <styleUrl>#38255</styleUrl>
            <LineString id="38253">
                <coordinates>107.6425801,-6.9344518,0.0 107.6426419,-6.934114,0.0 107.6427034,-6.9338245,0.0 107.6427458,-6.9336408,0.0 107.6428114,-6.9333527,0.0 107.6428453,-6.9332036,0.0 107.6429329,-6.9327429,0.0 107.6429396,-6.932706,0.0 107.6430775,-6.9319479,0.0</coordinates>
            </LineString>
        </Placemark>
        <Placemark id="38258">
            <name>Jalan Cendana</name>
            <styleUrl>#38259</styleUrl>
            <LineString id="38257">
                <coordinates>107.6277694,-6.9094286,0.0 107.6277509,-6.9094797,0.0 107.6277185,-6.9095309,0.0 107.6274721,-6.9097736,0.0</coordinates>
            </LineString>
        </Placemark>
        <Placemark id="38262">
            <name>Jalan Layang Kiaracondong</name>
            <styleUrl>#38263</styleUrl>
            <LineString id="38261">
                <coordinates>107.6439515,-6.9299054,0.0 107.6439779,-6.9298257,0.0 107.6439995,-6.929747,0.0</coordinates>
            </LineString>
        </Placemark>
        <Placemark id="38266">
            <name>Jalan Jakarta</name>
            <styleUrl>#38267</styleUrl>
            <LineString id="38265">
                <coordinates>107.6429791,-6.9138756,0.0 107.6422888,-6.9139602,0.0</coordinates>
            </LineString>
        </Placemark>
        <Placemark id="38270">
            <name>Jalan Jakarta</name>
            <styleUrl>#38271</styleUrl>
            <LineString id="38269">
                <coordinates>107.6353848,-6.9144668,0.0 107.635303,-6.9144435,0.0 107.6350006,-6.9143377,0.0 107.6348698,-6.9142738,0.0 107.6347632,-6.9141918,0.0 107.6346801,-6.9140834,0.0 107.6340817,-6.912988,0.0 107.6338607,-6.9126134,0.0 107.6335776,-6.9121582,0.0</coordinates>
            </LineString>
        </Placemark>
        <Placemark id="38274">
            <name>Jalan Soekarno-Hatta</name>
            <styleUrl>#38275</styleUrl>
            <LineString id="38273">
                <coordinates>107.652718,-6.9420676,0.0 107.6526919,-6.9420765,0.0 107.6517577,-6.9423758,0.0 107.6516814,-6.9423995,0.0 107.6512581,-6.9425328,0.0 107.6511346,-6.9425676,0.0 107.6509225,-6.942639,0.0 107.6507484,-6.9426922,0.0 107.6506763,-6.9427159,0.0 107.6504686,-6.942788,0.0 107.6503749,-6.9428159,0.0 107.6502455,-6.9428592,0.0 107.6500236,-6.9429302,0.0 107.6497773,-6.9430058,0.0 107.6494863,-6.9431026,0.0 107.6493065,-6.9431604,0.0 107.648989,-6.9432624,0.0 107.6486814,-6.9433594,0.0 107.6484748,-6.9434245,0.0</coordinates>
            </LineString>
        </Placemark>
        <Placemark id="38278">
            <name>Jalan Perintis Kemerdekaan</name>
            <styleUrl>#38279</styleUrl>
            <LineString id="38277">
                <coordinates>107.609095,-6.9138574,0.0 107.6090912,-6.913831,0.0 107.6090777,-6.9138078,0.0 107.6090567,-6.9137911,0.0 107.6090309,-6.9137833,0.0</coordinates>
            </LineString>
        </Placemark>
        <Placemark id="38282">
            <name>Jalan H. Ibrahim Adjie</name>
            <styleUrl>#38283</styleUrl>
            <LineString id="38281">
                <coordinates>107.641837,-6.9453875,0.0 107.6418425,-6.9452679,0.0 107.6418558,-6.9449238,0.0</coordinates>
            </LineString>
        </Placemark>
        <Placemark id="38286">
            <name>Jalan Soekarno-Hatta</name>
            <styleUrl>#38287</styleUrl>
            <LineString id="38285">
                <coordinates>107.6423431,-6.9453982,0.0 107.6420622,-6.9455002,0.0 107.6419711,-6.9455318,0.0 107.6419126,-6.9455527,0.0</coordinates>
            </LineString>
        </Placemark>
        <Placemark id="38290">
            <name>Jalan Soekarno-Hatta</name>
            <styleUrl>#38291</styleUrl>
            <LineString id="38289">
                <coordinates>107.6419126,-6.9455527,0.0 107.6418208,-6.9455841,0.0</coordinates>
            </LineString>
        </Placemark>
        <Placemark id="38294">
            <name>Jalan Jakarta</name>
            <styleUrl>#38295</styleUrl>
            <LineString id="38293">
                <coordinates>107.6356516,-6.9145514,0.0 107.6353848,-6.9144668,0.0</coordinates>
            </LineString>
        </Placemark>
        <Placemark id="38298">
            <name>Jalan Jakarta</name>
            <styleUrl>#38299</styleUrl>
            <LineString id="38297">
                <coordinates>107.6335776,-6.9121582,0.0 107.6334111,-6.9119426,0.0 107.6332282,-6.9117173,0.0</coordinates>
            </LineString>
        </Placemark>
        <Placemark id="38302">
            <name>Jalan Dr. Setiabudi</name>
            <styleUrl>#38303</styleUrl>
            <LineString id="38301">
                <coordinates>107.594917,-6.8589109,0.0 107.5948727,-6.8591879,0.0 107.5948433,-6.8593552,0.0</coordinates>
            </LineString>
        </Placemark>
        <Placemark id="38306">
            <name>Jalan Dr. Setiabudi</name>
            <styleUrl>#38307</styleUrl>
            <LineString id="38305">
                <coordinates>107.594751,-6.8634425,0.0 107.5946342,-6.8634956,0.0</coordinates>
            </LineString>
        </Placemark>
        <Placemark id="38310">
            <name>Jalan Dr. Setiabudi</name>
            <styleUrl>#38311</styleUrl>
            <LineString id="38309">
                <coordinates>107.5941115,-6.864801,0.0 107.5941535,-6.8646065,0.0 107.5941832,-6.8644809,0.0 107.5942318,-6.8642799,0.0 107.5943139,-6.8639829,0.0 107.594348,-6.8639131,0.0 107.5943936,-6.8638479,0.0</coordinates>
            </LineString>
        </Placemark>
        <Placemark id="38314">
            <name>Jalan Cendana</name>
            <styleUrl>#38315</styleUrl>
            <LineString id="38313">
                <coordinates>107.6293885,-6.9081299,0.0 107.6293346,-6.9081101,0.0 107.6292995,-6.9081037,0.0 107.6292676,-6.9081042,0.0 107.6292361,-6.9081084,0.0 107.6291731,-6.9081286,0.0</coordinates>
            </LineString>
        </Placemark>
        <Placemark id="38318">
            <name>Jalan Wastukancana</name>
            <styleUrl>#38319</styleUrl>
            <LineString id="38317">
                <coordinates>107.609044,-6.9105515,0.0 107.6088855,-6.9102984,0.0</coordinates>
            </LineString>
        </Placemark>
        <Placemark id="38322">
            <name>Jalan HOS. Cokroaminoto</name>
            <styleUrl>#38323</styleUrl>
            <LineString id="38321">
                <coordinates>107.5973654,-6.9003949,0.0 107.5973566,-6.9002078,0.0</coordinates>
            </LineString>
        </Placemark>
        <Placemark id="38326">
            <name>Jalan Merdeka</name>
            <styleUrl>#38327</styleUrl>
            <LineString id="38325">
                <coordinates>107.610654,-6.909795,0.0 107.6106452,-6.9098761,0.0 107.6106164,-6.9099691,0.0</coordinates>
            </LineString>
        </Placemark>
        <Placemark id="38330">
            <name>Route Segment</name>
            <styleUrl>#38331</styleUrl>
            <LineString id="38329">
                <coordinates>107.594917,-6.8589109,0.0 107.5952388,-6.8589685,0.0 107.5952442,-6.8589728,0.0 107.5952455,-6.8589782,0.0 107.5952302,-6.8591252,0.0 107.5951942,-6.85933,0.0</coordinates>
            </LineString>
        </Placemark>
        <Placemark id="38334">
            <name>Jalan H. Ibrahim Adjie</name>
            <styleUrl>#38335</styleUrl>
            <LineString id="38333">
                <coordinates>107.643757,-6.9146763,0.0 107.6437064,-6.9141291,0.0</coordinates>
            </LineString>
        </Placemark>
        <Placemark id="38338">
            <name>Jalan H. Ibrahim Adjie</name>
            <styleUrl>#38339</styleUrl>
            <LineString id="38337">
                <coordinates>107.6430775,-6.9319479,0.0 107.6431304,-6.9317573,0.0</coordinates>
            </LineString>
        </Placemark>
        <Placemark id="38342">
            <name>Jalan Layang Kiaracondong</name>
            <styleUrl>#38343</styleUrl>
            <LineString id="38341">
                <coordinates>107.6439463,-6.9299218,0.0 107.6439515,-6.9299054,0.0</coordinates>
            </LineString>
        </Placemark>
        <Placemark id="38346">
            <name>Jalan Cendana</name>
            <styleUrl>#38347</styleUrl>
            <LineString id="38345">
                <coordinates>107.6277859,-6.9093517,0.0 107.6277694,-6.9094286,0.0</coordinates>
            </LineString>
        </Placemark>
        <Placemark id="38350">
            <name>Jalan Layang Kiaracondong</name>
            <styleUrl>#38351</styleUrl>
            <LineString id="38349">
                <coordinates>107.6442331,-6.9197643,0.0 107.6441491,-6.9195253,0.0</coordinates>
            </LineString>
        </Placemark>
        <Placemark id="38354">
            <name>Jalan Soekarno-Hatta</name>
            <styleUrl>#38355</styleUrl>
            <LineString id="38353">
                <coordinates>107.6425818,-6.9453091,0.0 107.6425069,-6.9453371,0.0 107.6424447,-6.9453603,0.0 107.6423431,-6.9453982,0.0</coordinates>
            </LineString>
        </Placemark>
        <Placemark id="38358">
            <name>Jalan Letnan Jenderal Ibrahim Adjie</name>
            <styleUrl>#38359</styleUrl>
            <LineString id="38357">
                <coordinates>107.6418208,-6.9455841,0.0 107.641837,-6.9453875,0.0</coordinates>
            </LineString>
        </Placemark>
        <Placemark id="38362">
            <name>Jalan Jakarta</name>
            <styleUrl>#38363</styleUrl>
            <LineString id="38361">
                <coordinates>107.6374071,-6.9145151,0.0 107.6373588,-6.9145209,0.0</coordinates>
            </LineString>
        </Placemark>
        <Placemark id="38366">
            <name>Jalan Jakarta</name>
            <styleUrl>#38367</styleUrl>
            <LineString id="38365">
                <coordinates>107.6375655,-6.9144961,0.0 107.6375505,-6.9144979,0.0</coordinates>
            </LineString>
        </Placemark>
        <Placemark id="38370">
            <name>Jalan Jakarta</name>
            <styleUrl>#38371</styleUrl>
            <LineString id="38369">
                <coordinates>107.6376149,-6.9144902,0.0 107.6375655,-6.9144961,0.0</coordinates>
            </LineString>
        </Placemark>
        <Placemark id="38374">
            <name>Jalan Soekarno-Hatta</name>
            <styleUrl>#38375</styleUrl>
            <LineString id="38373">
                <coordinates>107.6484748,-6.9434245,0.0 107.6481243,-6.9435349,0.0 107.6478515,-6.9436201,0.0 107.6470185,-6.9438874,0.0 107.6467958,-6.9439589,0.0</coordinates>
            </LineString>
        </Placemark>
        <Placemark id="38378">
            <name>Jalan Soekarno-Hatta</name>
            <styleUrl>#38379</styleUrl>
            <LineString id="38377">
                <coordinates>107.6467958,-6.9439589,0.0 107.6467103,-6.9439855,0.0 107.646481,-6.944058,0.0 107.6462516,-6.9441305,0.0 107.6457814,-6.9442984,0.0 107.6456229,-6.9443522,0.0 107.6443264,-6.944777,0.0 107.6441008,-6.9448492,0.0 107.6430334,-6.9451909,0.0 107.6430108,-6.9451987,0.0 107.6428275,-6.9452621,0.0 107.6427636,-6.9452838,0.0 107.6425818,-6.9453091,0.0</coordinates>
            </LineString>
        </Placemark>
        <Placemark id="38382">
            <name>Jalan Pasteur</name>
            <styleUrl>#38383</styleUrl>
            <LineString id="38381">
                <coordinates>107.5985681,-6.9003769,0.0 107.5982442,-6.9003802,0.0</coordinates>
            </LineString>
        </Placemark>
        <Placemark id="38386">
            <name>Jalan H. Ibrahim Adjie</name>
            <styleUrl>#38387</styleUrl>
            <LineString id="38385">
                <coordinates>107.6420316,-6.942186,0.0 107.6420981,-6.9411497,0.0</coordinates>
            </LineString>
        </Placemark>
        <Placemark id="38390">
            <name>Jalan H. Ibrahim Adjie</name>
            <styleUrl>#38391</styleUrl>
            <LineString id="38389">
                <coordinates>107.6418558,-6.9449238,0.0 107.6418826,-6.9445066,0.0 107.6418944,-6.9443088,0.0 107.641916,-6.9439862,0.0 107.6419543,-6.9433902,0.0 107.6419747,-6.943072,0.0 107.6419842,-6.9429242,0.0 107.6419879,-6.9428669,0.0 107.6419915,-6.9428096,0.0 107.641994,-6.9427705,0.0 107.6420316,-6.942186,0.0</coordinates>
            </LineString>
        </Placemark>
        <Placemark id="38394">
            <name>Jalan Pasteur</name>
            <styleUrl>#38395</styleUrl>
            <LineString id="38393">
                <coordinates>107.5995868,-6.9003613,0.0 107.5988975,-6.9003711,0.0</coordinates>
            </LineString>
        </Placemark>
        <Placemark id="38398">
            <name>Jalan Sukajadi</name>
            <styleUrl>#38399</styleUrl>
            <LineString id="38397">
                <coordinates>107.5963984,-6.8809341,0.0 107.5963847,-6.8806684,0.0 107.5963806,-6.8805716,0.0 107.596369,-6.8802996,0.0 107.5963356,-6.8796695,0.0 107.5963312,-6.8795732,0.0 107.5963111,-6.8792113,0.0 107.5962832,-6.8787501,0.0 107.5962548,-6.8783299,0.0</coordinates>
            </LineString>
        </Placemark>
        <Placemark id="38402">
            <name>Jalan H. Ibrahim Adjie</name>
            <styleUrl>#38403</styleUrl>
            <LineString id="38401">
                <coordinates>107.6441491,-6.9195253,0.0 107.6441456,-6.9194414,0.0 107.6441408,-6.9193272,0.0</coordinates>
            </LineString>
        </Placemark>
        <Placemark id="38406">
            <name>Jalan Sukajadi</name>
            <styleUrl>#38407</styleUrl>
            <LineString id="38405">
                <coordinates>107.5962243,-6.8774107,0.0 107.5962202,-6.8773796,0.0 107.5962158,-6.8772881,0.0 107.5961957,-6.8768743,0.0</coordinates>
            </LineString>
        </Placemark>
        <Placemark id="38410">
            <name>Jalan Dr. Setiabudi</name>
            <styleUrl>#38411</styleUrl>
            <LineString id="38409">
                <coordinates>107.5936179,-6.8707823,0.0 107.5937463,-6.8711539,0.0 107.5937922,-6.8712782,0.0 107.593895,-6.8715029,0.0 107.5940693,-6.8717924,0.0 107.5944136,-6.8722322,0.0 107.5948065,-6.8727176,0.0 107.5949802,-6.8729249,0.0 107.5951113,-6.8730936,0.0 107.5955371,-6.8736221,0.0 107.5956623,-6.8737793,0.0 107.5956814,-6.8738055,0.0 107.5956912,-6.8738171,0.0 107.5957307,-6.8738828,0.0 107.5957592,-6.8739356,0.0 107.5957878,-6.8739884,0.0 107.5958267,-6.874066,0.0</coordinates>
            </LineString>
        </Placemark>
        <Placemark id="38414">
            <name>Jalan Layang Kiaracondong</name>
            <styleUrl>#38415</styleUrl>
            <LineString id="38413">
                <coordinates>107.6442354,-6.9198162,0.0 107.6442331,-6.9197643,0.0</coordinates>
            </LineString>
        </Placemark>
        <Placemark id="38418">
            <name>Jalan Pasir Kaliki</name>
            <styleUrl>#38419</styleUrl>
            <LineString id="38417">
                <coordinates>107.5972895,-6.8968371,0.0 107.5972816,-6.8966817,0.0</coordinates>
            </LineString>
        </Placemark>
        <Placemark id="38422">
            <name>Jalan Dr. Setiabudi</name>
            <styleUrl>#38423</styleUrl>
            <LineString id="38421">
                <coordinates>107.5935249,-6.8704256,0.0 107.5936179,-6.8707823,0.0</coordinates>
            </LineString>
        </Placemark>
        <Placemark id="38426">
            <name>Jalan Soekarno-Hatta</name>
            <styleUrl>#38427</styleUrl>
            <LineString id="38425">
                <coordinates>107.6581816,-6.9403488,0.0 107.6580268,-6.9403972,0.0 107.6574144,-6.9405885,0.0 107.6570876,-6.9406892,0.0 107.6569693,-6.9407256,0.0</coordinates>
            </LineString>
        </Placemark>
        <Placemark id="38430">
            <name>Jalan Soekarno-Hatta</name>
            <styleUrl>#38431</styleUrl>
            <LineString id="38429">
                <coordinates>107.6569693,-6.9407256,0.0 107.656476,-6.9408865,0.0 107.6553771,-6.9412355,0.0 107.6552333,-6.9412812,0.0 107.6550225,-6.9413467,0.0 107.6549551,-6.9413695,0.0 107.6545674,-6.9414926,0.0 107.6543541,-6.9415587,0.0 107.6540745,-6.9416413,0.0 107.6538424,-6.9417141,0.0 107.653803,-6.9417283,0.0 107.6533322,-6.9418748,0.0 107.6529256,-6.9420012,0.0 107.6528653,-6.94202,0.0</coordinates>
            </LineString>
        </Placemark>
        <Placemark id="38434">
            <name>Jalan L.L. RE. Martadinata</name>
            <styleUrl>#38435</styleUrl>
            <LineString id="38433">
                <coordinates>107.6207064,-6.9058762,0.0 107.6205649,-6.905862,0.0 107.6203632,-6.9058522,0.0</coordinates>
            </LineString>
        </Placemark>
        <Placemark id="38438">
            <name>Jalan L.L. RE. Martadinata</name>
            <styleUrl>#38439</styleUrl>
            <LineString id="38437">
                <coordinates>107.621213,-6.9059876,0.0 107.6210778,-6.9059449,0.0 107.6209399,-6.9059153,0.0 107.6207244,-6.9058792,0.0 107.6207064,-6.9058762,0.0</coordinates>
            </LineString>
        </Placemark>
        <Placemark id="38442">
            <name>Jalan Dr. Setiabudi</name>
            <styleUrl>#38443</styleUrl>
            <LineString id="38441">
                <coordinates>107.5948433,-6.8593552,0.0 107.5948312,-6.8594241,0.0 107.5948088,-6.859551,0.0</coordinates>
            </LineString>
        </Placemark>
        <Placemark id="38446">
            <name>Jalan Dr. Setiabudi</name>
            <styleUrl>#38447</styleUrl>
            <LineString id="38445">
                <coordinates>107.5948052,-6.8595708,0.0 107.594757,-6.8600369,0.0 107.5947527,-6.8600724,0.0 107.5947487,-6.8601046,0.0</coordinates>
            </LineString>
        </Placemark>
        <Placemark id="38450">
            <name>Jalan Dr. Setiabudi</name>
            <styleUrl>#38451</styleUrl>
            <LineString id="38449">
                <coordinates>107.5948088,-6.859551,0.0 107.5948052,-6.8595708,0.0</coordinates>
            </LineString>
        </Placemark>
        <Placemark id="38454">
            <name>Jalan Raden Adipati Aria Wiranatakusumah</name>
            <styleUrl>#38455</styleUrl>
            <LineString id="38453">
                <coordinates>107.602401,-6.902382,0.0 107.602397,-6.902269,0.0 107.6023472,-6.9015634,0.0 107.6023375,-6.9014255,0.0 107.6023139,-6.9009089,0.0 107.6022962,-6.9005985,0.0 107.6022833,-6.9003768,0.0 107.602282,-6.9003617,0.0</coordinates>
            </LineString>
        </Placemark>
        <Placemark id="38458">
            <name>Jalan Pasteur</name>
            <styleUrl>#38459</styleUrl>
            <LineString id="38457">
                <coordinates>107.602282,-6.9003617,0.0 107.6018744,-6.9003583,0.0 107.6018357,-6.9003585,0.0 107.6014571,-6.9003605,0.0 107.6011427,-6.9003575,0.0 107.6010646,-6.9003568,0.0</coordinates>
            </LineString>
        </Placemark>
        <Placemark id="38462">
            <name>Jalan Jakarta</name>
            <styleUrl>#38463</styleUrl>
            <LineString id="38461">
                <coordinates>107.6434317,-6.9138202,0.0 107.6429791,-6.9138756,0.0</coordinates>
            </LineString>
        </Placemark>
        <Placemark id="38466">
            <name>Jalan Pasir Kaliki</name>
            <styleUrl>#38467</styleUrl>
            <LineString id="38465">
                <coordinates>107.5973572,-6.8990747,0.0 107.5973543,-6.8990234,0.0</coordinates>
            </LineString>
        </Placemark>
        <Placemark id="38470">
            <name>Jalan Pasir Kaliki</name>
            <styleUrl>#38471</styleUrl>
            <LineString id="38469">
                <coordinates>107.5973543,-6.8990234,0.0 107.5973503,-6.8989275,0.0</coordinates>
            </LineString>
        </Placemark>
        <Placemark id="38474">
            <name>Jalan Pasir Kaliki</name>
            <styleUrl>#38475</styleUrl>
            <LineString id="38473">
                <coordinates>107.5973452,-6.8999212,0.0 107.5973408,-6.8998291,0.0</coordinates>
            </LineString>
        </Placemark>
        <Placemark id="38478">
            <name>Jalan Pasir Kaliki</name>
            <styleUrl>#38479</styleUrl>
            <LineString id="38477">
                <coordinates>107.5973408,-6.8998291,0.0 107.5973293,-6.8994991,0.0 107.5973312,-6.8994022,0.0 107.5973423,-6.8991445,0.0 107.5973572,-6.8990747,0.0</coordinates>
            </LineString>
        </Placemark>
        <Placemark id="38482">
            <name>Jalan H. Ibrahim Adjie</name>
            <styleUrl>#38483</styleUrl>
            <LineString id="38481">
                <coordinates>107.6422207,-6.9392406,0.0 107.6422369,-6.9389882,0.0</coordinates>
            </LineString>
        </Placemark>
        <Placemark id="38486">
            <name>Jalan H. Ibrahim Adjie</name>
            <styleUrl>#38487</styleUrl>
            <LineString id="38485">
                <coordinates>107.6422369,-6.9389882,0.0 107.642268,-6.9385032,0.0</coordinates>
            </LineString>
        </Placemark>
        <Placemark id="38490">
            <name>Jalan H. Ibrahim Adjie</name>
            <styleUrl>#38491</styleUrl>
            <LineString id="38489">
                <coordinates>107.642268,-6.9385032,0.0 107.6422737,-6.9384148,0.0</coordinates>
            </LineString>
        </Placemark>
        <Placemark id="38494">
            <name>Jalan H. Ibrahim Adjie</name>
            <styleUrl>#38495</styleUrl>
            <LineString id="38493">
                <coordinates>107.6422737,-6.9384148,0.0 107.6422771,-6.9383619,0.0 107.6422805,-6.938309,0.0</coordinates>
            </LineString>
        </Placemark>
        <Placemark id="38498">
            <name>Jalan H. Ibrahim Adjie</name>
            <styleUrl>#38499</styleUrl>
            <LineString id="38497">
                <coordinates>107.6422805,-6.938309,0.0 107.6423103,-6.9378452,0.0</coordinates>
            </LineString>
        </Placemark>
        <Placemark id="38502">
            <name>Jalan H. Ibrahim Adjie</name>
            <styleUrl>#38503</styleUrl>
            <LineString id="38501">
                <coordinates>107.6423103,-6.9378452,0.0 107.6423303,-6.9375325,0.0</coordinates>
            </LineString>
        </Placemark>
        <Placemark id="38506">
            <name>Jalan H. Ibrahim Adjie</name>
            <styleUrl>#38507</styleUrl>
            <LineString id="38505">
                <coordinates>107.6423303,-6.9375325,0.0 107.6423524,-6.9371895,0.0</coordinates>
            </LineString>
        </Placemark>
        <Placemark id="38510">
            <name>Jalan H. Ibrahim Adjie</name>
            <styleUrl>#38511</styleUrl>
            <LineString id="38509">
                <coordinates>107.6423524,-6.9371895,0.0 107.6423606,-6.9370607,0.0 107.6423875,-6.9366422,0.0</coordinates>
            </LineString>
        </Placemark>
        <Placemark id="38514">
            <name>Jalan H. Ibrahim Adjie</name>
            <styleUrl>#38515</styleUrl>
            <LineString id="38513">
                <coordinates>107.6423875,-6.9366422,0.0 107.6424206,-6.9362218,0.0</coordinates>
            </LineString>
        </Placemark>
        <Placemark id="38518">
            <name>Jalan H. Ibrahim Adjie</name>
            <styleUrl>#38519</styleUrl>
            <LineString id="38517">
                <coordinates>107.6424206,-6.9362218,0.0 107.642469,-6.9354704,0.0 107.6424796,-6.9353265,0.0</coordinates>
            </LineString>
        </Placemark>
        <Placemark id="38522">
            <name>Jalan H. Ibrahim Adjie</name>
            <styleUrl>#38523</styleUrl>
            <LineString id="38521">
                <coordinates>107.6424796,-6.9353265,0.0 107.6424964,-6.9351047,0.0</coordinates>
            </LineString>
        </Placemark>
        <Placemark id="38526">
            <name>Jalan H. Ibrahim Adjie</name>
            <styleUrl>#38527</styleUrl>
            <LineString id="38525">
                <coordinates>107.6424964,-6.9351047,0.0 107.6425262,-6.9348226,0.0 107.6425372,-6.9347467,0.0</coordinates>
            </LineString>
        </Placemark>
        <Placemark id="38530">
            <name>Jalan H. Ibrahim Adjie</name>
            <styleUrl>#38531</styleUrl>
            <LineString id="38529">
                <coordinates>107.6425372,-6.9347467,0.0 107.6425801,-6.9344518,0.0</coordinates>
            </LineString>
        </Placemark>
        <Placemark id="38534">
            <name>Jalan H. Ibrahim Adjie</name>
            <styleUrl>#38535</styleUrl>
            <LineString id="38533">
                <coordinates>107.6421015,-6.9410976,0.0 107.6421202,-6.9408049,0.0</coordinates>
            </LineString>
        </Placemark>
        <Placemark id="38538">
            <name>Jalan H. Ibrahim Adjie</name>
            <styleUrl>#38539</styleUrl>
            <LineString id="38537">
                <coordinates>107.6421202,-6.9408049,0.0 107.6421234,-6.9407557,0.0</coordinates>
            </LineString>
        </Placemark>
        <Placemark id="38542">
            <name>Jalan H. Ibrahim Adjie</name>
            <styleUrl>#38543</styleUrl>
            <LineString id="38541">
                <coordinates>107.6421234,-6.9407557,0.0 107.6421688,-6.9400483,0.0</coordinates>
            </LineString>
        </Placemark>
        <Placemark id="38546">
            <name>Jalan H. Ibrahim Adjie</name>
            <styleUrl>#38547</styleUrl>
            <LineString id="38545">
                <coordinates>107.6421688,-6.9400483,0.0 107.6421744,-6.9399607,0.0 107.6421789,-6.9398908,0.0 107.6422207,-6.9392406,0.0</coordinates>
            </LineString>
        </Placemark>
        <Placemark id="38550">
            <name>Jalan Dr. Setiabudi</name>
            <styleUrl>#38551</styleUrl>
            <LineString id="38549">
                <coordinates>107.5946342,-6.8634956,0.0 107.594575,-6.8635338,0.0 107.5945119,-6.8636016,0.0 107.594469,-6.8636686,0.0 107.5943936,-6.8638479,0.0</coordinates>
            </LineString>
        </Placemark>
        <Placemark id="38554">
            <name>Jalan Dr. Setiabudi</name>
            <styleUrl>#38555</styleUrl>
            <LineString id="38553">
                <coordinates>107.5940961,-6.8651081,0.0 107.5940725,-6.8650563,0.0 107.594078,-6.8649955,0.0 107.5941115,-6.864801,0.0</coordinates>
            </LineString>
        </Placemark>
        <Placemark id="38558">
            <name>Jalan L.L. RE. Martadinata</name>
            <styleUrl>#38559</styleUrl>
            <LineString id="38557">
                <coordinates>107.6126957,-6.9070364,0.0 107.6124781,-6.907055,0.0 107.6124238,-6.9070587,0.0 107.6120609,-6.907071,0.0 107.6119393,-6.9070669,0.0 107.6117292,-6.9070622,0.0</coordinates>
            </LineString>
        </Placemark>
        <Placemark id="38562">
            <name>Jalan L.L. RE. Martadinata</name>
            <styleUrl>#38563</styleUrl>
            <LineString id="38561">
                <coordinates>107.6117292,-6.9070622,0.0 107.6116695,-6.9070609,0.0 107.6116341,-6.9070599,0.0 107.6113975,-6.9070401,0.0</coordinates>
            </LineString>
        </Placemark>
        <Placemark id="38566">
            <name>Jalan L.L. RE. Martadinata</name>
            <styleUrl>#38567</styleUrl>
            <LineString id="38565">
                <coordinates>107.6113975,-6.9070401,0.0 107.6113747,-6.9070385,0.0 107.6111706,-6.9070246,0.0</coordinates>
            </LineString>
        </Placemark>
        <Placemark id="38570">
            <name>Jalan L.L. RE. Martadinata</name>
            <styleUrl>#38571</styleUrl>
            <LineString id="38569">
                <coordinates>107.6111706,-6.9070246,0.0 107.6109647,-6.9070064,0.0 107.6107468,-6.9069963,0.0 107.6106377,-6.9069919,0.0</coordinates>
            </LineString>
        </Placemark>
        <Placemark id="38574">
            <name>Terminal Margahayu Raya</name>
            <styleUrl>#38575</styleUrl>
            <Point id="38573">
                <coordinates>107.6626652,-6.9465292,0.0</coordinates>
            </Point>
        </Placemark>
        <Placemark id="38579">
            <name>Terminal Ledeng</name>
            <styleUrl>#38580</styleUrl>
            <Point id="38578">
                <coordinates>107.5951942,-6.85933,0.0</coordinates>
            </Point>
        </Placemark>
    </Document>
</kml>
