<?xml version="1.0" encoding="UTF-8"?>
<kml xmlns="http://www.opengis.net/kml/2.2" xmlns:gx="http://www.google.com/kml/ext/2.2">
    <Document id="40120">
        <Style id="40126">
            <IconStyle id="40127">
                <colorMode>normal</colorMode>
                <scale>1</scale>
                <heading>0</heading>
                <Icon id="40128">
                    <href>http://maps.google.com/mapfiles/kml/pushpin/ylw-pushpin.png</href>
                </Icon>
            </IconStyle>
        </Style>
        <Style id="40131">
            <IconStyle id="40132">
                <colorMode>normal</colorMode>
                <scale>1</scale>
                <heading>0</heading>
                <Icon id="40133">
                    <href>http://maps.google.com/mapfiles/kml/pushpin/ylw-pushpin.png</href>
                </Icon>
            </IconStyle>
        </Style>
        <Style id="40136">
            <LineStyle id="40137">
                <color>ff295AF1</color>
                <colorMode>normal</colorMode>
                <width>4</width>
            </LineStyle>
        </Style>
        <Style id="40140">
            <LineStyle id="40141">
                <color>ff295AF1</color>
                <colorMode>normal</colorMode>
                <width>4</width>
            </LineStyle>
        </Style>
        <Style id="40144">
            <LineStyle id="40145">
                <color>ff295AF1</color>
                <colorMode>normal</colorMode>
                <width>4</width>
            </LineStyle>
        </Style>
        <Style id="40148">
            <LineStyle id="40149">
                <color>ff295AF1</color>
                <colorMode>normal</colorMode>
                <width>4</width>
            </LineStyle>
        </Style>
        <Style id="40152">
            <LineStyle id="40153">
                <color>ff295AF1</color>
                <colorMode>normal</colorMode>
                <width>4</width>
            </LineStyle>
        </Style>
        <Style id="40156">
            <LineStyle id="40157">
                <color>ff295AF1</color>
                <colorMode>normal</colorMode>
                <width>4</width>
            </LineStyle>
        </Style>
        <Style id="40160">
            <LineStyle id="40161">
                <color>ff295AF1</color>
                <colorMode>normal</colorMode>
                <width>4</width>
            </LineStyle>
        </Style>
        <Style id="40164">
            <LineStyle id="40165">
                <color>ff295AF1</color>
                <colorMode>normal</colorMode>
                <width>4</width>
            </LineStyle>
        </Style>
        <Style id="40168">
            <LineStyle id="40169">
                <color>ff295AF1</color>
                <colorMode>normal</colorMode>
                <width>4</width>
            </LineStyle>
        </Style>
        <Style id="40172">
            <LineStyle id="40173">
                <color>ff295AF1</color>
                <colorMode>normal</colorMode>
                <width>4</width>
            </LineStyle>
        </Style>
        <Style id="40176">
            <LineStyle id="40177">
                <color>ff295AF1</color>
                <colorMode>normal</colorMode>
                <width>4</width>
            </LineStyle>
        </Style>
        <Style id="40180">
            <LineStyle id="40181">
                <color>ff295AF1</color>
                <colorMode>normal</colorMode>
                <width>4</width>
            </LineStyle>
        </Style>
        <Style id="40184">
            <LineStyle id="40185">
                <color>ff295AF1</color>
                <colorMode>normal</colorMode>
                <width>4</width>
            </LineStyle>
        </Style>
        <Style id="40188">
            <LineStyle id="40189">
                <color>ff295AF1</color>
                <colorMode>normal</colorMode>
                <width>4</width>
            </LineStyle>
        </Style>
        <Style id="40192">
            <LineStyle id="40193">
                <color>ff295AF1</color>
                <colorMode>normal</colorMode>
                <width>4</width>
            </LineStyle>
        </Style>
        <Style id="40196">
            <LineStyle id="40197">
                <color>ff295AF1</color>
                <colorMode>normal</colorMode>
                <width>4</width>
            </LineStyle>
        </Style>
        <Style id="40200">
            <LineStyle id="40201">
                <color>ff295AF1</color>
                <colorMode>normal</colorMode>
                <width>4</width>
            </LineStyle>
        </Style>
        <Style id="40204">
            <LineStyle id="40205">
                <color>ff295AF1</color>
                <colorMode>normal</colorMode>
                <width>4</width>
            </LineStyle>
        </Style>
        <Style id="40208">
            <LineStyle id="40209">
                <color>ff295AF1</color>
                <colorMode>normal</colorMode>
                <width>4</width>
            </LineStyle>
        </Style>
        <Style id="40212">
            <LineStyle id="40213">
                <color>ff295AF1</color>
                <colorMode>normal</colorMode>
                <width>4</width>
            </LineStyle>
        </Style>
        <Style id="40216">
            <LineStyle id="40217">
                <color>ff295AF1</color>
                <colorMode>normal</colorMode>
                <width>4</width>
            </LineStyle>
        </Style>
        <Style id="40220">
            <LineStyle id="40221">
                <color>ff295AF1</color>
                <colorMode>normal</colorMode>
                <width>4</width>
            </LineStyle>
        </Style>
        <Style id="40224">
            <LineStyle id="40225">
                <color>ff295AF1</color>
                <colorMode>normal</colorMode>
                <width>4</width>
            </LineStyle>
        </Style>
        <Style id="40228">
            <LineStyle id="40229">
                <color>ff295AF1</color>
                <colorMode>normal</colorMode>
                <width>4</width>
            </LineStyle>
        </Style>
        <Style id="40232">
            <LineStyle id="40233">
                <color>ff295AF1</color>
                <colorMode>normal</colorMode>
                <width>4</width>
            </LineStyle>
        </Style>
        <Style id="40236">
            <LineStyle id="40237">
                <color>ff295AF1</color>
                <colorMode>normal</colorMode>
                <width>4</width>
            </LineStyle>
        </Style>
        <Style id="40240">
            <LineStyle id="40241">
                <color>ff295AF1</color>
                <colorMode>normal</colorMode>
                <width>4</width>
            </LineStyle>
        </Style>
        <Style id="40244">
            <LineStyle id="40245">
                <color>ff295AF1</color>
                <colorMode>normal</colorMode>
                <width>4</width>
            </LineStyle>
        </Style>
        <Style id="40248">
            <LineStyle id="40249">
                <color>ff295AF1</color>
                <colorMode>normal</colorMode>
                <width>4</width>
            </LineStyle>
        </Style>
        <Style id="40252">
            <LineStyle id="40253">
                <color>ff295AF1</color>
                <colorMode>normal</colorMode>
                <width>4</width>
            </LineStyle>
        </Style>
        <Style id="40256">
            <LineStyle id="40257">
                <color>ff295AF1</color>
                <colorMode>normal</colorMode>
                <width>4</width>
            </LineStyle>
        </Style>
        <Style id="40260">
            <LineStyle id="40261">
                <color>ff295AF1</color>
                <colorMode>normal</colorMode>
                <width>4</width>
            </LineStyle>
        </Style>
        <Style id="40264">
            <LineStyle id="40265">
                <color>ff295AF1</color>
                <colorMode>normal</colorMode>
                <width>4</width>
            </LineStyle>
        </Style>
        <Style id="40268">
            <LineStyle id="40269">
                <color>ff295AF1</color>
                <colorMode>normal</colorMode>
                <width>4</width>
            </LineStyle>
        </Style>
        <Style id="40272">
            <LineStyle id="40273">
                <color>ff295AF1</color>
                <colorMode>normal</colorMode>
                <width>4</width>
            </LineStyle>
        </Style>
        <Style id="40276">
            <LineStyle id="40277">
                <color>ff295AF1</color>
                <colorMode>normal</colorMode>
                <width>4</width>
            </LineStyle>
        </Style>
        <Style id="40280">
            <LineStyle id="40281">
                <color>ff295AF1</color>
                <colorMode>normal</colorMode>
                <width>4</width>
            </LineStyle>
        </Style>
        <Style id="40284">
            <LineStyle id="40285">
                <color>ff295AF1</color>
                <colorMode>normal</colorMode>
                <width>4</width>
            </LineStyle>
        </Style>
        <Style id="40288">
            <LineStyle id="40289">
                <color>ff295AF1</color>
                <colorMode>normal</colorMode>
                <width>4</width>
            </LineStyle>
        </Style>
        <Style id="40292">
            <LineStyle id="40293">
                <color>ff295AF1</color>
                <colorMode>normal</colorMode>
                <width>4</width>
            </LineStyle>
        </Style>
        <Style id="40296">
            <LineStyle id="40297">
                <color>ff295AF1</color>
                <colorMode>normal</colorMode>
                <width>4</width>
            </LineStyle>
        </Style>
        <Style id="40300">
            <LineStyle id="40301">
                <color>ff295AF1</color>
                <colorMode>normal</colorMode>
                <width>4</width>
            </LineStyle>
        </Style>
        <Style id="40304">
            <LineStyle id="40305">
                <color>ff295AF1</color>
                <colorMode>normal</colorMode>
                <width>4</width>
            </LineStyle>
        </Style>
        <Style id="40308">
            <LineStyle id="40309">
                <color>ff295AF1</color>
                <colorMode>normal</colorMode>
                <width>4</width>
            </LineStyle>
        </Style>
        <Style id="40312">
            <LineStyle id="40313">
                <color>ff295AF1</color>
                <colorMode>normal</colorMode>
                <width>4</width>
            </LineStyle>
        </Style>
        <Style id="40316">
            <LineStyle id="40317">
                <color>ff295AF1</color>
                <colorMode>normal</colorMode>
                <width>4</width>
            </LineStyle>
        </Style>
        <Style id="40320">
            <LineStyle id="40321">
                <color>ff295AF1</color>
                <colorMode>normal</colorMode>
                <width>4</width>
            </LineStyle>
        </Style>
        <Style id="40324">
            <LineStyle id="40325">
                <color>ff295AF1</color>
                <colorMode>normal</colorMode>
                <width>4</width>
            </LineStyle>
        </Style>
        <Style id="40328">
            <LineStyle id="40329">
                <color>ff295AF1</color>
                <colorMode>normal</colorMode>
                <width>4</width>
            </LineStyle>
        </Style>
        <Style id="40332">
            <LineStyle id="40333">
                <color>ff295AF1</color>
                <colorMode>normal</colorMode>
                <width>4</width>
            </LineStyle>
        </Style>
        <Style id="40336">
            <LineStyle id="40337">
                <color>ff295AF1</color>
                <colorMode>normal</colorMode>
                <width>4</width>
            </LineStyle>
        </Style>
        <Style id="40340">
            <LineStyle id="40341">
                <color>ff295AF1</color>
                <colorMode>normal</colorMode>
                <width>4</width>
            </LineStyle>
        </Style>
        <Style id="40344">
            <LineStyle id="40345">
                <color>ff295AF1</color>
                <colorMode>normal</colorMode>
                <width>4</width>
            </LineStyle>
        </Style>
        <Style id="40348">
            <LineStyle id="40349">
                <color>ff295AF1</color>
                <colorMode>normal</colorMode>
                <width>4</width>
            </LineStyle>
        </Style>
        <Style id="40352">
            <LineStyle id="40353">
                <color>ff295AF1</color>
                <colorMode>normal</colorMode>
                <width>4</width>
            </LineStyle>
        </Style>
        <Style id="40356">
            <LineStyle id="40357">
                <color>ff295AF1</color>
                <colorMode>normal</colorMode>
                <width>4</width>
            </LineStyle>
        </Style>
        <Style id="40360">
            <LineStyle id="40361">
                <color>ff295AF1</color>
                <colorMode>normal</colorMode>
                <width>4</width>
            </LineStyle>
        </Style>
        <Style id="40364">
            <LineStyle id="40365">
                <color>ff295AF1</color>
                <colorMode>normal</colorMode>
                <width>4</width>
            </LineStyle>
        </Style>
        <Style id="40368">
            <LineStyle id="40369">
                <color>ff295AF1</color>
                <colorMode>normal</colorMode>
                <width>4</width>
            </LineStyle>
        </Style>
        <Style id="40372">
            <LineStyle id="40373">
                <color>ff295AF1</color>
                <colorMode>normal</colorMode>
                <width>4</width>
            </LineStyle>
        </Style>
        <Style id="40376">
            <LineStyle id="40377">
                <color>ff295AF1</color>
                <colorMode>normal</colorMode>
                <width>4</width>
            </LineStyle>
        </Style>
        <Style id="40380">
            <LineStyle id="40381">
                <color>ff295AF1</color>
                <colorMode>normal</colorMode>
                <width>4</width>
            </LineStyle>
        </Style>
        <Style id="40384">
            <LineStyle id="40385">
                <color>ff295AF1</color>
                <colorMode>normal</colorMode>
                <width>4</width>
            </LineStyle>
        </Style>
        <Style id="40388">
            <LineStyle id="40389">
                <color>ff295AF1</color>
                <colorMode>normal</colorMode>
                <width>4</width>
            </LineStyle>
        </Style>
        <Style id="40392">
            <LineStyle id="40393">
                <color>ff295AF1</color>
                <colorMode>normal</colorMode>
                <width>4</width>
            </LineStyle>
        </Style>
        <Style id="40396">
            <LineStyle id="40397">
                <color>ff295AF1</color>
                <colorMode>normal</colorMode>
                <width>4</width>
            </LineStyle>
        </Style>
        <Style id="40400">
            <LineStyle id="40401">
                <color>ff295AF1</color>
                <colorMode>normal</colorMode>
                <width>4</width>
            </LineStyle>
        </Style>
        <Style id="40404">
            <LineStyle id="40405">
                <color>ff295AF1</color>
                <colorMode>normal</colorMode>
                <width>4</width>
            </LineStyle>
        </Style>
        <Style id="40408">
            <LineStyle id="40409">
                <color>ff295AF1</color>
                <colorMode>normal</colorMode>
                <width>4</width>
            </LineStyle>
        </Style>
        <Style id="40412">
            <LineStyle id="40413">
                <color>ff295AF1</color>
                <colorMode>normal</colorMode>
                <width>4</width>
            </LineStyle>
        </Style>
        <Style id="40416">
            <LineStyle id="40417">
                <color>ff295AF1</color>
                <colorMode>normal</colorMode>
                <width>4</width>
            </LineStyle>
        </Style>
        <Style id="40420">
            <LineStyle id="40421">
                <color>ff295AF1</color>
                <colorMode>normal</colorMode>
                <width>4</width>
            </LineStyle>
        </Style>
        <Style id="40424">
            <LineStyle id="40425">
                <color>ff295AF1</color>
                <colorMode>normal</colorMode>
                <width>4</width>
            </LineStyle>
        </Style>
        <Style id="40428">
            <LineStyle id="40429">
                <color>ff295AF1</color>
                <colorMode>normal</colorMode>
                <width>4</width>
            </LineStyle>
        </Style>
        <Style id="40432">
            <LineStyle id="40433">
                <color>ff295AF1</color>
                <colorMode>normal</colorMode>
                <width>4</width>
            </LineStyle>
        </Style>
        <Style id="40436">
            <LineStyle id="40437">
                <color>ff295AF1</color>
                <colorMode>normal</colorMode>
                <width>4</width>
            </LineStyle>
        </Style>
        <Style id="40440">
            <LineStyle id="40441">
                <color>ff295AF1</color>
                <colorMode>normal</colorMode>
                <width>4</width>
            </LineStyle>
        </Style>
        <Style id="40444">
            <LineStyle id="40445">
                <color>ff295AF1</color>
                <colorMode>normal</colorMode>
                <width>4</width>
            </LineStyle>
        </Style>
        <Style id="40448">
            <LineStyle id="40449">
                <color>ff295AF1</color>
                <colorMode>normal</colorMode>
                <width>4</width>
            </LineStyle>
        </Style>
        <Style id="40452">
            <LineStyle id="40453">
                <color>ff295AF1</color>
                <colorMode>normal</colorMode>
                <width>4</width>
            </LineStyle>
        </Style>
        <Style id="40456">
            <LineStyle id="40457">
                <color>ff295AF1</color>
                <colorMode>normal</colorMode>
                <width>4</width>
            </LineStyle>
        </Style>
        <Style id="40460">
            <LineStyle id="40461">
                <color>ff295AF1</color>
                <colorMode>normal</colorMode>
                <width>4</width>
            </LineStyle>
        </Style>
        <Style id="40464">
            <LineStyle id="40465">
                <color>ff295AF1</color>
                <colorMode>normal</colorMode>
                <width>4</width>
            </LineStyle>
        </Style>
        <Style id="40468">
            <LineStyle id="40469">
                <color>ff295AF1</color>
                <colorMode>normal</colorMode>
                <width>4</width>
            </LineStyle>
        </Style>
        <Style id="40472">
            <LineStyle id="40473">
                <color>ff295AF1</color>
                <colorMode>normal</colorMode>
                <width>4</width>
            </LineStyle>
        </Style>
        <Style id="40476">
            <LineStyle id="40477">
                <color>ff295AF1</color>
                <colorMode>normal</colorMode>
                <width>4</width>
            </LineStyle>
        </Style>
        <Style id="40480">
            <LineStyle id="40481">
                <color>ff295AF1</color>
                <colorMode>normal</colorMode>
                <width>4</width>
            </LineStyle>
        </Style>
        <Style id="40484">
            <LineStyle id="40485">
                <color>ff295AF1</color>
                <colorMode>normal</colorMode>
                <width>4</width>
            </LineStyle>
        </Style>
        <Style id="40488">
            <LineStyle id="40489">
                <color>ff295AF1</color>
                <colorMode>normal</colorMode>
                <width>4</width>
            </LineStyle>
        </Style>
        <Style id="40492">
            <LineStyle id="40493">
                <color>ff295AF1</color>
                <colorMode>normal</colorMode>
                <width>4</width>
            </LineStyle>
        </Style>
        <Style id="40496">
            <LineStyle id="40497">
                <color>ff295AF1</color>
                <colorMode>normal</colorMode>
                <width>4</width>
            </LineStyle>
        </Style>
        <Style id="40500">
            <LineStyle id="40501">
                <color>ff295AF1</color>
                <colorMode>normal</colorMode>
                <width>4</width>
            </LineStyle>
        </Style>
        <Style id="40504">
            <LineStyle id="40505">
                <color>ff295AF1</color>
                <colorMode>normal</colorMode>
                <width>4</width>
            </LineStyle>
        </Style>
        <Style id="40508">
            <LineStyle id="40509">
                <color>ff295AF1</color>
                <colorMode>normal</colorMode>
                <width>4</width>
            </LineStyle>
        </Style>
        <Style id="40512">
            <LineStyle id="40513">
                <color>ff295AF1</color>
                <colorMode>normal</colorMode>
                <width>4</width>
            </LineStyle>
        </Style>
        <Style id="40516">
            <LineStyle id="40517">
                <color>ff295AF1</color>
                <colorMode>normal</colorMode>
                <width>4</width>
            </LineStyle>
        </Style>
        <Style id="40520">
            <LineStyle id="40521">
                <color>ff295AF1</color>
                <colorMode>normal</colorMode>
                <width>4</width>
            </LineStyle>
        </Style>
        <Style id="40524">
            <LineStyle id="40525">
                <color>ff295AF1</color>
                <colorMode>normal</colorMode>
                <width>4</width>
            </LineStyle>
        </Style>
        <Style id="40528">
            <LineStyle id="40529">
                <color>ff295AF1</color>
                <colorMode>normal</colorMode>
                <width>4</width>
            </LineStyle>
        </Style>
        <Style id="40532">
            <LineStyle id="40533">
                <color>ff295AF1</color>
                <colorMode>normal</colorMode>
                <width>4</width>
            </LineStyle>
        </Style>
        <Style id="40536">
            <LineStyle id="40537">
                <color>ff295AF1</color>
                <colorMode>normal</colorMode>
                <width>4</width>
            </LineStyle>
        </Style>
        <Style id="40540">
            <LineStyle id="40541">
                <color>ff295AF1</color>
                <colorMode>normal</colorMode>
                <width>4</width>
            </LineStyle>
        </Style>
        <Style id="40544">
            <LineStyle id="40545">
                <color>ff295AF1</color>
                <colorMode>normal</colorMode>
                <width>4</width>
            </LineStyle>
        </Style>
        <Style id="40548">
            <LineStyle id="40549">
                <color>ff295AF1</color>
                <colorMode>normal</colorMode>
                <width>4</width>
            </LineStyle>
        </Style>
        <Style id="40552">
            <LineStyle id="40553">
                <color>ff295AF1</color>
                <colorMode>normal</colorMode>
                <width>4</width>
            </LineStyle>
        </Style>
        <Style id="40556">
            <LineStyle id="40557">
                <color>ff295AF1</color>
                <colorMode>normal</colorMode>
                <width>4</width>
            </LineStyle>
        </Style>
        <Style id="40560">
            <LineStyle id="40561">
                <color>ff295AF1</color>
                <colorMode>normal</colorMode>
                <width>4</width>
            </LineStyle>
        </Style>
        <Style id="40564">
            <LineStyle id="40565">
                <color>ff295AF1</color>
                <colorMode>normal</colorMode>
                <width>4</width>
            </LineStyle>
        </Style>
        <Style id="40568">
            <LineStyle id="40569">
                <color>ff295AF1</color>
                <colorMode>normal</colorMode>
                <width>4</width>
            </LineStyle>
        </Style>
        <Style id="40572">
            <LineStyle id="40573">
                <color>ff295AF1</color>
                <colorMode>normal</colorMode>
                <width>4</width>
            </LineStyle>
        </Style>
        <Style id="40576">
            <LineStyle id="40577">
                <color>ff295AF1</color>
                <colorMode>normal</colorMode>
                <width>4</width>
            </LineStyle>
        </Style>
        <Style id="40580">
            <LineStyle id="40581">
                <color>ff295AF1</color>
                <colorMode>normal</colorMode>
                <width>4</width>
            </LineStyle>
        </Style>
        <Style id="40584">
            <LineStyle id="40585">
                <color>ff295AF1</color>
                <colorMode>normal</colorMode>
                <width>4</width>
            </LineStyle>
        </Style>
        <Style id="40588">
            <LineStyle id="40589">
                <color>ff295AF1</color>
                <colorMode>normal</colorMode>
                <width>4</width>
            </LineStyle>
        </Style>
        <Style id="40592">
            <LineStyle id="40593">
                <color>ff295AF1</color>
                <colorMode>normal</colorMode>
                <width>4</width>
            </LineStyle>
        </Style>
        <Style id="40596">
            <LineStyle id="40597">
                <color>ff295AF1</color>
                <colorMode>normal</colorMode>
                <width>4</width>
            </LineStyle>
        </Style>
        <Style id="40600">
            <LineStyle id="40601">
                <color>ff295AF1</color>
                <colorMode>normal</colorMode>
                <width>4</width>
            </LineStyle>
        </Style>
        <Style id="40604">
            <LineStyle id="40605">
                <color>ff295AF1</color>
                <colorMode>normal</colorMode>
                <width>4</width>
            </LineStyle>
        </Style>
        <Style id="40608">
            <LineStyle id="40609">
                <color>ff295AF1</color>
                <colorMode>normal</colorMode>
                <width>4</width>
            </LineStyle>
        </Style>
        <Style id="40612">
            <LineStyle id="40613">
                <color>ff295AF1</color>
                <colorMode>normal</colorMode>
                <width>4</width>
            </LineStyle>
        </Style>
        <Style id="40616">
            <LineStyle id="40617">
                <color>ff295AF1</color>
                <colorMode>normal</colorMode>
                <width>4</width>
            </LineStyle>
        </Style>
        <Style id="40620">
            <LineStyle id="40621">
                <color>ff295AF1</color>
                <colorMode>normal</colorMode>
                <width>4</width>
            </LineStyle>
        </Style>
        <Style id="40624">
            <LineStyle id="40625">
                <color>ff295AF1</color>
                <colorMode>normal</colorMode>
                <width>4</width>
            </LineStyle>
        </Style>
        <Style id="40628">
            <LineStyle id="40629">
                <color>ff295AF1</color>
                <colorMode>normal</colorMode>
                <width>4</width>
            </LineStyle>
        </Style>
        <Style id="40632">
            <LineStyle id="40633">
                <color>ff295AF1</color>
                <colorMode>normal</colorMode>
                <width>4</width>
            </LineStyle>
        </Style>
        <Style id="40636">
            <LineStyle id="40637">
                <color>ff295AF1</color>
                <colorMode>normal</colorMode>
                <width>4</width>
            </LineStyle>
        </Style>
        <Style id="40640">
            <LineStyle id="40641">
                <color>ff295AF1</color>
                <colorMode>normal</colorMode>
                <width>4</width>
            </LineStyle>
        </Style>
        <Style id="40644">
            <LineStyle id="40645">
                <color>ff295AF1</color>
                <colorMode>normal</colorMode>
                <width>4</width>
            </LineStyle>
        </Style>
        <Style id="40648">
            <LineStyle id="40649">
                <color>ff295AF1</color>
                <colorMode>normal</colorMode>
                <width>4</width>
            </LineStyle>
        </Style>
        <Style id="40652">
            <LineStyle id="40653">
                <color>ff295AF1</color>
                <colorMode>normal</colorMode>
                <width>4</width>
            </LineStyle>
        </Style>
        <Style id="40656">
            <LineStyle id="40657">
                <color>ff295AF1</color>
                <colorMode>normal</colorMode>
                <width>4</width>
            </LineStyle>
        </Style>
        <Style id="40660">
            <LineStyle id="40661">
                <color>ff295AF1</color>
                <colorMode>normal</colorMode>
                <width>4</width>
            </LineStyle>
        </Style>
        <Style id="40664">
            <LineStyle id="40665">
                <color>ff295AF1</color>
                <colorMode>normal</colorMode>
                <width>4</width>
            </LineStyle>
        </Style>
        <Style id="40668">
            <LineStyle id="40669">
                <color>ff295AF1</color>
                <colorMode>normal</colorMode>
                <width>4</width>
            </LineStyle>
        </Style>
        <Style id="40672">
            <LineStyle id="40673">
                <color>ff295AF1</color>
                <colorMode>normal</colorMode>
                <width>4</width>
            </LineStyle>
        </Style>
        <ExtendedData>
            <Data name="route-name">
                <value>17: Pasar Induk Caringin → Dago</value>
            </Data>
            <Data name="source">
                <value>Transport for Bandung</value>
            </Data>
        </ExtendedData>
        <Placemark id="40125">
            <name>Pasar Caringin</name>
            <styleUrl>#40126</styleUrl>
            <Point id="40124">
                <coordinates>107.5829792,-6.9419021,0.0</coordinates>
            </Point>
        </Placemark>
        <Placemark id="40130">
            <name>Terminal Dago</name>
            <styleUrl>#40131</styleUrl>
            <Point id="40129">
                <coordinates>107.6212119,-6.8670778,0.0</coordinates>
            </Point>
        </Placemark>
        <Placemark id="40135">
            <name>Jalan L.L. RE. Martadinata</name>
            <styleUrl>#40136</styleUrl>
            <LineString id="40134">
                <coordinates>107.6079412,-6.9065104,0.0 107.6081981,-6.9065975,0.0 107.6083321,-6.9066257,0.0 107.6092299,-6.9067838,0.0 107.6093359,-6.9068089,0.0</coordinates>
            </LineString>
        </Placemark>
        <Placemark id="40139">
            <name>Jalan Purnawarman</name>
            <styleUrl>#40140</styleUrl>
            <LineString id="40138">
                <coordinates>107.6093359,-6.9068089,0.0 107.6093295,-6.906663,0.0 107.6093264,-6.9064662,0.0 107.6093244,-6.9064303,0.0 107.6093215,-6.90633,0.0 107.6093205,-6.9062537,0.0 107.6093278,-6.906026,0.0 107.6093894,-6.9051969,0.0 107.6094626,-6.9043424,0.0 107.6095436,-6.9034354,0.0 107.6095799,-6.9031562,0.0 107.6097663,-6.9026623,0.0 107.6097888,-6.9026023,0.0</coordinates>
            </LineString>
        </Placemark>
        <Placemark id="40143">
            <name>Jalan Cihampelas</name>
            <styleUrl>#40144</styleUrl>
            <LineString id="40142">
                <coordinates>107.6044282,-6.9071102,0.0 107.6044133,-6.9065285,0.0 107.6044055,-6.9062288,0.0 107.6044014,-6.9058496,0.0 107.6043978,-6.9056926,0.0 107.6043877,-6.9049197,0.0 107.6043867,-6.9048271,0.0</coordinates>
            </LineString>
        </Placemark>
        <Placemark id="40147">
            <name>Jalan Kebon Jati</name>
            <styleUrl>#40148</styleUrl>
            <LineString id="40146">
                <coordinates>107.5933422,-6.9165053,0.0 107.5934217,-6.9165008,0.0 107.5936045,-6.9164926,0.0 107.5936788,-6.9164782,0.0 107.5937549,-6.9164536,0.0 107.5942465,-6.9164387,0.0 107.5945745,-6.91643,0.0 107.5946101,-6.9164366,0.0 107.5946649,-6.9164464,0.0 107.5955033,-6.9164154,0.0 107.5955265,-6.9164153,0.0 107.5955809,-6.9164123,0.0 107.5958357,-6.9164043,0.0 107.5958592,-6.9164025,0.0</coordinates>
            </LineString>
        </Placemark>
        <Placemark id="40151">
            <name>Jalan Arjuna</name>
            <styleUrl>#40152</styleUrl>
            <LineString id="40150">
                <coordinates>107.5889396,-6.9145084,0.0 107.5891075,-6.9147354,0.0 107.5900646,-6.9159681,0.0 107.5904202,-6.9164093,0.0 107.5904338,-6.9164374,0.0 107.5904668,-6.9165055,0.0</coordinates>
            </LineString>
        </Placemark>
        <Placemark id="40155">
            <name>Jalan Ciroyom Timur</name>
            <styleUrl>#40156</styleUrl>
            <LineString id="40154">
                <coordinates>107.586626,-6.9153833,0.0 107.5866683,-6.9153925,0.0 107.5867508,-6.9154106,0.0 107.5869012,-6.9154497,0.0 107.5869343,-6.9154441,0.0 107.5869612,-6.9154328,0.0 107.5870048,-6.9153946,0.0 107.5870887,-6.9153212,0.0 107.5878799,-6.9146694,0.0 107.5883109,-6.9143017,0.0</coordinates>
            </LineString>
        </Placemark>
        <Placemark id="40159">
            <name>Jalan Ciroyom Barat</name>
            <styleUrl>#40160</styleUrl>
            <LineString id="40158">
                <coordinates>107.5858278,-6.9159293,0.0 107.5859932,-6.9153797,0.0 107.5860167,-6.9153202,0.0 107.5860221,-6.9153046,0.0 107.5860355,-6.9152879,0.0 107.586065,-6.9152746,0.0 107.5861069,-6.9152733,0.0 107.586626,-6.9153833,0.0</coordinates>
            </LineString>
        </Placemark>
        <Placemark id="40163">
            <name>Jalan Surapati</name>
            <styleUrl>#40164</styleUrl>
            <LineString id="40162">
                <coordinates>107.6132841,-6.8988423,0.0 107.6135004,-6.898852,0.0 107.6140011,-6.8988575,0.0 107.6147331,-6.8988511,0.0 107.615213,-6.8988527,0.0 107.6156959,-6.8989008,0.0 107.6158827,-6.8989216,0.0 107.6160286,-6.8989397,0.0</coordinates>
            </LineString>
        </Placemark>
        <Placemark id="40167">
            <name>Jalan Cikapayang</name>
            <styleUrl>#40168</styleUrl>
            <LineString id="40166">
                <coordinates>107.6096733,-6.898062,0.0 107.609686,-6.8980649,0.0 107.6098477,-6.8981018,0.0 107.610121,-6.8982089,0.0 107.6102355,-6.8982538,0.0 107.6106335,-6.8984212,0.0 107.6107567,-6.8984695,0.0 107.6111644,-6.8986221,0.0 107.6115705,-6.8987489,0.0 107.6116278,-6.8987668,0.0</coordinates>
            </LineString>
        </Placemark>
        <Placemark id="40171">
            <name>Jalan Cikondang</name>
            <styleUrl>#40172</styleUrl>
            <LineString id="40170">
                <coordinates>107.6306643,-6.8918391,0.0 107.6305783,-6.8915677,0.0 107.6304562,-6.8912601,0.0 107.6303999,-6.891111,0.0 107.6303731,-6.8910152,0.0 107.6303288,-6.8908381,0.0 107.630298,-6.890653,0.0 107.6302718,-6.8903593,0.0 107.6302592,-6.8902907,0.0</coordinates>
            </LineString>
        </Placemark>
        <Placemark id="40175">
            <name>Jalan HOS. Cokroaminoto</name>
            <styleUrl>#40176</styleUrl>
            <LineString id="40174">
                <coordinates>107.5980296,-6.9131529,0.0 107.5980155,-6.9128993,0.0 107.5980004,-6.9126452,0.0</coordinates>
            </LineString>
        </Placemark>
        <Placemark id="40179">
            <name>Jalan HOS. Cokroaminoto</name>
            <styleUrl>#40180</styleUrl>
            <LineString id="40178">
                <coordinates>107.5981313,-6.9141206,0.0 107.5981201,-6.9145111,0.0</coordinates>
            </LineString>
        </Placemark>
        <Placemark id="40183">
            <name>Jalan Rereng Adumanis</name>
            <styleUrl>#40184</styleUrl>
            <LineString id="40182">
                <coordinates>107.6305331,-6.89354,0.0 107.6307614,-6.8940198,0.0 107.6310629,-6.8946533,0.0 107.6312627,-6.895073,0.0 107.6314455,-6.895457,0.0 107.6315763,-6.895732,0.0 107.6317301,-6.8960551,0.0</coordinates>
            </LineString>
        </Placemark>
        <Placemark id="40187">
            <name>Jalan Batik Kumeli</name>
            <styleUrl>#40188</styleUrl>
            <LineString id="40186">
                <coordinates>107.6345337,-6.8924399,0.0 107.6345251,-6.8925164,0.0 107.6344448,-6.8929252,0.0</coordinates>
            </LineString>
        </Placemark>
        <Placemark id="40191">
            <name>Jalan Tamansari</name>
            <styleUrl>#40192</styleUrl>
            <LineString id="40190">
                <coordinates>107.609539,-6.8982797,0.0 107.6095516,-6.8981418,0.0 107.6095612,-6.898037,0.0</coordinates>
            </LineString>
        </Placemark>
        <Placemark id="40195">
            <name>Jalan Surapati</name>
            <styleUrl>#40196</styleUrl>
            <LineString id="40194">
                <coordinates>107.6272181,-6.8994982,0.0 107.6276128,-6.8995937,0.0 107.6279771,-6.8996818,0.0 107.62811,-6.8997221,0.0 107.6284084,-6.8998071,0.0 107.6284753,-6.8998262,0.0 107.6285873,-6.8998503,0.0 107.6287094,-6.8998644,0.0 107.6289085,-6.8998766,0.0 107.6292369,-6.8998595,0.0 107.6293496,-6.8998537,0.0 107.6294234,-6.8998417,0.0 107.6294905,-6.8998265,0.0 107.629705,-6.8997733,0.0 107.6298923,-6.8997215,0.0 107.6301923,-6.8996062,0.0 107.6303142,-6.8995517,0.0 107.6305872,-6.8993785,0.0 107.6307582,-6.8992701,0.0</coordinates>
            </LineString>
        </Placemark>
        <Placemark id="40199">
            <name>Jalan Surapati</name>
            <styleUrl>#40200</styleUrl>
            <LineString id="40198">
                <coordinates>107.6164572,-6.8990452,0.0 107.6177545,-6.8992474,0.0 107.6179645,-6.899261,0.0 107.6181289,-6.8992635,0.0 107.6184335,-6.8992562,0.0</coordinates>
            </LineString>
        </Placemark>
        <Placemark id="40203">
            <name>Jalan Cigadung Raya Tengah</name>
            <styleUrl>#40204</styleUrl>
            <LineString id="40202">
                <coordinates>107.626616,-6.8833921,0.0 107.6268257,-6.8831758,0.0 107.6270484,-6.8829202,0.0 107.627169,-6.8827737,0.0 107.6271974,-6.8827376,0.0 107.6272643,-6.8826525,0.0 107.6273206,-6.882586,0.0 107.6274131,-6.8824382,0.0 107.6274525,-6.8823628,0.0 107.6274702,-6.8823222,0.0 107.627524,-6.8821709,0.0 107.6276716,-6.8822145,0.0 107.6277459,-6.8822384,0.0 107.6278979,-6.8822818,0.0 107.6279524,-6.882297,0.0 107.628073,-6.8823364,0.0 107.6281661,-6.8823883,0.0 107.6281837,-6.8824048,0.0 107.6282025,-6.8824328,0.0 107.628287,-6.8826272,0.0 107.6283078,-6.8826485,0.0 107.628331,-6.8826586,0.0 107.6283755,-6.8826744,0.0 107.6288224,-6.8827995,0.0 107.6288727,-6.8828104,0.0 107.6293215,-6.8829075,0.0 107.6293471,-6.8829154,0.0 107.6293592,-6.8829264,0.0 107.6293658,-6.8829428,0.0 107.6293716,-6.8832296,0.0 107.6293776,-6.8835282,0.0 107.6293597,-6.8836798,0.0 107.6292986,-6.8839018,0.0 107.6291961,-6.8842737,0.0 107.6291424,-6.8845399,0.0 107.6291223,-6.8845979,0.0 107.6291786,-6.8847796,0.0 107.6292996,-6.8850038,0.0 107.629478,-6.8852039,0.0 107.6296166,-6.8853593,0.0 107.6296574,-6.8853841,0.0 107.6299134,-6.8855858,0.0 107.630027,-6.8856667,0.0 107.6303543,-6.8859118,0.0</coordinates>
            </LineString>
        </Placemark>
        <Placemark id="40207">
            <name>Jalan Sawunggaling</name>
            <styleUrl>#40208</styleUrl>
            <LineString id="40206">
                <coordinates>107.6093662,-6.9001279,0.0 107.6094627,-6.9004538,0.0 107.6095765,-6.9008166,0.0 107.6097892,-6.9015071,0.0</coordinates>
            </LineString>
        </Placemark>
        <Placemark id="40211">
            <name>Jalan Tamansari</name>
            <styleUrl>#40212</styleUrl>
            <LineString id="40210">
                <coordinates>107.609463,-6.8995343,0.0 107.6094378,-6.8996708,0.0 107.6094246,-6.899734,0.0 107.6094023,-6.899871,0.0 107.6093662,-6.9001279,0.0</coordinates>
            </LineString>
        </Placemark>
        <Placemark id="40215">
            <name>Jalan Andir</name>
            <styleUrl>#40216</styleUrl>
            <LineString id="40214">
                <coordinates>107.5850246,-6.9184718,0.0 107.5850268,-6.9184446,0.0 107.5850723,-6.9179021,0.0 107.5850938,-6.9176226,0.0 107.5851086,-6.9173175,0.0 107.585125,-6.9169009,0.0</coordinates>
            </LineString>
        </Placemark>
        <Placemark id="40219">
            <name>Jalan HOS. Cokroaminoto</name>
            <styleUrl>#40220</styleUrl>
            <LineString id="40218">
                <coordinates>107.5982102,-6.9163251,0.0 107.5982087,-6.9161927,0.0 107.5982045,-6.9161384,0.0 107.5981715,-6.9156959,0.0 107.598156,-6.9155614,0.0 107.5981533,-6.9155424,0.0 107.5981204,-6.9153156,0.0 107.5981054,-6.9152242,0.0 107.5980922,-6.9151108,0.0 107.5980776,-6.9149475,0.0 107.5980911,-6.9146113,0.0</coordinates>
            </LineString>
        </Placemark>
        <Placemark id="40223">
            <name>Jalan Jamika</name>
            <styleUrl>#40224</styleUrl>
            <LineString id="40222">
                <coordinates>107.5862673,-6.9201241,0.0 107.5863282,-6.9198089,0.0 107.5864566,-6.9190099,0.0 107.5864674,-6.9188832,0.0 107.5864484,-6.9188153,0.0 107.5864335,-6.9187872,0.0 107.586419,-6.9187619,0.0 107.586377,-6.9187222,0.0</coordinates>
            </LineString>
        </Placemark>
        <Placemark id="40227">
            <name>Jalan Surapati</name>
            <styleUrl>#40228</styleUrl>
            <LineString id="40226">
                <coordinates>107.6271231,-6.8994764,0.0 107.6270152,-6.8994551,0.0</coordinates>
            </LineString>
        </Placemark>
        <Placemark id="40231">
            <name>Jalan HOS. Cokroaminoto</name>
            <styleUrl>#40232</styleUrl>
            <LineString id="40230">
                <coordinates>107.5979469,-6.9117824,0.0 107.5979313,-6.9116207,0.0</coordinates>
            </LineString>
        </Placemark>
        <Placemark id="40235">
            <name>Jalan Cihampelas</name>
            <styleUrl>#40236</styleUrl>
            <LineString id="40234">
                <coordinates>107.6043867,-6.9048271,0.0 107.6044248,-6.9047189,0.0 107.6044209,-6.9045972,0.0</coordinates>
            </LineString>
        </Placemark>
        <Placemark id="40239">
            <name>Jalan Cihampelas</name>
            <styleUrl>#40240</styleUrl>
            <LineString id="40238">
                <coordinates>107.6044209,-6.9045972,0.0 107.6044173,-6.9045205,0.0 107.6044157,-6.9044676,0.0</coordinates>
            </LineString>
        </Placemark>
        <Placemark id="40243">
            <name>Jalan Wastukancana</name>
            <styleUrl>#40244</styleUrl>
            <LineString id="40242">
                <coordinates>107.6075644,-6.9054686,0.0 107.607609,-6.9055867,0.0 107.6076511,-6.9057161,0.0 107.6076853,-6.905845,0.0</coordinates>
            </LineString>
        </Placemark>
        <Placemark id="40247">
            <name>Jalan Surapati</name>
            <styleUrl>#40248</styleUrl>
            <LineString id="40246">
                <coordinates>107.6160286,-6.8989397,0.0 107.6160918,-6.8989527,0.0 107.6161796,-6.8989698,0.0 107.6163593,-6.8990187,0.0 107.6164572,-6.8990452,0.0</coordinates>
            </LineString>
        </Placemark>
        <Placemark id="40251">
            <name>Jalan Surapati</name>
            <styleUrl>#40252</styleUrl>
            <LineString id="40250">
                <coordinates>107.6193443,-6.89924,0.0 107.619731,-6.8992344,0.0 107.6198113,-6.89924,0.0</coordinates>
            </LineString>
        </Placemark>
        <Placemark id="40255">
            <name>Jalan Cikapayang</name>
            <styleUrl>#40256</styleUrl>
            <LineString id="40254">
                <coordinates>107.6127424,-6.8988496,0.0 107.6128334,-6.8988469,0.0</coordinates>
            </LineString>
        </Placemark>
        <Placemark id="40259">
            <name>Jalan Surapati</name>
            <styleUrl>#40260</styleUrl>
            <LineString id="40258">
                <coordinates>107.6198113,-6.89924,0.0 107.6199187,-6.8992847,0.0</coordinates>
            </LineString>
        </Placemark>
        <Placemark id="40263">
            <name>Jalan Surapati</name>
            <styleUrl>#40264</styleUrl>
            <LineString id="40262">
                <coordinates>107.6184335,-6.8992562,0.0 107.6189635,-6.8992333,0.0 107.6190223,-6.899231,0.0 107.6190829,-6.8992313,0.0 107.6192777,-6.8992377,0.0 107.6193443,-6.89924,0.0</coordinates>
            </LineString>
        </Placemark>
        <Placemark id="40267">
            <name>Jalan Pajajaran</name>
            <styleUrl>#40268</styleUrl>
            <LineString id="40266">
                <coordinates>107.5978766,-6.9065641,0.0 107.5979786,-6.9065883,0.0 107.5982101,-6.9066424,0.0 107.5983334,-6.9066643,0.0 107.5987941,-6.906746,0.0</coordinates>
            </LineString>
        </Placemark>
        <Placemark id="40271">
            <name>Jalan Hariangbanga</name>
            <styleUrl>#40272</styleUrl>
            <LineString id="40270">
                <coordinates>107.6090375,-6.9026143,0.0 107.6091166,-6.9024279,0.0 107.6092198,-6.9020964,0.0 107.6093151,-6.9018946,0.0 107.6094392,-6.9017368,0.0 107.6095819,-6.9016075,0.0 107.6097892,-6.9015071,0.0</coordinates>
            </LineString>
        </Placemark>
        <Placemark id="40275">
            <name>Jalan Wastukancana</name>
            <styleUrl>#40276</styleUrl>
            <LineString id="40274">
                <coordinates>107.6077246,-6.9060495,0.0 107.6077494,-6.9061802,0.0 107.6077784,-6.906285,0.0 107.6078246,-6.906372,0.0 107.607872,-6.9064327,0.0 107.6079412,-6.9065104,0.0</coordinates>
            </LineString>
        </Placemark>
        <Placemark id="40279">
            <name>Jalan HOS. Cokroaminoto</name>
            <styleUrl>#40280</styleUrl>
            <LineString id="40278">
                <coordinates>107.5976288,-6.9073749,0.0 107.5976476,-6.9072399,0.0 107.5976545,-6.9071624,0.0 107.5976396,-6.9068592,0.0 107.5976232,-6.9066483,0.0 107.5976301,-6.9066034,0.0 107.5976524,-6.9065823,0.0 107.5976833,-6.9065748,0.0 107.5977255,-6.9065767,0.0 107.597784,-6.9065777,0.0 107.5978766,-6.9065641,0.0</coordinates>
            </LineString>
        </Placemark>
        <Placemark id="40283">
            <name>Jalan Cigadung Raya Barat</name>
            <styleUrl>#40284</styleUrl>
            <LineString id="40282">
                <coordinates>107.626616,-6.8833921,0.0 107.6265798,-6.8833228,0.0 107.6265455,-6.8832597,0.0 107.6264425,-6.8830772,0.0 107.6263229,-6.8828675,0.0 107.6262347,-6.8827029,0.0 107.6261759,-6.8826124,0.0 107.6260679,-6.8824305,0.0 107.6259609,-6.8822696,0.0 107.6256656,-6.8817907,0.0 107.6255692,-6.8816465,0.0 107.6253907,-6.881344,0.0 107.6252018,-6.8810041,0.0 107.6251295,-6.8808881,0.0 107.6248493,-6.8804388,0.0 107.6248279,-6.8803841,0.0 107.6247733,-6.8802625,0.0 107.6242299,-6.8792841,0.0 107.6240459,-6.8789528,0.0 107.6240149,-6.8788978,0.0 107.6239894,-6.8788405,0.0 107.6239116,-6.8786395,0.0 107.6238709,-6.8785247,0.0 107.6236902,-6.8780245,0.0 107.6236548,-6.8779331,0.0 107.6236414,-6.8778865,0.0 107.623632,-6.8778393,0.0 107.6236233,-6.8777867,0.0 107.6236146,-6.8777168,0.0 107.6236139,-6.8776555,0.0 107.6236386,-6.877348,0.0 107.6236526,-6.8769751,0.0 107.6236488,-6.8769065,0.0 107.6236387,-6.8768646,0.0 107.6236081,-6.876733,0.0 107.6235359,-6.8765547,0.0 107.6235007,-6.8764789,0.0 107.6233216,-6.8762042,0.0 107.6232802,-6.876134,0.0 107.6232017,-6.8760158,0.0 107.6230326,-6.8757529,0.0 107.6227516,-6.8753315,0.0 107.6226269,-6.8751178,0.0 107.6225954,-6.8750371,0.0 107.6225917,-6.874962,0.0 107.62259,-6.8749431,0.0 107.6225697,-6.8746743,0.0 107.6225463,-6.874175,0.0 107.6225419,-6.8740808,0.0 107.6225067,-6.8735757,0.0 107.6224874,-6.8732388,0.0 107.6224681,-6.8730352,0.0 107.622458,-6.8727663,0.0 107.6224569,-6.8727508,0.0 107.6224572,-6.8727305,0.0 107.6224572,-6.8725724,0.0 107.6224596,-6.8724441,0.0 107.6224647,-6.8721764,0.0 107.6224855,-6.8720303,0.0 107.6224959,-6.8719861,0.0 107.6225345,-6.871703,0.0 107.622543,-6.8716795,0.0 107.6226033,-6.8714915,0.0 107.622758,-6.8710906,0.0 107.623074,-6.8705122,0.0 107.6231253,-6.8703996,0.0 107.6233873,-6.8698105,0.0 107.6234315,-6.8697067,0.0 107.6236485,-6.8690747,0.0 107.6236974,-6.8689638,0.0 107.6239224,-6.8682394,0.0 107.6239586,-6.8681349,0.0 107.6240511,-6.8678496,0.0 107.6241098,-6.8677577,0.0 107.6242358,-6.8675751,0.0 107.6242697,-6.8675397,0.0 107.624322,-6.8674924,0.0 107.624498,-6.8673221,0.0</coordinates>
            </LineString>
        </Placemark>
        <Placemark id="40287">
            <name>Jalan Cigadung Raya Timur</name>
            <styleUrl>#40288</styleUrl>
            <LineString id="40286">
                <coordinates>107.6302592,-6.8902907,0.0 107.6302913,-6.8900805,0.0 107.630294,-6.8899607,0.0 107.6302846,-6.8898635,0.0 107.6302631,-6.8897876,0.0 107.6301639,-6.8895453,0.0 107.6301397,-6.8894627,0.0 107.6300861,-6.8892284,0.0 107.6300606,-6.889022,0.0 107.630048,-6.8888408,0.0 107.6300459,-6.8887957,0.0 107.6300606,-6.8884841,0.0 107.6300217,-6.888319,0.0 107.63,-6.888245,0.0 107.6299922,-6.8882185,0.0 107.6299728,-6.8881206,0.0 107.6299728,-6.8880168,0.0 107.6299815,-6.8879043,0.0 107.6300214,-6.8877207,0.0 107.6300324,-6.88767,0.0 107.6300646,-6.8875281,0.0 107.6300915,-6.8873591,0.0 107.6301116,-6.8871973,0.0 107.6301463,-6.8870352,0.0 107.6301961,-6.8868025,0.0 107.6302092,-6.8867188,0.0 107.6302218,-6.8866373,0.0 107.6302377,-6.8865544,0.0 107.6302779,-6.886344,0.0 107.6303147,-6.8861248,0.0 107.6303447,-6.8859635,0.0 107.6303543,-6.8859118,0.0</coordinates>
            </LineString>
        </Placemark>
        <Placemark id="40291">
            <name>Jalan Rajawali Timur</name>
            <styleUrl>#40292</styleUrl>
            <LineString id="40290">
                <coordinates>107.5852149,-6.9157051,0.0 107.5853724,-6.9157654,0.0 107.5855994,-6.9158493,0.0 107.5858278,-6.9159293,0.0</coordinates>
            </LineString>
        </Placemark>
        <Placemark id="40295">
            <name>Jalan Jamika</name>
            <styleUrl>#40296</styleUrl>
            <LineString id="40294">
                <coordinates>107.585479,-6.9264387,0.0 107.5854852,-6.9263643,0.0 107.5855188,-6.9257812,0.0 107.5855719,-6.9251667,0.0 107.5856433,-6.924304,0.0 107.5856731,-6.9239119,0.0 107.58571,-6.9235337,0.0 107.5857642,-6.9231041,0.0 107.5858347,-6.9227005,0.0</coordinates>
            </LineString>
        </Placemark>
        <Placemark id="40299">
            <name>Jalan Terusan Pasir Koja</name>
            <styleUrl>#40300</styleUrl>
            <LineString id="40298">
                <coordinates>107.5763485,-6.9302683,0.0 107.5767422,-6.9301145,0.0 107.5770242,-6.9300057,0.0 107.5770827,-6.9299831,0.0 107.577385,-6.9298665,0.0 107.57743,-6.9298491,0.0 107.5775578,-6.9297998,0.0 107.5777186,-6.9297378,0.0 107.5778375,-6.9296919,0.0 107.5780179,-6.9296223,0.0 107.5783077,-6.9295105,0.0 107.5783627,-6.9294893,0.0 107.5785391,-6.9294213,0.0 107.5790448,-6.9292262,0.0 107.5794389,-6.9290742,0.0 107.5795965,-6.9290134,0.0 107.5799451,-6.9288789,0.0 107.5803951,-6.9287053,0.0 107.5806882,-6.9285922,0.0 107.580925,-6.9285009,0.0 107.5816608,-6.928217,0.0</coordinates>
            </LineString>
        </Placemark>
        <Placemark id="40303">
            <name>Jalan Soekarno-Hatta</name>
            <styleUrl>#40304</styleUrl>
            <LineString id="40302">
                <coordinates>107.5829792,-6.9419021,0.0 107.5828343,-6.9417667,0.0 107.5826472,-6.9415943,0.0 107.5825191,-6.9414612,0.0 107.5823656,-6.9412994,0.0 107.5821517,-6.9410625,0.0 107.5821159,-6.9410208,0.0 107.5819058,-6.940788,0.0 107.5815376,-6.9403423,0.0 107.5813405,-6.9400788,0.0 107.5810992,-6.9397324,0.0 107.5810386,-6.9396466,0.0 107.5809044,-6.9394469,0.0 107.580767,-6.9392399,0.0 107.5806266,-6.9390277,0.0 107.5805732,-6.938947,0.0 107.5803271,-6.9385882,0.0 107.5800131,-6.9381376,0.0 107.5798993,-6.9379765,0.0 107.5795452,-6.9374607,0.0 107.5792435,-6.9370194,0.0 107.5790075,-6.9366526,0.0 107.5786923,-6.936176,0.0 107.5786225,-6.936076,0.0 107.5783816,-6.9357321,0.0 107.5779644,-6.9351167,0.0 107.5778937,-6.9350078,0.0 107.5776529,-6.9346197,0.0 107.5774359,-6.9342622,0.0 107.5773742,-6.9341407,0.0 107.5769381,-6.933311,0.0 107.5767071,-6.9327631,0.0 107.5766013,-6.9325102,0.0 107.576479,-6.932218,0.0</coordinates>
            </LineString>
        </Placemark>
        <Placemark id="40307">
            <name>Jalan Andir</name>
            <styleUrl>#40308</styleUrl>
            <LineString id="40306">
                <coordinates>107.5850246,-6.9184718,0.0 107.5850179,-6.9185338,0.0</coordinates>
            </LineString>
        </Placemark>
        <Placemark id="40311">
            <name>Jalan Pajajaran</name>
            <styleUrl>#40312</styleUrl>
            <LineString id="40310">
                <coordinates>107.601582,-6.9069752,0.0 107.6018374,-6.9069939,0.0 107.6022676,-6.9070278,0.0 107.6024088,-6.9070386,0.0 107.6028154,-6.9070698,0.0 107.6030906,-6.9070909,0.0 107.6042719,-6.9071615,0.0 107.6043341,-6.9071602,0.0 107.6043882,-6.9071529,0.0</coordinates>
            </LineString>
        </Placemark>
        <Placemark id="40315">
            <name>Jalan Raya Golf</name>
            <styleUrl>#40316</styleUrl>
            <LineString id="40314">
                <coordinates>107.624498,-6.8673221,0.0 107.6245552,-6.8672698,0.0 107.6247306,-6.8671252,0.0 107.6249029,-6.8669984,0.0 107.6250794,-6.8668751,0.0 107.6252588,-6.8667184,0.0 107.6254114,-6.8665768,0.0 107.6254995,-6.8664818,0.0 107.6255182,-6.8664591,0.0 107.6257047,-6.8662648,0.0 107.6257476,-6.8662169,0.0 107.6257905,-6.8661689,0.0 107.6258871,-6.8660232,0.0 107.6259236,-6.8659675,0.0 107.6260061,-6.8658332,0.0 107.6260236,-6.8657976,0.0 107.6260473,-6.865749,0.0 107.6260806,-6.8656234,0.0 107.6260926,-6.8655728,0.0 107.626101,-6.8655445,0.0 107.6261542,-6.8653994,0.0 107.6261813,-6.8653262,0.0 107.6262217,-6.8652261,0.0 107.6262609,-6.865122,0.0</coordinates>
            </LineString>
        </Placemark>
        <Placemark id="40319">
            <name>Jalan Wastukancana</name>
            <styleUrl>#40320</styleUrl>
            <LineString id="40318">
                <coordinates>107.604907,-6.904268,0.0 107.6050035,-6.9041885,0.0 107.6051531,-6.9040927,0.0 107.605225,-6.9040549,0.0 107.6052645,-6.9040341,0.0 107.605369,-6.9039986,0.0 107.6054495,-6.9039862,0.0 107.6055461,-6.9039795,0.0 107.6056396,-6.9039773,0.0 107.6058035,-6.9039995,0.0 107.6059967,-6.9040381,0.0 107.6061616,-6.9040807,0.0 107.606306,-6.9041384,0.0 107.6063615,-6.9041606,0.0 107.6065841,-6.9042698,0.0</coordinates>
            </LineString>
        </Placemark>
        <Placemark id="40323">
            <name>Jalan HOS. Cokroaminoto</name>
            <styleUrl>#40324</styleUrl>
            <LineString id="40322">
                <coordinates>107.5979313,-6.9116207,0.0 107.5979188,-6.9114098,0.0 107.5978086,-6.909947,0.0 107.5978015,-6.9098566,0.0 107.5977774,-6.9094546,0.0 107.5977427,-6.9089045,0.0 107.5976909,-6.9082042,0.0 107.5976849,-6.9081059,0.0 107.5976772,-6.9080121,0.0 107.5976288,-6.9073749,0.0</coordinates>
            </LineString>
        </Placemark>
        <Placemark id="40327">
            <name>Jalan HOS. Cokroaminoto</name>
            <styleUrl>#40328</styleUrl>
            <LineString id="40326">
                <coordinates>107.5979805,-6.912262,0.0 107.5979469,-6.9117824,0.0</coordinates>
            </LineString>
        </Placemark>
        <Placemark id="40331">
            <name>Jalan Cikutra Barat</name>
            <styleUrl>#40332</styleUrl>
            <LineString id="40330">
                <coordinates>107.6345337,-6.8924399,0.0 107.6344477,-6.8924268,0.0 107.6342792,-6.8924016,0.0 107.6339487,-6.8923617,0.0 107.6332532,-6.8922846,0.0 107.6326048,-6.8922337,0.0 107.6322674,-6.8922234,0.0 107.6318758,-6.8922202,0.0 107.6311643,-6.8922471,0.0 107.6310061,-6.8922374,0.0 107.6309022,-6.8922127,0.0 107.6308369,-6.8921917,0.0 107.6307496,-6.8921635,0.0</coordinates>
            </LineString>
        </Placemark>
        <Placemark id="40335">
            <name>Jalan Jalaprang</name>
            <styleUrl>#40336</styleUrl>
            <LineString id="40334">
                <coordinates>107.6308502,-6.8964949,0.0 107.6310127,-6.8968597,0.0 107.6311889,-6.8972552,0.0 107.6314243,-6.8977836,0.0 107.6317478,-6.89851,0.0</coordinates>
            </LineString>
        </Placemark>
        <Placemark id="40339">
            <name>Jalan Rereng Wulung</name>
            <styleUrl>#40340</styleUrl>
            <LineString id="40338">
                <coordinates>107.6317301,-6.8960551,0.0 107.631581,-6.8961333,0.0 107.6312426,-6.8962996,0.0 107.6308502,-6.8964949,0.0</coordinates>
            </LineString>
        </Placemark>
        <Placemark id="40343">
            <name>Jalan Sido Mukti</name>
            <styleUrl>#40344</styleUrl>
            <LineString id="40342">
                <coordinates>107.6344448,-6.8929252,0.0 107.6342036,-6.8928823,0.0 107.6332768,-6.8927347,0.0 107.6328817,-6.8927122,0.0 107.6326771,-6.8927274,0.0 107.6324828,-6.8927497,0.0 107.6323067,-6.8927908,0.0 107.6318575,-6.8929135,0.0 107.6316632,-6.8929907,0.0 107.6315518,-6.8930317,0.0 107.6309681,-6.8933285,0.0 107.6305486,-6.8935333,0.0 107.6305331,-6.89354,0.0</coordinates>
            </LineString>
        </Placemark>
        <Placemark id="40347">
            <name>Jalan Rangga Gadang</name>
            <styleUrl>#40348</styleUrl>
            <LineString id="40346">
                <coordinates>107.6097888,-6.9026023,0.0 107.6090375,-6.9026143,0.0</coordinates>
            </LineString>
        </Placemark>
        <Placemark id="40351">
            <name>Jalan Kebon Jati</name>
            <styleUrl>#40352</styleUrl>
            <LineString id="40350">
                <coordinates>107.5910563,-6.9165402,0.0 107.5914598,-6.9165542,0.0 107.5917139,-6.916555,0.0 107.5918426,-6.9165549,0.0 107.5919002,-6.9165529,0.0 107.5922519,-6.9165451,0.0 107.5925365,-6.9165451,0.0 107.592779,-6.9165372,0.0 107.5933422,-6.9165053,0.0</coordinates>
            </LineString>
        </Placemark>
        <Placemark id="40355">
            <name>Jalan Surapati</name>
            <styleUrl>#40356</styleUrl>
            <LineString id="40354">
                <coordinates>107.6271231,-6.8994764,0.0 107.6271702,-6.8994872,0.0</coordinates>
            </LineString>
        </Placemark>
        <Placemark id="40359">
            <name>Jalan Ir. H. Djuanda</name>
            <styleUrl>#40360</styleUrl>
            <LineString id="40358">
                <coordinates>107.6258308,-6.8633515,0.0 107.6257288,-6.8633156,0.0 107.6254359,-6.863256,0.0 107.6253225,-6.8632383,0.0 107.6252469,-6.863233,0.0 107.62521,-6.8632302,0.0 107.6251572,-6.8632365,0.0 107.6251102,-6.8632411,0.0 107.6250315,-6.863261,0.0 107.6249591,-6.86329,0.0 107.6249041,-6.8633221,0.0 107.6248069,-6.8633788,0.0 107.6246534,-6.8634784,0.0 107.6245821,-6.8635247,0.0 107.6243344,-6.8637055,0.0 107.6242332,-6.8637903,0.0 107.6241992,-6.8638187,0.0 107.6241423,-6.8638781,0.0 107.624106,-6.8639295,0.0 107.624031,-6.8640482,0.0 107.6239435,-6.8642353,0.0 107.6238875,-6.8643595,0.0 107.623866,-6.8643922,0.0 107.6238634,-6.8643961,0.0 107.6238384,-6.8644167,0.0</coordinates>
            </LineString>
        </Placemark>
        <Placemark id="40363">
            <name>Jalan Soekarno-Hatta</name>
            <styleUrl>#40364</styleUrl>
            <LineString id="40362">
                <coordinates>107.5759595,-6.9304856,0.0 107.575943,-6.930415,0.0</coordinates>
            </LineString>
        </Placemark>
        <Placemark id="40367">
            <name>Jalan Surapati</name>
            <styleUrl>#40368</styleUrl>
            <LineString id="40366">
                <coordinates>107.6307582,-6.8992701,0.0 107.6308381,-6.8992037,0.0</coordinates>
            </LineString>
        </Placemark>
        <Placemark id="40371">
            <name>Jalan Surapati</name>
            <styleUrl>#40372</styleUrl>
            <LineString id="40370">
                <coordinates>107.6308381,-6.8992037,0.0 107.6311531,-6.8989603,0.0 107.6312287,-6.8989035,0.0 107.6312754,-6.8988684,0.0 107.6313109,-6.8988418,0.0 107.6313558,-6.8988028,0.0 107.631476,-6.8987124,0.0 107.6317478,-6.89851,0.0</coordinates>
            </LineString>
        </Placemark>
        <Placemark id="40375">
            <name>Route Segment</name>
            <styleUrl>#40376</styleUrl>
            <LineString id="40374">
                <coordinates>107.5852321,-6.9268357,0.0 107.585479,-6.9264387,0.0</coordinates>
            </LineString>
        </Placemark>
        <Placemark id="40379">
            <name>Jalan Arjuna</name>
            <styleUrl>#40380</styleUrl>
            <LineString id="40378">
                <coordinates>107.5890644,-6.914151,0.0 107.5890593,-6.9142395,0.0 107.5890483,-6.9143589,0.0 107.5890128,-6.9144475,0.0 107.5889396,-6.9145084,0.0</coordinates>
            </LineString>
        </Placemark>
        <Placemark id="40383">
            <name>Jalan Kebon Jati</name>
            <styleUrl>#40384</styleUrl>
            <LineString id="40382">
                <coordinates>107.5958592,-6.9164025,0.0 107.5959332,-6.916401,0.0</coordinates>
            </LineString>
        </Placemark>
        <Placemark id="40387">
            <name>Jalan Kebon Jati</name>
            <styleUrl>#40388</styleUrl>
            <LineString id="40386">
                <coordinates>107.5959332,-6.916401,0.0 107.5962286,-6.9163962,0.0 107.596307,-6.9163928,0.0 107.5963978,-6.9163903,0.0 107.596604,-6.9163856,0.0 107.5967032,-6.9163833,0.0 107.5971285,-6.9163682,0.0 107.597181,-6.9163642,0.0 107.59731,-6.9163601,0.0 107.5973651,-6.9163555,0.0 107.5974058,-6.9163469,0.0 107.5974798,-6.9163369,0.0 107.5980505,-6.9163289,0.0 107.5980926,-6.9163279,0.0 107.5982102,-6.9163251,0.0</coordinates>
            </LineString>
        </Placemark>
        <Placemark id="40391">
            <name>Jalan Ir. H. Djuanda</name>
            <styleUrl>#40392</styleUrl>
            <LineString id="40390">
                <coordinates>107.6210315,-6.8664175,0.0 107.6209571,-6.8666587,0.0 107.6209442,-6.866704,0.0</coordinates>
            </LineString>
        </Placemark>
        <Placemark id="40395">
            <name>Jalan Ir. H. Djuanda</name>
            <styleUrl>#40396</styleUrl>
            <LineString id="40394">
                <coordinates>107.6221956,-6.8652281,0.0 107.6219105,-6.8654294,0.0 107.6216825,-6.8655422,0.0 107.6214718,-6.8656235,0.0 107.6213783,-6.8656843,0.0 107.6213318,-6.8657216,0.0 107.6212724,-6.8657895,0.0 107.6212138,-6.8658951,0.0 107.6211687,-6.8659986,0.0 107.6211032,-6.8661989,0.0 107.6210315,-6.8664175,0.0</coordinates>
            </LineString>
        </Placemark>
        <Placemark id="40399">
            <name>Jalan Ir. H. Djuanda</name>
            <styleUrl>#40400</styleUrl>
            <LineString id="40398">
                <coordinates>107.6221956,-6.8652281,0.0 107.6223016,-6.8651835,0.0 107.6225451,-6.8650353,0.0 107.6230386,-6.8647116,0.0 107.6231641,-6.8646661,0.0 107.6233288,-6.8645823,0.0 107.6234072,-6.8645128,0.0 107.6234335,-6.8644926,0.0 107.6235083,-6.8644733,0.0 107.623615,-6.864456,0.0 107.6236863,-6.86445,0.0 107.6237802,-6.8644351,0.0 107.6238384,-6.8644167,0.0</coordinates>
            </LineString>
        </Placemark>
        <Placemark id="40403">
            <name>Jalan Terusan Pasir Koja</name>
            <styleUrl>#40404</styleUrl>
            <LineString id="40402">
                <coordinates>107.5840665,-6.9272726,0.0 107.5851074,-6.9268824,0.0 107.5852321,-6.9268357,0.0</coordinates>
            </LineString>
        </Placemark>
        <Placemark id="40407">
            <name>Jalan Terusan Pasir Koja</name>
            <styleUrl>#40408</styleUrl>
            <LineString id="40406">
                <coordinates>107.5818743,-6.9281378,0.0 107.5821705,-6.9280218,0.0 107.5840665,-6.9272726,0.0</coordinates>
            </LineString>
        </Placemark>
        <Placemark id="40411">
            <name>Jalan Terusan Pasir Koja</name>
            <styleUrl>#40412</styleUrl>
            <LineString id="40410">
                <coordinates>107.5816608,-6.928217,0.0 107.5818743,-6.9281378,0.0</coordinates>
            </LineString>
        </Placemark>
        <Placemark id="40415">
            <name>Jalan Jendral Sudirman</name>
            <styleUrl>#40416</styleUrl>
            <LineString id="40414">
                <coordinates>107.586377,-6.9187222,0.0 107.5863067,-6.9187088,0.0 107.5855207,-6.9186023,0.0 107.5853065,-6.918572,0.0 107.5850994,-6.9185436,0.0 107.5850179,-6.9185338,0.0</coordinates>
            </LineString>
        </Placemark>
        <Placemark id="40419">
            <name>Jalan HOS. Cokroaminoto</name>
            <styleUrl>#40420</styleUrl>
            <LineString id="40418">
                <coordinates>107.5980004,-6.9126452,0.0 107.5979867,-6.9123682,0.0 107.5979845,-6.9123202,0.0 107.5979805,-6.912262,0.0</coordinates>
            </LineString>
        </Placemark>
        <Placemark id="40423">
            <name>Jalan Surapati</name>
            <styleUrl>#40424</styleUrl>
            <LineString id="40422">
                <coordinates>107.6271702,-6.8994872,0.0 107.6272181,-6.8994982,0.0</coordinates>
            </LineString>
        </Placemark>
        <Placemark id="40427">
            <name>Jalan Pajajaran</name>
            <styleUrl>#40428</styleUrl>
            <LineString id="40426">
                <coordinates>107.5987941,-6.906746,0.0 107.5992067,-6.9068065,0.0 107.599567,-6.9068341,0.0</coordinates>
            </LineString>
        </Placemark>
        <Placemark id="40431">
            <name>Jalan Tamansari</name>
            <styleUrl>#40432</styleUrl>
            <LineString id="40430">
                <coordinates>107.6093542,-6.8987039,0.0 107.6093403,-6.8987437,0.0 107.6093287,-6.8987769,0.0 107.6093124,-6.8988238,0.0 107.6093049,-6.898862,0.0</coordinates>
            </LineString>
        </Placemark>
        <Placemark id="40435">
            <name>Jalan HOS. Cokroaminoto</name>
            <styleUrl>#40436</styleUrl>
            <LineString id="40434">
                <coordinates>107.5981201,-6.9145111,0.0 107.5981205,-6.9145443,0.0</coordinates>
            </LineString>
        </Placemark>
        <Placemark id="40439">
            <name>Jalan HOS. Cokroaminoto</name>
            <styleUrl>#40440</styleUrl>
            <LineString id="40438">
                <coordinates>107.5980911,-6.9146113,0.0 107.5980937,-6.9145881,0.0 107.5981205,-6.9145443,0.0</coordinates>
            </LineString>
        </Placemark>
        <Placemark id="40443">
            <name>Jalan Pajajaran</name>
            <styleUrl>#40444</styleUrl>
            <LineString id="40442">
                <coordinates>107.6043882,-6.9071529,0.0 107.604396,-6.9071341,0.0 107.6044099,-6.9071192,0.0 107.6044282,-6.9071102,0.0</coordinates>
            </LineString>
        </Placemark>
        <Placemark id="40447">
            <name>Jalan Surapati</name>
            <styleUrl>#40448</styleUrl>
            <LineString id="40446">
                <coordinates>107.6203167,-6.899282,0.0 107.6200546,-6.8992858,0.0 107.6199728,-6.8992862,0.0 107.6199187,-6.8992847,0.0</coordinates>
            </LineString>
        </Placemark>
        <Placemark id="40451">
            <name>Jalan Cikapayang</name>
            <styleUrl>#40452</styleUrl>
            <LineString id="40450">
                <coordinates>107.6122413,-6.8988516,0.0 107.6124765,-6.8988513,0.0 107.6125697,-6.8988512,0.0 107.6125995,-6.8988514,0.0 107.6127424,-6.8988496,0.0</coordinates>
            </LineString>
        </Placemark>
        <Placemark id="40455">
            <name>Jalan Cikapayang</name>
            <styleUrl>#40456</styleUrl>
            <LineString id="40454">
                <coordinates>107.612079,-6.8988384,0.0 107.6122413,-6.8988516,0.0</coordinates>
            </LineString>
        </Placemark>
        <Placemark id="40459">
            <name>Jalan Wastukancana</name>
            <styleUrl>#40460</styleUrl>
            <LineString id="40458">
                <coordinates>107.607556,-6.9054463,0.0 107.6075644,-6.9054686,0.0</coordinates>
            </LineString>
        </Placemark>
        <Placemark id="40463">
            <name>Jalan Ir. H. Djuanda</name>
            <styleUrl>#40464</styleUrl>
            <LineString id="40462">
                <coordinates>107.6209442,-6.866704,0.0 107.6209483,-6.8668113,0.0 107.6209351,-6.8668623,0.0</coordinates>
            </LineString>
        </Placemark>
        <Placemark id="40467">
            <name>Jalan Surapati</name>
            <styleUrl>#40468</styleUrl>
            <LineString id="40466">
                <coordinates>107.6128334,-6.8988469,0.0 107.6130623,-6.8988431,0.0 107.6131081,-6.8988419,0.0 107.6132841,-6.8988423,0.0</coordinates>
            </LineString>
        </Placemark>
        <Placemark id="40471">
            <name>Route Segment</name>
            <styleUrl>#40472</styleUrl>
            <LineString id="40470">
                <coordinates>107.575943,-6.930415,0.0 107.5760414,-6.9303848,0.0</coordinates>
            </LineString>
        </Placemark>
        <Placemark id="40475">
            <name>Jalan Jamika</name>
            <styleUrl>#40476</styleUrl>
            <LineString id="40474">
                <coordinates>107.5859557,-6.9219839,0.0 107.5859818,-6.9218157,0.0 107.5862673,-6.9201241,0.0</coordinates>
            </LineString>
        </Placemark>
        <Placemark id="40479">
            <name>Jalan Jamika</name>
            <styleUrl>#40480</styleUrl>
            <LineString id="40478">
                <coordinates>107.5858347,-6.9227005,0.0 107.5859169,-6.9222324,0.0</coordinates>
            </LineString>
        </Placemark>
        <Placemark id="40483">
            <name>Jalan Jamika</name>
            <styleUrl>#40484</styleUrl>
            <LineString id="40482">
                <coordinates>107.5859169,-6.9222324,0.0 107.5859557,-6.9219839,0.0</coordinates>
            </LineString>
        </Placemark>
        <Placemark id="40487">
            <name>Jalan Tamansari</name>
            <styleUrl>#40488</styleUrl>
            <LineString id="40486">
                <coordinates>107.609539,-6.8982797,0.0 107.6095278,-6.898317,0.0 107.6095258,-6.8983236,0.0 107.6093542,-6.8987039,0.0</coordinates>
            </LineString>
        </Placemark>
        <Placemark id="40491">
            <name>Jalan Cikondang</name>
            <styleUrl>#40492</styleUrl>
            <LineString id="40490">
                <coordinates>107.6307496,-6.8921635,0.0 107.6307475,-6.8921556,0.0 107.6306643,-6.8918391,0.0</coordinates>
            </LineString>
        </Placemark>
        <Placemark id="40495">
            <name>Jalan Ciroyom</name>
            <styleUrl>#40496</styleUrl>
            <LineString id="40494">
                <coordinates>107.5885486,-6.9141236,0.0 107.5884097,-6.9140226,0.0 107.5881793,-6.913895,0.0 107.5880643,-6.9138413,0.0 107.5878468,-6.9137585,0.0 107.5874395,-6.9135978,0.0 107.5873411,-6.91356,0.0 107.5872252,-6.9135056,0.0</coordinates>
            </LineString>
        </Placemark>
        <Placemark id="40499">
            <name>Jalan Wastukancana</name>
            <styleUrl>#40500</styleUrl>
            <LineString id="40498">
                <coordinates>107.6047378,-6.9043028,0.0 107.604907,-6.904268,0.0</coordinates>
            </LineString>
        </Placemark>
        <Placemark id="40503">
            <name>Jalan Wastukancana</name>
            <styleUrl>#40504</styleUrl>
            <LineString id="40502">
                <coordinates>107.6044854,-6.9043711,0.0 107.6045924,-6.9043527,0.0 107.6046179,-6.9043488,0.0 107.6047378,-6.9043028,0.0</coordinates>
            </LineString>
        </Placemark>
        <Placemark id="40507">
            <name>Jalan Wastukancana</name>
            <styleUrl>#40508</styleUrl>
            <LineString id="40506">
                <coordinates>107.6044157,-6.9044676,0.0 107.6044268,-6.9044278,0.0 107.6044511,-6.9043943,0.0 107.6044854,-6.9043711,0.0</coordinates>
            </LineString>
        </Placemark>
        <Placemark id="40511">
            <name>Jalan Cikapayang</name>
            <styleUrl>#40512</styleUrl>
            <LineString id="40510">
                <coordinates>107.6116278,-6.8987668,0.0 107.6117839,-6.898802,0.0 107.6120472,-6.8988327,0.0 107.612079,-6.8988384,0.0</coordinates>
            </LineString>
        </Placemark>
        <Placemark id="40515">
            <name>Jalan Tamansari</name>
            <styleUrl>#40516</styleUrl>
            <LineString id="40514">
                <coordinates>107.609463,-6.8995343,0.0 107.6094417,-6.8995178,0.0 107.6094265,-6.8994956,0.0 107.6094191,-6.8994698,0.0 107.60942,-6.899443,0.0 107.6094292,-6.8994158,0.0 107.6094334,-6.8994087,0.0 107.6094395,-6.8994003,0.0</coordinates>
            </LineString>
        </Placemark>
        <Placemark id="40519">
            <name>Jalan Tamansari</name>
            <styleUrl>#40520</styleUrl>
            <LineString id="40518">
                <coordinates>107.6093049,-6.898862,0.0 107.6093013,-6.8989051,0.0 107.6092963,-6.8989949,0.0 107.609301,-6.8990722,0.0 107.6093117,-6.8991401,0.0 107.6093337,-6.899255,0.0</coordinates>
            </LineString>
        </Placemark>
        <Placemark id="40523">
            <name>Jalan Tamansari</name>
            <styleUrl>#40524</styleUrl>
            <LineString id="40522">
                <coordinates>107.6093337,-6.899255,0.0 107.6093456,-6.8992955,0.0 107.6093737,-6.8993458,0.0 107.6094395,-6.8994003,0.0</coordinates>
            </LineString>
        </Placemark>
        <Placemark id="40527">
            <name>Jalan Wastukancana</name>
            <styleUrl>#40528</styleUrl>
            <LineString id="40526">
                <coordinates>107.6074587,-6.9052269,0.0 107.607556,-6.9054463,0.0</coordinates>
            </LineString>
        </Placemark>
        <Placemark id="40531">
            <name>Jalan HOS. Cokroaminoto</name>
            <styleUrl>#40532</styleUrl>
            <LineString id="40530">
                <coordinates>107.5980758,-6.9134531,0.0 107.5981284,-6.913989,0.0 107.5981313,-6.9140657,0.0 107.5981313,-6.9141206,0.0</coordinates>
            </LineString>
        </Placemark>
        <Placemark id="40535">
            <name>Jalan HOS. Cokroaminoto</name>
            <styleUrl>#40536</styleUrl>
            <LineString id="40534">
                <coordinates>107.5980724,-6.9134153,0.0 107.5980758,-6.9134531,0.0</coordinates>
            </LineString>
        </Placemark>
        <Placemark id="40539">
            <name>Jalan HOS. Cokroaminoto</name>
            <styleUrl>#40540</styleUrl>
            <LineString id="40538">
                <coordinates>107.5980724,-6.9134153,0.0 107.5980457,-6.9133719,0.0 107.5980366,-6.9133217,0.0 107.598033,-6.9132616,0.0</coordinates>
            </LineString>
        </Placemark>
        <Placemark id="40543">
            <name>Jalan HOS. Cokroaminoto</name>
            <styleUrl>#40544</styleUrl>
            <LineString id="40542">
                <coordinates>107.598033,-6.9132616,0.0 107.5980296,-6.9131529,0.0</coordinates>
            </LineString>
        </Placemark>
        <Placemark id="40547">
            <name>Jalan Kebon Jati</name>
            <styleUrl>#40548</styleUrl>
            <LineString id="40546">
                <coordinates>107.5904668,-6.9165055,0.0 107.5910563,-6.9165402,0.0</coordinates>
            </LineString>
        </Placemark>
        <Placemark id="40551">
            <name>Jalan Cikapayang</name>
            <styleUrl>#40552</styleUrl>
            <LineString id="40550">
                <coordinates>107.6095612,-6.898037,0.0 107.6096209,-6.8980501,0.0 107.6096733,-6.898062,0.0</coordinates>
            </LineString>
        </Placemark>
        <Placemark id="40555">
            <name>Jalan Wastukancana</name>
            <styleUrl>#40556</styleUrl>
            <LineString id="40554">
                <coordinates>107.6076853,-6.905845,0.0 107.6077246,-6.9060495,0.0</coordinates>
            </LineString>
        </Placemark>
        <Placemark id="40559">
            <name>Jalan Surapati</name>
            <styleUrl>#40560</styleUrl>
            <LineString id="40558">
                <coordinates>107.6223481,-6.8992387,0.0 107.6222912,-6.89924,0.0 107.6219809,-6.8992472,0.0 107.621918,-6.8992487,0.0 107.6217223,-6.8992532,0.0 107.6214704,-6.899259,0.0 107.6211738,-6.8992659,0.0 107.6211439,-6.8992666,0.0 107.6209968,-6.89927,0.0 107.6208185,-6.8992742,0.0 107.6207835,-6.8992747,0.0 107.6206166,-6.8992773,0.0 107.6204436,-6.89928,0.0 107.6203701,-6.8992825,0.0 107.6203167,-6.899282,0.0</coordinates>
            </LineString>
        </Placemark>
        <Placemark id="40563">
            <name>Jalan Wastukancana</name>
            <styleUrl>#40564</styleUrl>
            <LineString id="40562">
                <coordinates>107.6070138,-6.9046,0.0 107.6071411,-6.9047305,0.0</coordinates>
            </LineString>
        </Placemark>
        <Placemark id="40567">
            <name>Jalan Wastukancana</name>
            <styleUrl>#40568</styleUrl>
            <LineString id="40566">
                <coordinates>107.6071411,-6.9047305,0.0 107.607265,-6.9048943,0.0 107.607283,-6.9049195,0.0 107.6074067,-6.905129,0.0 107.6074587,-6.9052269,0.0</coordinates>
            </LineString>
        </Placemark>
        <Placemark id="40571">
            <name>Jalan Soekarno-Hatta</name>
            <styleUrl>#40572</styleUrl>
            <LineString id="40570">
                <coordinates>107.576479,-6.932218,0.0 107.5764599,-6.9321597,0.0 107.576348,-6.931824,0.0 107.5762905,-6.9316298,0.0 107.5761656,-6.9312071,0.0 107.5760418,-6.9307684,0.0</coordinates>
            </LineString>
        </Placemark>
        <Placemark id="40575">
            <name>Jalan Soekarno-Hatta</name>
            <styleUrl>#40576</styleUrl>
            <LineString id="40574">
                <coordinates>107.5760418,-6.9307684,0.0 107.5759903,-6.9305942,0.0 107.5759805,-6.9305597,0.0 107.5759595,-6.9304856,0.0</coordinates>
            </LineString>
        </Placemark>
        <Placemark id="40579">
            <name>Jalan Terusan Pasir Koja</name>
            <styleUrl>#40580</styleUrl>
            <LineString id="40578">
                <coordinates>107.5760414,-6.9303848,0.0 107.5761177,-6.9303559,0.0 107.5763485,-6.9302683,0.0</coordinates>
            </LineString>
        </Placemark>
        <Placemark id="40583">
            <name>Jalan Wastukancana</name>
            <styleUrl>#40584</styleUrl>
            <LineString id="40582">
                <coordinates>107.6069187,-6.9045127,0.0 107.6070138,-6.9046,0.0</coordinates>
            </LineString>
        </Placemark>
        <Placemark id="40587">
            <name>Jalan Wastukancana</name>
            <styleUrl>#40588</styleUrl>
            <LineString id="40586">
                <coordinates>107.6065841,-6.9042698,0.0 107.6067222,-6.904359,0.0 107.6068568,-6.9044553,0.0 107.6069187,-6.9045127,0.0</coordinates>
            </LineString>
        </Placemark>
        <Placemark id="40591">
            <name>Jalan Ciroyom</name>
            <styleUrl>#40592</styleUrl>
            <LineString id="40590">
                <coordinates>107.5867539,-6.9131493,0.0 107.5869544,-6.9132359,0.0 107.5872782,-6.9133614,0.0 107.5877361,-6.9135372,0.0 107.5883921,-6.9137814,0.0 107.5889327,-6.9139693,0.0 107.5890718,-6.914024,0.0</coordinates>
            </LineString>
        </Placemark>
        <Placemark id="40595">
            <name>Jalan Ciroyom</name>
            <styleUrl>#40596</styleUrl>
            <LineString id="40594">
                <coordinates>107.5872252,-6.9135056,0.0 107.5868064,-6.9132825,0.0 107.5867121,-6.9132166,0.0</coordinates>
            </LineString>
        </Placemark>
        <Placemark id="40599">
            <name>Route Segment</name>
            <styleUrl>#40600</styleUrl>
            <LineString id="40598">
                <coordinates>107.5860843,-6.9128486,0.0 107.5860597,-6.9128206,0.0 107.5860543,-6.912807,0.0 107.586055,-6.9127863,0.0 107.5860709,-6.9127681,0.0 107.5860877,-6.9127622,0.0 107.586119,-6.9127619,0.0</coordinates>
            </LineString>
        </Placemark>
        <Placemark id="40603">
            <name>Jalan Ciroyom Timur</name>
            <styleUrl>#40604</styleUrl>
            <LineString id="40602">
                <coordinates>107.5883109,-6.9143017,0.0 107.5885486,-6.9141236,0.0</coordinates>
            </LineString>
        </Placemark>
        <Placemark id="40607">
            <name>Jalan Ciroyom</name>
            <styleUrl>#40608</styleUrl>
            <LineString id="40606">
                <coordinates>107.586119,-6.9127619,0.0 107.5867539,-6.9131493,0.0</coordinates>
            </LineString>
        </Placemark>
        <Placemark id="40611">
            <name>Jalan Surapati</name>
            <styleUrl>#40612</styleUrl>
            <LineString id="40610">
                <coordinates>107.6270152,-6.8994551,0.0 107.6266471,-6.8993704,0.0 107.6263009,-6.8992772,0.0 107.6261407,-6.8992562,0.0 107.6259835,-6.8992435,0.0 107.6249087,-6.8992398,0.0 107.6247134,-6.899237,0.0 107.6246032,-6.8992359,0.0 107.6245252,-6.8992351,0.0 107.6244668,-6.8992345,0.0 107.6240029,-6.8992263,0.0 107.6238928,-6.8992271,0.0 107.623733,-6.8992253,0.0 107.623673,-6.8992256,0.0 107.6236214,-6.8992259,0.0 107.6234921,-6.8992266,0.0 107.6232693,-6.8992279,0.0 107.6232237,-6.8992281,0.0 107.6228751,-6.89923,0.0 107.6227599,-6.8992307,0.0 107.6226727,-6.8992312,0.0 107.6225131,-6.8992349,0.0 107.6224238,-6.899237,0.0 107.6223481,-6.8992387,0.0</coordinates>
            </LineString>
        </Placemark>
        <Placemark id="40615">
            <name>Terminal Dago</name>
            <styleUrl>#40616</styleUrl>
            <LineString id="40614">
                <coordinates>107.6209351,-6.8668623,0.0 107.6212402,-6.8669638,0.0 107.6212512,-6.8669765,0.0 107.6212498,-6.8669935,0.0 107.6212119,-6.8670778,0.0</coordinates>
            </LineString>
        </Placemark>
        <Placemark id="40619">
            <name>Jalan Ciroyom</name>
            <styleUrl>#40620</styleUrl>
            <LineString id="40618">
                <coordinates>107.5867121,-6.9132166,0.0 107.586425,-6.9130541,0.0</coordinates>
            </LineString>
        </Placemark>
        <Placemark id="40623">
            <name>Jalan Ciroyom</name>
            <styleUrl>#40624</styleUrl>
            <LineString id="40622">
                <coordinates>107.586425,-6.9130541,0.0 107.5860843,-6.9128486,0.0</coordinates>
            </LineString>
        </Placemark>
        <Placemark id="40627">
            <name>Jalan Pajajaran</name>
            <styleUrl>#40628</styleUrl>
            <LineString id="40626">
                <coordinates>107.599567,-6.9068341,0.0 107.5998642,-6.9068525,0.0</coordinates>
            </LineString>
        </Placemark>
        <Placemark id="40631">
            <name>Jalan Pajajaran</name>
            <styleUrl>#40632</styleUrl>
            <LineString id="40630">
                <coordinates>107.5998642,-6.9068525,0.0 107.6000477,-6.9068645,0.0 107.6001281,-6.9068699,0.0 107.6004436,-6.9068911,0.0 107.6006155,-6.9069026,0.0</coordinates>
            </LineString>
        </Placemark>
        <Placemark id="40635">
            <name>Jalan Pajajaran</name>
            <styleUrl>#40636</styleUrl>
            <LineString id="40634">
                <coordinates>107.6006155,-6.9069026,0.0 107.6008643,-6.9069205,0.0</coordinates>
            </LineString>
        </Placemark>
        <Placemark id="40639">
            <name>Jalan Pajajaran</name>
            <styleUrl>#40640</styleUrl>
            <LineString id="40638">
                <coordinates>107.6008643,-6.9069205,0.0 107.6009527,-6.906927,0.0 107.6011922,-6.9069453,0.0</coordinates>
            </LineString>
        </Placemark>
        <Placemark id="40643">
            <name>Jalan Pajajaran</name>
            <styleUrl>#40644</styleUrl>
            <LineString id="40642">
                <coordinates>107.6011922,-6.9069453,0.0 107.6012851,-6.9069524,0.0 107.601582,-6.9069752,0.0</coordinates>
            </LineString>
        </Placemark>
        <Placemark id="40647">
            <name>Jalan Raya Golf</name>
            <styleUrl>#40648</styleUrl>
            <LineString id="40646">
                <coordinates>107.6262609,-6.865122,0.0 107.6262916,-6.8650403,0.0 107.6263111,-6.8649746,0.0 107.6263279,-6.8649158,0.0 107.6263417,-6.8648466,0.0 107.626382,-6.8646377,0.0 107.6264262,-6.8642856,0.0 107.626435,-6.8642052,0.0 107.6264343,-6.8641271,0.0 107.6264245,-6.8640062,0.0 107.6264061,-6.8639,0.0 107.6263699,-6.8638378,0.0 107.6263361,-6.8637902,0.0 107.6261766,-6.8636324,0.0 107.6259528,-6.8634381,0.0 107.6258308,-6.8633515,0.0</coordinates>
            </LineString>
        </Placemark>
        <Placemark id="40651">
            <name>Jalan Arjuna</name>
            <styleUrl>#40652</styleUrl>
            <LineString id="40650">
                <coordinates>107.5890718,-6.914024,0.0 107.5890644,-6.914151,0.0</coordinates>
            </LineString>
        </Placemark>
        <Placemark id="40655">
            <name>Jalan Andir</name>
            <styleUrl>#40656</styleUrl>
            <LineString id="40654">
                <coordinates>107.5851282,-6.9166993,0.0 107.5851369,-6.916573,0.0</coordinates>
            </LineString>
        </Placemark>
        <Placemark id="40659">
            <name>Jalan Andir</name>
            <styleUrl>#40660</styleUrl>
            <LineString id="40658">
                <coordinates>107.5851391,-6.9165409,0.0 107.5851506,-6.9163738,0.0 107.5851863,-6.9159903,0.0 107.5852149,-6.9157051,0.0</coordinates>
            </LineString>
        </Placemark>
        <Placemark id="40663">
            <name>Jalan Andir</name>
            <styleUrl>#40664</styleUrl>
            <LineString id="40662">
                <coordinates>107.5851369,-6.916573,0.0 107.5851391,-6.9165409,0.0</coordinates>
            </LineString>
        </Placemark>
        <Placemark id="40667">
            <name>Jalan Andir</name>
            <styleUrl>#40668</styleUrl>
            <LineString id="40666">
                <coordinates>107.5851261,-6.9168468,0.0 107.5851282,-6.9166993,0.0</coordinates>
            </LineString>
        </Placemark>
        <Placemark id="40671">
            <name>Jalan Andir</name>
            <styleUrl>#40672</styleUrl>
            <LineString id="40670">
                <coordinates>107.585125,-6.9169009,0.0 107.5851261,-6.9168468,0.0</coordinates>
            </LineString>
        </Placemark>
    </Document>
</kml>
