<?xml version="1.0" encoding="UTF-8"?>
<kml xmlns="http://www.opengis.net/kml/2.2" xmlns:gx="http://www.google.com/kml/ext/2.2">
    <Document id="41347">
        <Style id="41353">
            <IconStyle id="41354">
                <colorMode>normal</colorMode>
                <scale>1</scale>
                <heading>0</heading>
                <Icon id="41355">
                    <href>http://maps.google.com/mapfiles/kml/pushpin/ylw-pushpin.png</href>
                </Icon>
            </IconStyle>
        </Style>
        <Style id="41358">
            <IconStyle id="41359">
                <colorMode>normal</colorMode>
                <scale>1</scale>
                <heading>0</heading>
                <Icon id="41360">
                    <href>http://maps.google.com/mapfiles/kml/pushpin/ylw-pushpin.png</href>
                </Icon>
            </IconStyle>
        </Style>
        <Style id="41363">
            <LineStyle id="41364">
                <color>ff1D94F7</color>
                <colorMode>normal</colorMode>
                <width>4</width>
            </LineStyle>
        </Style>
        <Style id="41367">
            <LineStyle id="41368">
                <color>ff1D94F7</color>
                <colorMode>normal</colorMode>
                <width>4</width>
            </LineStyle>
        </Style>
        <Style id="41371">
            <LineStyle id="41372">
                <color>ff1D94F7</color>
                <colorMode>normal</colorMode>
                <width>4</width>
            </LineStyle>
        </Style>
        <Style id="41375">
            <LineStyle id="41376">
                <color>ff1D94F7</color>
                <colorMode>normal</colorMode>
                <width>4</width>
            </LineStyle>
        </Style>
        <Style id="41379">
            <LineStyle id="41380">
                <color>ff1D94F7</color>
                <colorMode>normal</colorMode>
                <width>4</width>
            </LineStyle>
        </Style>
        <Style id="41383">
            <LineStyle id="41384">
                <color>ff1D94F7</color>
                <colorMode>normal</colorMode>
                <width>4</width>
            </LineStyle>
        </Style>
        <Style id="41387">
            <LineStyle id="41388">
                <color>ff1D94F7</color>
                <colorMode>normal</colorMode>
                <width>4</width>
            </LineStyle>
        </Style>
        <Style id="41391">
            <LineStyle id="41392">
                <color>ff1D94F7</color>
                <colorMode>normal</colorMode>
                <width>4</width>
            </LineStyle>
        </Style>
        <Style id="41395">
            <LineStyle id="41396">
                <color>ff1D94F7</color>
                <colorMode>normal</colorMode>
                <width>4</width>
            </LineStyle>
        </Style>
        <Style id="41399">
            <LineStyle id="41400">
                <color>ff1D94F7</color>
                <colorMode>normal</colorMode>
                <width>4</width>
            </LineStyle>
        </Style>
        <Style id="41403">
            <LineStyle id="41404">
                <color>ff1D94F7</color>
                <colorMode>normal</colorMode>
                <width>4</width>
            </LineStyle>
        </Style>
        <Style id="41407">
            <LineStyle id="41408">
                <color>ff1D94F7</color>
                <colorMode>normal</colorMode>
                <width>4</width>
            </LineStyle>
        </Style>
        <Style id="41411">
            <LineStyle id="41412">
                <color>ff1D94F7</color>
                <colorMode>normal</colorMode>
                <width>4</width>
            </LineStyle>
        </Style>
        <Style id="41415">
            <LineStyle id="41416">
                <color>ff1D94F7</color>
                <colorMode>normal</colorMode>
                <width>4</width>
            </LineStyle>
        </Style>
        <Style id="41419">
            <LineStyle id="41420">
                <color>ff1D94F7</color>
                <colorMode>normal</colorMode>
                <width>4</width>
            </LineStyle>
        </Style>
        <Style id="41423">
            <LineStyle id="41424">
                <color>ff1D94F7</color>
                <colorMode>normal</colorMode>
                <width>4</width>
            </LineStyle>
        </Style>
        <Style id="41427">
            <LineStyle id="41428">
                <color>ff1D94F7</color>
                <colorMode>normal</colorMode>
                <width>4</width>
            </LineStyle>
        </Style>
        <Style id="41431">
            <LineStyle id="41432">
                <color>ff1D94F7</color>
                <colorMode>normal</colorMode>
                <width>4</width>
            </LineStyle>
        </Style>
        <Style id="41435">
            <LineStyle id="41436">
                <color>ff1D94F7</color>
                <colorMode>normal</colorMode>
                <width>4</width>
            </LineStyle>
        </Style>
        <Style id="41439">
            <LineStyle id="41440">
                <color>ff1D94F7</color>
                <colorMode>normal</colorMode>
                <width>4</width>
            </LineStyle>
        </Style>
        <Style id="41443">
            <LineStyle id="41444">
                <color>ff1D94F7</color>
                <colorMode>normal</colorMode>
                <width>4</width>
            </LineStyle>
        </Style>
        <Style id="41447">
            <LineStyle id="41448">
                <color>ff1D94F7</color>
                <colorMode>normal</colorMode>
                <width>4</width>
            </LineStyle>
        </Style>
        <Style id="41451">
            <LineStyle id="41452">
                <color>ff1D94F7</color>
                <colorMode>normal</colorMode>
                <width>4</width>
            </LineStyle>
        </Style>
        <Style id="41455">
            <LineStyle id="41456">
                <color>ff1D94F7</color>
                <colorMode>normal</colorMode>
                <width>4</width>
            </LineStyle>
        </Style>
        <Style id="41459">
            <LineStyle id="41460">
                <color>ff1D94F7</color>
                <colorMode>normal</colorMode>
                <width>4</width>
            </LineStyle>
        </Style>
        <Style id="41463">
            <LineStyle id="41464">
                <color>ff1D94F7</color>
                <colorMode>normal</colorMode>
                <width>4</width>
            </LineStyle>
        </Style>
        <Style id="41467">
            <LineStyle id="41468">
                <color>ff1D94F7</color>
                <colorMode>normal</colorMode>
                <width>4</width>
            </LineStyle>
        </Style>
        <Style id="41471">
            <LineStyle id="41472">
                <color>ff1D94F7</color>
                <colorMode>normal</colorMode>
                <width>4</width>
            </LineStyle>
        </Style>
        <Style id="41475">
            <LineStyle id="41476">
                <color>ff1D94F7</color>
                <colorMode>normal</colorMode>
                <width>4</width>
            </LineStyle>
        </Style>
        <Style id="41479">
            <LineStyle id="41480">
                <color>ff1D94F7</color>
                <colorMode>normal</colorMode>
                <width>4</width>
            </LineStyle>
        </Style>
        <Style id="41483">
            <LineStyle id="41484">
                <color>ff1D94F7</color>
                <colorMode>normal</colorMode>
                <width>4</width>
            </LineStyle>
        </Style>
        <Style id="41487">
            <LineStyle id="41488">
                <color>ff1D94F7</color>
                <colorMode>normal</colorMode>
                <width>4</width>
            </LineStyle>
        </Style>
        <Style id="41491">
            <LineStyle id="41492">
                <color>ff1D94F7</color>
                <colorMode>normal</colorMode>
                <width>4</width>
            </LineStyle>
        </Style>
        <Style id="41495">
            <LineStyle id="41496">
                <color>ff1D94F7</color>
                <colorMode>normal</colorMode>
                <width>4</width>
            </LineStyle>
        </Style>
        <Style id="41499">
            <LineStyle id="41500">
                <color>ff1D94F7</color>
                <colorMode>normal</colorMode>
                <width>4</width>
            </LineStyle>
        </Style>
        <Style id="41503">
            <LineStyle id="41504">
                <color>ff1D94F7</color>
                <colorMode>normal</colorMode>
                <width>4</width>
            </LineStyle>
        </Style>
        <Style id="41507">
            <LineStyle id="41508">
                <color>ff1D94F7</color>
                <colorMode>normal</colorMode>
                <width>4</width>
            </LineStyle>
        </Style>
        <Style id="41511">
            <LineStyle id="41512">
                <color>ff1D94F7</color>
                <colorMode>normal</colorMode>
                <width>4</width>
            </LineStyle>
        </Style>
        <Style id="41515">
            <LineStyle id="41516">
                <color>ff1D94F7</color>
                <colorMode>normal</colorMode>
                <width>4</width>
            </LineStyle>
        </Style>
        <Style id="41519">
            <LineStyle id="41520">
                <color>ff1D94F7</color>
                <colorMode>normal</colorMode>
                <width>4</width>
            </LineStyle>
        </Style>
        <Style id="41523">
            <LineStyle id="41524">
                <color>ff1D94F7</color>
                <colorMode>normal</colorMode>
                <width>4</width>
            </LineStyle>
        </Style>
        <Style id="41527">
            <LineStyle id="41528">
                <color>ff1D94F7</color>
                <colorMode>normal</colorMode>
                <width>4</width>
            </LineStyle>
        </Style>
        <Style id="41531">
            <LineStyle id="41532">
                <color>ff1D94F7</color>
                <colorMode>normal</colorMode>
                <width>4</width>
            </LineStyle>
        </Style>
        <Style id="41535">
            <LineStyle id="41536">
                <color>ff1D94F7</color>
                <colorMode>normal</colorMode>
                <width>4</width>
            </LineStyle>
        </Style>
        <Style id="41539">
            <LineStyle id="41540">
                <color>ff1D94F7</color>
                <colorMode>normal</colorMode>
                <width>4</width>
            </LineStyle>
        </Style>
        <Style id="41543">
            <LineStyle id="41544">
                <color>ff1D94F7</color>
                <colorMode>normal</colorMode>
                <width>4</width>
            </LineStyle>
        </Style>
        <Style id="41547">
            <LineStyle id="41548">
                <color>ff1D94F7</color>
                <colorMode>normal</colorMode>
                <width>4</width>
            </LineStyle>
        </Style>
        <Style id="41551">
            <LineStyle id="41552">
                <color>ff1D94F7</color>
                <colorMode>normal</colorMode>
                <width>4</width>
            </LineStyle>
        </Style>
        <Style id="41555">
            <LineStyle id="41556">
                <color>ff1D94F7</color>
                <colorMode>normal</colorMode>
                <width>4</width>
            </LineStyle>
        </Style>
        <Style id="41559">
            <LineStyle id="41560">
                <color>ff1D94F7</color>
                <colorMode>normal</colorMode>
                <width>4</width>
            </LineStyle>
        </Style>
        <Style id="41563">
            <LineStyle id="41564">
                <color>ff1D94F7</color>
                <colorMode>normal</colorMode>
                <width>4</width>
            </LineStyle>
        </Style>
        <Style id="41567">
            <LineStyle id="41568">
                <color>ff1D94F7</color>
                <colorMode>normal</colorMode>
                <width>4</width>
            </LineStyle>
        </Style>
        <Style id="41571">
            <LineStyle id="41572">
                <color>ff1D94F7</color>
                <colorMode>normal</colorMode>
                <width>4</width>
            </LineStyle>
        </Style>
        <Style id="41575">
            <LineStyle id="41576">
                <color>ff1D94F7</color>
                <colorMode>normal</colorMode>
                <width>4</width>
            </LineStyle>
        </Style>
        <Style id="41579">
            <LineStyle id="41580">
                <color>ff1D94F7</color>
                <colorMode>normal</colorMode>
                <width>4</width>
            </LineStyle>
        </Style>
        <Style id="41583">
            <LineStyle id="41584">
                <color>ff1D94F7</color>
                <colorMode>normal</colorMode>
                <width>4</width>
            </LineStyle>
        </Style>
        <Style id="41587">
            <LineStyle id="41588">
                <color>ff1D94F7</color>
                <colorMode>normal</colorMode>
                <width>4</width>
            </LineStyle>
        </Style>
        <Style id="41591">
            <LineStyle id="41592">
                <color>ff1D94F7</color>
                <colorMode>normal</colorMode>
                <width>4</width>
            </LineStyle>
        </Style>
        <Style id="41595">
            <LineStyle id="41596">
                <color>ff1D94F7</color>
                <colorMode>normal</colorMode>
                <width>4</width>
            </LineStyle>
        </Style>
        <Style id="41599">
            <LineStyle id="41600">
                <color>ff1D94F7</color>
                <colorMode>normal</colorMode>
                <width>4</width>
            </LineStyle>
        </Style>
        <Style id="41603">
            <LineStyle id="41604">
                <color>ff1D94F7</color>
                <colorMode>normal</colorMode>
                <width>4</width>
            </LineStyle>
        </Style>
        <Style id="41607">
            <LineStyle id="41608">
                <color>ff1D94F7</color>
                <colorMode>normal</colorMode>
                <width>4</width>
            </LineStyle>
        </Style>
        <Style id="41611">
            <LineStyle id="41612">
                <color>ff1D94F7</color>
                <colorMode>normal</colorMode>
                <width>4</width>
            </LineStyle>
        </Style>
        <Style id="41615">
            <LineStyle id="41616">
                <color>ff1D94F7</color>
                <colorMode>normal</colorMode>
                <width>4</width>
            </LineStyle>
        </Style>
        <Style id="41619">
            <LineStyle id="41620">
                <color>ff1D94F7</color>
                <colorMode>normal</colorMode>
                <width>4</width>
            </LineStyle>
        </Style>
        <Style id="41623">
            <LineStyle id="41624">
                <color>ff1D94F7</color>
                <colorMode>normal</colorMode>
                <width>4</width>
            </LineStyle>
        </Style>
        <Style id="41627">
            <LineStyle id="41628">
                <color>ff1D94F7</color>
                <colorMode>normal</colorMode>
                <width>4</width>
            </LineStyle>
        </Style>
        <Style id="41631">
            <LineStyle id="41632">
                <color>ff1D94F7</color>
                <colorMode>normal</colorMode>
                <width>4</width>
            </LineStyle>
        </Style>
        <Style id="41635">
            <LineStyle id="41636">
                <color>ff1D94F7</color>
                <colorMode>normal</colorMode>
                <width>4</width>
            </LineStyle>
        </Style>
        <Style id="41639">
            <LineStyle id="41640">
                <color>ff1D94F7</color>
                <colorMode>normal</colorMode>
                <width>4</width>
            </LineStyle>
        </Style>
        <Style id="41643">
            <LineStyle id="41644">
                <color>ff1D94F7</color>
                <colorMode>normal</colorMode>
                <width>4</width>
            </LineStyle>
        </Style>
        <Style id="41647">
            <LineStyle id="41648">
                <color>ff1D94F7</color>
                <colorMode>normal</colorMode>
                <width>4</width>
            </LineStyle>
        </Style>
        <Style id="41651">
            <LineStyle id="41652">
                <color>ff1D94F7</color>
                <colorMode>normal</colorMode>
                <width>4</width>
            </LineStyle>
        </Style>
        <Style id="41655">
            <LineStyle id="41656">
                <color>ff1D94F7</color>
                <colorMode>normal</colorMode>
                <width>4</width>
            </LineStyle>
        </Style>
        <Style id="41659">
            <LineStyle id="41660">
                <color>ff1D94F7</color>
                <colorMode>normal</colorMode>
                <width>4</width>
            </LineStyle>
        </Style>
        <Style id="41663">
            <LineStyle id="41664">
                <color>ff1D94F7</color>
                <colorMode>normal</colorMode>
                <width>4</width>
            </LineStyle>
        </Style>
        <Style id="41667">
            <LineStyle id="41668">
                <color>ff1D94F7</color>
                <colorMode>normal</colorMode>
                <width>4</width>
            </LineStyle>
        </Style>
        <Style id="41671">
            <LineStyle id="41672">
                <color>ff1D94F7</color>
                <colorMode>normal</colorMode>
                <width>4</width>
            </LineStyle>
        </Style>
        <Style id="41675">
            <LineStyle id="41676">
                <color>ff1D94F7</color>
                <colorMode>normal</colorMode>
                <width>4</width>
            </LineStyle>
        </Style>
        <Style id="41679">
            <LineStyle id="41680">
                <color>ff1D94F7</color>
                <colorMode>normal</colorMode>
                <width>4</width>
            </LineStyle>
        </Style>
        <Style id="41683">
            <LineStyle id="41684">
                <color>ff1D94F7</color>
                <colorMode>normal</colorMode>
                <width>4</width>
            </LineStyle>
        </Style>
        <Style id="41687">
            <LineStyle id="41688">
                <color>ff1D94F7</color>
                <colorMode>normal</colorMode>
                <width>4</width>
            </LineStyle>
        </Style>
        <Style id="41691">
            <LineStyle id="41692">
                <color>ff1D94F7</color>
                <colorMode>normal</colorMode>
                <width>4</width>
            </LineStyle>
        </Style>
        <Style id="41695">
            <LineStyle id="41696">
                <color>ff1D94F7</color>
                <colorMode>normal</colorMode>
                <width>4</width>
            </LineStyle>
        </Style>
        <Style id="41699">
            <LineStyle id="41700">
                <color>ff1D94F7</color>
                <colorMode>normal</colorMode>
                <width>4</width>
            </LineStyle>
        </Style>
        <Style id="41703">
            <LineStyle id="41704">
                <color>ff1D94F7</color>
                <colorMode>normal</colorMode>
                <width>4</width>
            </LineStyle>
        </Style>
        <Style id="41707">
            <LineStyle id="41708">
                <color>ff1D94F7</color>
                <colorMode>normal</colorMode>
                <width>4</width>
            </LineStyle>
        </Style>
        <Style id="41711">
            <LineStyle id="41712">
                <color>ff1D94F7</color>
                <colorMode>normal</colorMode>
                <width>4</width>
            </LineStyle>
        </Style>
        <Style id="41715">
            <LineStyle id="41716">
                <color>ff1D94F7</color>
                <colorMode>normal</colorMode>
                <width>4</width>
            </LineStyle>
        </Style>
        <Style id="41719">
            <LineStyle id="41720">
                <color>ff1D94F7</color>
                <colorMode>normal</colorMode>
                <width>4</width>
            </LineStyle>
        </Style>
        <Style id="41723">
            <LineStyle id="41724">
                <color>ff1D94F7</color>
                <colorMode>normal</colorMode>
                <width>4</width>
            </LineStyle>
        </Style>
        <Style id="41727">
            <LineStyle id="41728">
                <color>ff1D94F7</color>
                <colorMode>normal</colorMode>
                <width>4</width>
            </LineStyle>
        </Style>
        <Style id="41731">
            <LineStyle id="41732">
                <color>ff1D94F7</color>
                <colorMode>normal</colorMode>
                <width>4</width>
            </LineStyle>
        </Style>
        <Style id="41735">
            <LineStyle id="41736">
                <color>ff1D94F7</color>
                <colorMode>normal</colorMode>
                <width>4</width>
            </LineStyle>
        </Style>
        <Style id="41739">
            <LineStyle id="41740">
                <color>ff1D94F7</color>
                <colorMode>normal</colorMode>
                <width>4</width>
            </LineStyle>
        </Style>
        <Style id="41743">
            <LineStyle id="41744">
                <color>ff1D94F7</color>
                <colorMode>normal</colorMode>
                <width>4</width>
            </LineStyle>
        </Style>
        <Style id="41747">
            <LineStyle id="41748">
                <color>ff1D94F7</color>
                <colorMode>normal</colorMode>
                <width>4</width>
            </LineStyle>
        </Style>
        <Style id="41751">
            <LineStyle id="41752">
                <color>ff1D94F7</color>
                <colorMode>normal</colorMode>
                <width>4</width>
            </LineStyle>
        </Style>
        <Style id="41755">
            <LineStyle id="41756">
                <color>ff1D94F7</color>
                <colorMode>normal</colorMode>
                <width>4</width>
            </LineStyle>
        </Style>
        <Style id="41759">
            <LineStyle id="41760">
                <color>ff1D94F7</color>
                <colorMode>normal</colorMode>
                <width>4</width>
            </LineStyle>
        </Style>
        <Style id="41763">
            <LineStyle id="41764">
                <color>ff1D94F7</color>
                <colorMode>normal</colorMode>
                <width>4</width>
            </LineStyle>
        </Style>
        <Style id="41767">
            <LineStyle id="41768">
                <color>ff1D94F7</color>
                <colorMode>normal</colorMode>
                <width>4</width>
            </LineStyle>
        </Style>
        <Style id="41771">
            <LineStyle id="41772">
                <color>ff1D94F7</color>
                <colorMode>normal</colorMode>
                <width>4</width>
            </LineStyle>
        </Style>
        <Style id="41775">
            <LineStyle id="41776">
                <color>ff1D94F7</color>
                <colorMode>normal</colorMode>
                <width>4</width>
            </LineStyle>
        </Style>
        <ExtendedData>
            <Data name="route-name">
                <value>18: Panghegar Permai → Dipatiukur</value>
            </Data>
            <Data name="source">
                <value>Transport for Bandung</value>
            </Data>
        </ExtendedData>
        <Placemark id="41352">
            <name>Pangkalan Angkot Panghegar</name>
            <styleUrl>#41353</styleUrl>
            <Point id="41351">
                <coordinates>107.6835707,-6.9237417,0.0</coordinates>
            </Point>
        </Placemark>
        <Placemark id="41357">
            <name>Baltos</name>
            <styleUrl>#41358</styleUrl>
            <Point id="41356">
                <coordinates>107.6099669,-6.899504,0.0</coordinates>
            </Point>
        </Placemark>
        <Placemark id="41362">
            <name>Jalan Sulanjana</name>
            <styleUrl>#41363</styleUrl>
            <LineString id="41361">
                <coordinates>107.6099669,-6.899504,0.0 107.6099959,-6.899509,0.0 107.6103008,-6.8995761,0.0 107.6105271,-6.8996458,0.0 107.6106103,-6.8996659,0.0 107.6106935,-6.8996859,0.0 107.611925,-6.8999352,0.0 107.6121864,-6.9000327,0.0 107.6122346,-6.9000541,0.0 107.6123733,-6.9001249,0.0 107.6124203,-6.9001524,0.0 107.6125313,-6.9002122,0.0</coordinates>
            </LineString>
        </Placemark>
        <Placemark id="41366">
            <name>Jalan L.L. RE. Martadinata</name>
            <styleUrl>#41367</styleUrl>
            <LineString id="41365">
                <coordinates>107.629839,-6.9154679,0.0 107.629593,-6.9148704,0.0</coordinates>
            </LineString>
        </Placemark>
        <Placemark id="41370">
            <name>Jalan Diponegoro</name>
            <styleUrl>#41371</styleUrl>
            <LineString id="41369">
                <coordinates>107.6126165,-6.9002542,0.0 107.6127382,-6.9003059,0.0 107.612782,-6.900322,0.0 107.613037,-6.9003864,0.0 107.6131854,-6.9004134,0.0 107.6132475,-6.9004224,0.0 107.613349,-6.9004397,0.0 107.6134712,-6.9004601,0.0</coordinates>
            </LineString>
        </Placemark>
        <Placemark id="41374">
            <name>Jalan Citarum</name>
            <styleUrl>#41375</styleUrl>
            <LineString id="41373">
                <coordinates>107.621213,-6.9059876,0.0 107.6212268,-6.9058256,0.0 107.6213404,-6.9053403,0.0 107.6213553,-6.9052846,0.0 107.6213581,-6.9052235,0.0 107.6213478,-6.9051937,0.0 107.6213381,-6.9051655,0.0 107.6212962,-6.905053,0.0</coordinates>
            </LineString>
        </Placemark>
        <Placemark id="41378">
            <name>Jalan Cisanggarung</name>
            <styleUrl>#41379</styleUrl>
            <LineString id="41377">
                <coordinates>107.6210834,-6.9045959,0.0 107.6210484,-6.904432,0.0 107.6210131,-6.90433,0.0</coordinates>
            </LineString>
        </Placemark>
        <Placemark id="41382">
            <name>Jalan Jenderal Ahmad Yani</name>
            <styleUrl>#41383</styleUrl>
            <LineString id="41381">
                <coordinates>107.6562379,-6.9021633,0.0 107.6561678,-6.9021519,0.0 107.6560981,-6.9021454,0.0 107.6557174,-6.902134,0.0</coordinates>
            </LineString>
        </Placemark>
        <Placemark id="41386">
            <name>Jalan Jenderal Ahmad Yani</name>
            <styleUrl>#41387</styleUrl>
            <LineString id="41385">
                <coordinates>107.6445308,-6.9080265,0.0 107.644457,-6.9080919,0.0 107.6444319,-6.9081142,0.0 107.6437989,-6.9084471,0.0</coordinates>
            </LineString>
        </Placemark>
        <Placemark id="41390">
            <name>Jalan Jenderal Ahmad Yani</name>
            <styleUrl>#41391</styleUrl>
            <LineString id="41389">
                <coordinates>107.6445308,-6.9080265,0.0 107.6447525,-6.9079094,0.0 107.6449366,-6.9078121,0.0 107.64542,-6.9075568,0.0 107.6456577,-6.907431,0.0 107.645715,-6.9074007,0.0 107.6457789,-6.9073672,0.0 107.6458575,-6.9073247,0.0 107.6459395,-6.9072816,0.0 107.6462819,-6.9071016,0.0 107.6465653,-6.9069518,0.0 107.6469168,-6.9067662,0.0 107.6469532,-6.906747,0.0 107.6470598,-6.9066907,0.0 107.6473416,-6.906544,0.0 107.6473541,-6.9065376,0.0</coordinates>
            </LineString>
        </Placemark>
        <Placemark id="41394">
            <name>Jalan Sukabumi</name>
            <styleUrl>#41395</styleUrl>
            <LineString id="41393">
                <coordinates>107.6348552,-6.9143329,0.0 107.6348313,-6.9143399,0.0 107.6347873,-6.9143636,0.0 107.6347627,-6.9143996,0.0 107.6347483,-6.9144516,0.0 107.6347173,-6.914512,0.0</coordinates>
            </LineString>
        </Placemark>
        <Placemark id="41398">
            <name>Jalan L.L. RE. Martadinata</name>
            <styleUrl>#41399</styleUrl>
            <LineString id="41397">
                <coordinates>107.6295758,-6.9147576,0.0 107.6294559,-6.914423,0.0 107.6292504,-6.9137992,0.0 107.6291718,-6.9135678,0.0 107.6291409,-6.913501,0.0 107.6291311,-6.9134798,0.0 107.6291076,-6.9134288,0.0 107.6290892,-6.913389,0.0 107.6290686,-6.9133503,0.0 107.6289845,-6.913192,0.0 107.6288644,-6.9130163,0.0 107.628731,-6.9128285,0.0 107.6286968,-6.9127848,0.0 107.6286154,-6.9126809,0.0</coordinates>
            </LineString>
        </Placemark>
        <Placemark id="41402">
            <name>Jalan L.L. RE. Martadinata</name>
            <styleUrl>#41403</styleUrl>
            <LineString id="41401">
                <coordinates>107.629593,-6.9148704,0.0 107.6295758,-6.9147576,0.0</coordinates>
            </LineString>
        </Placemark>
        <Placemark id="41406">
            <name>Jalan Sukabumi</name>
            <styleUrl>#41407</styleUrl>
            <LineString id="41405">
                <coordinates>107.634419,-6.9161223,0.0 107.6344004,-6.9162388,0.0 107.6343511,-6.9164827,0.0 107.6342682,-6.916856,0.0 107.634252,-6.9169288,0.0 107.6342422,-6.9169744,0.0 107.6342207,-6.9170356,0.0 107.6341961,-6.9170831,0.0</coordinates>
            </LineString>
        </Placemark>
        <Placemark id="41410">
            <name>Jalan L.L. RE. Martadinata</name>
            <styleUrl>#41411</styleUrl>
            <LineString id="41409">
                <coordinates>107.6286154,-6.9126809,0.0 107.628535,-6.9125792,0.0 107.6283442,-6.9123228,0.0 107.6282645,-6.9122224,0.0 107.6281542,-6.9121048,0.0 107.6278567,-6.9118039,0.0 107.6278298,-6.9117777,0.0 107.6278029,-6.9117514,0.0 107.6276535,-6.9116065,0.0 107.6271705,-6.9111433,0.0 107.627074,-6.9110498,0.0</coordinates>
            </LineString>
        </Placemark>
        <Placemark id="41414">
            <name>Jalan Diponegoro</name>
            <styleUrl>#41415</styleUrl>
            <LineString id="41413">
                <coordinates>107.6150711,-6.9006334,0.0 107.6154093,-6.900922,0.0</coordinates>
            </LineString>
        </Placemark>
        <Placemark id="41418">
            <name>Jalan Laswi</name>
            <styleUrl>#41419</styleUrl>
            <LineString id="41417">
                <coordinates>107.6313458,-6.9186198,0.0 107.6312891,-6.9184991,0.0 107.6312618,-6.9184409,0.0 107.6312506,-6.9184177,0.0 107.6307984,-6.9174779,0.0 107.6307188,-6.9173125,0.0</coordinates>
            </LineString>
        </Placemark>
        <Placemark id="41422">
            <name>Jalan Jenderal Ahmad Yani</name>
            <styleUrl>#41423</styleUrl>
            <LineString id="41421">
                <coordinates>107.6568007,-6.9022123,0.0 107.6566577,-6.9022086,0.0</coordinates>
            </LineString>
        </Placemark>
        <Placemark id="41426">
            <name>Jalan H. Ibrahim Adjie</name>
            <styleUrl>#41427</styleUrl>
            <LineString id="41425">
                <coordinates>107.6435055,-6.9113592,0.0 107.6435255,-6.9115834,0.0 107.6435572,-6.9119253,0.0 107.6435846,-6.9122429,0.0 107.6436146,-6.9125869,0.0 107.6436356,-6.9128822,0.0 107.6436422,-6.9130175,0.0</coordinates>
            </LineString>
        </Placemark>
        <Placemark id="41430">
            <name>Jalan Cicukang</name>
            <styleUrl>#41431</styleUrl>
            <LineString id="41429">
                <coordinates>107.6853357,-6.9069314,0.0 107.6844878,-6.9089186,0.0 107.6844034,-6.909138,0.0 107.6842106,-6.9096389,0.0</coordinates>
            </LineString>
        </Placemark>
        <Placemark id="41434">
            <name>Jalan Abdul Haris Nasution</name>
            <styleUrl>#41435</styleUrl>
            <LineString id="41433">
                <coordinates>107.6731822,-6.9049099,0.0 107.6730663,-6.9049324,0.0 107.6729204,-6.9049231,0.0 107.6727971,-6.9048983,0.0 107.6726502,-6.9048495,0.0 107.6725166,-6.9047911,0.0 107.6723982,-6.9047336,0.0 107.672335,-6.9046989,0.0 107.6721798,-6.9046133,0.0 107.6720002,-6.9045193,0.0 107.6718533,-6.9044513,0.0 107.6718052,-6.9044291,0.0 107.671782,-6.9044186,0.0 107.6717285,-6.9043943,0.0 107.6714589,-6.9042963,0.0 107.6713547,-6.9042719,0.0 107.6712605,-6.9042516,0.0 107.671153,-6.9042417,0.0 107.6710571,-6.9042413,0.0 107.6709567,-6.9042404,0.0 107.6707829,-6.9042441,0.0</coordinates>
            </LineString>
        </Placemark>
        <Placemark id="41438">
            <name>Route Segment</name>
            <styleUrl>#41439</styleUrl>
            <LineString id="41437">
                <coordinates>107.6847867,-6.9148759,0.0 107.6846777,-6.9156246,0.0 107.6846715,-6.9157234,0.0 107.6847394,-6.9157496,0.0 107.6849427,-6.9158827,0.0 107.685051,-6.9159792,0.0 107.6850875,-6.9160544,0.0 107.6850913,-6.9161392,0.0 107.6850807,-6.9161778,0.0 107.6850672,-6.916227,0.0 107.685054,-6.9162749,0.0 107.6849999,-6.916369,0.0 107.6848835,-6.9165152,0.0 107.6846053,-6.9166767,0.0 107.6845445,-6.9167636,0.0 107.6843774,-6.9170154,0.0 107.6843535,-6.9170521,0.0 107.6842272,-6.9172973,0.0 107.6840438,-6.9177435,0.0</coordinates>
            </LineString>
        </Placemark>
        <Placemark id="41442">
            <name>Jalan Cisaranten Kulon</name>
            <styleUrl>#41443</styleUrl>
            <LineString id="41441">
                <coordinates>107.6840438,-6.9177435,0.0 107.6843802,-6.9178836,0.0 107.6849704,-6.9181194,0.0 107.6849372,-6.9183032,0.0 107.6849004,-6.9185044,0.0 107.6848801,-6.918656,0.0 107.68483,-6.9190023,0.0 107.6848267,-6.9190549,0.0 107.6847907,-6.9194548,0.0 107.6847636,-6.9195933,0.0 107.6847382,-6.9196737,0.0 107.6847216,-6.919725,0.0 107.6845984,-6.9200657,0.0</coordinates>
            </LineString>
        </Placemark>
        <Placemark id="41446">
            <name>Jalan Cisaranten Kulon</name>
            <styleUrl>#41447</styleUrl>
            <LineString id="41445">
                <coordinates>107.6845984,-6.9200657,0.0 107.6844656,-6.9202721,0.0 107.6843809,-6.9204036,0.0 107.6843675,-6.9204245,0.0 107.6843151,-6.9205334,0.0 107.6842783,-6.9206777,0.0 107.6842414,-6.9208219,0.0 107.6841697,-6.9211451,0.0 107.6841208,-6.9213654,0.0 107.6840618,-6.9216309,0.0 107.6839326,-6.9220791,0.0 107.6838678,-6.92236,0.0 107.683862,-6.9223966,0.0 107.6838666,-6.9224463,0.0 107.6839378,-6.922592,0.0 107.6839585,-6.9226345,0.0 107.6839519,-6.9227314,0.0 107.6838165,-6.9232967,0.0 107.6837623,-6.923502,0.0</coordinates>
            </LineString>
        </Placemark>
        <Placemark id="41450">
            <name>Jalan L.L. RE. Martadinata</name>
            <styleUrl>#41451</styleUrl>
            <LineString id="41449">
                <coordinates>107.627074,-6.9110498,0.0 107.6269793,-6.9109538,0.0 107.6266345,-6.9106181,0.0 107.6265806,-6.9105638,0.0 107.6265596,-6.9105422,0.0 107.6265002,-6.9104819,0.0 107.6263409,-6.9103274,0.0 107.6262232,-6.9102114,0.0 107.6261674,-6.9101544,0.0 107.6260827,-6.9100761,0.0</coordinates>
            </LineString>
        </Placemark>
        <Placemark id="41454">
            <name>Jalan Diponegoro</name>
            <styleUrl>#41455</styleUrl>
            <LineString id="41453">
                <coordinates>107.6159798,-6.9013693,0.0 107.6163648,-6.901357,0.0</coordinates>
            </LineString>
        </Placemark>
        <Placemark id="41458">
            <name>Jalan Jenderal Ahmad Yani</name>
            <styleUrl>#41459</styleUrl>
            <LineString id="41457">
                <coordinates>107.6557174,-6.902134,0.0 107.6549747,-6.9025328,0.0 107.6549328,-6.902555,0.0 107.6547053,-6.9026773,0.0</coordinates>
            </LineString>
        </Placemark>
        <Placemark id="41462">
            <name>Jalan Jakarta</name>
            <styleUrl>#41463</styleUrl>
            <LineString id="41461">
                <coordinates>107.6374221,-6.9145133,0.0 107.6374071,-6.9145151,0.0 107.6373588,-6.9145209,0.0</coordinates>
            </LineString>
        </Placemark>
        <Placemark id="41466">
            <name>Jalan Jakarta</name>
            <styleUrl>#41467</styleUrl>
            <LineString id="41465">
                <coordinates>107.6375505,-6.9144979,0.0 107.6374221,-6.9145133,0.0</coordinates>
            </LineString>
        </Placemark>
        <Placemark id="41470">
            <name>Jalan Jakarta</name>
            <styleUrl>#41471</styleUrl>
            <LineString id="41469">
                <coordinates>107.6417884,-6.9139622,0.0 107.641697,-6.9139738,0.0 107.6414919,-6.9139937,0.0 107.641334,-6.9140119,0.0 107.6412274,-6.9140241,0.0 107.6410877,-6.9140393,0.0 107.6409956,-6.9140515,0.0 107.6405312,-6.9141105,0.0 107.6404431,-6.9141209,0.0 107.6403048,-6.9141385,0.0 107.6402144,-6.914148,0.0 107.6399554,-6.914178,0.0 107.6398939,-6.914186,0.0 107.6397497,-6.9142026,0.0 107.6394855,-6.9142369,0.0 107.6393217,-6.9142593,0.0 107.6391686,-6.914281,0.0 107.6390956,-6.9142912,0.0 107.6389363,-6.9143117,0.0 107.6388474,-6.9143228,0.0 107.6386441,-6.9143525,0.0 107.6385822,-6.9143614,0.0 107.6385215,-6.9143724,0.0 107.6384678,-6.9143807,0.0 107.6381956,-6.9144188,0.0 107.6379503,-6.9144499,0.0 107.6378321,-6.9144641,0.0 107.6377113,-6.9144786,0.0 107.6376149,-6.9144902,0.0 107.6375655,-6.9144961,0.0 107.6375505,-6.9144979,0.0</coordinates>
            </LineString>
        </Placemark>
        <Placemark id="41474">
            <name>Jalan Jenderal Ahmad Yani</name>
            <styleUrl>#41475</styleUrl>
            <LineString id="41473">
                <coordinates>107.6593809,-6.9022862,0.0 107.6593327,-6.9022852,0.0 107.6591741,-6.9022823,0.0 107.6591239,-6.9022819,0.0 107.6589763,-6.9022795,0.0 107.6586773,-6.9022663,0.0 107.6581206,-6.9022388,0.0 107.657628,-6.9022233,0.0 107.6573116,-6.9022128,0.0</coordinates>
            </LineString>
        </Placemark>
        <Placemark id="41478">
            <name>Jalan Jakarta</name>
            <styleUrl>#41479</styleUrl>
            <LineString id="41477">
                <coordinates>107.6373588,-6.9145209,0.0 107.6371438,-6.9145467,0.0 107.6369043,-6.9145755,0.0 107.6368147,-6.9145887,0.0 107.636513,-6.914633,0.0 107.6362469,-6.9146627,0.0 107.6362076,-6.9146671,0.0 107.6361335,-6.9146647,0.0 107.6360082,-6.9146453,0.0 107.6357903,-6.914575,0.0</coordinates>
            </LineString>
        </Placemark>
        <Placemark id="41482">
            <name>Jalan Laswi</name>
            <styleUrl>#41483</styleUrl>
            <LineString id="41481">
                <coordinates>107.6300893,-6.9160089,0.0 107.6300294,-6.9158899,0.0 107.6299922,-6.9158161,0.0</coordinates>
            </LineString>
        </Placemark>
        <Placemark id="41486">
            <name>Jalan Taman Citarum</name>
            <styleUrl>#41487</styleUrl>
            <LineString id="41485">
                <coordinates>107.6212962,-6.905053,0.0 107.6212296,-6.9049837,0.0 107.621166,-6.9049214,0.0 107.6211203,-6.9048539,0.0 107.6211018,-6.9047922,0.0 107.6210894,-6.9047285,0.0 107.621084,-6.9046493,0.0 107.6210834,-6.9045959,0.0</coordinates>
            </LineString>
        </Placemark>
        <Placemark id="41490">
            <name>Jalan L.L. RE. Martadinata</name>
            <styleUrl>#41491</styleUrl>
            <LineString id="41489">
                <coordinates>107.6213811,-6.9060399,0.0 107.621213,-6.9059876,0.0</coordinates>
            </LineString>
        </Placemark>
        <Placemark id="41494">
            <name>Jalan L.L. RE. Martadinata</name>
            <styleUrl>#41495</styleUrl>
            <LineString id="41493">
                <coordinates>107.6260827,-6.9100761,0.0 107.6259817,-6.9099872,0.0 107.6259487,-6.9099584,0.0 107.6259228,-6.9099338,0.0 107.6258394,-6.9098536,0.0 107.6257448,-6.9097632,0.0 107.6253641,-6.9093848,0.0 107.6253092,-6.9093323,0.0 107.6252606,-6.9092859,0.0 107.625168,-6.9091975,0.0 107.6251205,-6.9091522,0.0 107.6250665,-6.909101,0.0 107.6250037,-6.9090443,0.0 107.6249642,-6.9090084,0.0 107.6247925,-6.9088693,0.0 107.6246431,-6.9087403,0.0 107.624592,-6.9086974,0.0 107.624424,-6.908556,0.0 107.6243689,-6.9085138,0.0 107.6242946,-6.9084569,0.0 107.6242211,-6.9084007,0.0 107.6241725,-6.9083672,0.0 107.6240359,-6.9082553,0.0 107.6239406,-6.9081795,0.0 107.623898,-6.9081445,0.0 107.6237961,-6.9080605,0.0 107.6236954,-6.9079639,0.0 107.6236448,-6.9079144,0.0 107.6235783,-6.9078372,0.0 107.6234169,-6.907648,0.0 107.6233782,-6.9076007,0.0 107.6233239,-6.9075344,0.0 107.6233077,-6.9075143,0.0 107.6232802,-6.9074803,0.0 107.6232385,-6.907429,0.0 107.6232063,-6.9073895,0.0 107.6231474,-6.9073112,0.0 107.6230407,-6.9071734,0.0 107.6230069,-6.9071302,0.0 107.6229227,-6.9070232,0.0 107.6228683,-6.9069596,0.0 107.6228138,-6.906896,0.0 107.622767,-6.9068426,0.0 107.6227125,-6.9067946,0.0 107.622637,-6.9067316,0.0 107.6225154,-6.9066302,0.0 107.6224543,-6.9065793,0.0 107.6222395,-6.9064426,0.0 107.6221784,-6.9064038,0.0 107.6221309,-6.9063741,0.0 107.622066,-6.9063335,0.0 107.6220332,-6.9063102,0.0 107.6220004,-6.9062923,0.0 107.6218623,-6.9062167,0.0 107.6216984,-6.9061395,0.0 107.6215291,-6.9060859,0.0 107.6214607,-6.9060648,0.0 107.6213811,-6.9060399,0.0</coordinates>
            </LineString>
        </Placemark>
        <Placemark id="41498">
            <name>Jalan H. Ibrahim Adjie</name>
            <styleUrl>#41499</styleUrl>
            <LineString id="41497">
                <coordinates>107.6433703,-6.9099716,0.0 107.6434142,-6.9104391,0.0 107.6434287,-6.9105814,0.0 107.6434818,-6.9111241,0.0 107.6434906,-6.9112086,0.0 107.6435055,-6.9113592,0.0</coordinates>
            </LineString>
        </Placemark>
        <Placemark id="41502">
            <name>Jalan Jenderal Ahmad Yani</name>
            <styleUrl>#41503</styleUrl>
            <LineString id="41501">
                <coordinates>107.6504237,-6.9049308,0.0 107.6505268,-6.9048727,0.0</coordinates>
            </LineString>
        </Placemark>
        <Placemark id="41506">
            <name>Jalan Jenderal Ahmad Yani</name>
            <styleUrl>#41507</styleUrl>
            <LineString id="41505">
                <coordinates>107.6505268,-6.9048727,0.0 107.6509613,-6.904644,0.0 107.6510558,-6.9045991,0.0 107.6511156,-6.9045663,0.0 107.6512752,-6.9044817,0.0 107.6522601,-6.9039596,0.0 107.6523019,-6.9039374,0.0 107.6532521,-6.903436,0.0 107.6533029,-6.9034069,0.0 107.6537144,-6.9031904,0.0 107.6538132,-6.9031384,0.0 107.65401,-6.9030256,0.0</coordinates>
            </LineString>
        </Placemark>
        <Placemark id="41510">
            <name>Jalan Abdul Haris Nasution</name>
            <styleUrl>#41511</styleUrl>
            <LineString id="41509">
                <coordinates>107.6669959,-6.9041686,0.0 107.6668942,-6.9041612,0.0</coordinates>
            </LineString>
        </Placemark>
        <Placemark id="41514">
            <name>Jalan Abdul Haris Nasution</name>
            <styleUrl>#41515</styleUrl>
            <LineString id="41513">
                <coordinates>107.6668942,-6.9041612,0.0 107.6668619,-6.9041587,0.0 107.6668426,-6.9041581,0.0 107.6668057,-6.9041559,0.0 107.6667063,-6.9041501,0.0 107.6666336,-6.9041465,0.0 107.6662245,-6.9041035,0.0 107.6659777,-6.9040789,0.0 107.6656526,-6.9040466,0.0 107.6654785,-6.9040293,0.0 107.6653806,-6.9040176,0.0 107.6653339,-6.9040128,0.0 107.6652717,-6.9040063,0.0 107.6650321,-6.9039795,0.0 107.6649569,-6.9039704,0.0 107.664911,-6.903966,0.0 107.6647137,-6.9039446,0.0 107.6644048,-6.9039111,0.0 107.6642495,-6.9038943,0.0 107.6638979,-6.9038599,0.0 107.6637771,-6.9038469,0.0 107.6629487,-6.9037576,0.0 107.6628717,-6.9037486,0.0 107.6625205,-6.9037038,0.0 107.6624107,-6.9036934,0.0 107.6623517,-6.9036867,0.0 107.6618122,-6.9036241,0.0 107.6616711,-6.9035965,0.0 107.6615175,-6.9035395,0.0 107.6614385,-6.9034891,0.0 107.6613446,-6.9034118,0.0 107.6612417,-6.903307,0.0 107.6611816,-6.9032348,0.0</coordinates>
            </LineString>
        </Placemark>
        <Placemark id="41518">
            <name>Jalan Abdul Haris Nasution</name>
            <styleUrl>#41519</styleUrl>
            <LineString id="41517">
                <coordinates>107.6794782,-6.9049937,0.0 107.6794622,-6.9049915,0.0 107.6793999,-6.9049829,0.0</coordinates>
            </LineString>
        </Placemark>
        <Placemark id="41522">
            <name>Jalan Abdul Haris Nasution</name>
            <styleUrl>#41523</styleUrl>
            <LineString id="41521">
                <coordinates>107.6820608,-6.90548,0.0 107.6818657,-6.905397,0.0 107.6815606,-6.9053016,0.0 107.6813524,-6.9052663,0.0 107.6812596,-6.9052518,0.0 107.6812141,-6.9052443,0.0 107.681059,-6.9052186,0.0 107.6809974,-6.9052105,0.0 107.6802772,-6.9051106,0.0 107.6802419,-6.9051046,0.0</coordinates>
            </LineString>
        </Placemark>
        <Placemark id="41526">
            <name>Jalan Jenderal Ahmad Yani</name>
            <styleUrl>#41527</styleUrl>
            <LineString id="41525">
                <coordinates>107.6595113,-6.9022876,0.0 107.6593809,-6.9022862,0.0</coordinates>
            </LineString>
        </Placemark>
        <Placemark id="41530">
            <name>Jalan Jenderal Ahmad Yani</name>
            <styleUrl>#41531</styleUrl>
            <LineString id="41529">
                <coordinates>107.6598571,-6.902257,0.0 107.6597146,-6.9022892,0.0 107.6595403,-6.9022891,0.0 107.6595113,-6.9022876,0.0</coordinates>
            </LineString>
        </Placemark>
        <Placemark id="41534">
            <name>Jalan Cicukang</name>
            <styleUrl>#41535</styleUrl>
            <LineString id="41533">
                <coordinates>107.6842106,-6.9096389,0.0 107.6840757,-6.9099636,0.0 107.6840396,-6.9100505,0.0 107.683441,-6.9116112,0.0 107.6833347,-6.9118872,0.0 107.6832092,-6.9122207,0.0 107.683082,-6.9128432,0.0 107.6830772,-6.9128659,0.0 107.6832604,-6.9130568,0.0 107.6832766,-6.9130962,0.0 107.6832818,-6.9131296,0.0 107.6832016,-6.9135359,0.0 107.6832293,-6.9135902,0.0 107.6839929,-6.9138004,0.0 107.6840106,-6.9138211,0.0 107.6840173,-6.9138471,0.0 107.6839312,-6.9141792,0.0 107.6839636,-6.9142092,0.0 107.6840501,-6.9142445,0.0 107.6842278,-6.9143077,0.0 107.6843378,-6.9143836,0.0 107.6843774,-6.9145134,0.0 107.6843827,-6.9145334,0.0 107.6843982,-6.9145507,0.0 107.6845783,-6.9147246,0.0 107.6847867,-6.9148759,0.0</coordinates>
            </LineString>
        </Placemark>
        <Placemark id="41538">
            <name>Jalan Abdul Haris Nasution</name>
            <styleUrl>#41539</styleUrl>
            <LineString id="41537">
                <coordinates>107.6605793,-6.9024754,0.0 107.6604879,-6.9023953,0.0 107.6604098,-6.9023387,0.0 107.6603407,-6.9023021,0.0 107.6602817,-6.9022811,0.0 107.6602364,-6.9022721,0.0 107.6602053,-6.9022701,0.0 107.6598571,-6.902257,0.0</coordinates>
            </LineString>
        </Placemark>
        <Placemark id="41542">
            <name>Jalan Abdul Haris Nasution</name>
            <styleUrl>#41543</styleUrl>
            <LineString id="41541">
                <coordinates>107.6605793,-6.9024754,0.0 107.6608071,-6.902754,0.0 107.6609212,-6.9028936,0.0 107.6611816,-6.9032348,0.0</coordinates>
            </LineString>
        </Placemark>
        <Placemark id="41546">
            <name>Jalan Jakarta</name>
            <styleUrl>#41547</styleUrl>
            <LineString id="41545">
                <coordinates>107.6422876,-6.9139498,0.0 107.6421252,-6.9139589,0.0 107.6417884,-6.9139622,0.0</coordinates>
            </LineString>
        </Placemark>
        <Placemark id="41550">
            <name>Jalan Jenderal Ahmad Yani</name>
            <styleUrl>#41551</styleUrl>
            <LineString id="41549">
                <coordinates>107.6473937,-6.9065187,0.0 107.6474379,-6.9064956,0.0 107.6474992,-6.9064635,0.0 107.6475815,-6.9064204,0.0 107.6478731,-6.9062675,0.0 107.6481705,-6.9061111,0.0 107.6482371,-6.9060767,0.0 107.6483165,-6.9060351,0.0 107.6483897,-6.9059946,0.0 107.6484809,-6.905949,0.0 107.6485698,-6.9059024,0.0 107.6487588,-6.9058034,0.0 107.6488255,-6.9057684,0.0 107.6489439,-6.9057063,0.0 107.6492779,-6.9055313,0.0 107.6494311,-6.9054486,0.0 107.6495236,-6.9054025,0.0 107.6496473,-6.9053377,0.0 107.6496626,-6.9053297,0.0 107.6498165,-6.9052493,0.0 107.6498843,-6.9052135,0.0 107.650154,-6.9050722,0.0 107.650173,-6.9050622,0.0 107.6504237,-6.9049308,0.0</coordinates>
            </LineString>
        </Placemark>
        <Placemark id="41554">
            <name>Jalan Jenderal Ahmad Yani</name>
            <styleUrl>#41555</styleUrl>
            <LineString id="41553">
                <coordinates>107.6473541,-6.9065376,0.0 107.6473937,-6.9065187,0.0</coordinates>
            </LineString>
        </Placemark>
        <Placemark id="41558">
            <name>Jalan Jenderal Ahmad Yani</name>
            <styleUrl>#41559</styleUrl>
            <LineString id="41557">
                <coordinates>107.6435428,-6.9085842,0.0 107.6434582,-6.9086288,0.0</coordinates>
            </LineString>
        </Placemark>
        <Placemark id="41562">
            <name>Jalan H. Ibrahim Adjie</name>
            <styleUrl>#41563</styleUrl>
            <LineString id="41561">
                <coordinates>107.6432718,-6.9087579,0.0 107.6432638,-6.9087792,0.0 107.6432665,-6.9088245,0.0 107.6432956,-6.9090069,0.0 107.6433233,-6.9092056,0.0 107.6433314,-6.9092874,0.0 107.6433372,-6.9093721,0.0 107.6433224,-6.9094595,0.0</coordinates>
            </LineString>
        </Placemark>
        <Placemark id="41566">
            <name>Jalan Sulanjana</name>
            <styleUrl>#41567</styleUrl>
            <LineString id="41565">
                <coordinates>107.6125313,-6.9002122,0.0 107.6126165,-6.9002542,0.0</coordinates>
            </LineString>
        </Placemark>
        <Placemark id="41570">
            <name>Route Segment</name>
            <styleUrl>#41571</styleUrl>
            <LineString id="41569">
                <coordinates>107.6435161,-6.9136526,0.0 107.643488,-6.9136797,0.0 107.6434706,-6.9136988,0.0 107.6434637,-6.9137166,0.0 107.6434595,-6.9137474,0.0 107.6434586,-6.9137687,0.0 107.6434476,-6.9137912,0.0 107.6434317,-6.9138202,0.0</coordinates>
            </LineString>
        </Placemark>
        <Placemark id="41574">
            <name>Jalan Jenderal Ahmad Yani</name>
            <styleUrl>#41575</styleUrl>
            <LineString id="41573">
                <coordinates>107.6571633,-6.9022188,0.0 107.6568007,-6.9022123,0.0</coordinates>
            </LineString>
        </Placemark>
        <Placemark id="41578">
            <name>Jalan H. Ibrahim Adjie</name>
            <styleUrl>#41579</styleUrl>
            <LineString id="41577">
                <coordinates>107.6436422,-6.9130175,0.0 107.6436086,-6.913104,0.0 107.6436418,-6.9133935,0.0</coordinates>
            </LineString>
        </Placemark>
        <Placemark id="41582">
            <name>Route Segment</name>
            <styleUrl>#41583</styleUrl>
            <LineString id="41581">
                <coordinates>107.6436418,-6.9133935,0.0 107.6436179,-6.9134822,0.0 107.64361,-6.9135135,0.0 107.6435938,-6.9135535,0.0 107.643568,-6.9135924,0.0 107.6435352,-6.9136306,0.0 107.6435161,-6.9136526,0.0</coordinates>
            </LineString>
        </Placemark>
        <Placemark id="41586">
            <name>Jalan Jakarta</name>
            <styleUrl>#41587</styleUrl>
            <LineString id="41585">
                <coordinates>107.6429791,-6.9138756,0.0 107.6422876,-6.9139498,0.0</coordinates>
            </LineString>
        </Placemark>
        <Placemark id="41590">
            <name>Jalan Laswi</name>
            <styleUrl>#41591</styleUrl>
            <LineString id="41589">
                <coordinates>107.6307188,-6.9173125,0.0 107.6306282,-6.9171247,0.0 107.6301434,-6.916119,0.0 107.6300893,-6.9160089,0.0</coordinates>
            </LineString>
        </Placemark>
        <Placemark id="41594">
            <name>Jalan Jakarta</name>
            <styleUrl>#41595</styleUrl>
            <LineString id="41593">
                <coordinates>107.6357903,-6.914575,0.0 107.6357337,-6.9145811,0.0 107.6356898,-6.9145768,0.0 107.6356137,-6.9145582,0.0 107.6354322,-6.914512,0.0 107.6352266,-6.9144508,0.0 107.6348552,-6.9143329,0.0</coordinates>
            </LineString>
        </Placemark>
        <Placemark id="41598">
            <name>Jalan Sukabumi</name>
            <styleUrl>#41599</styleUrl>
            <LineString id="41597">
                <coordinates>107.6347173,-6.914512,0.0 107.634483,-6.9157469,0.0 107.6344729,-6.9158077,0.0 107.634447,-6.9159625,0.0</coordinates>
            </LineString>
        </Placemark>
        <Placemark id="41602">
            <name>Jalan Cilamaya</name>
            <styleUrl>#41603</styleUrl>
            <LineString id="41601">
                <coordinates>107.6170291,-6.9032627,0.0 107.6170003,-6.9032181,0.0 107.6169661,-6.9031402,0.0 107.6169446,-6.9030523,0.0 107.6169308,-6.9028954,0.0</coordinates>
            </LineString>
        </Placemark>
        <Placemark id="41606">
            <name>Jalan Jenderal Ahmad Yani</name>
            <styleUrl>#41607</styleUrl>
            <LineString id="41605">
                <coordinates>107.6437989,-6.9084471,0.0 107.6435428,-6.9085842,0.0</coordinates>
            </LineString>
        </Placemark>
        <Placemark id="41610">
            <name>Jalan Sukabumi</name>
            <styleUrl>#41611</styleUrl>
            <LineString id="41609">
                <coordinates>107.6339445,-6.9173179,0.0 107.6337948,-6.9174252,0.0</coordinates>
            </LineString>
        </Placemark>
        <Placemark id="41614">
            <name>Jalan Sukabumi</name>
            <styleUrl>#41615</styleUrl>
            <LineString id="41613">
                <coordinates>107.634447,-6.9159625,0.0 107.634419,-6.9161223,0.0</coordinates>
            </LineString>
        </Placemark>
        <Placemark id="41618">
            <name>Jalan Jenderal Ahmad Yani</name>
            <styleUrl>#41619</styleUrl>
            <LineString id="41617">
                <coordinates>107.6547053,-6.9026773,0.0 107.654175,-6.9029752,0.0 107.65401,-6.9030256,0.0</coordinates>
            </LineString>
        </Placemark>
        <Placemark id="41622">
            <name>Jalan Jenderal Ahmad Yani</name>
            <styleUrl>#41623</styleUrl>
            <LineString id="41621">
                <coordinates>107.6434582,-6.9086288,0.0 107.6433268,-6.908699,0.0 107.6432893,-6.9087293,0.0 107.6432718,-6.9087579,0.0</coordinates>
            </LineString>
        </Placemark>
        <Placemark id="41626">
            <name>Jalan H. Ibrahim Adjie</name>
            <styleUrl>#41627</styleUrl>
            <LineString id="41625">
                <coordinates>107.6433224,-6.9094595,0.0 107.6433364,-6.9096111,0.0 107.6433703,-6.9099716,0.0</coordinates>
            </LineString>
        </Placemark>
        <Placemark id="41630">
            <name>Jalan Sukabumi</name>
            <styleUrl>#41631</styleUrl>
            <LineString id="41629">
                <coordinates>107.6341961,-6.9170831,0.0 107.6340932,-6.917204,0.0 107.6339445,-6.9173179,0.0</coordinates>
            </LineString>
        </Placemark>
        <Placemark id="41634">
            <name>Jalan Cilamaya</name>
            <styleUrl>#41635</styleUrl>
            <LineString id="41633">
                <coordinates>107.6172502,-6.9035125,0.0 107.6171748,-6.9034463,0.0</coordinates>
            </LineString>
        </Placemark>
        <Placemark id="41638">
            <name>Jalan Cilamaya</name>
            <styleUrl>#41639</styleUrl>
            <LineString id="41637">
                <coordinates>107.6171748,-6.9034463,0.0 107.6170291,-6.9032627,0.0</coordinates>
            </LineString>
        </Placemark>
        <Placemark id="41642">
            <name>Jalan Cilamaya</name>
            <styleUrl>#41643</styleUrl>
            <LineString id="41641">
                <coordinates>107.6169308,-6.9028954,0.0 107.6169204,-6.9026169,0.0</coordinates>
            </LineString>
        </Placemark>
        <Placemark id="41646">
            <name>Jalan Cilamaya</name>
            <styleUrl>#41647</styleUrl>
            <LineString id="41645">
                <coordinates>107.6169204,-6.9026169,0.0 107.6169036,-6.9020191,0.0 107.6168987,-6.9017889,0.0 107.6168927,-6.9015054,0.0 107.6168907,-6.9013406,0.0</coordinates>
            </LineString>
        </Placemark>
        <Placemark id="41650">
            <name>Jalan Hayam Wuruk</name>
            <styleUrl>#41651</styleUrl>
            <LineString id="41649">
                <coordinates>107.620193,-6.9034615,0.0 107.619986,-6.9036148,0.0 107.6198855,-6.9036737,0.0 107.6197851,-6.9037114,0.0 107.6197247,-6.9037254,0.0 107.6196201,-6.9037367,0.0 107.619374,-6.9037412,0.0 107.6192567,-6.9037433,0.0 107.6192178,-6.9037445,0.0 107.6191238,-6.9037474,0.0 107.6189201,-6.9037537,0.0 107.6186813,-6.9037611,0.0</coordinates>
            </LineString>
        </Placemark>
        <Placemark id="41654">
            <name>Jalan Hayam Wuruk</name>
            <styleUrl>#41655</styleUrl>
            <LineString id="41653">
                <coordinates>107.6186813,-6.9037611,0.0 107.6179156,-6.9037939,0.0</coordinates>
            </LineString>
        </Placemark>
        <Placemark id="41658">
            <name>Jalan Hayam Wuruk</name>
            <styleUrl>#41659</styleUrl>
            <LineString id="41657">
                <coordinates>107.6179156,-6.9037939,0.0 107.6177807,-6.9037981,0.0 107.6176891,-6.9037875,0.0 107.6176401,-6.9037687,0.0 107.617566,-6.9037358,0.0 107.6174743,-6.9036728,0.0 107.6172502,-6.9035125,0.0</coordinates>
            </LineString>
        </Placemark>
        <Placemark id="41662">
            <name>Jalan Jenderal Ahmad Yani</name>
            <styleUrl>#41663</styleUrl>
            <LineString id="41661">
                <coordinates>107.6566577,-6.9022086,0.0 107.6564265,-6.9021902,0.0 107.6563227,-6.9021785,0.0</coordinates>
            </LineString>
        </Placemark>
        <Placemark id="41666">
            <name>Jalan Laswi</name>
            <styleUrl>#41667</styleUrl>
            <LineString id="41665">
                <coordinates>107.6299922,-6.9158161,0.0 107.6299627,-6.9157488,0.0</coordinates>
            </LineString>
        </Placemark>
        <Placemark id="41670">
            <name>Jalan Jenderal Ahmad Yani</name>
            <styleUrl>#41671</styleUrl>
            <LineString id="41669">
                <coordinates>107.6573116,-6.9022128,0.0 107.6572534,-6.9022149,0.0</coordinates>
            </LineString>
        </Placemark>
        <Placemark id="41674">
            <name>Jalan Abdul Haris Nasution</name>
            <styleUrl>#41675</styleUrl>
            <LineString id="41673">
                <coordinates>107.6707829,-6.9042441,0.0 107.6704035,-6.9042416,0.0 107.6703958,-6.9042415,0.0 107.6703697,-6.9042409,0.0 107.6698686,-6.90423,0.0 107.6697908,-6.9042283,0.0 107.6696962,-6.9042263,0.0 107.6695292,-6.9042216,0.0 107.6694301,-6.9042204,0.0 107.6693203,-6.904218,0.0 107.669297,-6.904218,0.0 107.6682617,-6.9042099,0.0 107.6679175,-6.9042041,0.0 107.6674966,-6.904197,0.0 107.6673559,-6.9041911,0.0 107.6672663,-6.9041863,0.0 107.6671896,-6.904182,0.0 107.6670084,-6.9041694,0.0 107.6669959,-6.9041686,0.0</coordinates>
            </LineString>
        </Placemark>
        <Placemark id="41678">
            <name>Jalan Abdul Haris Nasution</name>
            <styleUrl>#41679</styleUrl>
            <LineString id="41677">
                <coordinates>107.6776188,-6.9047757,0.0 107.6768299,-6.9047612,0.0 107.6767644,-6.904761,0.0 107.6766915,-6.9047603,0.0 107.6762912,-6.9047592,0.0 107.6761879,-6.9047512,0.0 107.6761367,-6.9047453,0.0 107.6760408,-6.9047386,0.0 107.6759315,-6.904729,0.0 107.6758598,-6.9047223,0.0 107.6757646,-6.9047133,0.0 107.6756859,-6.9047059,0.0 107.6754896,-6.9046807,0.0</coordinates>
            </LineString>
        </Placemark>
        <Placemark id="41682">
            <name>Jalan Abdul Haris Nasution</name>
            <styleUrl>#41683</styleUrl>
            <LineString id="41681">
                <coordinates>107.6754896,-6.9046807,0.0 107.6752663,-6.9046521,0.0 107.6750782,-6.9046278,0.0 107.6750423,-6.9046232,0.0 107.6750064,-6.9046182,0.0 107.674919,-6.904606,0.0 107.674832,-6.9045989,0.0 107.674651,-6.9045858,0.0 107.6744895,-6.9045944,0.0 107.6743694,-6.9046205,0.0 107.6742699,-6.9046459,0.0 107.6742142,-6.9046579,0.0 107.6739286,-6.9047317,0.0 107.6737776,-6.904767,0.0 107.6735618,-6.9048174,0.0 107.6734145,-6.9048521,0.0 107.6731822,-6.9049099,0.0</coordinates>
            </LineString>
        </Placemark>
        <Placemark id="41686">
            <name>Jalan Abdul Haris Nasution</name>
            <styleUrl>#41687</styleUrl>
            <LineString id="41685">
                <coordinates>107.6793999,-6.9049829,0.0 107.6793873,-6.9049801,0.0 107.6788554,-6.904916,0.0 107.6786894,-6.904896,0.0 107.6782995,-6.9048547,0.0 107.6780053,-6.9048194,0.0 107.677838,-6.904799,0.0 107.6776188,-6.9047757,0.0</coordinates>
            </LineString>
        </Placemark>
        <Placemark id="41690">
            <name>Jalan Abdul Haris Nasution</name>
            <styleUrl>#41691</styleUrl>
            <LineString id="41689">
                <coordinates>107.6802419,-6.9051046,0.0 107.6795138,-6.9049983,0.0 107.6794782,-6.9049937,0.0</coordinates>
            </LineString>
        </Placemark>
        <Placemark id="41694">
            <name>Jalan Abdul Haris Nasution</name>
            <styleUrl>#41695</styleUrl>
            <LineString id="41693">
                <coordinates>107.6853357,-6.9069314,0.0 107.6843353,-6.9065056,0.0 107.6841297,-6.9064181,0.0 107.684105,-6.9064076,0.0 107.6837696,-6.9062623,0.0 107.6835798,-6.9061801,0.0 107.6833223,-6.9060645,0.0 107.6828062,-6.9058327,0.0 107.6821902,-6.9055473,0.0 107.6821363,-6.9055223,0.0 107.6820608,-6.90548,0.0</coordinates>
            </LineString>
        </Placemark>
        <Placemark id="41698">
            <name>Jalan Diponegoro</name>
            <styleUrl>#41699</styleUrl>
            <LineString id="41697">
                <coordinates>107.6134712,-6.9004601,0.0 107.613905,-6.900554,0.0 107.6143382,-6.9006167,0.0 107.614717,-6.9006273,0.0 107.6149941,-6.900621,0.0 107.6150711,-6.9006334,0.0</coordinates>
            </LineString>
        </Placemark>
        <Placemark id="41702">
            <name>Jalan Jenderal Ahmad Yani</name>
            <styleUrl>#41703</styleUrl>
            <LineString id="41701">
                <coordinates>107.6563227,-6.9021785,0.0 107.6562379,-6.9021633,0.0</coordinates>
            </LineString>
        </Placemark>
        <Placemark id="41706">
            <name>Jalan Laswi</name>
            <styleUrl>#41707</styleUrl>
            <LineString id="41705">
                <coordinates>107.6313572,-6.9186866,0.0 107.6313458,-6.9186198,0.0</coordinates>
            </LineString>
        </Placemark>
        <Placemark id="41710">
            <name>Jalan Sukabumi</name>
            <styleUrl>#41711</styleUrl>
            <LineString id="41709">
                <coordinates>107.6314582,-6.9186505,0.0 107.6313572,-6.9186866,0.0</coordinates>
            </LineString>
        </Placemark>
        <Placemark id="41714">
            <name>Jalan Sukabumi</name>
            <styleUrl>#41715</styleUrl>
            <LineString id="41713">
                <coordinates>107.6320827,-6.9183023,0.0 107.6320334,-6.9183683,0.0 107.6315787,-6.9185925,0.0 107.6314582,-6.9186505,0.0</coordinates>
            </LineString>
        </Placemark>
        <Placemark id="41718">
            <name>Jalan Sukabumi</name>
            <styleUrl>#41719</styleUrl>
            <LineString id="41717">
                <coordinates>107.6337948,-6.9174252,0.0 107.6337656,-6.9174454,0.0 107.6330451,-6.9178143,0.0 107.6324739,-6.9181019,0.0</coordinates>
            </LineString>
        </Placemark>
        <Placemark id="41722">
            <name>Jalan Jenderal Ahmad Yani</name>
            <styleUrl>#41723</styleUrl>
            <LineString id="41721">
                <coordinates>107.6572534,-6.9022149,0.0 107.6571633,-6.9022188,0.0</coordinates>
            </LineString>
        </Placemark>
        <Placemark id="41726">
            <name>Jalan Jakarta</name>
            <styleUrl>#41727</styleUrl>
            <LineString id="41725">
                <coordinates>107.6434317,-6.9138202,0.0 107.6429791,-6.9138756,0.0</coordinates>
            </LineString>
        </Placemark>
        <Placemark id="41730">
            <name>Route Segment</name>
            <styleUrl>#41731</styleUrl>
            <LineString id="41729">
                <coordinates>107.6835707,-6.9237417,0.0 107.6836762,-6.9237775,0.0</coordinates>
            </LineString>
        </Placemark>
        <Placemark id="41734">
            <name>Jalan Cisaranten Kulon</name>
            <styleUrl>#41735</styleUrl>
            <LineString id="41733">
                <coordinates>107.6837623,-6.923502,0.0 107.6837049,-6.923691,0.0</coordinates>
            </LineString>
        </Placemark>
        <Placemark id="41738">
            <name>Jalan Cisaranten Kulon</name>
            <styleUrl>#41739</styleUrl>
            <LineString id="41737">
                <coordinates>107.6837049,-6.923691,0.0 107.6836762,-6.9237775,0.0</coordinates>
            </LineString>
        </Placemark>
        <Placemark id="41742">
            <name>Jalan Cisanggarung</name>
            <styleUrl>#41743</styleUrl>
            <LineString id="41741">
                <coordinates>107.6210131,-6.90433,0.0 107.6209757,-6.9042722,0.0</coordinates>
            </LineString>
        </Placemark>
        <Placemark id="41746">
            <name>Jalan Cisanggarung</name>
            <styleUrl>#41747</styleUrl>
            <LineString id="41745">
                <coordinates>107.6209757,-6.9042722,0.0 107.6206843,-6.9039832,0.0</coordinates>
            </LineString>
        </Placemark>
        <Placemark id="41750">
            <name>Jalan Cisanggarung</name>
            <styleUrl>#41751</styleUrl>
            <LineString id="41749">
                <coordinates>107.6206843,-6.9039832,0.0 107.620193,-6.9034615,0.0</coordinates>
            </LineString>
        </Placemark>
        <Placemark id="41754">
            <name>Jalan Diponegoro</name>
            <styleUrl>#41755</styleUrl>
            <LineString id="41753">
                <coordinates>107.6164318,-6.9013546,0.0 107.6167683,-6.9013466,0.0 107.6168907,-6.9013406,0.0</coordinates>
            </LineString>
        </Placemark>
        <Placemark id="41758">
            <name>Jalan Diponegoro</name>
            <styleUrl>#41759</styleUrl>
            <LineString id="41757">
                <coordinates>107.6163648,-6.901357,0.0 107.6164318,-6.9013546,0.0</coordinates>
            </LineString>
        </Placemark>
        <Placemark id="41762">
            <name>Jalan Diponegoro</name>
            <styleUrl>#41763</styleUrl>
            <LineString id="41761">
                <coordinates>107.6154093,-6.900922,0.0 107.6155959,-6.9010813,0.0</coordinates>
            </LineString>
        </Placemark>
        <Placemark id="41766">
            <name>Jalan Diponegoro</name>
            <styleUrl>#41767</styleUrl>
            <LineString id="41765">
                <coordinates>107.6155959,-6.9010813,0.0 107.6159798,-6.9013693,0.0</coordinates>
            </LineString>
        </Placemark>
        <Placemark id="41770">
            <name>Jalan L.L. RE. Martadinata</name>
            <styleUrl>#41771</styleUrl>
            <LineString id="41769">
                <coordinates>107.6299627,-6.9157488,0.0 107.629917,-6.9156449,0.0 107.629839,-6.9154679,0.0</coordinates>
            </LineString>
        </Placemark>
        <Placemark id="41774">
            <name>Jalan Sukabumi</name>
            <styleUrl>#41775</styleUrl>
            <LineString id="41773">
                <coordinates>107.6324739,-6.9181019,0.0 107.6322059,-6.9182368,0.0 107.6321219,-6.9182791,0.0 107.6320827,-6.9183023,0.0</coordinates>
            </LineString>
        </Placemark>
    </Document>
</kml>
