<?xml version="1.0" encoding="UTF-8"?>
<kml xmlns="http://www.opengis.net/kml/2.2" xmlns:gx="http://www.google.com/kml/ext/2.2">
    <Document id="42484">
        <Style id="42490">
            <IconStyle id="42491">
                <colorMode>normal</colorMode>
                <scale>1</scale>
                <heading>0</heading>
                <Icon id="42492">
                    <href>http://maps.google.com/mapfiles/kml/pushpin/ylw-pushpin.png</href>
                </Icon>
            </IconStyle>
        </Style>
        <Style id="42495">
            <IconStyle id="42496">
                <colorMode>normal</colorMode>
                <scale>1</scale>
                <heading>0</heading>
                <Icon id="42497">
                    <href>http://maps.google.com/mapfiles/kml/pushpin/ylw-pushpin.png</href>
                </Icon>
            </IconStyle>
        </Style>
        <Style id="42500">
            <LineStyle id="42501">
                <color>ff386800</color>
                <colorMode>normal</colorMode>
                <width>4</width>
            </LineStyle>
        </Style>
        <Style id="42504">
            <LineStyle id="42505">
                <color>ff386800</color>
                <colorMode>normal</colorMode>
                <width>4</width>
            </LineStyle>
        </Style>
        <Style id="42508">
            <LineStyle id="42509">
                <color>ff386800</color>
                <colorMode>normal</colorMode>
                <width>4</width>
            </LineStyle>
        </Style>
        <Style id="42512">
            <LineStyle id="42513">
                <color>ff386800</color>
                <colorMode>normal</colorMode>
                <width>4</width>
            </LineStyle>
        </Style>
        <Style id="42516">
            <LineStyle id="42517">
                <color>ff386800</color>
                <colorMode>normal</colorMode>
                <width>4</width>
            </LineStyle>
        </Style>
        <Style id="42520">
            <LineStyle id="42521">
                <color>ff386800</color>
                <colorMode>normal</colorMode>
                <width>4</width>
            </LineStyle>
        </Style>
        <Style id="42524">
            <LineStyle id="42525">
                <color>ff386800</color>
                <colorMode>normal</colorMode>
                <width>4</width>
            </LineStyle>
        </Style>
        <Style id="42528">
            <LineStyle id="42529">
                <color>ff386800</color>
                <colorMode>normal</colorMode>
                <width>4</width>
            </LineStyle>
        </Style>
        <Style id="42532">
            <LineStyle id="42533">
                <color>ff386800</color>
                <colorMode>normal</colorMode>
                <width>4</width>
            </LineStyle>
        </Style>
        <Style id="42536">
            <LineStyle id="42537">
                <color>ff386800</color>
                <colorMode>normal</colorMode>
                <width>4</width>
            </LineStyle>
        </Style>
        <Style id="42540">
            <LineStyle id="42541">
                <color>ff386800</color>
                <colorMode>normal</colorMode>
                <width>4</width>
            </LineStyle>
        </Style>
        <Style id="42544">
            <LineStyle id="42545">
                <color>ff386800</color>
                <colorMode>normal</colorMode>
                <width>4</width>
            </LineStyle>
        </Style>
        <Style id="42548">
            <LineStyle id="42549">
                <color>ff386800</color>
                <colorMode>normal</colorMode>
                <width>4</width>
            </LineStyle>
        </Style>
        <Style id="42552">
            <LineStyle id="42553">
                <color>ff386800</color>
                <colorMode>normal</colorMode>
                <width>4</width>
            </LineStyle>
        </Style>
        <Style id="42556">
            <LineStyle id="42557">
                <color>ff386800</color>
                <colorMode>normal</colorMode>
                <width>4</width>
            </LineStyle>
        </Style>
        <Style id="42560">
            <LineStyle id="42561">
                <color>ff386800</color>
                <colorMode>normal</colorMode>
                <width>4</width>
            </LineStyle>
        </Style>
        <Style id="42564">
            <LineStyle id="42565">
                <color>ff386800</color>
                <colorMode>normal</colorMode>
                <width>4</width>
            </LineStyle>
        </Style>
        <Style id="42568">
            <LineStyle id="42569">
                <color>ff386800</color>
                <colorMode>normal</colorMode>
                <width>4</width>
            </LineStyle>
        </Style>
        <Style id="42572">
            <LineStyle id="42573">
                <color>ff386800</color>
                <colorMode>normal</colorMode>
                <width>4</width>
            </LineStyle>
        </Style>
        <Style id="42576">
            <LineStyle id="42577">
                <color>ff386800</color>
                <colorMode>normal</colorMode>
                <width>4</width>
            </LineStyle>
        </Style>
        <Style id="42580">
            <LineStyle id="42581">
                <color>ff386800</color>
                <colorMode>normal</colorMode>
                <width>4</width>
            </LineStyle>
        </Style>
        <Style id="42584">
            <LineStyle id="42585">
                <color>ff386800</color>
                <colorMode>normal</colorMode>
                <width>4</width>
            </LineStyle>
        </Style>
        <Style id="42588">
            <LineStyle id="42589">
                <color>ff386800</color>
                <colorMode>normal</colorMode>
                <width>4</width>
            </LineStyle>
        </Style>
        <Style id="42592">
            <LineStyle id="42593">
                <color>ff386800</color>
                <colorMode>normal</colorMode>
                <width>4</width>
            </LineStyle>
        </Style>
        <Style id="42596">
            <LineStyle id="42597">
                <color>ff386800</color>
                <colorMode>normal</colorMode>
                <width>4</width>
            </LineStyle>
        </Style>
        <Style id="42600">
            <LineStyle id="42601">
                <color>ff386800</color>
                <colorMode>normal</colorMode>
                <width>4</width>
            </LineStyle>
        </Style>
        <Style id="42604">
            <LineStyle id="42605">
                <color>ff386800</color>
                <colorMode>normal</colorMode>
                <width>4</width>
            </LineStyle>
        </Style>
        <Style id="42608">
            <LineStyle id="42609">
                <color>ff386800</color>
                <colorMode>normal</colorMode>
                <width>4</width>
            </LineStyle>
        </Style>
        <Style id="42612">
            <LineStyle id="42613">
                <color>ff386800</color>
                <colorMode>normal</colorMode>
                <width>4</width>
            </LineStyle>
        </Style>
        <Style id="42616">
            <LineStyle id="42617">
                <color>ff386800</color>
                <colorMode>normal</colorMode>
                <width>4</width>
            </LineStyle>
        </Style>
        <Style id="42620">
            <LineStyle id="42621">
                <color>ff386800</color>
                <colorMode>normal</colorMode>
                <width>4</width>
            </LineStyle>
        </Style>
        <Style id="42624">
            <LineStyle id="42625">
                <color>ff386800</color>
                <colorMode>normal</colorMode>
                <width>4</width>
            </LineStyle>
        </Style>
        <Style id="42628">
            <LineStyle id="42629">
                <color>ff386800</color>
                <colorMode>normal</colorMode>
                <width>4</width>
            </LineStyle>
        </Style>
        <Style id="42632">
            <LineStyle id="42633">
                <color>ff386800</color>
                <colorMode>normal</colorMode>
                <width>4</width>
            </LineStyle>
        </Style>
        <Style id="42636">
            <LineStyle id="42637">
                <color>ff386800</color>
                <colorMode>normal</colorMode>
                <width>4</width>
            </LineStyle>
        </Style>
        <Style id="42640">
            <LineStyle id="42641">
                <color>ff386800</color>
                <colorMode>normal</colorMode>
                <width>4</width>
            </LineStyle>
        </Style>
        <Style id="42644">
            <LineStyle id="42645">
                <color>ff386800</color>
                <colorMode>normal</colorMode>
                <width>4</width>
            </LineStyle>
        </Style>
        <Style id="42648">
            <LineStyle id="42649">
                <color>ff386800</color>
                <colorMode>normal</colorMode>
                <width>4</width>
            </LineStyle>
        </Style>
        <Style id="42652">
            <LineStyle id="42653">
                <color>ff386800</color>
                <colorMode>normal</colorMode>
                <width>4</width>
            </LineStyle>
        </Style>
        <Style id="42656">
            <LineStyle id="42657">
                <color>ff386800</color>
                <colorMode>normal</colorMode>
                <width>4</width>
            </LineStyle>
        </Style>
        <Style id="42660">
            <LineStyle id="42661">
                <color>ff386800</color>
                <colorMode>normal</colorMode>
                <width>4</width>
            </LineStyle>
        </Style>
        <Style id="42664">
            <LineStyle id="42665">
                <color>ff386800</color>
                <colorMode>normal</colorMode>
                <width>4</width>
            </LineStyle>
        </Style>
        <Style id="42668">
            <LineStyle id="42669">
                <color>ff386800</color>
                <colorMode>normal</colorMode>
                <width>4</width>
            </LineStyle>
        </Style>
        <Style id="42672">
            <LineStyle id="42673">
                <color>ff386800</color>
                <colorMode>normal</colorMode>
                <width>4</width>
            </LineStyle>
        </Style>
        <Style id="42676">
            <LineStyle id="42677">
                <color>ff386800</color>
                <colorMode>normal</colorMode>
                <width>4</width>
            </LineStyle>
        </Style>
        <Style id="42680">
            <LineStyle id="42681">
                <color>ff386800</color>
                <colorMode>normal</colorMode>
                <width>4</width>
            </LineStyle>
        </Style>
        <Style id="42684">
            <LineStyle id="42685">
                <color>ff386800</color>
                <colorMode>normal</colorMode>
                <width>4</width>
            </LineStyle>
        </Style>
        <Style id="42688">
            <LineStyle id="42689">
                <color>ff386800</color>
                <colorMode>normal</colorMode>
                <width>4</width>
            </LineStyle>
        </Style>
        <Style id="42692">
            <LineStyle id="42693">
                <color>ff386800</color>
                <colorMode>normal</colorMode>
                <width>4</width>
            </LineStyle>
        </Style>
        <Style id="42696">
            <LineStyle id="42697">
                <color>ff386800</color>
                <colorMode>normal</colorMode>
                <width>4</width>
            </LineStyle>
        </Style>
        <Style id="42700">
            <LineStyle id="42701">
                <color>ff386800</color>
                <colorMode>normal</colorMode>
                <width>4</width>
            </LineStyle>
        </Style>
        <Style id="42704">
            <LineStyle id="42705">
                <color>ff386800</color>
                <colorMode>normal</colorMode>
                <width>4</width>
            </LineStyle>
        </Style>
        <Style id="42708">
            <LineStyle id="42709">
                <color>ff386800</color>
                <colorMode>normal</colorMode>
                <width>4</width>
            </LineStyle>
        </Style>
        <Style id="42712">
            <LineStyle id="42713">
                <color>ff386800</color>
                <colorMode>normal</colorMode>
                <width>4</width>
            </LineStyle>
        </Style>
        <Style id="42716">
            <LineStyle id="42717">
                <color>ff386800</color>
                <colorMode>normal</colorMode>
                <width>4</width>
            </LineStyle>
        </Style>
        <Style id="42720">
            <LineStyle id="42721">
                <color>ff386800</color>
                <colorMode>normal</colorMode>
                <width>4</width>
            </LineStyle>
        </Style>
        <Style id="42724">
            <LineStyle id="42725">
                <color>ff386800</color>
                <colorMode>normal</colorMode>
                <width>4</width>
            </LineStyle>
        </Style>
        <Style id="42728">
            <LineStyle id="42729">
                <color>ff386800</color>
                <colorMode>normal</colorMode>
                <width>4</width>
            </LineStyle>
        </Style>
        <Style id="42732">
            <LineStyle id="42733">
                <color>ff386800</color>
                <colorMode>normal</colorMode>
                <width>4</width>
            </LineStyle>
        </Style>
        <Style id="42736">
            <LineStyle id="42737">
                <color>ff386800</color>
                <colorMode>normal</colorMode>
                <width>4</width>
            </LineStyle>
        </Style>
        <Style id="42740">
            <LineStyle id="42741">
                <color>ff386800</color>
                <colorMode>normal</colorMode>
                <width>4</width>
            </LineStyle>
        </Style>
        <Style id="42744">
            <LineStyle id="42745">
                <color>ff386800</color>
                <colorMode>normal</colorMode>
                <width>4</width>
            </LineStyle>
        </Style>
        <Style id="42748">
            <LineStyle id="42749">
                <color>ff386800</color>
                <colorMode>normal</colorMode>
                <width>4</width>
            </LineStyle>
        </Style>
        <Style id="42752">
            <LineStyle id="42753">
                <color>ff386800</color>
                <colorMode>normal</colorMode>
                <width>4</width>
            </LineStyle>
        </Style>
        <Style id="42756">
            <LineStyle id="42757">
                <color>ff386800</color>
                <colorMode>normal</colorMode>
                <width>4</width>
            </LineStyle>
        </Style>
        <Style id="42760">
            <LineStyle id="42761">
                <color>ff386800</color>
                <colorMode>normal</colorMode>
                <width>4</width>
            </LineStyle>
        </Style>
        <Style id="42764">
            <LineStyle id="42765">
                <color>ff386800</color>
                <colorMode>normal</colorMode>
                <width>4</width>
            </LineStyle>
        </Style>
        <Style id="42768">
            <LineStyle id="42769">
                <color>ff386800</color>
                <colorMode>normal</colorMode>
                <width>4</width>
            </LineStyle>
        </Style>
        <Style id="42772">
            <LineStyle id="42773">
                <color>ff386800</color>
                <colorMode>normal</colorMode>
                <width>4</width>
            </LineStyle>
        </Style>
        <Style id="42776">
            <LineStyle id="42777">
                <color>ff386800</color>
                <colorMode>normal</colorMode>
                <width>4</width>
            </LineStyle>
        </Style>
        <Style id="42780">
            <LineStyle id="42781">
                <color>ff386800</color>
                <colorMode>normal</colorMode>
                <width>4</width>
            </LineStyle>
        </Style>
        <Style id="42784">
            <LineStyle id="42785">
                <color>ff386800</color>
                <colorMode>normal</colorMode>
                <width>4</width>
            </LineStyle>
        </Style>
        <Style id="42788">
            <LineStyle id="42789">
                <color>ff386800</color>
                <colorMode>normal</colorMode>
                <width>4</width>
            </LineStyle>
        </Style>
        <Style id="42792">
            <LineStyle id="42793">
                <color>ff386800</color>
                <colorMode>normal</colorMode>
                <width>4</width>
            </LineStyle>
        </Style>
        <Style id="42796">
            <LineStyle id="42797">
                <color>ff386800</color>
                <colorMode>normal</colorMode>
                <width>4</width>
            </LineStyle>
        </Style>
        <Style id="42800">
            <LineStyle id="42801">
                <color>ff386800</color>
                <colorMode>normal</colorMode>
                <width>4</width>
            </LineStyle>
        </Style>
        <Style id="42804">
            <LineStyle id="42805">
                <color>ff386800</color>
                <colorMode>normal</colorMode>
                <width>4</width>
            </LineStyle>
        </Style>
        <Style id="42808">
            <LineStyle id="42809">
                <color>ff386800</color>
                <colorMode>normal</colorMode>
                <width>4</width>
            </LineStyle>
        </Style>
        <Style id="42812">
            <LineStyle id="42813">
                <color>ff386800</color>
                <colorMode>normal</colorMode>
                <width>4</width>
            </LineStyle>
        </Style>
        <Style id="42816">
            <LineStyle id="42817">
                <color>ff386800</color>
                <colorMode>normal</colorMode>
                <width>4</width>
            </LineStyle>
        </Style>
        <Style id="42820">
            <LineStyle id="42821">
                <color>ff386800</color>
                <colorMode>normal</colorMode>
                <width>4</width>
            </LineStyle>
        </Style>
        <Style id="42824">
            <LineStyle id="42825">
                <color>ff386800</color>
                <colorMode>normal</colorMode>
                <width>4</width>
            </LineStyle>
        </Style>
        <Style id="42828">
            <LineStyle id="42829">
                <color>ff386800</color>
                <colorMode>normal</colorMode>
                <width>4</width>
            </LineStyle>
        </Style>
        <Style id="42832">
            <LineStyle id="42833">
                <color>ff386800</color>
                <colorMode>normal</colorMode>
                <width>4</width>
            </LineStyle>
        </Style>
        <Style id="42836">
            <LineStyle id="42837">
                <color>ff386800</color>
                <colorMode>normal</colorMode>
                <width>4</width>
            </LineStyle>
        </Style>
        <Style id="42840">
            <LineStyle id="42841">
                <color>ff386800</color>
                <colorMode>normal</colorMode>
                <width>4</width>
            </LineStyle>
        </Style>
        <Style id="42844">
            <LineStyle id="42845">
                <color>ff386800</color>
                <colorMode>normal</colorMode>
                <width>4</width>
            </LineStyle>
        </Style>
        <Style id="42848">
            <LineStyle id="42849">
                <color>ff386800</color>
                <colorMode>normal</colorMode>
                <width>4</width>
            </LineStyle>
        </Style>
        <Style id="42852">
            <LineStyle id="42853">
                <color>ff386800</color>
                <colorMode>normal</colorMode>
                <width>4</width>
            </LineStyle>
        </Style>
        <Style id="42856">
            <LineStyle id="42857">
                <color>ff386800</color>
                <colorMode>normal</colorMode>
                <width>4</width>
            </LineStyle>
        </Style>
        <Style id="42860">
            <LineStyle id="42861">
                <color>ff386800</color>
                <colorMode>normal</colorMode>
                <width>4</width>
            </LineStyle>
        </Style>
        <ExtendedData>
            <Data name="route-name">
                <value>19: Sarijadi → Ciroyom</value>
            </Data>
            <Data name="source">
                <value>Transport for Bandung</value>
            </Data>
        </ExtendedData>
        <Placemark id="42489">
            <name>Pasar Cibogo Sarijadi</name>
            <styleUrl>#42490</styleUrl>
            <Point id="42488">
                <coordinates>107.5751448,-6.8826498,0.0</coordinates>
            </Point>
        </Placemark>
        <Placemark id="42494">
            <name>Stasiun Ciroyom</name>
            <styleUrl>#42495</styleUrl>
            <Point id="42493">
                <coordinates>107.5890644,-6.914151,0.0</coordinates>
            </Point>
        </Placemark>
        <Placemark id="42499">
            <name>Jalan HOS. Cokroaminoto</name>
            <styleUrl>#42500</styleUrl>
            <LineString id="42498">
                <coordinates>107.5976101,-6.9055012,0.0 107.5976119,-6.9055512,0.0 107.5976179,-6.9058357,0.0 107.5976349,-6.9062206,0.0 107.5976387,-6.9064293,0.0</coordinates>
            </LineString>
        </Placemark>
        <Placemark id="42503">
            <name>Jalan Aruna</name>
            <styleUrl>#42504</styleUrl>
            <LineString id="42502">
                <coordinates>107.5894511,-6.9112342,0.0 107.5891899,-6.9105353,0.0 107.5885406,-6.9088993,0.0 107.5884207,-6.9086068,0.0 107.5883107,-6.9083352,0.0 107.5883022,-6.9083129,0.0 107.5882157,-6.908086,0.0 107.5879895,-6.9075052,0.0 107.587786,-6.907013,0.0</coordinates>
            </LineString>
        </Placemark>
        <Placemark id="42507">
            <name>Jalan Sindang Sirna</name>
            <styleUrl>#42508</styleUrl>
            <LineString id="42506">
                <coordinates>107.595762,-6.8778535,0.0 107.5956032,-6.8776827,0.0 107.5954873,-6.8775725,0.0 107.5953849,-6.8774808,0.0 107.595225,-6.8773601,0.0 107.5950365,-6.8772558,0.0 107.5949019,-6.877212,0.0 107.5948064,-6.8771975,0.0 107.5947246,-6.8772007,0.0 107.5946369,-6.8772173,0.0 107.5944884,-6.8772736,0.0 107.5943937,-6.8773351,0.0 107.5942584,-6.8774297,0.0 107.5941836,-6.8775208,0.0 107.594033,-6.8776752,0.0 107.5937671,-6.8778795,0.0</coordinates>
            </LineString>
        </Placemark>
        <Placemark id="42511">
            <name>Jalan Sirna Galih</name>
            <styleUrl>#42512</styleUrl>
            <LineString id="42510">
                <coordinates>107.5951798,-6.8790317,0.0 107.5952062,-6.879359,0.0 107.5952499,-6.8797833,0.0 107.5952664,-6.8799601,0.0 107.5952753,-6.8800616,0.0 107.5953616,-6.8806491,0.0 107.5953863,-6.8808241,0.0 107.5954305,-6.8808929,0.0</coordinates>
            </LineString>
        </Placemark>
        <Placemark id="42515">
            <name>Jalan Dokter Setiabudi</name>
            <styleUrl>#42516</styleUrl>
            <LineString id="42514">
                <coordinates>107.600512,-6.8825853,0.0 107.600617,-6.8827057,0.0 107.6010005,-6.8831201,0.0 107.6013125,-6.8834804,0.0</coordinates>
            </LineString>
        </Placemark>
        <Placemark id="42519">
            <name>Jalan Jurang</name>
            <styleUrl>#42520</styleUrl>
            <LineString id="42518">
                <coordinates>107.5998881,-6.8900645,0.0 107.6001927,-6.8892748,0.0 107.6004083,-6.8887161,0.0 107.6004572,-6.8885822,0.0 107.6005,-6.8883194,0.0 107.6005162,-6.888101,0.0 107.6005481,-6.8875561,0.0 107.6005647,-6.8873092,0.0</coordinates>
            </LineString>
        </Placemark>
        <Placemark id="42523">
            <name>Jalan Lamping</name>
            <styleUrl>#42524</styleUrl>
            <LineString id="42522">
                <coordinates>107.601777,-6.887493,0.0 107.6016358,-6.8875138,0.0 107.6014675,-6.8875344,0.0 107.601267,-6.8875212,0.0 107.6005647,-6.8873092,0.0</coordinates>
            </LineString>
        </Placemark>
        <Placemark id="42527">
            <name>Jalan Makmur</name>
            <styleUrl>#42528</styleUrl>
            <LineString id="42526">
                <coordinates>107.5989838,-6.8941794,0.0 107.599781,-6.8945342,0.0 107.6003652,-6.8948265,0.0</coordinates>
            </LineString>
        </Placemark>
        <Placemark id="42531">
            <name>Jalan Profesor Christiaan Eijkman</name>
            <styleUrl>#42532</styleUrl>
            <LineString id="42530">
                <coordinates>107.6009465,-6.8954647,0.0 107.6009288,-6.8957674,0.0 107.6008463,-6.8959681,0.0</coordinates>
            </LineString>
        </Placemark>
        <Placemark id="42535">
            <name>Jalan Karangsari</name>
            <styleUrl>#42536</styleUrl>
            <LineString id="42534">
                <coordinates>107.5973545,-6.8808747,0.0 107.5974508,-6.8808819,0.0 107.5975471,-6.8808891,0.0 107.5986782,-6.8811214,0.0</coordinates>
            </LineString>
        </Placemark>
        <Placemark id="42539">
            <name>Jalan Sederhana</name>
            <styleUrl>#42540</styleUrl>
            <LineString id="42538">
                <coordinates>107.5998881,-6.8900645,0.0 107.5997024,-6.8905681,0.0 107.5996153,-6.8908128,0.0</coordinates>
            </LineString>
        </Placemark>
        <Placemark id="42543">
            <name>Jalan Sederhana</name>
            <styleUrl>#42544</styleUrl>
            <LineString id="42542">
                <coordinates>107.5982533,-6.8959337,0.0 107.598061,-6.8961075,0.0 107.597854,-6.8962946,0.0 107.5975318,-6.8966067,0.0</coordinates>
            </LineString>
        </Placemark>
        <Placemark id="42547">
            <name>Route Segment</name>
            <styleUrl>#42548</styleUrl>
            <LineString id="42546">
                <coordinates>107.576498,-6.8822436,0.0 107.5762649,-6.8814748,0.0</coordinates>
            </LineString>
        </Placemark>
        <Placemark id="42551">
            <name>Jalan Sariasih</name>
            <styleUrl>#42552</styleUrl>
            <LineString id="42550">
                <coordinates>107.579249,-6.8764632,0.0 107.5787263,-6.8762371,0.0 107.5785597,-6.876162,0.0 107.5783526,-6.8760725,0.0</coordinates>
            </LineString>
        </Placemark>
        <Placemark id="42555">
            <name>Jalan Cipedes Atas</name>
            <styleUrl>#42556</styleUrl>
            <LineString id="42554">
                <coordinates>107.5905616,-6.8777004,0.0 107.5906051,-6.8772264,0.0 107.5906119,-6.8771526,0.0 107.5906285,-6.8768327,0.0 107.5906365,-6.876561,0.0 107.5906541,-6.8759436,0.0 107.5905973,-6.8756737,0.0 107.5905992,-6.8755744,0.0 107.5906,-6.8755303,0.0 107.590958,-6.8743096,0.0 107.5909701,-6.8742154,0.0 107.5909564,-6.8741758,0.0 107.5909265,-6.8741471,0.0 107.5908735,-6.8741215,0.0 107.5906282,-6.8740679,0.0 107.5905869,-6.8740356,0.0 107.5905758,-6.8740077,0.0 107.590529,-6.8738194,0.0 107.590523,-6.8737259,0.0 107.5905374,-6.8735742,0.0 107.5906013,-6.8733749,0.0 107.5906107,-6.8733057,0.0 107.5906057,-6.8732215,0.0 107.5905803,-6.8731734,0.0 107.5905152,-6.8731345,0.0 107.5904216,-6.8731117,0.0 107.5903787,-6.8730959,0.0 107.5903617,-6.8730845,0.0 107.5903525,-6.8730693,0.0 107.5902147,-6.872419,0.0 107.5901909,-6.8722158,0.0 107.5901979,-6.871954,0.0 107.5902042,-6.8719195,0.0 107.5902124,-6.8718697,0.0 107.5902322,-6.8718142,0.0 107.5902727,-6.8717351,0.0 107.5904906,-6.8713372,0.0 107.5905007,-6.8712512,0.0 107.5905021,-6.87113,0.0 107.5904907,-6.8710734,0.0 107.5904889,-6.871038,0.0 107.5905329,-6.8708744,0.0 107.590557,-6.8707972,0.0 107.5905726,-6.8707254,0.0 107.5905718,-6.8706321,0.0 107.5905503,-6.8704204,0.0 107.590559,-6.8703531,0.0 107.5906154,-6.8699564,0.0 107.5906207,-6.8699191,0.0</coordinates>
            </LineString>
        </Placemark>
        <Placemark id="42559">
            <name>Jalan Sarimanah</name>
            <styleUrl>#42560</styleUrl>
            <LineString id="42558">
                <coordinates>107.5761545,-6.881035,0.0 107.5764048,-6.8804841,0.0 107.5765904,-6.8800587,0.0 107.5767942,-6.8796059,0.0</coordinates>
            </LineString>
        </Placemark>
        <Placemark id="42563">
            <name>Jalan Sarijadi Raya</name>
            <styleUrl>#42564</styleUrl>
            <LineString id="42562">
                <coordinates>107.5814747,-6.8698634,0.0 107.5816514,-6.8693892,0.0 107.5817614,-6.8690727,0.0 107.5818554,-6.868778,0.0 107.5819102,-6.8686293,0.0 107.5820167,-6.8683243,0.0</coordinates>
            </LineString>
        </Placemark>
        <Placemark id="42567">
            <name>Jalan Pasir Kaliki</name>
            <styleUrl>#42568</styleUrl>
            <LineString id="42566">
                <coordinates>107.5974217,-6.8991501,0.0 107.597458,-6.899457,0.0 107.5974799,-6.8999882,0.0 107.5974825,-6.9000048,0.0 107.5974905,-6.9000261,0.0 107.5974993,-6.9000414,0.0 107.5975127,-6.9000574,0.0 107.5975315,-6.900076,0.0 107.5975596,-6.900098,0.0 107.5975838,-6.9001146,0.0 107.5976133,-6.9001333,0.0 107.5976491,-6.9001556,0.0 107.5976841,-6.9001782,0.0 107.5977317,-6.9002067,0.0</coordinates>
            </LineString>
        </Placemark>
        <Placemark id="42571">
            <name>Jalan Pasteur</name>
            <styleUrl>#42572</styleUrl>
            <LineString id="42570">
                <coordinates>107.5982442,-6.9003802,0.0 107.597773,-6.9003861,0.0 107.5977337,-6.9003863,0.0</coordinates>
            </LineString>
        </Placemark>
        <Placemark id="42575">
            <name>Jalan Geger Kalong Hilir</name>
            <styleUrl>#42576</styleUrl>
            <LineString id="42574">
                <coordinates>107.5820167,-6.8683243,0.0 107.5821997,-6.8679774,0.0 107.5822376,-6.8679212,0.0 107.582242,-6.8679172,0.0 107.5822467,-6.8679135,0.0 107.5822507,-6.8679111,0.0 107.5822551,-6.8679096,0.0 107.5822622,-6.867908,0.0 107.5822663,-6.8679073,0.0 107.5822717,-6.8679072,0.0 107.5822806,-6.8679074,0.0 107.5822999,-6.8679125,0.0 107.5823193,-6.8679191,0.0 107.5829223,-6.8680848,0.0 107.5829657,-6.8680849,0.0 107.5830093,-6.8680762,0.0</coordinates>
            </LineString>
        </Placemark>
        <Placemark id="42579">
            <name>Jalan Geger Kalong Hilir</name>
            <styleUrl>#42580</styleUrl>
            <LineString id="42578">
                <coordinates>107.5830093,-6.8680762,0.0 107.5830247,-6.8680586,0.0 107.5830576,-6.8680287,0.0 107.5831038,-6.8680057,0.0 107.5831598,-6.8679915,0.0</coordinates>
            </LineString>
        </Placemark>
        <Placemark id="42583">
            <name>Jalan Pajajaran</name>
            <styleUrl>#42584</styleUrl>
            <LineString id="42582">
                <coordinates>107.5975328,-6.9064531,0.0 107.5972812,-6.9064634,0.0 107.5971648,-6.9064676,0.0 107.5970224,-6.9064779,0.0 107.5968205,-6.9064928,0.0</coordinates>
            </LineString>
        </Placemark>
        <Placemark id="42587">
            <name>Jalan HOS. Cokroaminoto</name>
            <styleUrl>#42588</styleUrl>
            <LineString id="42586">
                <coordinates>107.5975702,-6.9053954,0.0 107.5976013,-6.9054493,0.0 107.5976101,-6.9055012,0.0</coordinates>
            </LineString>
        </Placemark>
        <Placemark id="42591">
            <name>Jalan Pasir Kaliki</name>
            <styleUrl>#42592</styleUrl>
            <LineString id="42590">
                <coordinates>107.5974,-6.8987139,0.0 107.5974075,-6.898977,0.0</coordinates>
            </LineString>
        </Placemark>
        <Placemark id="42595">
            <name>Jalan Sarijadi Raya</name>
            <styleUrl>#42596</styleUrl>
            <LineString id="42594">
                <coordinates>107.5814747,-6.8698634,0.0 107.5813869,-6.8698499,0.0 107.5813338,-6.8698534,0.0 107.5813038,-6.8698645,0.0 107.5812787,-6.8698882,0.0 107.5811043,-6.8701249,0.0 107.581003,-6.8702619,0.0 107.5809694,-6.8703249,0.0 107.58094,-6.870419,0.0 107.5809103,-6.8705212,0.0 107.5809024,-6.8705668,0.0 107.5808975,-6.8706613,0.0 107.5808906,-6.8707365,0.0 107.5808603,-6.8710676,0.0 107.5807834,-6.8716481,0.0 107.5807314,-6.8719003,0.0 107.5806752,-6.8721384,0.0 107.5805724,-6.8725536,0.0 107.5805425,-6.8726675,0.0 107.5804919,-6.8728564,0.0 107.5804688,-6.8729524,0.0 107.5804402,-6.873063,0.0 107.5803986,-6.8732144,0.0 107.5802879,-6.8737985,0.0 107.5802738,-6.873873,0.0 107.5802422,-6.8740164,0.0 107.5802088,-6.8741681,0.0 107.5801822,-6.8743162,0.0 107.5801574,-6.8743999,0.0 107.5801338,-6.8744734,0.0 107.5800766,-6.8746007,0.0 107.5800294,-6.8747117,0.0 107.5800064,-6.8747561,0.0 107.5799373,-6.8749092,0.0 107.579875,-6.8750471,0.0 107.57982,-6.8751686,0.0 107.5796845,-6.8754684,0.0 107.5796278,-6.8755939,0.0 107.5794406,-6.8760055,0.0 107.579249,-6.8764632,0.0</coordinates>
            </LineString>
        </Placemark>
        <Placemark id="42599">
            <name>Jalan Pasteur</name>
            <styleUrl>#42600</styleUrl>
            <LineString id="42598">
                <coordinates>107.6010646,-6.9003568,0.0 107.6010291,-6.9003565,0.0 107.600771,-6.9003544,0.0 107.6005268,-6.9003545,0.0 107.6003874,-6.9003546,0.0 107.5999891,-6.9003576,0.0 107.5995868,-6.9003613,0.0</coordinates>
            </LineString>
        </Placemark>
        <Placemark id="42603">
            <name>Jalan Pasteur</name>
            <styleUrl>#42604</styleUrl>
            <LineString id="42602">
                <coordinates>107.5993001,-6.900202,0.0 107.599805,-6.900195,0.0 107.6003645,-6.900192,0.0 107.6008037,-6.9002057,0.0 107.6010655,-6.9002051,0.0</coordinates>
            </LineString>
        </Placemark>
        <Placemark id="42607">
            <name>Jalan Raden Adipati Aria Wiranatakusumah</name>
            <styleUrl>#42608</styleUrl>
            <LineString id="42606">
                <coordinates>107.60158,-6.8845161,0.0 107.6016942,-6.8850534,0.0 107.6018127,-6.8856638,0.0 107.6018854,-6.8859731,0.0 107.6021499,-6.8872977,0.0 107.6021691,-6.887391,0.0</coordinates>
            </LineString>
        </Placemark>
        <Placemark id="42611">
            <name>Jalan HOS. Cokroaminoto</name>
            <styleUrl>#42612</styleUrl>
            <LineString id="42610">
                <coordinates>107.5974523,-6.9006598,0.0 107.5974536,-6.9007224,0.0 107.5974543,-6.9007808,0.0 107.5974649,-6.9013037,0.0 107.5974913,-6.9019914,0.0 107.5975373,-6.9033184,0.0 107.5975385,-6.9033942,0.0 107.5975276,-6.9034547,0.0 107.5975116,-6.9035067,0.0</coordinates>
            </LineString>
        </Placemark>
        <Placemark id="42615">
            <name>Jalan Pasteur</name>
            <styleUrl>#42616</styleUrl>
            <LineString id="42614">
                <coordinates>107.5985704,-6.900207,0.0 107.5988449,-6.9002092,0.0 107.5988968,-6.9002096,0.0</coordinates>
            </LineString>
        </Placemark>
        <Placemark id="42619">
            <name>Route Segment</name>
            <styleUrl>#42620</styleUrl>
            <LineString id="42618">
                <coordinates>107.5977337,-6.9003863,0.0 107.5976719,-6.900404,0.0 107.5976493,-6.9004086,0.0 107.5976271,-6.9004144,0.0 107.597606,-6.9004235,0.0 107.5975891,-6.9004348,0.0 107.5975669,-6.9004529,0.0 107.5975478,-6.9004761,0.0 107.5975307,-6.9005049,0.0 107.5975109,-6.9005434,0.0 107.5974955,-6.9005724,0.0 107.5974759,-6.9006116,0.0 107.5974523,-6.9006598,0.0</coordinates>
            </LineString>
        </Placemark>
        <Placemark id="42623">
            <name>Jalan Sariwangi</name>
            <styleUrl>#42624</styleUrl>
            <LineString id="42622">
                <coordinates>107.576498,-6.8822436,0.0 107.5755756,-6.88252,0.0 107.5751448,-6.8826498,0.0</coordinates>
            </LineString>
        </Placemark>
        <Placemark id="42627">
            <name>Jalan Pajajaran</name>
            <styleUrl>#42628</styleUrl>
            <LineString id="42626">
                <coordinates>107.5976387,-6.9064293,0.0 107.5976191,-6.9064414,0.0 107.5975949,-6.9064488,0.0 107.5975328,-6.9064531,0.0</coordinates>
            </LineString>
        </Placemark>
        <Placemark id="42631">
            <name>Jalan Sederhana</name>
            <styleUrl>#42632</styleUrl>
            <LineString id="42630">
                <coordinates>107.5996153,-6.8908128,0.0 107.5995145,-6.8910995,0.0 107.5992715,-6.8920002,0.0 107.599254,-6.8920726,0.0 107.5991519,-6.8925236,0.0 107.5990518,-6.8929922,0.0 107.5990034,-6.8931579,0.0 107.5988798,-6.8935471,0.0 107.5987366,-6.8940012,0.0 107.5987172,-6.8940629,0.0</coordinates>
            </LineString>
        </Placemark>
        <Placemark id="42635">
            <name>Jalan Profesor Christiaan Eijkman</name>
            <styleUrl>#42636</styleUrl>
            <LineString id="42634">
                <coordinates>107.6008463,-6.8959681,0.0 107.6005885,-6.8961348,0.0 107.6003014,-6.8962499,0.0 107.6001433,-6.8962722,0.0 107.5999789,-6.8962674,0.0 107.5993726,-6.8961604,0.0</coordinates>
            </LineString>
        </Placemark>
        <Placemark id="42639">
            <name>Jalan HOS. Cokroaminoto</name>
            <styleUrl>#42640</styleUrl>
            <LineString id="42638">
                <coordinates>107.5975702,-6.9053954,0.0 107.5975685,-6.9053623,0.0 107.5975647,-6.9052979,0.0 107.5975641,-6.9052785,0.0 107.5975561,-6.9050098,0.0 107.5975537,-6.9049333,0.0</coordinates>
            </LineString>
        </Placemark>
        <Placemark id="42643">
            <name>Jalan Sarimanah</name>
            <styleUrl>#42644</styleUrl>
            <LineString id="42642">
                <coordinates>107.5767942,-6.8796059,0.0 107.5769772,-6.8791498,0.0 107.5771594,-6.8787194,0.0 107.5773438,-6.8782876,0.0 107.577563,-6.8778339,0.0 107.5777637,-6.8773821,0.0 107.5779551,-6.8769542,0.0 107.578144,-6.8765342,0.0 107.578232,-6.8763392,0.0</coordinates>
            </LineString>
        </Placemark>
        <Placemark id="42647">
            <name>Jalan Pasteur</name>
            <styleUrl>#42648</styleUrl>
            <LineString id="42646">
                <coordinates>107.5977317,-6.9002067,0.0 107.5979866,-6.900214,0.0</coordinates>
            </LineString>
        </Placemark>
        <Placemark id="42651">
            <name>Jalan Pasteur</name>
            <styleUrl>#42652</styleUrl>
            <LineString id="42650">
                <coordinates>107.5988975,-6.9003711,0.0 107.5988453,-6.9003703,0.0 107.5985681,-6.9003769,0.0</coordinates>
            </LineString>
        </Placemark>
        <Placemark id="42655">
            <name>Jalan Profesor Christiaan Eijkman</name>
            <styleUrl>#42656</styleUrl>
            <LineString id="42654">
                <coordinates>107.5993726,-6.8961604,0.0 107.5993061,-6.8961476,0.0 107.5989287,-6.8960775,0.0 107.5988179,-6.8960559,0.0 107.5986468,-6.8960201,0.0 107.5985248,-6.8959937,0.0</coordinates>
            </LineString>
        </Placemark>
        <Placemark id="42659">
            <name>Jalan Sindang Sirna</name>
            <styleUrl>#42660</styleUrl>
            <LineString id="42658">
                <coordinates>107.5932879,-6.8780063,0.0 107.5935527,-6.8779686,0.0 107.5936064,-6.8779496,0.0 107.5937671,-6.8778795,0.0</coordinates>
            </LineString>
        </Placemark>
        <Placemark id="42663">
            <name>Jalan Sindang Sirna</name>
            <styleUrl>#42664</styleUrl>
            <LineString id="42662">
                <coordinates>107.5932879,-6.8780063,0.0 107.5928312,-6.8780131,0.0 107.5926464,-6.8780071,0.0 107.5924065,-6.8780015,0.0 107.5922854,-6.8779914,0.0 107.5919657,-6.8779556,0.0 107.5916487,-6.8779119,0.0</coordinates>
            </LineString>
        </Placemark>
        <Placemark id="42667">
            <name>Jalan Profesor Christiaan Eijkman</name>
            <styleUrl>#42668</styleUrl>
            <LineString id="42666">
                <coordinates>107.5985248,-6.8959937,0.0 107.5984723,-6.8959815,0.0</coordinates>
            </LineString>
        </Placemark>
        <Placemark id="42671">
            <name>Jalan Pajajaran</name>
            <styleUrl>#42672</styleUrl>
            <LineString id="42670">
                <coordinates>107.5959262,-6.9065893,0.0 107.5952568,-6.9066609,0.0 107.595037,-6.9066943,0.0 107.5945793,-6.9067595,0.0 107.5945435,-6.9067649,0.0 107.5942472,-6.906822,0.0 107.5941987,-6.9068309,0.0 107.594084,-6.9068527,0.0 107.5937537,-6.9069123,0.0 107.5936226,-6.9069359,0.0 107.5930436,-6.9070358,0.0</coordinates>
            </LineString>
        </Placemark>
        <Placemark id="42675">
            <name>Jalan Pajajaran</name>
            <styleUrl>#42676</styleUrl>
            <LineString id="42674">
                <coordinates>107.5920701,-6.9071489,0.0 107.5918373,-6.9071242,0.0 107.5916612,-6.9071113,0.0 107.5915994,-6.9071068,0.0 107.5913085,-6.9070897,0.0 107.5911224,-6.9070825,0.0</coordinates>
            </LineString>
        </Placemark>
        <Placemark id="42679">
            <name>Jalan Pajajaran</name>
            <styleUrl>#42680</styleUrl>
            <LineString id="42678">
                <coordinates>107.5906383,-6.9070791,0.0 107.5904897,-6.9070683,0.0 107.5902528,-6.9070511,0.0 107.5892287,-6.9069531,0.0 107.5890575,-6.9069317,0.0 107.5889568,-6.9069197,0.0 107.5888977,-6.9069111,0.0 107.5887781,-6.9068994,0.0 107.5886037,-6.906884,0.0 107.5883918,-6.9068594,0.0 107.588209,-6.9068423,0.0</coordinates>
            </LineString>
        </Placemark>
        <Placemark id="42683">
            <name>Jalan Profesor Christiaan Eijkman</name>
            <styleUrl>#42684</styleUrl>
            <LineString id="42682">
                <coordinates>107.5984723,-6.8959815,0.0 107.5982533,-6.8959337,0.0</coordinates>
            </LineString>
        </Placemark>
        <Placemark id="42687">
            <name>Jalan Sindang Sirna</name>
            <styleUrl>#42688</styleUrl>
            <LineString id="42686">
                <coordinates>107.5914554,-6.87788,0.0 107.5909669,-6.8777861,0.0 107.5905616,-6.8777004,0.0</coordinates>
            </LineString>
        </Placemark>
        <Placemark id="42691">
            <name>Jalan Sindang Sirna</name>
            <styleUrl>#42692</styleUrl>
            <LineString id="42690">
                <coordinates>107.5916487,-6.8779119,0.0 107.5914554,-6.87788,0.0</coordinates>
            </LineString>
        </Placemark>
        <Placemark id="42695">
            <name>Jalan HOS. Cokroaminoto</name>
            <styleUrl>#42696</styleUrl>
            <LineString id="42694">
                <coordinates>107.5975537,-6.9049333,0.0 107.5975448,-6.904529,0.0 107.5975406,-6.9043005,0.0 107.5975343,-6.9039924,0.0</coordinates>
            </LineString>
        </Placemark>
        <Placemark id="42699">
            <name>Jalan Pajajaran</name>
            <styleUrl>#42700</styleUrl>
            <LineString id="42698">
                <coordinates>107.5968205,-6.9064928,0.0 107.5966166,-6.906518,0.0 107.5964032,-6.9065473,0.0 107.5961119,-6.9066005,0.0 107.5960526,-6.9066041,0.0 107.5959951,-6.9065992,0.0 107.5959262,-6.9065893,0.0</coordinates>
            </LineString>
        </Placemark>
        <Placemark id="42703">
            <name>Jalan Raden Adipati Aria Wiranatakusumah</name>
            <styleUrl>#42704</styleUrl>
            <LineString id="42702">
                <coordinates>107.6013125,-6.8834804,0.0 107.60158,-6.8845161,0.0</coordinates>
            </LineString>
        </Placemark>
        <Placemark id="42707">
            <name>Route Segment</name>
            <styleUrl>#42708</styleUrl>
            <LineString id="42706">
                <coordinates>107.6010655,-6.9002051,0.0 107.6010646,-6.9003371,0.0 107.6010646,-6.9003568,0.0</coordinates>
            </LineString>
        </Placemark>
        <Placemark id="42711">
            <name>Jalan Makmur</name>
            <styleUrl>#42712</styleUrl>
            <LineString id="42710">
                <coordinates>107.6003652,-6.8948265,0.0 107.6006902,-6.8950481,0.0 107.6009023,-6.8953025,0.0 107.6009465,-6.8954647,0.0</coordinates>
            </LineString>
        </Placemark>
        <Placemark id="42715">
            <name>Jalan Aruna</name>
            <styleUrl>#42716</styleUrl>
            <LineString id="42714">
                <coordinates>107.5877897,-6.9068561,0.0 107.587786,-6.907013,0.0</coordinates>
            </LineString>
        </Placemark>
        <Placemark id="42719">
            <name>Jalan Sederhana</name>
            <styleUrl>#42720</styleUrl>
            <LineString id="42718">
                <coordinates>107.5975318,-6.8966067,0.0 107.5974852,-6.8966564,0.0 107.5974629,-6.8966804,0.0</coordinates>
            </LineString>
        </Placemark>
        <Placemark id="42723">
            <name>Jalan Pasir Kaliki</name>
            <styleUrl>#42724</styleUrl>
            <LineString id="42722">
                <coordinates>107.5974629,-6.8966804,0.0 107.5973832,-6.8967895,0.0 107.5973739,-6.8968101,0.0 107.5973632,-6.8968394,0.0 107.5973563,-6.8969183,0.0 107.5973743,-6.8978579,0.0 107.5973757,-6.8980113,0.0 107.5973829,-6.8982378,0.0 107.5973873,-6.8983517,0.0 107.5973974,-6.8986245,0.0 107.5974,-6.8987139,0.0</coordinates>
            </LineString>
        </Placemark>
        <Placemark id="42727">
            <name>Jalan Geger Kalong Hilir</name>
            <styleUrl>#42728</styleUrl>
            <LineString id="42726">
                <coordinates>107.5831598,-6.8679915,0.0 107.5837165,-6.8681236,0.0 107.5841634,-6.8682206,0.0 107.5843949,-6.8682708,0.0 107.5851698,-6.8684524,0.0 107.5854522,-6.8684765,0.0 107.5854789,-6.8684739,0.0 107.5855052,-6.8684672,0.0 107.5855996,-6.8684185,0.0 107.5856146,-6.8684126,0.0 107.5856298,-6.8684098,0.0 107.5857271,-6.8683958,0.0 107.5857787,-6.8683952,0.0 107.5858362,-6.8684044,0.0 107.5860546,-6.8684972,0.0 107.5860838,-6.8685096,0.0 107.5861026,-6.8685188,0.0 107.5869884,-6.8689531,0.0 107.5876106,-6.8691475,0.0 107.588013,-6.8692846,0.0 107.5889824,-6.8696193,0.0 107.5892146,-6.8696974,0.0 107.589287,-6.8697168,0.0 107.5897363,-6.8698625,0.0 107.5897879,-6.8698794,0.0 107.5898449,-6.8698918,0.0 107.5899646,-6.869903,0.0 107.5901158,-6.8699171,0.0 107.590266,-6.8699165,0.0 107.590498,-6.8699157,0.0 107.5906207,-6.8699191,0.0</coordinates>
            </LineString>
        </Placemark>
        <Placemark id="42731">
            <name>Jalan Pajajaran</name>
            <styleUrl>#42732</styleUrl>
            <LineString id="42730">
                <coordinates>107.5906641,-6.907081,0.0 107.5906383,-6.9070791,0.0</coordinates>
            </LineString>
        </Placemark>
        <Placemark id="42735">
            <name>Jalan Pajajaran</name>
            <styleUrl>#42736</styleUrl>
            <LineString id="42734">
                <coordinates>107.5911224,-6.9070825,0.0 107.5910022,-6.9071149,0.0 107.5906641,-6.907081,0.0</coordinates>
            </LineString>
        </Placemark>
        <Placemark id="42739">
            <name>Jalan Lamping</name>
            <styleUrl>#42740</styleUrl>
            <LineString id="42738">
                <coordinates>107.6021691,-6.887391,0.0 107.601777,-6.887493,0.0</coordinates>
            </LineString>
        </Placemark>
        <Placemark id="42743">
            <name>Jalan Pasir Kaliki</name>
            <styleUrl>#42744</styleUrl>
            <LineString id="42742">
                <coordinates>107.5974075,-6.898977,0.0 107.5974217,-6.8991501,0.0</coordinates>
            </LineString>
        </Placemark>
        <Placemark id="42747">
            <name>Jalan HOS. Cokroaminoto</name>
            <styleUrl>#42748</styleUrl>
            <LineString id="42746">
                <coordinates>107.5975343,-6.9039924,0.0 107.5975116,-6.9035067,0.0</coordinates>
            </LineString>
        </Placemark>
        <Placemark id="42751">
            <name>Jalan Pasteur</name>
            <styleUrl>#42752</styleUrl>
            <LineString id="42750">
                <coordinates>107.5979866,-6.900214,0.0 107.5985704,-6.900207,0.0</coordinates>
            </LineString>
        </Placemark>
        <Placemark id="42755">
            <name>Jalan Pasteur</name>
            <styleUrl>#42756</styleUrl>
            <LineString id="42754">
                <coordinates>107.5985681,-6.9003769,0.0 107.5982442,-6.9003802,0.0</coordinates>
            </LineString>
        </Placemark>
        <Placemark id="42759">
            <name>Jalan Pasteur</name>
            <styleUrl>#42760</styleUrl>
            <LineString id="42758">
                <coordinates>107.5988968,-6.9002096,0.0 107.5993001,-6.900202,0.0</coordinates>
            </LineString>
        </Placemark>
        <Placemark id="42763">
            <name>Jalan Pasteur</name>
            <styleUrl>#42764</styleUrl>
            <LineString id="42762">
                <coordinates>107.5995868,-6.9003613,0.0 107.5988975,-6.9003711,0.0</coordinates>
            </LineString>
        </Placemark>
        <Placemark id="42767">
            <name>Jalan Pajajaran</name>
            <styleUrl>#42768</styleUrl>
            <LineString id="42766">
                <coordinates>107.5930436,-6.9070358,0.0 107.592893,-6.9070548,0.0 107.5928538,-6.9070598,0.0 107.5926825,-6.9070846,0.0 107.5925401,-6.9070991,0.0 107.5923942,-6.9071118,0.0 107.592239,-6.9071272,0.0 107.5920701,-6.9071489,0.0</coordinates>
            </LineString>
        </Placemark>
        <Placemark id="42771">
            <name>Jalan Arjuna</name>
            <styleUrl>#42772</styleUrl>
            <LineString id="42770">
                <coordinates>107.5894771,-6.9112533,0.0 107.5894865,-6.9112733,0.0 107.5894871,-6.9112953,0.0 107.5894789,-6.9113158,0.0 107.5894633,-6.9113314,0.0</coordinates>
            </LineString>
        </Placemark>
        <Placemark id="42775">
            <name>Jalan Arjuna</name>
            <styleUrl>#42776</styleUrl>
            <LineString id="42774">
                <coordinates>107.5894511,-6.9112342,0.0 107.5894655,-6.9112418,0.0 107.5894771,-6.9112533,0.0</coordinates>
            </LineString>
        </Placemark>
        <Placemark id="42779">
            <name>Jalan Dr. Setiabudi</name>
            <styleUrl>#42780</styleUrl>
            <LineString id="42778">
                <coordinates>107.5993479,-6.8813024,0.0 107.5994309,-6.8814326,0.0 107.5994716,-6.8814891,0.0 107.5996471,-6.8817279,0.0 107.5996965,-6.881795,0.0 107.6000907,-6.8822275,0.0 107.6001689,-6.8823036,0.0 107.6003584,-6.8824654,0.0 107.600512,-6.8825853,0.0</coordinates>
            </LineString>
        </Placemark>
        <Placemark id="42783">
            <name>Jalan Layang Ciroyom</name>
            <styleUrl>#42784</styleUrl>
            <LineString id="42782">
                <coordinates>107.5869574,-6.9132909,0.0 107.587254,-6.913434,0.0</coordinates>
            </LineString>
        </Placemark>
        <Placemark id="42787">
            <name>Jalan Layang Ciroyom</name>
            <styleUrl>#42788</styleUrl>
            <LineString id="42786">
                <coordinates>107.5893166,-6.9121005,0.0 107.5893455,-6.911919,0.0</coordinates>
            </LineString>
        </Placemark>
        <Placemark id="42791">
            <name>Jalan Layang Ciroyom</name>
            <styleUrl>#42792</styleUrl>
            <LineString id="42790">
                <coordinates>107.587254,-6.913434,0.0 107.588191,-6.9137939,0.0 107.588437,-6.9138722,0.0 107.5885401,-6.9138874,0.0 107.5886196,-6.9138868,0.0 107.588728,-6.9138625,0.0 107.5888188,-6.9138239,0.0 107.588893,-6.9137668,0.0 107.5889601,-6.9136911,0.0 107.5890025,-6.9136299,0.0 107.5890418,-6.9135555,0.0 107.5890796,-6.9134472,0.0 107.5890983,-6.9133449,0.0 107.5891155,-6.9132456,0.0 107.5893166,-6.9121005,0.0</coordinates>
            </LineString>
        </Placemark>
        <Placemark id="42795">
            <name>Route Segment</name>
            <styleUrl>#42796</styleUrl>
            <LineString id="42794">
                <coordinates>107.5762649,-6.8814748,0.0 107.5761677,-6.8811858,0.0 107.5761536,-6.8810973,0.0 107.5761545,-6.881035,0.0</coordinates>
            </LineString>
        </Placemark>
        <Placemark id="42799">
            <name>Jalan Pajajaran</name>
            <styleUrl>#42800</styleUrl>
            <LineString id="42798">
                <coordinates>107.588209,-6.9068423,0.0 107.5881464,-6.9068364,0.0 107.5880555,-6.9068315,0.0 107.5879978,-6.9068303,0.0 107.5879768,-6.9068298,0.0 107.5879555,-6.9068304,0.0 107.5879312,-6.9068311,0.0 107.5878886,-6.9068344,0.0 107.5878356,-6.9068448,0.0 107.5877897,-6.9068561,0.0</coordinates>
            </LineString>
        </Placemark>
        <Placemark id="42803">
            <name>Jalan Ciroyom</name>
            <styleUrl>#42804</styleUrl>
            <LineString id="42802">
                <coordinates>107.5867539,-6.9131493,0.0 107.5869544,-6.9132359,0.0 107.5872782,-6.9133614,0.0 107.5877361,-6.9135372,0.0 107.5883921,-6.9137814,0.0 107.5889327,-6.9139693,0.0 107.5890718,-6.914024,0.0</coordinates>
            </LineString>
        </Placemark>
        <Placemark id="42807">
            <name>Jalan Layang Ciroyom</name>
            <styleUrl>#42808</styleUrl>
            <LineString id="42806">
                <coordinates>107.5869574,-6.9132909,0.0 107.5867121,-6.9132166,0.0</coordinates>
            </LineString>
        </Placemark>
        <Placemark id="42811">
            <name>Route Segment</name>
            <styleUrl>#42812</styleUrl>
            <LineString id="42810">
                <coordinates>107.5860843,-6.9128486,0.0 107.5860597,-6.9128206,0.0 107.5860543,-6.912807,0.0 107.586055,-6.9127863,0.0 107.5860709,-6.9127681,0.0 107.5860877,-6.9127622,0.0 107.586119,-6.9127619,0.0</coordinates>
            </LineString>
        </Placemark>
        <Placemark id="42815">
            <name>Jalan Layang Ciroyom</name>
            <styleUrl>#42816</styleUrl>
            <LineString id="42814">
                <coordinates>107.5894064,-6.9117422,0.0 107.5893455,-6.911919,0.0</coordinates>
            </LineString>
        </Placemark>
        <Placemark id="42819">
            <name>Jalan Arjuna</name>
            <styleUrl>#42820</styleUrl>
            <LineString id="42818">
                <coordinates>107.5894633,-6.9113314,0.0 107.5894584,-6.9114138,0.0 107.5894414,-6.9115309,0.0 107.5894278,-6.9116169,0.0 107.5894064,-6.9117422,0.0</coordinates>
            </LineString>
        </Placemark>
        <Placemark id="42823">
            <name>Jalan Ciroyom</name>
            <styleUrl>#42824</styleUrl>
            <LineString id="42822">
                <coordinates>107.586119,-6.9127619,0.0 107.5867539,-6.9131493,0.0</coordinates>
            </LineString>
        </Placemark>
        <Placemark id="42827">
            <name>Jalan Sirna Galih</name>
            <styleUrl>#42828</styleUrl>
            <LineString id="42826">
                <coordinates>107.595762,-6.8778535,0.0 107.5956102,-6.878024,0.0 107.5954945,-6.8781633,0.0 107.5952688,-6.878474,0.0 107.5952214,-6.8785531,0.0 107.5951778,-6.8786152,0.0 107.5951569,-6.8786717,0.0 107.5951588,-6.8787715,0.0 107.5951687,-6.8788937,0.0 107.5951798,-6.8790317,0.0</coordinates>
            </LineString>
        </Placemark>
        <Placemark id="42831">
            <name>Jalan Karangsari</name>
            <styleUrl>#42832</styleUrl>
            <LineString id="42830">
                <coordinates>107.5986782,-6.8811214,0.0 107.5987277,-6.881131,0.0 107.5990939,-6.8811971,0.0 107.5992232,-6.8812425,0.0 107.5993479,-6.8813024,0.0</coordinates>
            </LineString>
        </Placemark>
        <Placemark id="42835">
            <name>Jalan Karangsari</name>
            <styleUrl>#42836</styleUrl>
            <LineString id="42834">
                <coordinates>107.5963984,-6.8809341,0.0 107.5966959,-6.8809129,0.0 107.5969398,-6.8808891,0.0 107.5973545,-6.8808747,0.0</coordinates>
            </LineString>
        </Placemark>
        <Placemark id="42839">
            <name>Jalan Sarimanah</name>
            <styleUrl>#42840</styleUrl>
            <LineString id="42838">
                <coordinates>107.578232,-6.8763392,0.0 107.5783526,-6.8760725,0.0</coordinates>
            </LineString>
        </Placemark>
        <Placemark id="42843">
            <name>Jalan Makmur</name>
            <styleUrl>#42844</styleUrl>
            <LineString id="42842">
                <coordinates>107.5987172,-6.8940629,0.0 107.5988837,-6.8941348,0.0 107.5989838,-6.8941794,0.0</coordinates>
            </LineString>
        </Placemark>
        <Placemark id="42847">
            <name>Jalan Ciroyom</name>
            <styleUrl>#42848</styleUrl>
            <LineString id="42846">
                <coordinates>107.5867121,-6.9132166,0.0 107.586425,-6.9130541,0.0</coordinates>
            </LineString>
        </Placemark>
        <Placemark id="42851">
            <name>Jalan Ciroyom</name>
            <styleUrl>#42852</styleUrl>
            <LineString id="42850">
                <coordinates>107.586425,-6.9130541,0.0 107.5860843,-6.9128486,0.0</coordinates>
            </LineString>
        </Placemark>
        <Placemark id="42855">
            <name>Jalan Arjuna</name>
            <styleUrl>#42856</styleUrl>
            <LineString id="42854">
                <coordinates>107.5890718,-6.914024,0.0 107.5890644,-6.914151,0.0</coordinates>
            </LineString>
        </Placemark>
        <Placemark id="42859">
            <name>Jalan Sirna Galih</name>
            <styleUrl>#42860</styleUrl>
            <LineString id="42858">
                <coordinates>107.5954305,-6.8808929,0.0 107.5955126,-6.8809055,0.0 107.5957873,-6.8809429,0.0 107.5962171,-6.8809471,0.0 107.5963984,-6.8809341,0.0</coordinates>
            </LineString>
        </Placemark>
    </Document>
</kml>
