<?xml version="1.0" encoding="UTF-8"?>
<kml xmlns="http://www.opengis.net/kml/2.2" xmlns:gx="http://www.google.com/kml/ext/2.2">
    <Document id="43022">
        <Style id="43028">
            <IconStyle id="43029">
                <colorMode>normal</colorMode>
                <scale>1</scale>
                <heading>0</heading>
                <Icon id="43030">
                    <href>http://maps.google.com/mapfiles/kml/pushpin/ylw-pushpin.png</href>
                </Icon>
            </IconStyle>
        </Style>
        <Style id="43033">
            <IconStyle id="43034">
                <colorMode>normal</colorMode>
                <scale>1</scale>
                <heading>0</heading>
                <Icon id="43035">
                    <href>http://maps.google.com/mapfiles/kml/pushpin/ylw-pushpin.png</href>
                </Icon>
            </IconStyle>
        </Style>
        <Style id="43038">
            <LineStyle id="43039">
                <color>ff386800</color>
                <colorMode>normal</colorMode>
                <width>4</width>
            </LineStyle>
        </Style>
        <Style id="43042">
            <LineStyle id="43043">
                <color>ff386800</color>
                <colorMode>normal</colorMode>
                <width>4</width>
            </LineStyle>
        </Style>
        <Style id="43046">
            <LineStyle id="43047">
                <color>ff386800</color>
                <colorMode>normal</colorMode>
                <width>4</width>
            </LineStyle>
        </Style>
        <Style id="43050">
            <LineStyle id="43051">
                <color>ff386800</color>
                <colorMode>normal</colorMode>
                <width>4</width>
            </LineStyle>
        </Style>
        <Style id="43054">
            <LineStyle id="43055">
                <color>ff386800</color>
                <colorMode>normal</colorMode>
                <width>4</width>
            </LineStyle>
        </Style>
        <Style id="43058">
            <LineStyle id="43059">
                <color>ff386800</color>
                <colorMode>normal</colorMode>
                <width>4</width>
            </LineStyle>
        </Style>
        <Style id="43062">
            <LineStyle id="43063">
                <color>ff386800</color>
                <colorMode>normal</colorMode>
                <width>4</width>
            </LineStyle>
        </Style>
        <Style id="43066">
            <LineStyle id="43067">
                <color>ff386800</color>
                <colorMode>normal</colorMode>
                <width>4</width>
            </LineStyle>
        </Style>
        <Style id="43070">
            <LineStyle id="43071">
                <color>ff386800</color>
                <colorMode>normal</colorMode>
                <width>4</width>
            </LineStyle>
        </Style>
        <Style id="43074">
            <LineStyle id="43075">
                <color>ff386800</color>
                <colorMode>normal</colorMode>
                <width>4</width>
            </LineStyle>
        </Style>
        <Style id="43078">
            <LineStyle id="43079">
                <color>ff386800</color>
                <colorMode>normal</colorMode>
                <width>4</width>
            </LineStyle>
        </Style>
        <Style id="43082">
            <LineStyle id="43083">
                <color>ff386800</color>
                <colorMode>normal</colorMode>
                <width>4</width>
            </LineStyle>
        </Style>
        <Style id="43086">
            <LineStyle id="43087">
                <color>ff386800</color>
                <colorMode>normal</colorMode>
                <width>4</width>
            </LineStyle>
        </Style>
        <Style id="43090">
            <LineStyle id="43091">
                <color>ff386800</color>
                <colorMode>normal</colorMode>
                <width>4</width>
            </LineStyle>
        </Style>
        <Style id="43094">
            <LineStyle id="43095">
                <color>ff386800</color>
                <colorMode>normal</colorMode>
                <width>4</width>
            </LineStyle>
        </Style>
        <Style id="43098">
            <LineStyle id="43099">
                <color>ff386800</color>
                <colorMode>normal</colorMode>
                <width>4</width>
            </LineStyle>
        </Style>
        <Style id="43102">
            <LineStyle id="43103">
                <color>ff386800</color>
                <colorMode>normal</colorMode>
                <width>4</width>
            </LineStyle>
        </Style>
        <Style id="43106">
            <LineStyle id="43107">
                <color>ff386800</color>
                <colorMode>normal</colorMode>
                <width>4</width>
            </LineStyle>
        </Style>
        <Style id="43110">
            <LineStyle id="43111">
                <color>ff386800</color>
                <colorMode>normal</colorMode>
                <width>4</width>
            </LineStyle>
        </Style>
        <Style id="43114">
            <LineStyle id="43115">
                <color>ff386800</color>
                <colorMode>normal</colorMode>
                <width>4</width>
            </LineStyle>
        </Style>
        <Style id="43118">
            <LineStyle id="43119">
                <color>ff386800</color>
                <colorMode>normal</colorMode>
                <width>4</width>
            </LineStyle>
        </Style>
        <Style id="43122">
            <LineStyle id="43123">
                <color>ff386800</color>
                <colorMode>normal</colorMode>
                <width>4</width>
            </LineStyle>
        </Style>
        <Style id="43126">
            <LineStyle id="43127">
                <color>ff386800</color>
                <colorMode>normal</colorMode>
                <width>4</width>
            </LineStyle>
        </Style>
        <Style id="43130">
            <LineStyle id="43131">
                <color>ff386800</color>
                <colorMode>normal</colorMode>
                <width>4</width>
            </LineStyle>
        </Style>
        <Style id="43134">
            <LineStyle id="43135">
                <color>ff386800</color>
                <colorMode>normal</colorMode>
                <width>4</width>
            </LineStyle>
        </Style>
        <Style id="43138">
            <LineStyle id="43139">
                <color>ff386800</color>
                <colorMode>normal</colorMode>
                <width>4</width>
            </LineStyle>
        </Style>
        <Style id="43142">
            <LineStyle id="43143">
                <color>ff386800</color>
                <colorMode>normal</colorMode>
                <width>4</width>
            </LineStyle>
        </Style>
        <Style id="43146">
            <LineStyle id="43147">
                <color>ff386800</color>
                <colorMode>normal</colorMode>
                <width>4</width>
            </LineStyle>
        </Style>
        <Style id="43150">
            <LineStyle id="43151">
                <color>ff386800</color>
                <colorMode>normal</colorMode>
                <width>4</width>
            </LineStyle>
        </Style>
        <Style id="43154">
            <LineStyle id="43155">
                <color>ff386800</color>
                <colorMode>normal</colorMode>
                <width>4</width>
            </LineStyle>
        </Style>
        <Style id="43158">
            <LineStyle id="43159">
                <color>ff386800</color>
                <colorMode>normal</colorMode>
                <width>4</width>
            </LineStyle>
        </Style>
        <Style id="43162">
            <LineStyle id="43163">
                <color>ff386800</color>
                <colorMode>normal</colorMode>
                <width>4</width>
            </LineStyle>
        </Style>
        <Style id="43166">
            <LineStyle id="43167">
                <color>ff386800</color>
                <colorMode>normal</colorMode>
                <width>4</width>
            </LineStyle>
        </Style>
        <Style id="43170">
            <LineStyle id="43171">
                <color>ff386800</color>
                <colorMode>normal</colorMode>
                <width>4</width>
            </LineStyle>
        </Style>
        <Style id="43174">
            <LineStyle id="43175">
                <color>ff386800</color>
                <colorMode>normal</colorMode>
                <width>4</width>
            </LineStyle>
        </Style>
        <Style id="43178">
            <LineStyle id="43179">
                <color>ff386800</color>
                <colorMode>normal</colorMode>
                <width>4</width>
            </LineStyle>
        </Style>
        <Style id="43182">
            <LineStyle id="43183">
                <color>ff386800</color>
                <colorMode>normal</colorMode>
                <width>4</width>
            </LineStyle>
        </Style>
        <Style id="43186">
            <LineStyle id="43187">
                <color>ff386800</color>
                <colorMode>normal</colorMode>
                <width>4</width>
            </LineStyle>
        </Style>
        <Style id="43190">
            <LineStyle id="43191">
                <color>ff386800</color>
                <colorMode>normal</colorMode>
                <width>4</width>
            </LineStyle>
        </Style>
        <Style id="43194">
            <LineStyle id="43195">
                <color>ff386800</color>
                <colorMode>normal</colorMode>
                <width>4</width>
            </LineStyle>
        </Style>
        <ExtendedData>
            <Data name="route-name">
                <value>20: Bumi Asri → Ciroyom</value>
            </Data>
            <Data name="source">
                <value>Transport for Bandung</value>
            </Data>
        </ExtendedData>
        <Placemark id="43027">
            <name>Terminal Bumi Asri</name>
            <styleUrl>#43028</styleUrl>
            <Point id="43026">
                <coordinates>107.5508272,-6.9324632,0.0</coordinates>
            </Point>
        </Placemark>
        <Placemark id="43032">
            <name>Stasiun Ciroyom</name>
            <styleUrl>#43033</styleUrl>
            <Point id="43031">
                <coordinates>107.5890644,-6.914151,0.0</coordinates>
            </Point>
        </Placemark>
        <Placemark id="43037">
            <name>Jalan Rajawali Timur</name>
            <styleUrl>#43038</styleUrl>
            <LineString id="43036">
                <coordinates>107.5761151,-6.9132715,0.0 107.5762053,-6.9133088,0.0 107.5762519,-6.9133265,0.0 107.5765322,-6.9134206,0.0 107.5766744,-6.9134545,0.0 107.5768473,-6.9134956,0.0 107.5771173,-6.9135481,0.0 107.5772702,-6.9135797,0.0 107.5775341,-6.9136343,0.0 107.5776073,-6.9136496,0.0</coordinates>
            </LineString>
        </Placemark>
        <Placemark id="43041">
            <name>Jalan Elang</name>
            <styleUrl>#43042</styleUrl>
            <LineString id="43040">
                <coordinates>107.5749738,-6.9155723,0.0 107.5750195,-6.915401,0.0 107.5751229,-6.9150685,0.0 107.5753136,-6.9144895,0.0</coordinates>
            </LineString>
        </Placemark>
        <Placemark id="43045">
            <name>Jalan Ciroyom Timur</name>
            <styleUrl>#43046</styleUrl>
            <LineString id="43044">
                <coordinates>107.586626,-6.9153833,0.0 107.5866683,-6.9153925,0.0 107.5867508,-6.9154106,0.0 107.5869012,-6.9154497,0.0 107.5869343,-6.9154441,0.0 107.5869612,-6.9154328,0.0 107.5870048,-6.9153946,0.0 107.5870887,-6.9153212,0.0 107.5878799,-6.9146694,0.0 107.5883109,-6.9143017,0.0</coordinates>
            </LineString>
        </Placemark>
        <Placemark id="43049">
            <name>Jalan Ciroyom Barat</name>
            <styleUrl>#43050</styleUrl>
            <LineString id="43048">
                <coordinates>107.5858278,-6.9159293,0.0 107.5859932,-6.9153797,0.0 107.5860167,-6.9153202,0.0 107.5860221,-6.9153046,0.0 107.5860355,-6.9152879,0.0 107.586065,-6.9152746,0.0 107.5861069,-6.9152733,0.0 107.586626,-6.9153833,0.0</coordinates>
            </LineString>
        </Placemark>
        <Placemark id="43053">
            <name>Jalan Gempol Sari</name>
            <styleUrl>#43054</styleUrl>
            <LineString id="43052">
                <coordinates>107.5521804,-6.926537,0.0 107.5523046,-6.926595,0.0 107.552451,-6.926665,0.0 107.5524856,-6.9266867,0.0 107.5526145,-6.9267577,0.0 107.5532028,-6.9270805,0.0 107.5532442,-6.9271032,0.0 107.5534803,-6.9272371,0.0 107.5539518,-6.9274998,0.0 107.5548453,-6.9279848,0.0 107.5548828,-6.9280051,0.0 107.5552016,-6.9281904,0.0 107.5553533,-6.9282753,0.0 107.5553888,-6.9282966,0.0 107.5554322,-6.9283254,0.0 107.5556383,-6.9284593,0.0 107.5560146,-6.9286918,0.0 107.5561561,-6.9287965,0.0 107.5562327,-6.9288508,0.0 107.5563153,-6.9289065,0.0 107.5564383,-6.9289775,0.0 107.556658,-6.929108,0.0 107.5567282,-6.9291429,0.0 107.5568329,-6.9291972,0.0 107.5569426,-6.9292596,0.0 107.5571059,-6.9293444,0.0 107.557205,-6.9293925,0.0 107.5572762,-6.929429,0.0 107.5574807,-6.9295375,0.0 107.5576508,-6.929633,0.0 107.5577596,-6.9296915,0.0 107.5578478,-6.9297588,0.0 107.5579949,-6.9298879,0.0 107.5580796,-6.9299747,0.0 107.5581271,-6.9300091,0.0 107.5582381,-6.9301054,0.0 107.5583845,-6.9302204,0.0 107.5585777,-6.9303529,0.0 107.5587134,-6.9304542,0.0 107.5588828,-6.9305791,0.0 107.5590545,-6.9307412,0.0 107.5592597,-6.9309067,0.0 107.5594149,-6.931012,0.0 107.5595547,-6.9310851,0.0 107.5598136,-6.9311947,0.0 107.5600557,-6.9312664,0.0 107.5607067,-6.9315072,0.0 107.561215,-6.93171,0.0 107.5618056,-6.9319844,0.0</coordinates>
            </LineString>
        </Placemark>
        <Placemark id="43057">
            <name>Jalan Bojong Raya</name>
            <styleUrl>#43058</styleUrl>
            <LineString id="43056">
                <coordinates>107.5740256,-6.9279327,0.0 107.5734714,-6.9277435,0.0 107.5734171,-6.9277309,0.0 107.5733786,-6.9277281,0.0 107.5731481,-6.9277282,0.0 107.5730606,-6.9277283,0.0 107.5728089,-6.9277336,0.0 107.571962,-6.9277513,0.0 107.571884,-6.9277516,0.0 107.5716644,-6.927755,0.0 107.5712431,-6.9277519,0.0 107.5707645,-6.9277483,0.0 107.5706663,-6.9277523,0.0 107.5706062,-6.927752,0.0 107.5699308,-6.9277502,0.0 107.5697967,-6.9277435,0.0 107.5696988,-6.927734,0.0 107.5695446,-6.9277102,0.0 107.5686754,-6.927557,0.0 107.5686351,-6.9275522,0.0 107.5685759,-6.9275451,0.0 107.5685351,-6.9275379,0.0 107.5676039,-6.9273562,0.0 107.5675681,-6.9273473,0.0 107.567449,-6.9273214,0.0 107.5673056,-6.9272762,0.0 107.5672597,-6.9272635,0.0 107.5667557,-6.9270595,0.0 107.5661172,-6.9268211,0.0 107.5657238,-6.9266742,0.0</coordinates>
            </LineString>
        </Placemark>
        <Placemark id="43061">
            <name>Jalan Gempol</name>
            <styleUrl>#43062</styleUrl>
            <LineString id="43060">
                <coordinates>107.5618056,-6.9319844,0.0 107.5619318,-6.9320282,0.0</coordinates>
            </LineString>
        </Placemark>
        <Placemark id="43065">
            <name>Jalan Gempol</name>
            <styleUrl>#43066</styleUrl>
            <LineString id="43064">
                <coordinates>107.5619318,-6.9320282,0.0 107.5624059,-6.9321088,0.0 107.562544,-6.9321308,0.0 107.563019,-6.9322504,0.0 107.563275,-6.9323356,0.0 107.5632917,-6.9323412,0.0 107.5635486,-6.9324642,0.0 107.5637224,-6.9325536,0.0 107.563833,-6.9326439,0.0 107.5639437,-6.9327732,0.0 107.563998,-6.9328109,0.0 107.5640688,-6.9328537,0.0 107.5641051,-6.9328637,0.0 107.5641456,-6.9328583,0.0 107.5642036,-6.9328307,0.0 107.5642419,-6.9327931,0.0 107.5642694,-6.9327472,0.0 107.5644498,-6.9323671,0.0 107.5644739,-6.9323359,0.0 107.5645114,-6.9323086,0.0 107.5645831,-6.9322719,0.0</coordinates>
            </LineString>
        </Placemark>
        <Placemark id="43069">
            <name>Jalan Rajawali Timur</name>
            <styleUrl>#43070</styleUrl>
            <LineString id="43068">
                <coordinates>107.5776073,-6.9136496,0.0 107.5777772,-6.9136868,0.0 107.5779128,-6.9137286,0.0 107.5781891,-6.9137955,0.0 107.5783539,-6.9138332,0.0 107.5783874,-6.9138419,0.0 107.5785622,-6.9138805,0.0 107.5787762,-6.9139254,0.0 107.5797055,-6.9141348,0.0 107.579747,-6.9141453,0.0 107.5799521,-6.9141897,0.0 107.5802819,-6.9142612,0.0 107.5811363,-6.9144571,0.0 107.5811751,-6.9144647,0.0 107.5812252,-6.914476,0.0 107.5813465,-6.9145043,0.0 107.581465,-6.9145319,0.0 107.5817067,-6.9145944,0.0 107.5817861,-6.9146158,0.0 107.5822849,-6.9147532,0.0 107.5823112,-6.9147609,0.0 107.5824997,-6.9148158,0.0</coordinates>
            </LineString>
        </Placemark>
        <Placemark id="43073">
            <name>Jalan Rajawali Timur</name>
            <styleUrl>#43074</styleUrl>
            <LineString id="43072">
                <coordinates>107.5833358,-6.915074,0.0 107.5835594,-6.9151467,0.0 107.5840232,-6.9153004,0.0 107.5842925,-6.915391,0.0 107.5852149,-6.9157051,0.0</coordinates>
            </LineString>
        </Placemark>
        <Placemark id="43077">
            <name>Jalan Rajawali Timur</name>
            <styleUrl>#43078</styleUrl>
            <LineString id="43076">
                <coordinates>107.5852149,-6.9157051,0.0 107.5853724,-6.9157654,0.0 107.5855994,-6.9158493,0.0 107.5858278,-6.9159293,0.0</coordinates>
            </LineString>
        </Placemark>
        <Placemark id="43081">
            <name>Jalan Raya Cijerah</name>
            <styleUrl>#43082</styleUrl>
            <LineString id="43080">
                <coordinates>107.5656266,-6.927185,0.0 107.5656212,-6.9271265,0.0 107.5656199,-6.927006,0.0 107.5656359,-6.9268882,0.0 107.5656722,-6.9267883,0.0 107.5657238,-6.9266742,0.0</coordinates>
            </LineString>
        </Placemark>
        <Placemark id="43085">
            <name>Jalan Raya Cijerah</name>
            <styleUrl>#43086</styleUrl>
            <LineString id="43084">
                <coordinates>107.5656754,-6.928252,0.0 107.565716,-6.9281025,0.0 107.5657292,-6.9280231,0.0 107.5657292,-6.9279445,0.0 107.5656866,-6.9276291,0.0 107.5656266,-6.927185,0.0</coordinates>
            </LineString>
        </Placemark>
        <Placemark id="43089">
            <name>Jalan Soekarno-Hatta</name>
            <styleUrl>#43090</styleUrl>
            <LineString id="43088">
                <coordinates>107.5750151,-6.9243818,0.0 107.5749916,-6.9241397,0.0 107.5748665,-6.9233028,0.0 107.5748392,-6.9231236,0.0 107.5748317,-6.9230741,0.0 107.5748085,-6.9229569,0.0 107.5747796,-6.9227684,0.0 107.5746727,-6.922073,0.0 107.5745473,-6.9212569,0.0 107.5744906,-6.9209105,0.0 107.5744384,-6.9205542,0.0 107.5743932,-6.9201525,0.0 107.5743484,-6.9197542,0.0 107.5743377,-6.9196051,0.0 107.574331,-6.9194823,0.0</coordinates>
            </LineString>
        </Placemark>
        <Placemark id="43093">
            <name>Jalan Dirgantara Raya</name>
            <styleUrl>#43094</styleUrl>
            <LineString id="43092">
                <coordinates>107.5521804,-6.926537,0.0 107.5517856,-6.9278971,0.0 107.5517589,-6.9279959,0.0 107.5516563,-6.9283753,0.0 107.551637,-6.9284491,0.0 107.551525,-6.9290017,0.0 107.5514509,-6.9294579,0.0 107.5514183,-6.9296359,0.0 107.5513284,-6.9301026,0.0 107.5512239,-6.9305844,0.0 107.5511889,-6.9307323,0.0 107.5511382,-6.9310117,0.0 107.5510781,-6.9314383,0.0 107.5510465,-6.9315962,0.0 107.5510038,-6.9318173,0.0 107.5509802,-6.9319715,0.0</coordinates>
            </LineString>
        </Placemark>
        <Placemark id="43097">
            <name>Jalan Raya Cijerah</name>
            <styleUrl>#43098</styleUrl>
            <LineString id="43096">
                <coordinates>107.5645831,-6.9322719,0.0 107.5645126,-6.9320324,0.0 107.5644873,-6.9319305,0.0 107.5644851,-6.9318316,0.0 107.5644994,-6.9317281,0.0 107.5645396,-6.9316096,0.0 107.5647812,-6.9310607,0.0 107.5648654,-6.9308579,0.0 107.564958,-6.9306005,0.0 107.565064,-6.9302837,0.0 107.5651159,-6.9301274,0.0 107.5652488,-6.929674,0.0 107.5654202,-6.9291085,0.0 107.5656754,-6.928252,0.0</coordinates>
            </LineString>
        </Placemark>
        <Placemark id="43101">
            <name>Jalan Soekarno-Hatta</name>
            <styleUrl>#43102</styleUrl>
            <LineString id="43100">
                <coordinates>107.574331,-6.9194823,0.0 107.574311,-6.919126,0.0 107.5743029,-6.9182666,0.0 107.5743009,-6.9181345,0.0 107.5742921,-6.9175385,0.0 107.5742914,-6.9174917,0.0 107.5742937,-6.9173779,0.0</coordinates>
            </LineString>
        </Placemark>
        <Placemark id="43105">
            <name>Jalan Holis</name>
            <styleUrl>#43106</styleUrl>
            <LineString id="43104">
                <coordinates>107.5740256,-6.9279327,0.0 107.574166,-6.9275425,0.0 107.574334,-6.9271457,0.0 107.5745125,-6.9267294,0.0 107.5745461,-6.9266423,0.0 107.5746093,-6.9264478,0.0 107.5746555,-6.9262938,0.0 107.5747005,-6.9261087,0.0 107.5747213,-6.9260141,0.0 107.5747456,-6.9258872,0.0 107.5747533,-6.9258404,0.0 107.5747857,-6.925664,0.0 107.5748145,-6.92549,0.0 107.5748477,-6.9253252,0.0</coordinates>
            </LineString>
        </Placemark>
        <Placemark id="43109">
            <name>Route Segment</name>
            <styleUrl>#43110</styleUrl>
            <LineString id="43108">
                <coordinates>107.550756,-6.9324436,0.0 107.5508558,-6.9322278,0.0 107.5509802,-6.9319715,0.0</coordinates>
            </LineString>
        </Placemark>
        <Placemark id="43113">
            <name>Bunderan Cibeureum</name>
            <styleUrl>#43114</styleUrl>
            <LineString id="43112">
                <coordinates>107.5741991,-6.9172935,0.0 107.5741762,-6.9172335,0.0 107.5741721,-6.9171914,0.0 107.5741781,-6.9171402,0.0</coordinates>
            </LineString>
        </Placemark>
        <Placemark id="43117">
            <name>Jalan Ciroyom</name>
            <styleUrl>#43118</styleUrl>
            <LineString id="43116">
                <coordinates>107.5885486,-6.9141236,0.0 107.5884097,-6.9140226,0.0 107.5881793,-6.913895,0.0 107.5880643,-6.9138413,0.0 107.5878468,-6.9137585,0.0 107.5874395,-6.9135978,0.0 107.5873411,-6.91356,0.0 107.5872252,-6.9135056,0.0</coordinates>
            </LineString>
        </Placemark>
        <Placemark id="43121">
            <name>Jalan Rajawali Timur</name>
            <styleUrl>#43122</styleUrl>
            <LineString id="43120">
                <coordinates>107.5824997,-6.9148158,0.0 107.5825485,-6.9148303,0.0 107.5828858,-6.9149273,0.0 107.5830554,-6.9149788,0.0 107.5833358,-6.915074,0.0</coordinates>
            </LineString>
        </Placemark>
        <Placemark id="43125">
            <name>Jalan Elang</name>
            <styleUrl>#43126</styleUrl>
            <LineString id="43124">
                <coordinates>107.5744371,-6.9169959,0.0 107.5745135,-6.9168299,0.0 107.5747072,-6.9163324,0.0 107.5747945,-6.9161059,0.0 107.5749278,-6.9157275,0.0 107.5749738,-6.9155723,0.0</coordinates>
            </LineString>
        </Placemark>
        <Placemark id="43129">
            <name>Bunderan Cibeureum</name>
            <styleUrl>#43130</styleUrl>
            <LineString id="43128">
                <coordinates>107.5742937,-6.9173779,0.0 107.5742396,-6.9173432,0.0 107.5741991,-6.9172935,0.0</coordinates>
            </LineString>
        </Placemark>
        <Placemark id="43133">
            <name>Bunderan Cibeureum</name>
            <styleUrl>#43134</styleUrl>
            <LineString id="43132">
                <coordinates>107.5743593,-6.9169831,0.0 107.5743057,-6.917003,0.0 107.5742604,-6.9170262,0.0 107.5742223,-6.9170598,0.0 107.5741939,-6.9171018,0.0 107.5741781,-6.9171402,0.0</coordinates>
            </LineString>
        </Placemark>
        <Placemark id="43137">
            <name>Bunderan Cibeureum</name>
            <styleUrl>#43138</styleUrl>
            <LineString id="43136">
                <coordinates>107.5744371,-6.9169959,0.0 107.5744233,-6.9169939,0.0 107.5743913,-6.9169845,0.0 107.5743593,-6.9169831,0.0</coordinates>
            </LineString>
        </Placemark>
        <Placemark id="43141">
            <name>Jalan Holis</name>
            <styleUrl>#43142</styleUrl>
            <LineString id="43140">
                <coordinates>107.5748477,-6.9253252,0.0 107.5748739,-6.9252061,0.0 107.5748853,-6.925129,0.0 107.5748956,-6.9250263,0.0 107.5749063,-6.9248725,0.0 107.5749282,-6.9247449,0.0 107.5749567,-6.9246174,0.0</coordinates>
            </LineString>
        </Placemark>
        <Placemark id="43145">
            <name>Jalan Ciroyom</name>
            <styleUrl>#43146</styleUrl>
            <LineString id="43144">
                <coordinates>107.5867539,-6.9131493,0.0 107.5869544,-6.9132359,0.0 107.5872782,-6.9133614,0.0 107.5877361,-6.9135372,0.0 107.5883921,-6.9137814,0.0 107.5889327,-6.9139693,0.0 107.5890718,-6.914024,0.0</coordinates>
            </LineString>
        </Placemark>
        <Placemark id="43149">
            <name>Jalan Ciroyom</name>
            <styleUrl>#43150</styleUrl>
            <LineString id="43148">
                <coordinates>107.5872252,-6.9135056,0.0 107.5868064,-6.9132825,0.0 107.5867121,-6.9132166,0.0</coordinates>
            </LineString>
        </Placemark>
        <Placemark id="43153">
            <name>Route Segment</name>
            <styleUrl>#43154</styleUrl>
            <LineString id="43152">
                <coordinates>107.5860843,-6.9128486,0.0 107.5860597,-6.9128206,0.0 107.5860543,-6.912807,0.0 107.586055,-6.9127863,0.0 107.5860709,-6.9127681,0.0 107.5860877,-6.9127622,0.0 107.586119,-6.9127619,0.0</coordinates>
            </LineString>
        </Placemark>
        <Placemark id="43157">
            <name>Jalan Elang</name>
            <styleUrl>#43158</styleUrl>
            <LineString id="43156">
                <coordinates>107.575723,-6.9133498,0.0 107.5758021,-6.913142,0.0</coordinates>
            </LineString>
        </Placemark>
        <Placemark id="43161">
            <name>Jalan Ciroyom Timur</name>
            <styleUrl>#43162</styleUrl>
            <LineString id="43160">
                <coordinates>107.5883109,-6.9143017,0.0 107.5885486,-6.9141236,0.0</coordinates>
            </LineString>
        </Placemark>
        <Placemark id="43165">
            <name>Jalan Holis</name>
            <styleUrl>#43166</styleUrl>
            <LineString id="43164">
                <coordinates>107.5749567,-6.9246174,0.0 107.5749831,-6.9244958,0.0 107.5750151,-6.9243818,0.0</coordinates>
            </LineString>
        </Placemark>
        <Placemark id="43169">
            <name>Jalan Elang</name>
            <styleUrl>#43170</styleUrl>
            <LineString id="43168">
                <coordinates>107.5753136,-6.9144895,0.0 107.5755245,-6.9138801,0.0 107.575723,-6.9133498,0.0</coordinates>
            </LineString>
        </Placemark>
        <Placemark id="43173">
            <name>Jalan Ciroyom</name>
            <styleUrl>#43174</styleUrl>
            <LineString id="43172">
                <coordinates>107.586119,-6.9127619,0.0 107.5867539,-6.9131493,0.0</coordinates>
            </LineString>
        </Placemark>
        <Placemark id="43177">
            <name>Jalan Dirgantara</name>
            <styleUrl>#43178</styleUrl>
            <LineString id="43176">
                <coordinates>107.5508272,-6.9324632,0.0 107.550756,-6.9324436,0.0</coordinates>
            </LineString>
        </Placemark>
        <Placemark id="43181">
            <name>Jalan Ciroyom</name>
            <styleUrl>#43182</styleUrl>
            <LineString id="43180">
                <coordinates>107.5867121,-6.9132166,0.0 107.586425,-6.9130541,0.0</coordinates>
            </LineString>
        </Placemark>
        <Placemark id="43185">
            <name>Jalan Ciroyom</name>
            <styleUrl>#43186</styleUrl>
            <LineString id="43184">
                <coordinates>107.586425,-6.9130541,0.0 107.5860843,-6.9128486,0.0</coordinates>
            </LineString>
        </Placemark>
        <Placemark id="43189">
            <name>Jalan Rajawali Timur</name>
            <styleUrl>#43190</styleUrl>
            <LineString id="43188">
                <coordinates>107.5758021,-6.913142,0.0 107.5761151,-6.9132715,0.0</coordinates>
            </LineString>
        </Placemark>
        <Placemark id="43193">
            <name>Jalan Arjuna</name>
            <styleUrl>#43194</styleUrl>
            <LineString id="43192">
                <coordinates>107.5890718,-6.914024,0.0 107.5890644,-6.914151,0.0</coordinates>
            </LineString>
        </Placemark>
    </Document>
</kml>
