<?xml version="1.0" encoding="UTF-8"?>
<kml xmlns="http://www.opengis.net/kml/2.2" xmlns:gx="http://www.google.com/kml/ext/2.2">
    <Document id="43197">
        <Style id="43203">
            <IconStyle id="43204">
                <colorMode>normal</colorMode>
                <scale>1</scale>
                <heading>0</heading>
                <Icon id="43205">
                    <href>http://maps.google.com/mapfiles/kml/pushpin/ylw-pushpin.png</href>
                </Icon>
            </IconStyle>
        </Style>
        <Style id="43208">
            <IconStyle id="43209">
                <colorMode>normal</colorMode>
                <scale>1</scale>
                <heading>0</heading>
                <Icon id="43210">
                    <href>http://maps.google.com/mapfiles/kml/pushpin/ylw-pushpin.png</href>
                </Icon>
            </IconStyle>
        </Style>
        <Style id="43213">
            <IconStyle id="43214">
                <colorMode>normal</colorMode>
                <scale>1</scale>
                <heading>0</heading>
                <Icon id="43215">
                    <href>http://maps.google.com/mapfiles/kml/pushpin/ylw-pushpin.png</href>
                </Icon>
            </IconStyle>
        </Style>
        <Style id="43218">
            <LineStyle id="43219">
                <color>ff1D94F7</color>
                <colorMode>normal</colorMode>
                <width>4</width>
            </LineStyle>
        </Style>
        <Style id="43222">
            <LineStyle id="43223">
                <color>ff1D94F7</color>
                <colorMode>normal</colorMode>
                <width>4</width>
            </LineStyle>
        </Style>
        <Style id="43226">
            <LineStyle id="43227">
                <color>ff1D94F7</color>
                <colorMode>normal</colorMode>
                <width>4</width>
            </LineStyle>
        </Style>
        <Style id="43230">
            <LineStyle id="43231">
                <color>ff1D94F7</color>
                <colorMode>normal</colorMode>
                <width>4</width>
            </LineStyle>
        </Style>
        <Style id="43234">
            <LineStyle id="43235">
                <color>ff1D94F7</color>
                <colorMode>normal</colorMode>
                <width>4</width>
            </LineStyle>
        </Style>
        <Style id="43238">
            <LineStyle id="43239">
                <color>ff1D94F7</color>
                <colorMode>normal</colorMode>
                <width>4</width>
            </LineStyle>
        </Style>
        <Style id="43242">
            <LineStyle id="43243">
                <color>ff1D94F7</color>
                <colorMode>normal</colorMode>
                <width>4</width>
            </LineStyle>
        </Style>
        <Style id="43246">
            <LineStyle id="43247">
                <color>ff1D94F7</color>
                <colorMode>normal</colorMode>
                <width>4</width>
            </LineStyle>
        </Style>
        <Style id="43250">
            <LineStyle id="43251">
                <color>ff1D94F7</color>
                <colorMode>normal</colorMode>
                <width>4</width>
            </LineStyle>
        </Style>
        <Style id="43254">
            <LineStyle id="43255">
                <color>ff1D94F7</color>
                <colorMode>normal</colorMode>
                <width>4</width>
            </LineStyle>
        </Style>
        <Style id="43258">
            <LineStyle id="43259">
                <color>ff1D94F7</color>
                <colorMode>normal</colorMode>
                <width>4</width>
            </LineStyle>
        </Style>
        <Style id="43262">
            <LineStyle id="43263">
                <color>ff1D94F7</color>
                <colorMode>normal</colorMode>
                <width>4</width>
            </LineStyle>
        </Style>
        <Style id="43266">
            <LineStyle id="43267">
                <color>ff1D94F7</color>
                <colorMode>normal</colorMode>
                <width>4</width>
            </LineStyle>
        </Style>
        <Style id="43270">
            <LineStyle id="43271">
                <color>ff1D94F7</color>
                <colorMode>normal</colorMode>
                <width>4</width>
            </LineStyle>
        </Style>
        <Style id="43274">
            <LineStyle id="43275">
                <color>ff1D94F7</color>
                <colorMode>normal</colorMode>
                <width>4</width>
            </LineStyle>
        </Style>
        <Style id="43278">
            <LineStyle id="43279">
                <color>ff1D94F7</color>
                <colorMode>normal</colorMode>
                <width>4</width>
            </LineStyle>
        </Style>
        <Style id="43282">
            <LineStyle id="43283">
                <color>ff1D94F7</color>
                <colorMode>normal</colorMode>
                <width>4</width>
            </LineStyle>
        </Style>
        <Style id="43286">
            <LineStyle id="43287">
                <color>ff1D94F7</color>
                <colorMode>normal</colorMode>
                <width>4</width>
            </LineStyle>
        </Style>
        <Style id="43290">
            <LineStyle id="43291">
                <color>ff1D94F7</color>
                <colorMode>normal</colorMode>
                <width>4</width>
            </LineStyle>
        </Style>
        <Style id="43294">
            <LineStyle id="43295">
                <color>ff1D94F7</color>
                <colorMode>normal</colorMode>
                <width>4</width>
            </LineStyle>
        </Style>
        <Style id="43298">
            <LineStyle id="43299">
                <color>ff1D94F7</color>
                <colorMode>normal</colorMode>
                <width>4</width>
            </LineStyle>
        </Style>
        <Style id="43302">
            <LineStyle id="43303">
                <color>ff1D94F7</color>
                <colorMode>normal</colorMode>
                <width>4</width>
            </LineStyle>
        </Style>
        <Style id="43306">
            <LineStyle id="43307">
                <color>ff1D94F7</color>
                <colorMode>normal</colorMode>
                <width>4</width>
            </LineStyle>
        </Style>
        <Style id="43310">
            <LineStyle id="43311">
                <color>ff1D94F7</color>
                <colorMode>normal</colorMode>
                <width>4</width>
            </LineStyle>
        </Style>
        <Style id="43314">
            <LineStyle id="43315">
                <color>ff1D94F7</color>
                <colorMode>normal</colorMode>
                <width>4</width>
            </LineStyle>
        </Style>
        <Style id="43318">
            <LineStyle id="43319">
                <color>ff1D94F7</color>
                <colorMode>normal</colorMode>
                <width>4</width>
            </LineStyle>
        </Style>
        <Style id="43322">
            <LineStyle id="43323">
                <color>ff1D94F7</color>
                <colorMode>normal</colorMode>
                <width>4</width>
            </LineStyle>
        </Style>
        <Style id="43326">
            <LineStyle id="43327">
                <color>ff1D94F7</color>
                <colorMode>normal</colorMode>
                <width>4</width>
            </LineStyle>
        </Style>
        <Style id="43330">
            <LineStyle id="43331">
                <color>ff1D94F7</color>
                <colorMode>normal</colorMode>
                <width>4</width>
            </LineStyle>
        </Style>
        <Style id="43334">
            <LineStyle id="43335">
                <color>ff1D94F7</color>
                <colorMode>normal</colorMode>
                <width>4</width>
            </LineStyle>
        </Style>
        <Style id="43338">
            <LineStyle id="43339">
                <color>ff1D94F7</color>
                <colorMode>normal</colorMode>
                <width>4</width>
            </LineStyle>
        </Style>
        <Style id="43342">
            <LineStyle id="43343">
                <color>ff1D94F7</color>
                <colorMode>normal</colorMode>
                <width>4</width>
            </LineStyle>
        </Style>
        <Style id="43346">
            <LineStyle id="43347">
                <color>ff1D94F7</color>
                <colorMode>normal</colorMode>
                <width>4</width>
            </LineStyle>
        </Style>
        <Style id="43350">
            <LineStyle id="43351">
                <color>ff1D94F7</color>
                <colorMode>normal</colorMode>
                <width>4</width>
            </LineStyle>
        </Style>
        <Style id="43354">
            <LineStyle id="43355">
                <color>ff1D94F7</color>
                <colorMode>normal</colorMode>
                <width>4</width>
            </LineStyle>
        </Style>
        <Style id="43358">
            <LineStyle id="43359">
                <color>ff1D94F7</color>
                <colorMode>normal</colorMode>
                <width>4</width>
            </LineStyle>
        </Style>
        <Style id="43362">
            <LineStyle id="43363">
                <color>ff1D94F7</color>
                <colorMode>normal</colorMode>
                <width>4</width>
            </LineStyle>
        </Style>
        <Style id="43366">
            <LineStyle id="43367">
                <color>ff1D94F7</color>
                <colorMode>normal</colorMode>
                <width>4</width>
            </LineStyle>
        </Style>
        <Style id="43370">
            <LineStyle id="43371">
                <color>ff1D94F7</color>
                <colorMode>normal</colorMode>
                <width>4</width>
            </LineStyle>
        </Style>
        <Style id="43374">
            <LineStyle id="43375">
                <color>ff1D94F7</color>
                <colorMode>normal</colorMode>
                <width>4</width>
            </LineStyle>
        </Style>
        <Style id="43378">
            <LineStyle id="43379">
                <color>ff1D94F7</color>
                <colorMode>normal</colorMode>
                <width>4</width>
            </LineStyle>
        </Style>
        <Style id="43382">
            <LineStyle id="43383">
                <color>ff1D94F7</color>
                <colorMode>normal</colorMode>
                <width>4</width>
            </LineStyle>
        </Style>
        <Style id="43386">
            <LineStyle id="43387">
                <color>ff1D94F7</color>
                <colorMode>normal</colorMode>
                <width>4</width>
            </LineStyle>
        </Style>
        <Style id="43390">
            <LineStyle id="43391">
                <color>ff1D94F7</color>
                <colorMode>normal</colorMode>
                <width>4</width>
            </LineStyle>
        </Style>
        <Style id="43394">
            <LineStyle id="43395">
                <color>ff1D94F7</color>
                <colorMode>normal</colorMode>
                <width>4</width>
            </LineStyle>
        </Style>
        <Style id="43398">
            <LineStyle id="43399">
                <color>ff1D94F7</color>
                <colorMode>normal</colorMode>
                <width>4</width>
            </LineStyle>
        </Style>
        <Style id="43402">
            <LineStyle id="43403">
                <color>ff1D94F7</color>
                <colorMode>normal</colorMode>
                <width>4</width>
            </LineStyle>
        </Style>
        <Style id="43406">
            <LineStyle id="43407">
                <color>ff1D94F7</color>
                <colorMode>normal</colorMode>
                <width>4</width>
            </LineStyle>
        </Style>
        <Style id="43410">
            <LineStyle id="43411">
                <color>ff1D94F7</color>
                <colorMode>normal</colorMode>
                <width>4</width>
            </LineStyle>
        </Style>
        <Style id="43414">
            <LineStyle id="43415">
                <color>ff1D94F7</color>
                <colorMode>normal</colorMode>
                <width>4</width>
            </LineStyle>
        </Style>
        <Style id="43418">
            <LineStyle id="43419">
                <color>ff1D94F7</color>
                <colorMode>normal</colorMode>
                <width>4</width>
            </LineStyle>
        </Style>
        <Style id="43422">
            <LineStyle id="43423">
                <color>ff1D94F7</color>
                <colorMode>normal</colorMode>
                <width>4</width>
            </LineStyle>
        </Style>
        <Style id="43426">
            <LineStyle id="43427">
                <color>ff1D94F7</color>
                <colorMode>normal</colorMode>
                <width>4</width>
            </LineStyle>
        </Style>
        <Style id="43430">
            <LineStyle id="43431">
                <color>ff1D94F7</color>
                <colorMode>normal</colorMode>
                <width>4</width>
            </LineStyle>
        </Style>
        <Style id="43434">
            <LineStyle id="43435">
                <color>ff1D94F7</color>
                <colorMode>normal</colorMode>
                <width>4</width>
            </LineStyle>
        </Style>
        <Style id="43438">
            <LineStyle id="43439">
                <color>ff1D94F7</color>
                <colorMode>normal</colorMode>
                <width>4</width>
            </LineStyle>
        </Style>
        <Style id="43442">
            <LineStyle id="43443">
                <color>ff1D94F7</color>
                <colorMode>normal</colorMode>
                <width>4</width>
            </LineStyle>
        </Style>
        <Style id="43446">
            <LineStyle id="43447">
                <color>ff1D94F7</color>
                <colorMode>normal</colorMode>
                <width>4</width>
            </LineStyle>
        </Style>
        <Style id="43450">
            <LineStyle id="43451">
                <color>ff1D94F7</color>
                <colorMode>normal</colorMode>
                <width>4</width>
            </LineStyle>
        </Style>
        <Style id="43454">
            <LineStyle id="43455">
                <color>ff1D94F7</color>
                <colorMode>normal</colorMode>
                <width>4</width>
            </LineStyle>
        </Style>
        <Style id="43458">
            <LineStyle id="43459">
                <color>ff1D94F7</color>
                <colorMode>normal</colorMode>
                <width>4</width>
            </LineStyle>
        </Style>
        <Style id="43462">
            <LineStyle id="43463">
                <color>ff1D94F7</color>
                <colorMode>normal</colorMode>
                <width>4</width>
            </LineStyle>
        </Style>
        <Style id="43466">
            <LineStyle id="43467">
                <color>ff1D94F7</color>
                <colorMode>normal</colorMode>
                <width>4</width>
            </LineStyle>
        </Style>
        <Style id="43470">
            <LineStyle id="43471">
                <color>ff1D94F7</color>
                <colorMode>normal</colorMode>
                <width>4</width>
            </LineStyle>
        </Style>
        <Style id="43474">
            <LineStyle id="43475">
                <color>ff1D94F7</color>
                <colorMode>normal</colorMode>
                <width>4</width>
            </LineStyle>
        </Style>
        <Style id="43478">
            <LineStyle id="43479">
                <color>ff1D94F7</color>
                <colorMode>normal</colorMode>
                <width>4</width>
            </LineStyle>
        </Style>
        <Style id="43482">
            <LineStyle id="43483">
                <color>ff1D94F7</color>
                <colorMode>normal</colorMode>
                <width>4</width>
            </LineStyle>
        </Style>
        <Style id="43486">
            <LineStyle id="43487">
                <color>ff1D94F7</color>
                <colorMode>normal</colorMode>
                <width>4</width>
            </LineStyle>
        </Style>
        <Style id="43490">
            <LineStyle id="43491">
                <color>ff1D94F7</color>
                <colorMode>normal</colorMode>
                <width>4</width>
            </LineStyle>
        </Style>
        <Style id="43494">
            <LineStyle id="43495">
                <color>ff1D94F7</color>
                <colorMode>normal</colorMode>
                <width>4</width>
            </LineStyle>
        </Style>
        <Style id="43498">
            <LineStyle id="43499">
                <color>ff1D94F7</color>
                <colorMode>normal</colorMode>
                <width>4</width>
            </LineStyle>
        </Style>
        <Style id="43502">
            <LineStyle id="43503">
                <color>ff1D94F7</color>
                <colorMode>normal</colorMode>
                <width>4</width>
            </LineStyle>
        </Style>
        <Style id="43506">
            <LineStyle id="43507">
                <color>ff1D94F7</color>
                <colorMode>normal</colorMode>
                <width>4</width>
            </LineStyle>
        </Style>
        <Style id="43510">
            <LineStyle id="43511">
                <color>ff1D94F7</color>
                <colorMode>normal</colorMode>
                <width>4</width>
            </LineStyle>
        </Style>
        <Style id="43514">
            <LineStyle id="43515">
                <color>ff1D94F7</color>
                <colorMode>normal</colorMode>
                <width>4</width>
            </LineStyle>
        </Style>
        <Style id="43518">
            <LineStyle id="43519">
                <color>ff1D94F7</color>
                <colorMode>normal</colorMode>
                <width>4</width>
            </LineStyle>
        </Style>
        <Style id="43522">
            <LineStyle id="43523">
                <color>ff1D94F7</color>
                <colorMode>normal</colorMode>
                <width>4</width>
            </LineStyle>
        </Style>
        <Style id="43526">
            <LineStyle id="43527">
                <color>ff1D94F7</color>
                <colorMode>normal</colorMode>
                <width>4</width>
            </LineStyle>
        </Style>
        <Style id="43530">
            <LineStyle id="43531">
                <color>ff1D94F7</color>
                <colorMode>normal</colorMode>
                <width>4</width>
            </LineStyle>
        </Style>
        <Style id="43534">
            <LineStyle id="43535">
                <color>ff1D94F7</color>
                <colorMode>normal</colorMode>
                <width>4</width>
            </LineStyle>
        </Style>
        <Style id="43538">
            <LineStyle id="43539">
                <color>ff1D94F7</color>
                <colorMode>normal</colorMode>
                <width>4</width>
            </LineStyle>
        </Style>
        <Style id="43542">
            <LineStyle id="43543">
                <color>ff1D94F7</color>
                <colorMode>normal</colorMode>
                <width>4</width>
            </LineStyle>
        </Style>
        <Style id="43546">
            <LineStyle id="43547">
                <color>ff1D94F7</color>
                <colorMode>normal</colorMode>
                <width>4</width>
            </LineStyle>
        </Style>
        <Style id="43550">
            <LineStyle id="43551">
                <color>ff1D94F7</color>
                <colorMode>normal</colorMode>
                <width>4</width>
            </LineStyle>
        </Style>
        <Style id="43554">
            <LineStyle id="43555">
                <color>ff1D94F7</color>
                <colorMode>normal</colorMode>
                <width>4</width>
            </LineStyle>
        </Style>
        <Style id="43558">
            <LineStyle id="43559">
                <color>ff1D94F7</color>
                <colorMode>normal</colorMode>
                <width>4</width>
            </LineStyle>
        </Style>
        <Style id="43562">
            <LineStyle id="43563">
                <color>ff1D94F7</color>
                <colorMode>normal</colorMode>
                <width>4</width>
            </LineStyle>
        </Style>
        <Style id="43566">
            <LineStyle id="43567">
                <color>ff1D94F7</color>
                <colorMode>normal</colorMode>
                <width>4</width>
            </LineStyle>
        </Style>
        <Style id="43570">
            <LineStyle id="43571">
                <color>ff1D94F7</color>
                <colorMode>normal</colorMode>
                <width>4</width>
            </LineStyle>
        </Style>
        <Style id="43574">
            <LineStyle id="43575">
                <color>ff1D94F7</color>
                <colorMode>normal</colorMode>
                <width>4</width>
            </LineStyle>
        </Style>
        <ExtendedData>
            <Data name="route-name">
                <value>21: Ciroyom → Cikudapateuh</value>
            </Data>
            <Data name="source">
                <value>Transport for Bandung</value>
            </Data>
        </ExtendedData>
        <Placemark id="43202">
            <name>SMA Trinitas</name>
            <styleUrl>#43203</styleUrl>
            <Point id="43201">
                <coordinates>107.5917139,-6.916555,0.0</coordinates>
            </Point>
        </Placemark>
        <Placemark id="43207">
            <name>Pangkalan Angkot Rajawali</name>
            <styleUrl>#43208</styleUrl>
            <Point id="43206">
                <coordinates>107.5761151,-6.9132715,0.0</coordinates>
            </Point>
        </Placemark>
        <Placemark id="43212">
            <name>Stasiun Cikudapateuh</name>
            <styleUrl>#43213</styleUrl>
            <Point id="43211">
                <coordinates>107.6258024,-6.9189956,0.0</coordinates>
            </Point>
        </Placemark>
        <Placemark id="43217">
            <name>Jalan Kebon Jati</name>
            <styleUrl>#43218</styleUrl>
            <LineString id="43216">
                <coordinates>107.5933422,-6.9165053,0.0 107.5934217,-6.9165008,0.0 107.5936045,-6.9164926,0.0 107.5936788,-6.9164782,0.0 107.5937549,-6.9164536,0.0 107.5942465,-6.9164387,0.0 107.5945745,-6.91643,0.0 107.5946101,-6.9164366,0.0 107.5946649,-6.9164464,0.0 107.5955033,-6.9164154,0.0 107.5955265,-6.9164153,0.0 107.5955809,-6.9164123,0.0 107.5958357,-6.9164043,0.0 107.5958592,-6.9164025,0.0</coordinates>
            </LineString>
        </Placemark>
        <Placemark id="43221">
            <name>Jalan Rajawali Timur</name>
            <styleUrl>#43222</styleUrl>
            <LineString id="43220">
                <coordinates>107.5761151,-6.9132715,0.0 107.5762053,-6.9133088,0.0 107.5762519,-6.9133265,0.0 107.5765322,-6.9134206,0.0 107.5766744,-6.9134545,0.0 107.5768473,-6.9134956,0.0 107.5771173,-6.9135481,0.0 107.5772702,-6.9135797,0.0 107.5775341,-6.9136343,0.0 107.5776073,-6.9136496,0.0</coordinates>
            </LineString>
        </Placemark>
        <Placemark id="43225">
            <name>Jalan Gardujati</name>
            <styleUrl>#43226</styleUrl>
            <LineString id="43224">
                <coordinates>107.5982824,-6.9187314,0.0 107.5983085,-6.9194279,0.0 107.5983096,-6.9194582,0.0 107.5983293,-6.919971,0.0 107.5983308,-6.92001,0.0 107.5983366,-6.920102,0.0</coordinates>
            </LineString>
        </Placemark>
        <Placemark id="43229">
            <name>Jalan Mochammad Ramdhan</name>
            <styleUrl>#43230</styleUrl>
            <LineString id="43228">
                <coordinates>107.6149248,-6.9325064,0.0 107.6150464,-6.9323211,0.0 107.6152226,-6.9320956,0.0</coordinates>
            </LineString>
        </Placemark>
        <Placemark id="43233">
            <name>Jalan Terusan Halimun</name>
            <styleUrl>#43234</styleUrl>
            <LineString id="43232">
                <coordinates>107.6236147,-6.9265547,0.0 107.6231899,-6.9264392,0.0</coordinates>
            </LineString>
        </Placemark>
        <Placemark id="43237">
            <name>Jalan Malabar</name>
            <styleUrl>#43238</styleUrl>
            <LineString id="43236">
                <coordinates>107.6231899,-6.9264392,0.0 107.6234717,-6.925801,0.0 107.623714,-6.925252,0.0</coordinates>
            </LineString>
        </Placemark>
        <Placemark id="43241">
            <name>Jalan Kembang Sapatu</name>
            <styleUrl>#43242</styleUrl>
            <LineString id="43240">
                <coordinates>107.6258024,-6.9189956,0.0 107.6250721,-6.9188193,0.0</coordinates>
            </LineString>
        </Placemark>
        <Placemark id="43245">
            <name>Jalan Malabar</name>
            <styleUrl>#43246</styleUrl>
            <LineString id="43244">
                <coordinates>107.6238524,-6.9251131,0.0 107.6238645,-6.9250741,0.0 107.6240605,-6.9244408,0.0</coordinates>
            </LineString>
        </Placemark>
        <Placemark id="43249">
            <name>Jalan Mochammad Ramdhan</name>
            <styleUrl>#43250</styleUrl>
            <LineString id="43248">
                <coordinates>107.6153893,-6.9318779,0.0 107.6155386,-6.9316906,0.0</coordinates>
            </LineString>
        </Placemark>
        <Placemark id="43253">
            <name>Jalan Kyai Haji Ahmad Dahlan</name>
            <styleUrl>#43254</styleUrl>
            <LineString id="43252">
                <coordinates>107.6181273,-6.9318132,0.0 107.6182444,-6.9316927,0.0 107.6183599,-6.9316133,0.0 107.6185305,-6.9315221,0.0 107.6187946,-6.9314272,0.0 107.619075,-6.931384,0.0 107.6192569,-6.9313802,0.0</coordinates>
            </LineString>
        </Placemark>
        <Placemark id="43257">
            <name>Jalan Mochammad Ramdhan</name>
            <styleUrl>#43258</styleUrl>
            <LineString id="43256">
                <coordinates>107.6090705,-6.9376195,0.0 107.6091844,-6.9375258,0.0 107.6094009,-6.9373781,0.0 107.609545,-6.9372846,0.0 107.6096423,-6.9372363,0.0 107.6096949,-6.9372179,0.0</coordinates>
            </LineString>
        </Placemark>
        <Placemark id="43261">
            <name>Jalan Palasari</name>
            <styleUrl>#43262</styleUrl>
            <LineString id="43260">
                <coordinates>107.6236147,-6.9265547,0.0 107.6235032,-6.9269791,0.0 107.6234034,-6.9273593,0.0 107.6233911,-6.9274059,0.0 107.623318,-6.9276837,0.0 107.6232698,-6.9278671,0.0 107.6231948,-6.9281529,0.0 107.6230845,-6.9285702,0.0 107.6230712,-6.9286235,0.0</coordinates>
            </LineString>
        </Placemark>
        <Placemark id="43265">
            <name>Jalan Panjunan</name>
            <styleUrl>#43266</styleUrl>
            <LineString id="43264">
                <coordinates>107.5999286,-6.9301492,0.0 107.5995398,-6.9300939,0.0 107.5986352,-6.9299972,0.0 107.5973451,-6.9298621,0.0</coordinates>
            </LineString>
        </Placemark>
        <Placemark id="43269">
            <name>Jalan Palasari</name>
            <styleUrl>#43270</styleUrl>
            <LineString id="43268">
                <coordinates>107.622434,-6.9309756,0.0 107.6223798,-6.9311705,0.0 107.6222917,-6.9314875,0.0 107.6221815,-6.9318636,0.0 107.6220445,-6.9323308,0.0 107.6219116,-6.9328188,0.0</coordinates>
            </LineString>
        </Placemark>
        <Placemark id="43273">
            <name>Jalan Kyai Haji Ahmad Dahlan</name>
            <styleUrl>#43274</styleUrl>
            <LineString id="43272">
                <coordinates>107.6192569,-6.9313802,0.0 107.6195403,-6.9314027,0.0 107.6198275,-6.9314581,0.0 107.6200483,-6.9315397,0.0 107.6202525,-6.9316471,0.0 107.6203316,-6.9317067,0.0 107.6204269,-6.9317785,0.0</coordinates>
            </LineString>
        </Placemark>
        <Placemark id="43277">
            <name>Jalan Palasari</name>
            <styleUrl>#43278</styleUrl>
            <LineString id="43276">
                <coordinates>107.6230712,-6.9286235,0.0 107.6230578,-6.928673,0.0 107.6227649,-6.9298044,0.0 107.622579,-6.9304538,0.0 107.6225611,-6.9305163,0.0 107.622434,-6.9309756,0.0</coordinates>
            </LineString>
        </Placemark>
        <Placemark id="43281">
            <name>Jalan Jenderal Gatot Subroto</name>
            <styleUrl>#43282</styleUrl>
            <LineString id="43280">
                <coordinates>107.6269132,-6.924352,0.0 107.6268157,-6.924329,0.0 107.6267109,-6.9243051,0.0 107.6262875,-6.9242019,0.0 107.6254429,-6.9239962,0.0 107.6253214,-6.9239682,0.0 107.6252875,-6.9239597,0.0 107.6250865,-6.9239093,0.0</coordinates>
            </LineString>
        </Placemark>
        <Placemark id="43285">
            <name>Jalan Kyai Haji Wahid Hasyim</name>
            <styleUrl>#43286</styleUrl>
            <LineString id="43284">
                <coordinates>107.5951535,-6.9367787,0.0 107.5951874,-6.9367303,0.0 107.5954226,-6.9363544,0.0 107.5954941,-6.9362235,0.0</coordinates>
            </LineString>
        </Placemark>
        <Placemark id="43289">
            <name>Jalan Kyai Haji Wahid Hasyim</name>
            <styleUrl>#43290</styleUrl>
            <LineString id="43288">
                <coordinates>107.5973451,-6.9298621,0.0 107.5973301,-6.9299133,0.0 107.5972016,-6.9302644,0.0 107.5970386,-6.9307403,0.0 107.5969018,-6.9312049,0.0 107.5968867,-6.9312445,0.0 107.5968361,-6.9313926,0.0 107.596765,-6.9316642,0.0 107.5965357,-6.9324963,0.0 107.5964545,-6.9328118,0.0 107.5962936,-6.9333363,0.0 107.5962648,-6.9334355,0.0 107.5961649,-6.9337657,0.0 107.5960696,-6.9340985,0.0 107.5959697,-6.9344586,0.0 107.5959114,-6.9346696,0.0 107.5958912,-6.9347433,0.0 107.5958242,-6.9349871,0.0 107.5957332,-6.9353237,0.0 107.5956715,-6.9355604,0.0 107.5955747,-6.9359434,0.0 107.5954941,-6.9362235,0.0</coordinates>
            </LineString>
        </Placemark>
        <Placemark id="43293">
            <name>Jalan Lauk Emas</name>
            <styleUrl>#43294</styleUrl>
            <LineString id="43292">
                <coordinates>107.6160965,-6.9300966,0.0 107.6163175,-6.9301757,0.0 107.6164624,-6.9302033,0.0 107.6165483,-6.9302196,0.0 107.6168106,-6.9302256,0.0 107.61707,-6.9301863,0.0</coordinates>
            </LineString>
        </Placemark>
        <Placemark id="43297">
            <name>Jalan Laswi</name>
            <styleUrl>#43298</styleUrl>
            <LineString id="43296">
                <coordinates>107.6313458,-6.9186198,0.0 107.6312891,-6.9184991,0.0 107.6312618,-6.9184409,0.0 107.6312506,-6.9184177,0.0 107.6307984,-6.9174779,0.0 107.6307188,-6.9173125,0.0</coordinates>
            </LineString>
        </Placemark>
        <Placemark id="43301">
            <name>Jalan Astana Anyar</name>
            <styleUrl>#43302</styleUrl>
            <LineString id="43300">
                <coordinates>107.6007743,-6.9300052,0.0 107.6007602,-6.9298949,0.0 107.6007454,-6.9296679,0.0 107.6007387,-6.9296054,0.0 107.6007351,-6.9295707,0.0 107.600717,-6.9293977,0.0 107.6006985,-6.9292319,0.0 107.6006731,-6.9290234,0.0 107.600612,-6.9288685,0.0 107.6005919,-6.9288192,0.0 107.6005121,-6.9286235,0.0</coordinates>
            </LineString>
        </Placemark>
        <Placemark id="43305">
            <name>Jalan Astana Anyar</name>
            <styleUrl>#43306</styleUrl>
            <LineString id="43304">
                <coordinates>107.5986744,-6.9232626,0.0 107.598693,-6.9233336,0.0 107.5987003,-6.9233666,0.0 107.5987418,-6.9235419,0.0 107.5987785,-6.9236837,0.0 107.5988393,-6.9239196,0.0 107.5989872,-6.9243261,0.0 107.5990381,-6.9244659,0.0 107.5991575,-6.9247939,0.0 107.5992769,-6.9251219,0.0 107.5995204,-6.9258084,0.0 107.5995293,-6.9258336,0.0 107.5996933,-6.9262957,0.0 107.5997325,-6.9263959,0.0 107.599866,-6.9267377,0.0 107.5999192,-6.9268738,0.0</coordinates>
            </LineString>
        </Placemark>
        <Placemark id="43309">
            <name>Jalan Astana Anyar</name>
            <styleUrl>#43310</styleUrl>
            <LineString id="43308">
                <coordinates>107.5984717,-6.9214196,0.0 107.5984828,-6.9215649,0.0 107.5985679,-6.9225334,0.0 107.5985764,-6.9225957,0.0 107.598583,-6.9226401,0.0 107.5986598,-6.9231557,0.0 107.5986613,-6.9231659,0.0 107.5986744,-6.9232626,0.0</coordinates>
            </LineString>
        </Placemark>
        <Placemark id="43313">
            <name>Jalan Rajawali Timur</name>
            <styleUrl>#43314</styleUrl>
            <LineString id="43312">
                <coordinates>107.5776073,-6.9136496,0.0 107.5777772,-6.9136868,0.0 107.5779128,-6.9137286,0.0 107.5781891,-6.9137955,0.0 107.5783539,-6.9138332,0.0 107.5783874,-6.9138419,0.0 107.5785622,-6.9138805,0.0 107.5787762,-6.9139254,0.0 107.5797055,-6.9141348,0.0 107.579747,-6.9141453,0.0 107.5799521,-6.9141897,0.0 107.5802819,-6.9142612,0.0 107.5811363,-6.9144571,0.0 107.5811751,-6.9144647,0.0 107.5812252,-6.914476,0.0 107.5813465,-6.9145043,0.0 107.581465,-6.9145319,0.0 107.5817067,-6.9145944,0.0 107.5817861,-6.9146158,0.0 107.5822849,-6.9147532,0.0 107.5823112,-6.9147609,0.0 107.5824997,-6.9148158,0.0</coordinates>
            </LineString>
        </Placemark>
        <Placemark id="43317">
            <name>Jalan Rajawali Timur</name>
            <styleUrl>#43318</styleUrl>
            <LineString id="43316">
                <coordinates>107.5833358,-6.915074,0.0 107.5835594,-6.9151467,0.0 107.5840232,-6.9153004,0.0 107.5842925,-6.915391,0.0 107.5852149,-6.9157051,0.0</coordinates>
            </LineString>
        </Placemark>
        <Placemark id="43321">
            <name>Jalan Rajawali Timur</name>
            <styleUrl>#43322</styleUrl>
            <LineString id="43320">
                <coordinates>107.5858278,-6.9159293,0.0 107.586207,-6.9160255,0.0 107.5867681,-6.9161031,0.0 107.5869736,-6.9161257,0.0 107.5871337,-6.9161429,0.0 107.5875979,-6.916198,0.0 107.5884061,-6.9162871,0.0 107.5887476,-6.9163221,0.0 107.5891041,-6.9163648,0.0 107.5895676,-6.9164212,0.0 107.5900717,-6.9164757,0.0 107.5904668,-6.9165055,0.0</coordinates>
            </LineString>
        </Placemark>
        <Placemark id="43325">
            <name>Jalan Rajawali Timur</name>
            <styleUrl>#43326</styleUrl>
            <LineString id="43324">
                <coordinates>107.5852149,-6.9157051,0.0 107.5853724,-6.9157654,0.0 107.5855994,-6.9158493,0.0 107.5858278,-6.9159293,0.0</coordinates>
            </LineString>
        </Placemark>
        <Placemark id="43329">
            <name>Jalan Mochammad Ramdhan</name>
            <styleUrl>#43330</styleUrl>
            <LineString id="43328">
                <coordinates>107.6098898,-6.9371008,0.0 107.6105128,-6.9366557,0.0 107.6106178,-6.9365806,0.0 107.6107189,-6.9365083,0.0 107.611406,-6.9359826,0.0 107.6115373,-6.9358756,0.0 107.6119898,-6.9355068,0.0 107.6123682,-6.9351648,0.0 107.6127563,-6.9348062,0.0 107.613029,-6.9345354,0.0</coordinates>
            </LineString>
        </Placemark>
        <Placemark id="43333">
            <name>Jalan Sadakeling</name>
            <styleUrl>#43334</styleUrl>
            <LineString id="43332">
                <coordinates>107.61707,-6.9301863,0.0 107.6171074,-6.9303882,0.0 107.6171605,-6.9305861,0.0 107.6172291,-6.9307792,0.0 107.6173128,-6.9309664,0.0 107.617411,-6.9311464,0.0 107.6174984,-6.9312843,0.0 107.617656,-6.9314894,0.0 107.617959,-6.9317935,0.0</coordinates>
            </LineString>
        </Placemark>
        <Placemark id="43337">
            <name>Route Segment</name>
            <styleUrl>#43338</styleUrl>
            <LineString id="43336">
                <coordinates>107.6300893,-6.9160089,0.0 107.6300221,-6.9159647,0.0 107.6299556,-6.9159377,0.0 107.6299427,-6.9159345,0.0 107.6298859,-6.9159206,0.0 107.6298144,-6.9159137,0.0</coordinates>
            </LineString>
        </Placemark>
        <Placemark id="43341">
            <name>Route Segment</name>
            <styleUrl>#43342</styleUrl>
            <LineString id="43340">
                <coordinates>107.6274045,-6.9244339,0.0 107.6274886,-6.9244155,0.0 107.6275723,-6.9243931,0.0 107.6276446,-6.9243516,0.0 107.6277032,-6.9243052,0.0</coordinates>
            </LineString>
        </Placemark>
        <Placemark id="43345">
            <name>Jalan Laswi</name>
            <styleUrl>#43346</styleUrl>
            <LineString id="43344">
                <coordinates>107.6277032,-6.9243052,0.0 107.6277874,-6.9240325,0.0 107.6278773,-6.9237948,0.0 107.6279402,-6.9236815,0.0 107.6280107,-6.9235725,0.0 107.6281061,-6.9234454,0.0 107.6282488,-6.9232816,0.0 107.6283977,-6.9231452,0.0 107.628511,-6.9230652,0.0 107.6286525,-6.92299,0.0 107.6288204,-6.9229136,0.0</coordinates>
            </LineString>
        </Placemark>
        <Placemark id="43349">
            <name>Jalan Kyai Haji Ahmad Dahlan</name>
            <styleUrl>#43350</styleUrl>
            <LineString id="43348">
                <coordinates>107.6204269,-6.9317785,0.0 107.6207279,-6.9319958,0.0 107.6219116,-6.9328188,0.0</coordinates>
            </LineString>
        </Placemark>
        <Placemark id="43353">
            <name>Jalan Mochammad Ramdhan</name>
            <styleUrl>#43354</styleUrl>
            <LineString id="43352">
                <coordinates>107.6155386,-6.9316906,0.0 107.6156276,-6.9315684,0.0 107.6157026,-6.9314613,0.0 107.6157571,-6.9313657,0.0</coordinates>
            </LineString>
        </Placemark>
        <Placemark id="43357">
            <name>Jalan Jenderal Ahmad Yani</name>
            <styleUrl>#43358</styleUrl>
            <LineString id="43356">
                <coordinates>107.6290208,-6.9162728,0.0 107.6289251,-6.9163216,0.0 107.6287077,-6.9164366,0.0 107.6286077,-6.9164897,0.0 107.6284319,-6.9165831,0.0 107.6281138,-6.9167518,0.0 107.6274434,-6.9171135,0.0</coordinates>
            </LineString>
        </Placemark>
        <Placemark id="43361">
            <name>Jalan Kebon Jati</name>
            <styleUrl>#43362</styleUrl>
            <LineString id="43360">
                <coordinates>107.5982102,-6.9163251,0.0 107.5982729,-6.9163191,0.0</coordinates>
            </LineString>
        </Placemark>
        <Placemark id="43365">
            <name>Jalan Kebon Jati</name>
            <styleUrl>#43366</styleUrl>
            <LineString id="43364">
                <coordinates>107.5910563,-6.9165402,0.0 107.5914598,-6.9165542,0.0 107.5917139,-6.916555,0.0 107.5918426,-6.9165549,0.0 107.5919002,-6.9165529,0.0 107.5922519,-6.9165451,0.0 107.5925365,-6.9165451,0.0 107.592779,-6.9165372,0.0 107.5933422,-6.9165053,0.0</coordinates>
            </LineString>
        </Placemark>
        <Placemark id="43369">
            <name>Jalan BKR</name>
            <styleUrl>#43370</styleUrl>
            <LineString id="43368">
                <coordinates>107.606583,-6.9375409,0.0 107.6066558,-6.9375429,0.0 107.6067624,-6.9375463,0.0 107.6075417,-6.9375714,0.0 107.6083051,-6.9375959,0.0 107.608358,-6.9375976,0.0 107.6084176,-6.9375995,0.0</coordinates>
            </LineString>
        </Placemark>
        <Placemark id="43373">
            <name>Jalan Peta</name>
            <styleUrl>#43374</styleUrl>
            <LineString id="43372">
                <coordinates>107.6058679,-6.9374947,0.0 107.6060689,-6.9375172,0.0 107.6061267,-6.9375223,0.0 107.6061748,-6.9375256,0.0</coordinates>
            </LineString>
        </Placemark>
        <Placemark id="43377">
            <name>Jalan Gardujati</name>
            <styleUrl>#43378</styleUrl>
            <LineString id="43376">
                <coordinates>107.5982729,-6.9163191,0.0 107.5982759,-6.9164046,0.0 107.5982887,-6.9170918,0.0</coordinates>
            </LineString>
        </Placemark>
        <Placemark id="43381">
            <name>Route Segment</name>
            <styleUrl>#43382</styleUrl>
            <LineString id="43380">
                <coordinates>107.5951535,-6.9367787,0.0 107.5951671,-6.9368418,0.0 107.5951888,-6.9369026,0.0 107.5952166,-6.9369574,0.0 107.5952509,-6.9370085,0.0 107.5952913,-6.937055,0.0</coordinates>
            </LineString>
        </Placemark>
        <Placemark id="43385">
            <name>Jalan Panjunan</name>
            <styleUrl>#43386</styleUrl>
            <LineString id="43384">
                <coordinates>107.6007743,-6.9300052,0.0 107.6007081,-6.9301183,0.0 107.6006099,-6.9302062,0.0</coordinates>
            </LineString>
        </Placemark>
        <Placemark id="43389">
            <name>Jalan Mochammad Ramdhan</name>
            <styleUrl>#43390</styleUrl>
            <LineString id="43388">
                <coordinates>107.6152226,-6.9320956,0.0 107.6153893,-6.9318779,0.0</coordinates>
            </LineString>
        </Placemark>
        <Placemark id="43393">
            <name>Jalan Panjunan</name>
            <styleUrl>#43394</styleUrl>
            <LineString id="43392">
                <coordinates>107.6000694,-6.9301678,0.0 107.5999286,-6.9301492,0.0</coordinates>
            </LineString>
        </Placemark>
        <Placemark id="43397">
            <name>Jalan Panjunan</name>
            <styleUrl>#43398</styleUrl>
            <LineString id="43396">
                <coordinates>107.6006099,-6.9302062,0.0 107.6001299,-6.9301736,0.0 107.6000694,-6.9301678,0.0</coordinates>
            </LineString>
        </Placemark>
        <Placemark id="43401">
            <name>Jalan Peta</name>
            <styleUrl>#43402</styleUrl>
            <LineString id="43400">
                <coordinates>107.599356,-6.9374873,0.0 107.5994448,-6.9374721,0.0</coordinates>
            </LineString>
        </Placemark>
        <Placemark id="43405">
            <name>Jalan Peta</name>
            <styleUrl>#43406</styleUrl>
            <LineString id="43404">
                <coordinates>107.5994448,-6.9374721,0.0 107.5994636,-6.9374701,0.0 107.6001982,-6.9373255,0.0 107.6005128,-6.9372644,0.0 107.6009668,-6.9371867,0.0 107.6012443,-6.9371571,0.0 107.6015131,-6.9371424,0.0 107.601986,-6.9371494,0.0 107.6020331,-6.9371534,0.0 107.6023057,-6.9371766,0.0 107.6025122,-6.9371945,0.0</coordinates>
            </LineString>
        </Placemark>
        <Placemark id="43409">
            <name>Jalan Kebon Jati</name>
            <styleUrl>#43410</styleUrl>
            <LineString id="43408">
                <coordinates>107.5958592,-6.9164025,0.0 107.5959332,-6.916401,0.0</coordinates>
            </LineString>
        </Placemark>
        <Placemark id="43413">
            <name>Jalan Kebon Jati</name>
            <styleUrl>#43414</styleUrl>
            <LineString id="43412">
                <coordinates>107.5959332,-6.916401,0.0 107.5962286,-6.9163962,0.0 107.596307,-6.9163928,0.0 107.5963978,-6.9163903,0.0 107.596604,-6.9163856,0.0 107.5967032,-6.9163833,0.0 107.5971285,-6.9163682,0.0 107.597181,-6.9163642,0.0 107.59731,-6.9163601,0.0 107.5973651,-6.9163555,0.0 107.5974058,-6.9163469,0.0 107.5974798,-6.9163369,0.0 107.5980505,-6.9163289,0.0 107.5980926,-6.9163279,0.0 107.5982102,-6.9163251,0.0</coordinates>
            </LineString>
        </Placemark>
        <Placemark id="43417">
            <name>Jalan Jenderal Ahmad Yani</name>
            <styleUrl>#43418</styleUrl>
            <LineString id="43416">
                <coordinates>107.6298144,-6.9159137,0.0 107.6295503,-6.9160568,0.0 107.629412,-6.9161317,0.0 107.6291688,-6.9162635,0.0 107.6290984,-6.9162777,0.0 107.6290208,-6.9162728,0.0</coordinates>
            </LineString>
        </Placemark>
        <Placemark id="43421">
            <name>Jalan Jenderal Ahmad Yani</name>
            <styleUrl>#43422</styleUrl>
            <LineString id="43420">
                <coordinates>107.6273636,-6.9171968,0.0 107.6270889,-6.9173383,0.0 107.6268861,-6.9174463,0.0 107.6268076,-6.9174881,0.0 107.6266557,-6.917569,0.0 107.6266014,-6.9175983,0.0 107.6263141,-6.9177504,0.0</coordinates>
            </LineString>
        </Placemark>
        <Placemark id="43425">
            <name>Jalan Laswi</name>
            <styleUrl>#43426</styleUrl>
            <LineString id="43424">
                <coordinates>107.6305572,-6.921776,0.0 107.6306587,-6.9213913,0.0 107.6306826,-6.9212967,0.0 107.6307838,-6.9208916,0.0 107.6308352,-6.9206729,0.0 107.6309208,-6.920344,0.0 107.6309798,-6.9201332,0.0 107.6310123,-6.9200044,0.0 107.6310227,-6.9199664,0.0</coordinates>
            </LineString>
        </Placemark>
        <Placemark id="43429">
            <name>Jalan Laswi</name>
            <styleUrl>#43430</styleUrl>
            <LineString id="43428">
                <coordinates>107.630505,-6.9219065,0.0 107.6305572,-6.921776,0.0</coordinates>
            </LineString>
        </Placemark>
        <Placemark id="43433">
            <name>Jalan Mochammad Ramdhan</name>
            <styleUrl>#43434</styleUrl>
            <LineString id="43432">
                <coordinates>107.6096949,-6.9372179,0.0 107.6097668,-6.9371763,0.0 107.6098898,-6.9371008,0.0</coordinates>
            </LineString>
        </Placemark>
        <Placemark id="43437">
            <name>Jalan Malabar</name>
            <styleUrl>#43438</styleUrl>
            <LineString id="43436">
                <coordinates>107.6242404,-6.9237756,0.0 107.6242815,-6.9236784,0.0</coordinates>
            </LineString>
        </Placemark>
        <Placemark id="43441">
            <name>Jalan Astana Anyar</name>
            <styleUrl>#43442</styleUrl>
            <LineString id="43440">
                <coordinates>107.6005121,-6.9286235,0.0 107.6004015,-6.9283347,0.0 107.6003256,-6.9280843,0.0 107.6002646,-6.9279252,0.0 107.6001956,-6.9277355,0.0 107.5999523,-6.9269769,0.0 107.5999192,-6.9268738,0.0</coordinates>
            </LineString>
        </Placemark>
        <Placemark id="43445">
            <name>Jalan Malabar</name>
            <styleUrl>#43446</styleUrl>
            <LineString id="43444">
                <coordinates>107.6240605,-6.9244408,0.0 107.6240444,-6.924334,0.0 107.6242404,-6.9237756,0.0</coordinates>
            </LineString>
        </Placemark>
        <Placemark id="43449">
            <name>Jalan Kembang Sapatu</name>
            <styleUrl>#43450</styleUrl>
            <LineString id="43448">
                <coordinates>107.6247558,-6.9185827,0.0 107.6247558,-6.9186412,0.0 107.6247559,-6.9186895,0.0 107.624788,-6.9187431,0.0 107.624837,-6.9187757,0.0 107.6250721,-6.9188193,0.0</coordinates>
            </LineString>
        </Placemark>
        <Placemark id="43453">
            <name>Jalan Gardujati</name>
            <styleUrl>#43454</styleUrl>
            <LineString id="43452">
                <coordinates>107.5982887,-6.9170918,0.0 107.5982849,-6.9176049,0.0 107.5982915,-6.9178883,0.0 107.5982987,-6.9180704,0.0 107.5982595,-6.9181989,0.0</coordinates>
            </LineString>
        </Placemark>
        <Placemark id="43457">
            <name>Jalan Laswi</name>
            <styleUrl>#43458</styleUrl>
            <LineString id="43456">
                <coordinates>107.6307188,-6.9173125,0.0 107.6306282,-6.9171247,0.0 107.6301434,-6.916119,0.0 107.6300893,-6.9160089,0.0</coordinates>
            </LineString>
        </Placemark>
        <Placemark id="43461">
            <name>Jalan Jenderal Gatot Subroto</name>
            <styleUrl>#43462</styleUrl>
            <LineString id="43460">
                <coordinates>107.627246,-6.9244355,0.0 107.6273202,-6.9244245,0.0 107.6273722,-6.9244262,0.0 107.6274045,-6.9244339,0.0</coordinates>
            </LineString>
        </Placemark>
        <Placemark id="43465">
            <name>Jalan Peta</name>
            <styleUrl>#43466</styleUrl>
            <LineString id="43464">
                <coordinates>107.5952913,-6.937055,0.0 107.5955701,-6.9371851,0.0 107.5956524,-6.9372267,0.0 107.5957833,-6.9372929,0.0 107.5960045,-6.937408,0.0 107.596358,-6.9375437,0.0 107.5965807,-6.9376054,0.0 107.5967717,-6.9376364,0.0 107.5970266,-6.9376757,0.0 107.5970826,-6.9376843,0.0 107.597167,-6.937696,0.0 107.597571,-6.9377203,0.0 107.5980158,-6.9377065,0.0 107.5984843,-6.937651,0.0 107.5993404,-6.9374905,0.0 107.599356,-6.9374873,0.0</coordinates>
            </LineString>
        </Placemark>
        <Placemark id="43469">
            <name>Jalan Peta</name>
            <styleUrl>#43470</styleUrl>
            <LineString id="43468">
                <coordinates>107.6030015,-6.937215,0.0 107.603088,-6.9372221,0.0</coordinates>
            </LineString>
        </Placemark>
        <Placemark id="43473">
            <name>Jalan Peta</name>
            <styleUrl>#43474</styleUrl>
            <LineString id="43472">
                <coordinates>107.603088,-6.9372221,0.0 107.6031857,-6.9372292,0.0 107.6033103,-6.9372436,0.0</coordinates>
            </LineString>
        </Placemark>
        <Placemark id="43477">
            <name>Jalan BKR</name>
            <styleUrl>#43478</styleUrl>
            <LineString id="43476">
                <coordinates>107.6061748,-6.9375256,0.0 107.6062545,-6.937531,0.0</coordinates>
            </LineString>
        </Placemark>
        <Placemark id="43481">
            <name>Jalan BKR</name>
            <styleUrl>#43482</styleUrl>
            <LineString id="43480">
                <coordinates>107.6062545,-6.937531,0.0 107.606315,-6.9375353,0.0 107.606583,-6.9375409,0.0</coordinates>
            </LineString>
        </Placemark>
        <Placemark id="43485">
            <name>Jalan Peta</name>
            <styleUrl>#43486</styleUrl>
            <LineString id="43484">
                <coordinates>107.6047707,-6.9373901,0.0 107.6053694,-6.9374494,0.0 107.6058679,-6.9374947,0.0</coordinates>
            </LineString>
        </Placemark>
        <Placemark id="43489">
            <name>Jalan Peta</name>
            <styleUrl>#43490</styleUrl>
            <LineString id="43488">
                <coordinates>107.6033103,-6.9372436,0.0 107.6035072,-6.9372599,0.0 107.6039376,-6.9372954,0.0 107.6044053,-6.9373359,0.0 107.6044997,-6.9373449,0.0 107.6045611,-6.9373516,0.0 107.6046277,-6.9373634,0.0 107.6046918,-6.937377,0.0 107.6047707,-6.9373901,0.0</coordinates>
            </LineString>
        </Placemark>
        <Placemark id="43493">
            <name>Jalan Peta</name>
            <styleUrl>#43494</styleUrl>
            <LineString id="43492">
                <coordinates>107.6025122,-6.9371945,0.0 107.6028574,-6.9372066,0.0 107.602893,-6.9372085,0.0 107.6030015,-6.937215,0.0</coordinates>
            </LineString>
        </Placemark>
        <Placemark id="43497">
            <name>Jalan Jenderal Gatot Subroto</name>
            <styleUrl>#43498</styleUrl>
            <LineString id="43496">
                <coordinates>107.6242815,-6.9236784,0.0 107.624396,-6.9237055,0.0</coordinates>
            </LineString>
        </Placemark>
        <Placemark id="43501">
            <name>Jalan Jenderal Gatot Subroto</name>
            <styleUrl>#43502</styleUrl>
            <LineString id="43500">
                <coordinates>107.624396,-6.9237055,0.0 107.6249805,-6.9238441,0.0 107.6250865,-6.9239093,0.0</coordinates>
            </LineString>
        </Placemark>
        <Placemark id="43505">
            <name>Jalan Jenderal Gatot Subroto</name>
            <styleUrl>#43506</styleUrl>
            <LineString id="43504">
                <coordinates>107.627246,-6.9244355,0.0 107.626966,-6.9243644,0.0 107.6269132,-6.924352,0.0</coordinates>
            </LineString>
        </Placemark>
        <Placemark id="43509">
            <name>Jalan Laswi</name>
            <styleUrl>#43510</styleUrl>
            <LineString id="43508">
                <coordinates>107.6288204,-6.9229136,0.0 107.6289665,-6.9228357,0.0 107.6291932,-6.9227271,0.0</coordinates>
            </LineString>
        </Placemark>
        <Placemark id="43513">
            <name>Jalan Laswi</name>
            <styleUrl>#43514</styleUrl>
            <LineString id="43512">
                <coordinates>107.6291932,-6.9227271,0.0 107.6294774,-6.9225864,0.0 107.6301417,-6.9222589,0.0 107.630297,-6.9221614,0.0 107.6303896,-6.9220755,0.0 107.6304543,-6.9219897,0.0 107.630505,-6.9219065,0.0</coordinates>
            </LineString>
        </Placemark>
        <Placemark id="43517">
            <name>Jalan Rajawali Timur</name>
            <styleUrl>#43518</styleUrl>
            <LineString id="43516">
                <coordinates>107.5824997,-6.9148158,0.0 107.5825485,-6.9148303,0.0 107.5828858,-6.9149273,0.0 107.5830554,-6.9149788,0.0 107.5833358,-6.915074,0.0</coordinates>
            </LineString>
        </Placemark>
        <Placemark id="43521">
            <name>Jalan Sadakeling</name>
            <styleUrl>#43522</styleUrl>
            <LineString id="43520">
                <coordinates>107.617959,-6.9317935,0.0 107.617994,-6.9318213,0.0 107.6180396,-6.9318293,0.0 107.6181273,-6.9318132,0.0</coordinates>
            </LineString>
        </Placemark>
        <Placemark id="43525">
            <name>Jalan Mochammad Ramdhan</name>
            <styleUrl>#43526</styleUrl>
            <LineString id="43524">
                <coordinates>107.613029,-6.9345354,0.0 107.6138283,-6.9337409,0.0 107.6140614,-6.9334915,0.0 107.6140869,-6.9334648,0.0 107.6141189,-6.9334348,0.0 107.6144619,-6.9330455,0.0 107.6145008,-6.933004,0.0 107.6149248,-6.9325064,0.0</coordinates>
            </LineString>
        </Placemark>
        <Placemark id="43529">
            <name>Jalan Karapitan</name>
            <styleUrl>#43530</styleUrl>
            <LineString id="43528">
                <coordinates>107.6157571,-6.9313657,0.0 107.6158192,-6.9311439,0.0 107.6158573,-6.9310078,0.0</coordinates>
            </LineString>
        </Placemark>
        <Placemark id="43533">
            <name>Jalan Laswi</name>
            <styleUrl>#43534</styleUrl>
            <LineString id="43532">
                <coordinates>107.6310227,-6.9199664,0.0 107.631071,-6.9197854,0.0 107.6313572,-6.9186866,0.0</coordinates>
            </LineString>
        </Placemark>
        <Placemark id="43537">
            <name>Jalan BKR</name>
            <styleUrl>#43538</styleUrl>
            <LineString id="43536">
                <coordinates>107.6084176,-6.9375995,0.0 107.6084753,-6.9376013,0.0 107.6087624,-6.9376105,0.0 107.6089484,-6.9376165,0.0 107.6089838,-6.9376176,0.0 107.6090705,-6.9376195,0.0</coordinates>
            </LineString>
        </Placemark>
        <Placemark id="43541">
            <name>Jalan Karapitan</name>
            <styleUrl>#43542</styleUrl>
            <LineString id="43540">
                <coordinates>107.6158573,-6.9310078,0.0 107.6159987,-6.9304668,0.0 107.6160678,-6.9302053,0.0 107.6160965,-6.9300966,0.0</coordinates>
            </LineString>
        </Placemark>
        <Placemark id="43545">
            <name>Route Segment</name>
            <styleUrl>#43546</styleUrl>
            <LineString id="43544">
                <coordinates>107.623714,-6.925252,0.0 107.6237116,-6.9252235,0.0 107.6237163,-6.9251953,0.0 107.6237276,-6.925169,0.0 107.6237451,-6.9251463,0.0 107.6237679,-6.9251282,0.0 107.6237945,-6.9251162,0.0 107.6238233,-6.9251111,0.0 107.6238524,-6.9251131,0.0</coordinates>
            </LineString>
        </Placemark>
        <Placemark id="43549">
            <name>Jalan Kebon Jati</name>
            <styleUrl>#43550</styleUrl>
            <LineString id="43548">
                <coordinates>107.5904668,-6.9165055,0.0 107.5910563,-6.9165402,0.0</coordinates>
            </LineString>
        </Placemark>
        <Placemark id="43553">
            <name>Jalan Jenderal Ahmad Yani</name>
            <styleUrl>#43554</styleUrl>
            <LineString id="43552">
                <coordinates>107.6250751,-6.9184012,0.0 107.6250224,-6.9184288,0.0 107.6249234,-6.9184833,0.0 107.6248833,-6.9185083,0.0 107.6247558,-6.9185827,0.0</coordinates>
            </LineString>
        </Placemark>
        <Placemark id="43557">
            <name>Jalan Laswi</name>
            <styleUrl>#43558</styleUrl>
            <LineString id="43556">
                <coordinates>107.6313572,-6.9186866,0.0 107.6313458,-6.9186198,0.0</coordinates>
            </LineString>
        </Placemark>
        <Placemark id="43561">
            <name>Jalan Jenderal Ahmad Yani</name>
            <styleUrl>#43562</styleUrl>
            <LineString id="43560">
                <coordinates>107.6263141,-6.9177504,0.0 107.6261108,-6.9178534,0.0 107.6258818,-6.9179768,0.0 107.6258365,-6.9180004,0.0 107.6251028,-6.9183866,0.0 107.6250751,-6.9184012,0.0</coordinates>
            </LineString>
        </Placemark>
        <Placemark id="43565">
            <name>Jalan Jenderal Ahmad Yani</name>
            <styleUrl>#43566</styleUrl>
            <LineString id="43564">
                <coordinates>107.6274434,-6.9171135,0.0 107.6274142,-6.9171591,0.0 107.6273636,-6.9171968,0.0</coordinates>
            </LineString>
        </Placemark>
        <Placemark id="43569">
            <name>Jalan Astana Anyar</name>
            <styleUrl>#43570</styleUrl>
            <LineString id="43568">
                <coordinates>107.5983366,-6.920102,0.0 107.5983407,-6.92014,0.0 107.5983508,-6.9202439,0.0 107.5983525,-6.9202632,0.0 107.5984122,-6.9208607,0.0 107.5984181,-6.9209178,0.0 107.5984299,-6.9210083,0.0 107.5984615,-6.9213127,0.0 107.5984717,-6.9214196,0.0</coordinates>
            </LineString>
        </Placemark>
        <Placemark id="43573">
            <name>Jalan Gardujati</name>
            <styleUrl>#43574</styleUrl>
            <LineString id="43572">
                <coordinates>107.5982824,-6.9187314,0.0 107.5982807,-6.9186924,0.0 107.5982595,-6.9181989,0.0</coordinates>
            </LineString>
        </Placemark>
    </Document>
</kml>
