<?xml version="1.0" encoding="UTF-8"?>
<kml xmlns="http://www.opengis.net/kml/2.2" xmlns:gx="http://www.google.com/kml/ext/2.2">
    <Document id="44236">
        <Style id="44242">
            <IconStyle id="44243">
                <colorMode>normal</colorMode>
                <scale>1</scale>
                <heading>0</heading>
                <Icon id="44244">
                    <href>http://maps.google.com/mapfiles/kml/pushpin/ylw-pushpin.png</href>
                </Icon>
            </IconStyle>
        </Style>
        <Style id="44247">
            <IconStyle id="44248">
                <colorMode>normal</colorMode>
                <scale>1</scale>
                <heading>0</heading>
                <Icon id="44249">
                    <href>http://maps.google.com/mapfiles/kml/pushpin/ylw-pushpin.png</href>
                </Icon>
            </IconStyle>
        </Style>
        <Style id="44252">
            <LineStyle id="44253">
                <color>ff90392B</color>
                <colorMode>normal</colorMode>
                <width>4</width>
            </LineStyle>
        </Style>
        <Style id="44256">
            <LineStyle id="44257">
                <color>ff90392B</color>
                <colorMode>normal</colorMode>
                <width>4</width>
            </LineStyle>
        </Style>
        <Style id="44260">
            <LineStyle id="44261">
                <color>ff90392B</color>
                <colorMode>normal</colorMode>
                <width>4</width>
            </LineStyle>
        </Style>
        <Style id="44264">
            <LineStyle id="44265">
                <color>ff90392B</color>
                <colorMode>normal</colorMode>
                <width>4</width>
            </LineStyle>
        </Style>
        <Style id="44268">
            <LineStyle id="44269">
                <color>ff90392B</color>
                <colorMode>normal</colorMode>
                <width>4</width>
            </LineStyle>
        </Style>
        <Style id="44272">
            <LineStyle id="44273">
                <color>ff90392B</color>
                <colorMode>normal</colorMode>
                <width>4</width>
            </LineStyle>
        </Style>
        <Style id="44276">
            <LineStyle id="44277">
                <color>ff90392B</color>
                <colorMode>normal</colorMode>
                <width>4</width>
            </LineStyle>
        </Style>
        <Style id="44280">
            <LineStyle id="44281">
                <color>ff90392B</color>
                <colorMode>normal</colorMode>
                <width>4</width>
            </LineStyle>
        </Style>
        <Style id="44284">
            <LineStyle id="44285">
                <color>ff90392B</color>
                <colorMode>normal</colorMode>
                <width>4</width>
            </LineStyle>
        </Style>
        <Style id="44288">
            <LineStyle id="44289">
                <color>ff90392B</color>
                <colorMode>normal</colorMode>
                <width>4</width>
            </LineStyle>
        </Style>
        <Style id="44292">
            <LineStyle id="44293">
                <color>ff90392B</color>
                <colorMode>normal</colorMode>
                <width>4</width>
            </LineStyle>
        </Style>
        <Style id="44296">
            <LineStyle id="44297">
                <color>ff90392B</color>
                <colorMode>normal</colorMode>
                <width>4</width>
            </LineStyle>
        </Style>
        <Style id="44300">
            <LineStyle id="44301">
                <color>ff90392B</color>
                <colorMode>normal</colorMode>
                <width>4</width>
            </LineStyle>
        </Style>
        <Style id="44304">
            <LineStyle id="44305">
                <color>ff90392B</color>
                <colorMode>normal</colorMode>
                <width>4</width>
            </LineStyle>
        </Style>
        <Style id="44308">
            <LineStyle id="44309">
                <color>ff90392B</color>
                <colorMode>normal</colorMode>
                <width>4</width>
            </LineStyle>
        </Style>
        <Style id="44312">
            <LineStyle id="44313">
                <color>ff90392B</color>
                <colorMode>normal</colorMode>
                <width>4</width>
            </LineStyle>
        </Style>
        <Style id="44316">
            <LineStyle id="44317">
                <color>ff90392B</color>
                <colorMode>normal</colorMode>
                <width>4</width>
            </LineStyle>
        </Style>
        <Style id="44320">
            <LineStyle id="44321">
                <color>ff90392B</color>
                <colorMode>normal</colorMode>
                <width>4</width>
            </LineStyle>
        </Style>
        <Style id="44324">
            <LineStyle id="44325">
                <color>ff90392B</color>
                <colorMode>normal</colorMode>
                <width>4</width>
            </LineStyle>
        </Style>
        <Style id="44328">
            <LineStyle id="44329">
                <color>ff90392B</color>
                <colorMode>normal</colorMode>
                <width>4</width>
            </LineStyle>
        </Style>
        <Style id="44332">
            <LineStyle id="44333">
                <color>ff90392B</color>
                <colorMode>normal</colorMode>
                <width>4</width>
            </LineStyle>
        </Style>
        <Style id="44336">
            <LineStyle id="44337">
                <color>ff90392B</color>
                <colorMode>normal</colorMode>
                <width>4</width>
            </LineStyle>
        </Style>
        <Style id="44340">
            <LineStyle id="44341">
                <color>ff90392B</color>
                <colorMode>normal</colorMode>
                <width>4</width>
            </LineStyle>
        </Style>
        <Style id="44344">
            <LineStyle id="44345">
                <color>ff90392B</color>
                <colorMode>normal</colorMode>
                <width>4</width>
            </LineStyle>
        </Style>
        <Style id="44348">
            <LineStyle id="44349">
                <color>ff90392B</color>
                <colorMode>normal</colorMode>
                <width>4</width>
            </LineStyle>
        </Style>
        <Style id="44352">
            <LineStyle id="44353">
                <color>ff90392B</color>
                <colorMode>normal</colorMode>
                <width>4</width>
            </LineStyle>
        </Style>
        <Style id="44356">
            <LineStyle id="44357">
                <color>ff90392B</color>
                <colorMode>normal</colorMode>
                <width>4</width>
            </LineStyle>
        </Style>
        <Style id="44360">
            <LineStyle id="44361">
                <color>ff90392B</color>
                <colorMode>normal</colorMode>
                <width>4</width>
            </LineStyle>
        </Style>
        <Style id="44364">
            <LineStyle id="44365">
                <color>ff90392B</color>
                <colorMode>normal</colorMode>
                <width>4</width>
            </LineStyle>
        </Style>
        <Style id="44368">
            <LineStyle id="44369">
                <color>ff90392B</color>
                <colorMode>normal</colorMode>
                <width>4</width>
            </LineStyle>
        </Style>
        <Style id="44372">
            <LineStyle id="44373">
                <color>ff90392B</color>
                <colorMode>normal</colorMode>
                <width>4</width>
            </LineStyle>
        </Style>
        <Style id="44376">
            <LineStyle id="44377">
                <color>ff90392B</color>
                <colorMode>normal</colorMode>
                <width>4</width>
            </LineStyle>
        </Style>
        <Style id="44380">
            <LineStyle id="44381">
                <color>ff90392B</color>
                <colorMode>normal</colorMode>
                <width>4</width>
            </LineStyle>
        </Style>
        <Style id="44384">
            <LineStyle id="44385">
                <color>ff90392B</color>
                <colorMode>normal</colorMode>
                <width>4</width>
            </LineStyle>
        </Style>
        <Style id="44388">
            <LineStyle id="44389">
                <color>ff90392B</color>
                <colorMode>normal</colorMode>
                <width>4</width>
            </LineStyle>
        </Style>
        <Style id="44392">
            <LineStyle id="44393">
                <color>ff90392B</color>
                <colorMode>normal</colorMode>
                <width>4</width>
            </LineStyle>
        </Style>
        <Style id="44396">
            <LineStyle id="44397">
                <color>ff90392B</color>
                <colorMode>normal</colorMode>
                <width>4</width>
            </LineStyle>
        </Style>
        <Style id="44400">
            <LineStyle id="44401">
                <color>ff90392B</color>
                <colorMode>normal</colorMode>
                <width>4</width>
            </LineStyle>
        </Style>
        <Style id="44404">
            <LineStyle id="44405">
                <color>ff90392B</color>
                <colorMode>normal</colorMode>
                <width>4</width>
            </LineStyle>
        </Style>
        <Style id="44408">
            <LineStyle id="44409">
                <color>ff90392B</color>
                <colorMode>normal</colorMode>
                <width>4</width>
            </LineStyle>
        </Style>
        <Style id="44412">
            <LineStyle id="44413">
                <color>ff90392B</color>
                <colorMode>normal</colorMode>
                <width>4</width>
            </LineStyle>
        </Style>
        <Style id="44416">
            <LineStyle id="44417">
                <color>ff90392B</color>
                <colorMode>normal</colorMode>
                <width>4</width>
            </LineStyle>
        </Style>
        <Style id="44420">
            <LineStyle id="44421">
                <color>ff90392B</color>
                <colorMode>normal</colorMode>
                <width>4</width>
            </LineStyle>
        </Style>
        <Style id="44424">
            <LineStyle id="44425">
                <color>ff90392B</color>
                <colorMode>normal</colorMode>
                <width>4</width>
            </LineStyle>
        </Style>
        <Style id="44428">
            <LineStyle id="44429">
                <color>ff90392B</color>
                <colorMode>normal</colorMode>
                <width>4</width>
            </LineStyle>
        </Style>
        <Style id="44432">
            <LineStyle id="44433">
                <color>ff90392B</color>
                <colorMode>normal</colorMode>
                <width>4</width>
            </LineStyle>
        </Style>
        <Style id="44436">
            <LineStyle id="44437">
                <color>ff90392B</color>
                <colorMode>normal</colorMode>
                <width>4</width>
            </LineStyle>
        </Style>
        <Style id="44440">
            <LineStyle id="44441">
                <color>ff90392B</color>
                <colorMode>normal</colorMode>
                <width>4</width>
            </LineStyle>
        </Style>
        <Style id="44444">
            <LineStyle id="44445">
                <color>ff90392B</color>
                <colorMode>normal</colorMode>
                <width>4</width>
            </LineStyle>
        </Style>
        <Style id="44448">
            <LineStyle id="44449">
                <color>ff90392B</color>
                <colorMode>normal</colorMode>
                <width>4</width>
            </LineStyle>
        </Style>
        <Style id="44452">
            <LineStyle id="44453">
                <color>ff90392B</color>
                <colorMode>normal</colorMode>
                <width>4</width>
            </LineStyle>
        </Style>
        <Style id="44456">
            <LineStyle id="44457">
                <color>ff90392B</color>
                <colorMode>normal</colorMode>
                <width>4</width>
            </LineStyle>
        </Style>
        <Style id="44460">
            <LineStyle id="44461">
                <color>ff90392B</color>
                <colorMode>normal</colorMode>
                <width>4</width>
            </LineStyle>
        </Style>
        <Style id="44464">
            <LineStyle id="44465">
                <color>ff90392B</color>
                <colorMode>normal</colorMode>
                <width>4</width>
            </LineStyle>
        </Style>
        <Style id="44468">
            <LineStyle id="44469">
                <color>ff90392B</color>
                <colorMode>normal</colorMode>
                <width>4</width>
            </LineStyle>
        </Style>
        <Style id="44472">
            <LineStyle id="44473">
                <color>ff90392B</color>
                <colorMode>normal</colorMode>
                <width>4</width>
            </LineStyle>
        </Style>
        <Style id="44476">
            <LineStyle id="44477">
                <color>ff90392B</color>
                <colorMode>normal</colorMode>
                <width>4</width>
            </LineStyle>
        </Style>
        <Style id="44480">
            <LineStyle id="44481">
                <color>ff90392B</color>
                <colorMode>normal</colorMode>
                <width>4</width>
            </LineStyle>
        </Style>
        <Style id="44484">
            <LineStyle id="44485">
                <color>ff90392B</color>
                <colorMode>normal</colorMode>
                <width>4</width>
            </LineStyle>
        </Style>
        <ExtendedData>
            <Data name="route-name">
                <value>22: Buah Batu → Kalapa</value>
            </Data>
            <Data name="source">
                <value>Transport for Bandung</value>
            </Data>
        </ExtendedData>
        <Placemark id="44241">
            <name>Cipagalo</name>
            <styleUrl>#44242</styleUrl>
            <Point id="44240">
                <coordinates>107.6379086,-6.9657162,0.0</coordinates>
            </Point>
        </Placemark>
        <Placemark id="44246">
            <name>Terminal Abdul Muis/Kebon Kalapa</name>
            <styleUrl>#44247</styleUrl>
            <Point id="44245">
                <coordinates>107.6058322,-6.9276428,0.0</coordinates>
            </Point>
        </Placemark>
        <Placemark id="44251">
            <name>Jalan Dewi Sartika</name>
            <styleUrl>#44252</styleUrl>
            <LineString id="44250">
                <coordinates>107.6054273,-6.9316877,0.0 107.6055016,-6.9311384,0.0</coordinates>
            </LineString>
        </Placemark>
        <Placemark id="44255">
            <name>Jalan Buah Batu</name>
            <styleUrl>#44256</styleUrl>
            <LineString id="44254">
                <coordinates>107.6226877,-6.9369246,0.0 107.6226407,-6.9368679,0.0 107.6225387,-6.9367463,0.0</coordinates>
            </LineString>
        </Placemark>
        <Placemark id="44259">
            <name>Jalan Lengkong Besar</name>
            <styleUrl>#44260</styleUrl>
            <LineString id="44258">
                <coordinates>107.6129597,-6.9294789,0.0 107.6129328,-6.9297497,0.0</coordinates>
            </LineString>
        </Placemark>
        <Placemark id="44263">
            <name>Jalan Lengkong Besar</name>
            <styleUrl>#44264</styleUrl>
            <LineString id="44262">
                <coordinates>107.6129328,-6.9297497,0.0 107.6129278,-6.9297903,0.0 107.6128864,-6.930269,0.0 107.612861,-6.9304102,0.0 107.6128137,-6.9306736,0.0 107.6127761,-6.9307702,0.0 107.6126488,-6.9309625,0.0 107.6124017,-6.9313355,0.0</coordinates>
            </LineString>
        </Placemark>
        <Placemark id="44267">
            <name>Jalan Gurame</name>
            <styleUrl>#44268</styleUrl>
            <LineString id="44266">
                <coordinates>107.6175412,-6.9315347,0.0 107.6174985,-6.9315204,0.0 107.6173962,-6.9314981,0.0 107.6170341,-6.9315116,0.0 107.6165812,-6.9315286,0.0 107.616226,-6.9315515,0.0 107.6158997,-6.9315603,0.0</coordinates>
            </LineString>
        </Placemark>
        <Placemark id="44271">
            <name>Jalan Ibu Inggit Ganarsih</name>
            <styleUrl>#44272</styleUrl>
            <LineString id="44270">
                <coordinates>107.606653,-6.9318519,0.0 107.6067033,-6.9318589,0.0 107.6067675,-6.9318679,0.0 107.6071921,-6.9319271,0.0 107.6072028,-6.9319286,0.0 107.6074894,-6.9319668,0.0 107.607795,-6.9320075,0.0 107.6084036,-6.9320886,0.0 107.6094967,-6.9322343,0.0 107.6095721,-6.9322443,0.0 107.6100523,-6.9323083,0.0 107.6106978,-6.9323912,0.0 107.6112601,-6.93245,0.0 107.6113455,-6.9324444,0.0 107.6114263,-6.9324291,0.0</coordinates>
            </LineString>
        </Placemark>
        <Placemark id="44275">
            <name>Jalan Sadakeling</name>
            <styleUrl>#44276</styleUrl>
            <LineString id="44274">
                <coordinates>107.6178994,-6.9318561,0.0 107.6177935,-6.9317529,0.0 107.6175412,-6.9315347,0.0</coordinates>
            </LineString>
        </Placemark>
        <Placemark id="44279">
            <name>Jalan Cikawao</name>
            <styleUrl>#44280</styleUrl>
            <LineString id="44278">
                <coordinates>107.6164384,-6.9287942,0.0 107.6160139,-6.9285662,0.0 107.6158285,-6.928472,0.0 107.6157818,-6.9284275,0.0 107.6157613,-6.9283977,0.0</coordinates>
            </LineString>
        </Placemark>
        <Placemark id="44283">
            <name>Jalan Cikawao</name>
            <styleUrl>#44284</styleUrl>
            <LineString id="44282">
                <coordinates>107.6157613,-6.9283977,0.0 107.6151581,-6.9281304,0.0 107.6147806,-6.9279607,0.0 107.614603,-6.9278809,0.0 107.6144924,-6.927831,0.0 107.6138049,-6.9275287,0.0 107.6137563,-6.9275081,0.0 107.6134072,-6.9273393,0.0</coordinates>
            </LineString>
        </Placemark>
        <Placemark id="44287">
            <name>Jalan Buah Batu</name>
            <styleUrl>#44288</styleUrl>
            <LineString id="44286">
                <coordinates>107.6227463,-6.9369955,0.0 107.6226877,-6.9369246,0.0</coordinates>
            </LineString>
        </Placemark>
        <Placemark id="44291">
            <name>Jalan Ibu Inggit Ganarsih</name>
            <styleUrl>#44292</styleUrl>
            <LineString id="44290">
                <coordinates>107.6054273,-6.9316877,0.0 107.6059974,-6.9317627,0.0 107.6060299,-6.9317669,0.0 107.6064523,-6.9318239,0.0 107.606653,-6.9318519,0.0</coordinates>
            </LineString>
        </Placemark>
        <Placemark id="44295">
            <name>Jalan Ibu Inggit Ganarsih</name>
            <styleUrl>#44296</styleUrl>
            <LineString id="44294">
                <coordinates>107.6114263,-6.9324291,0.0 107.6115743,-6.9323207,0.0 107.6119021,-6.9320223,0.0 107.6121586,-6.9316762,0.0 107.6122593,-6.9315442,0.0 107.6124017,-6.9313355,0.0</coordinates>
            </LineString>
        </Placemark>
        <Placemark id="44299">
            <name>Jalan Buah Batu</name>
            <styleUrl>#44300</styleUrl>
            <LineString id="44298">
                <coordinates>107.6275728,-6.9420836,0.0 107.6270043,-6.9414824,0.0 107.6266828,-6.9411431,0.0 107.6261518,-6.9405807,0.0</coordinates>
            </LineString>
        </Placemark>
        <Placemark id="44303">
            <name>Jalan Gurame</name>
            <styleUrl>#44304</styleUrl>
            <LineString id="44302">
                <coordinates>107.6158997,-6.9315603,0.0 107.6158314,-6.9315445,0.0 107.6157779,-6.9314994,0.0 107.6157512,-6.931435,0.0 107.6157571,-6.9313657,0.0</coordinates>
            </LineString>
        </Placemark>
        <Placemark id="44307">
            <name>Jalan Buah Batu</name>
            <styleUrl>#44308</styleUrl>
            <LineString id="44306">
                <coordinates>107.6203546,-6.9344794,0.0 107.6196129,-6.9336813,0.0 107.6194953,-6.9335548,0.0 107.6191727,-6.9332024,0.0 107.6187265,-6.9327149,0.0</coordinates>
            </LineString>
        </Placemark>
        <Placemark id="44311">
            <name>Jalan Buah Batu</name>
            <styleUrl>#44312</styleUrl>
            <LineString id="44310">
                <coordinates>107.62299,-6.9372586,0.0 107.6228175,-6.9370727,0.0 107.6227888,-6.9370418,0.0 107.6227463,-6.9369955,0.0</coordinates>
            </LineString>
        </Placemark>
        <Placemark id="44315">
            <name>Jalan Buah Batu</name>
            <styleUrl>#44316</styleUrl>
            <LineString id="44314">
                <coordinates>107.6386665,-6.9617054,0.0 107.6388826,-6.9608672,0.0 107.6389139,-6.9607576,0.0 107.6389753,-6.9605419,0.0 107.6389816,-6.9605139,0.0 107.6390401,-6.9602238,0.0 107.6392594,-6.9591243,0.0 107.6393282,-6.95883,0.0 107.6393776,-6.9586036,0.0 107.6393964,-6.9585102,0.0 107.6394805,-6.9581537,0.0 107.6395042,-6.9580165,0.0 107.6395144,-6.9579242,0.0 107.6395155,-6.9576826,0.0 107.6395027,-6.9575622,0.0 107.6394639,-6.9571887,0.0 107.6394449,-6.9570431,0.0 107.6394085,-6.9568573,0.0 107.6391698,-6.9554214,0.0 107.6391258,-6.9549275,0.0 107.6390705,-6.9545755,0.0 107.6390188,-6.9543956,0.0 107.6389417,-6.9541903,0.0 107.638864,-6.9540275,0.0</coordinates>
            </LineString>
        </Placemark>
        <Placemark id="44319">
            <name>Jalan Cikawao</name>
            <styleUrl>#44320</styleUrl>
            <LineString id="44318">
                <coordinates>107.6134072,-6.9273393,0.0 107.6133327,-6.927331,0.0 107.6132681,-6.9273306,0.0 107.6132216,-6.9273408,0.0 107.6131892,-6.9273611,0.0 107.6131637,-6.9273974,0.0 107.613137,-6.9274559,0.0</coordinates>
            </LineString>
        </Placemark>
        <Placemark id="44323">
            <name>Jalan Lengkong Besar</name>
            <styleUrl>#44324</styleUrl>
            <LineString id="44322">
                <coordinates>107.613137,-6.9274559,0.0 107.6131272,-6.9275689,0.0 107.6130412,-6.9283504,0.0 107.6129922,-6.9290293,0.0 107.6129813,-6.9291796,0.0 107.6129684,-6.9293583,0.0 107.6129608,-6.9294632,0.0 107.6129597,-6.9294789,0.0</coordinates>
            </LineString>
        </Placemark>
        <Placemark id="44327">
            <name>Jalan Karapitan</name>
            <styleUrl>#44328</styleUrl>
            <LineString id="44326">
                <coordinates>107.6160965,-6.9300966,0.0 107.6162973,-6.9293239,0.0 107.6163073,-6.9292857,0.0 107.6164384,-6.9287942,0.0</coordinates>
            </LineString>
        </Placemark>
        <Placemark id="44331">
            <name>Jalan Buah Batu</name>
            <styleUrl>#44332</styleUrl>
            <LineString id="44330">
                <coordinates>107.6350741,-6.9497625,0.0 107.6350155,-6.9497023,0.0 107.634757,-6.9494368,0.0 107.6343379,-6.9490065,0.0 107.6341242,-6.9487869,0.0 107.6336417,-6.9483304,0.0</coordinates>
            </LineString>
        </Placemark>
        <Placemark id="44335">
            <name>Jalan Buah Batu</name>
            <styleUrl>#44336</styleUrl>
            <LineString id="44334">
                <coordinates>107.6387331,-6.9537311,0.0 107.6387208,-6.9537047,0.0</coordinates>
            </LineString>
        </Placemark>
        <Placemark id="44339">
            <name>Jalan Buah Batu</name>
            <styleUrl>#44340</styleUrl>
            <LineString id="44338">
                <coordinates>107.6224705,-6.9366791,0.0 107.6219887,-6.9361965,0.0 107.6219671,-6.9361748,0.0 107.621935,-6.9361425,0.0 107.6218775,-6.9360848,0.0 107.6215913,-6.9357861,0.0 107.6214868,-6.9356769,0.0 107.6208771,-6.9350405,0.0 107.6203546,-6.9344794,0.0</coordinates>
            </LineString>
        </Placemark>
        <Placemark id="44343">
            <name>Jalan Buah Batu</name>
            <styleUrl>#44344</styleUrl>
            <LineString id="44342">
                <coordinates>107.638864,-6.9540275,0.0 107.6387331,-6.9537311,0.0</coordinates>
            </LineString>
        </Placemark>
        <Placemark id="44347">
            <name>Jalan Buah Batu</name>
            <styleUrl>#44348</styleUrl>
            <LineString id="44346">
                <coordinates>107.6187265,-6.9327149,0.0 107.6183506,-6.9323042,0.0 107.6180578,-6.9320136,0.0</coordinates>
            </LineString>
        </Placemark>
        <Placemark id="44351">
            <name>Jalan Buah Batu</name>
            <styleUrl>#44352</styleUrl>
            <LineString id="44350">
                <coordinates>107.6360573,-6.9507711,0.0 107.6356442,-6.9503479,0.0 107.6355777,-6.9502796,0.0 107.6355108,-6.9502109,0.0 107.6350741,-6.9497625,0.0</coordinates>
            </LineString>
        </Placemark>
        <Placemark id="44355">
            <name>Jalan Buah Batu</name>
            <styleUrl>#44356</styleUrl>
            <LineString id="44354">
                <coordinates>107.6324353,-6.9471384,0.0 107.6321653,-6.9468581,0.0 107.6320048,-6.9466914,0.0 107.6318869,-6.9465686,0.0 107.631769,-6.9464458,0.0 107.6313083,-6.9459683,0.0 107.6312192,-6.9458758,0.0 107.6310494,-6.9456995,0.0 107.6308527,-6.9454952,0.0 107.6306376,-6.9452719,0.0 107.6301629,-6.944779,0.0 107.6299147,-6.9445213,0.0 107.6290045,-6.9435762,0.0 107.6285968,-6.9431531,0.0 107.6280578,-6.942597,0.0 107.6279626,-6.9424961,0.0</coordinates>
            </LineString>
        </Placemark>
        <Placemark id="44359">
            <name>Jalan Buah Batu</name>
            <styleUrl>#44360</styleUrl>
            <LineString id="44358">
                <coordinates>107.6331466,-6.9478406,0.0 107.6330032,-6.9477019,0.0 107.6328034,-6.9475049,0.0 107.6325652,-6.9472677,0.0 107.6324353,-6.9471384,0.0</coordinates>
            </LineString>
        </Placemark>
        <Placemark id="44363">
            <name>Jalan Buah Batu</name>
            <styleUrl>#44364</styleUrl>
            <LineString id="44362">
                <coordinates>107.6332967,-6.9479888,0.0 107.6332509,-6.9479451,0.0 107.6331466,-6.9478406,0.0</coordinates>
            </LineString>
        </Placemark>
        <Placemark id="44367">
            <name>Jalan Buah Batu</name>
            <styleUrl>#44368</styleUrl>
            <LineString id="44366">
                <coordinates>107.6334141,-6.9481055,0.0 107.6332967,-6.9479888,0.0</coordinates>
            </LineString>
        </Placemark>
        <Placemark id="44371">
            <name>Jalan Buah Batu</name>
            <styleUrl>#44372</styleUrl>
            <LineString id="44370">
                <coordinates>107.6379965,-6.9653319,0.0 107.6379752,-6.965271,0.0 107.638018,-6.9650165,0.0 107.6380564,-6.964786,0.0 107.638173,-6.9641351,0.0 107.6383343,-6.963244,0.0 107.6384096,-6.9628915,0.0 107.6385207,-6.962347,0.0</coordinates>
            </LineString>
        </Placemark>
        <Placemark id="44375">
            <name>Jalan Buah Batu</name>
            <styleUrl>#44376</styleUrl>
            <LineString id="44374">
                <coordinates>107.6336417,-6.9483304,0.0 107.6334617,-6.9481521,0.0 107.6334141,-6.9481055,0.0</coordinates>
            </LineString>
        </Placemark>
        <Placemark id="44379">
            <name>Jalan Buah Batu</name>
            <styleUrl>#44380</styleUrl>
            <LineString id="44378">
                <coordinates>107.6386178,-6.961928,0.0 107.6386665,-6.9617054,0.0</coordinates>
            </LineString>
        </Placemark>
        <Placemark id="44383">
            <name>Jalan Buah Batu</name>
            <styleUrl>#44384</styleUrl>
            <LineString id="44382">
                <coordinates>107.6386038,-6.9620044,0.0 107.6386178,-6.961928,0.0</coordinates>
            </LineString>
        </Placemark>
        <Placemark id="44387">
            <name>Jalan Buah Batu</name>
            <styleUrl>#44388</styleUrl>
            <LineString id="44386">
                <coordinates>107.6385207,-6.962347,0.0 107.6385812,-6.9621025,0.0 107.6386038,-6.9620044,0.0</coordinates>
            </LineString>
        </Placemark>
        <Placemark id="44391">
            <name>Jalan Buah Batu</name>
            <styleUrl>#44392</styleUrl>
            <LineString id="44390">
                <coordinates>107.6253271,-6.9397084,0.0 107.6241963,-6.938526,0.0 107.6240828,-6.9384102,0.0 107.62345,-6.937746,0.0 107.6230889,-6.9373646,0.0 107.6230527,-6.9373262,0.0</coordinates>
            </LineString>
        </Placemark>
        <Placemark id="44395">
            <name>Jalan Sadakeling</name>
            <styleUrl>#44396</styleUrl>
            <LineString id="44394">
                <coordinates>107.6180578,-6.9320136,0.0 107.6179937,-6.9319531,0.0 107.6178994,-6.9318561,0.0</coordinates>
            </LineString>
        </Placemark>
        <Placemark id="44399">
            <name>Jalan Karapitan</name>
            <styleUrl>#44400</styleUrl>
            <LineString id="44398">
                <coordinates>107.6157571,-6.9313657,0.0 107.6158192,-6.9311439,0.0 107.6158573,-6.9310078,0.0</coordinates>
            </LineString>
        </Placemark>
        <Placemark id="44403">
            <name>Jalan Karapitan</name>
            <styleUrl>#44404</styleUrl>
            <LineString id="44402">
                <coordinates>107.6158573,-6.9310078,0.0 107.6159987,-6.9304668,0.0 107.6160678,-6.9302053,0.0 107.6160965,-6.9300966,0.0</coordinates>
            </LineString>
        </Placemark>
        <Placemark id="44407">
            <name>Jalan Buah Batu</name>
            <styleUrl>#44408</styleUrl>
            <LineString id="44406">
                <coordinates>107.6279626,-6.9424961,0.0 107.6275728,-6.9420836,0.0</coordinates>
            </LineString>
        </Placemark>
        <Placemark id="44411">
            <name>Jalan Buah Batu</name>
            <styleUrl>#44412</styleUrl>
            <LineString id="44410">
                <coordinates>107.6230527,-6.9373262,0.0 107.62299,-6.9372586,0.0</coordinates>
            </LineString>
        </Placemark>
        <Placemark id="44415">
            <name>Jalan Buah Batu</name>
            <styleUrl>#44416</styleUrl>
            <LineString id="44414">
                <coordinates>107.6225387,-6.9367463,0.0 107.6224705,-6.9366791,0.0</coordinates>
            </LineString>
        </Placemark>
        <Placemark id="44419">
            <name>Jalan Buah Batu</name>
            <styleUrl>#44420</styleUrl>
            <LineString id="44418">
                <coordinates>107.6379086,-6.9657162,0.0 107.6379887,-6.9653666,0.0 107.6379942,-6.9653424,0.0 107.6379965,-6.9653319,0.0</coordinates>
            </LineString>
        </Placemark>
        <Placemark id="44423">
            <name>Jalan Dewi Sartika</name>
            <styleUrl>#44424</styleUrl>
            <LineString id="44422">
                <coordinates>107.6055016,-6.9311384,0.0 107.6055192,-6.9309578,0.0 107.6055259,-6.9309078,0.0</coordinates>
            </LineString>
        </Placemark>
        <Placemark id="44427">
            <name>Jalan Dewi Sartika</name>
            <styleUrl>#44428</styleUrl>
            <LineString id="44426">
                <coordinates>107.6055259,-6.9309078,0.0 107.605557,-6.9305299,0.0 107.6055585,-6.9305004,0.0 107.6055781,-6.930239,0.0</coordinates>
            </LineString>
        </Placemark>
        <Placemark id="44431">
            <name>Jalan Dewi Sartika</name>
            <styleUrl>#44432</styleUrl>
            <LineString id="44430">
                <coordinates>107.6055781,-6.930239,0.0 107.6055888,-6.9300028,0.0</coordinates>
            </LineString>
        </Placemark>
        <Placemark id="44435">
            <name>Jalan Dewi Sartika</name>
            <styleUrl>#44436</styleUrl>
            <LineString id="44434">
                <coordinates>107.6055888,-6.9300028,0.0 107.6055993,-6.9298025,0.0</coordinates>
            </LineString>
        </Placemark>
        <Placemark id="44439">
            <name>Jalan Dewi Sartika</name>
            <styleUrl>#44440</styleUrl>
            <LineString id="44438">
                <coordinates>107.6055993,-6.9298025,0.0 107.6056708,-6.9290327,0.0</coordinates>
            </LineString>
        </Placemark>
        <Placemark id="44443">
            <name>Jalan Dewi Sartika</name>
            <styleUrl>#44444</styleUrl>
            <LineString id="44442">
                <coordinates>107.6056708,-6.9290327,0.0 107.6057162,-6.9286824,0.0</coordinates>
            </LineString>
        </Placemark>
        <Placemark id="44447">
            <name>Jalan Dewi Sartika</name>
            <styleUrl>#44448</styleUrl>
            <LineString id="44446">
                <coordinates>107.6057162,-6.9286824,0.0 107.6057961,-6.9281235,0.0</coordinates>
            </LineString>
        </Placemark>
        <Placemark id="44451">
            <name>Jalan Dewi Sartika</name>
            <styleUrl>#44452</styleUrl>
            <LineString id="44450">
                <coordinates>107.6057961,-6.9281235,0.0 107.6058055,-6.928016,0.0 107.6058217,-6.9278434,0.0</coordinates>
            </LineString>
        </Placemark>
        <Placemark id="44455">
            <name>Jalan Dewi Sartika</name>
            <styleUrl>#44456</styleUrl>
            <LineString id="44454">
                <coordinates>107.6058217,-6.9278434,0.0 107.6058322,-6.9276428,0.0</coordinates>
            </LineString>
        </Placemark>
        <Placemark id="44459">
            <name>Jalan Buah Batu</name>
            <styleUrl>#44460</styleUrl>
            <LineString id="44458">
                <coordinates>107.6261518,-6.9405807,0.0 107.6256577,-6.9400594,0.0 107.6256275,-6.9400261,0.0 107.6254823,-6.9398661,0.0 107.625399,-6.9397844,0.0 107.6253271,-6.9397084,0.0</coordinates>
            </LineString>
        </Placemark>
        <Placemark id="44463">
            <name>Jalan Buah Batu</name>
            <styleUrl>#44464</styleUrl>
            <LineString id="44462">
                <coordinates>107.6387208,-6.9537047,0.0 107.6385338,-6.9533572,0.0</coordinates>
            </LineString>
        </Placemark>
        <Placemark id="44467">
            <name>Jalan Buah Batu</name>
            <styleUrl>#44468</styleUrl>
            <LineString id="44466">
                <coordinates>107.6385338,-6.9533572,0.0 107.6383625,-6.9531132,0.0 107.6380833,-6.9528345,0.0 107.6377939,-6.9525507,0.0</coordinates>
            </LineString>
        </Placemark>
        <Placemark id="44471">
            <name>Jalan Buah Batu</name>
            <styleUrl>#44472</styleUrl>
            <LineString id="44470">
                <coordinates>107.6377939,-6.9525507,0.0 107.6373856,-6.9521134,0.0</coordinates>
            </LineString>
        </Placemark>
        <Placemark id="44475">
            <name>Jalan Buah Batu</name>
            <styleUrl>#44476</styleUrl>
            <LineString id="44474">
                <coordinates>107.6373856,-6.9521134,0.0 107.6369653,-6.9517047,0.0</coordinates>
            </LineString>
        </Placemark>
        <Placemark id="44479">
            <name>Jalan Buah Batu</name>
            <styleUrl>#44480</styleUrl>
            <LineString id="44478">
                <coordinates>107.6369653,-6.9517047,0.0 107.6368024,-6.9515373,0.0 107.6364761,-6.9512022,0.0 107.6364115,-6.9511359,0.0</coordinates>
            </LineString>
        </Placemark>
        <Placemark id="44483">
            <name>Jalan Buah Batu</name>
            <styleUrl>#44484</styleUrl>
            <LineString id="44482">
                <coordinates>107.6364115,-6.9511359,0.0 107.6360573,-6.9507711,0.0</coordinates>
            </LineString>
        </Placemark>
    </Document>
</kml>
