<?xml version="1.0" encoding="UTF-8"?>
<kml xmlns="http://www.opengis.net/kml/2.2" xmlns:gx="http://www.google.com/kml/ext/2.2">
    <Document id="43953">
        <Style id="43959">
            <IconStyle id="43960">
                <colorMode>normal</colorMode>
                <scale>1</scale>
                <heading>0</heading>
                <Icon id="43961">
                    <href>http://maps.google.com/mapfiles/kml/pushpin/ylw-pushpin.png</href>
                </Icon>
            </IconStyle>
        </Style>
        <Style id="43964">
            <IconStyle id="43965">
                <colorMode>normal</colorMode>
                <scale>1</scale>
                <heading>0</heading>
                <Icon id="43966">
                    <href>http://maps.google.com/mapfiles/kml/pushpin/ylw-pushpin.png</href>
                </Icon>
            </IconStyle>
        </Style>
        <Style id="43969">
            <LineStyle id="43970">
                <color>ff90392B</color>
                <colorMode>normal</colorMode>
                <width>4</width>
            </LineStyle>
        </Style>
        <Style id="43973">
            <LineStyle id="43974">
                <color>ff90392B</color>
                <colorMode>normal</colorMode>
                <width>4</width>
            </LineStyle>
        </Style>
        <Style id="43977">
            <LineStyle id="43978">
                <color>ff90392B</color>
                <colorMode>normal</colorMode>
                <width>4</width>
            </LineStyle>
        </Style>
        <Style id="43981">
            <LineStyle id="43982">
                <color>ff90392B</color>
                <colorMode>normal</colorMode>
                <width>4</width>
            </LineStyle>
        </Style>
        <Style id="43985">
            <LineStyle id="43986">
                <color>ff90392B</color>
                <colorMode>normal</colorMode>
                <width>4</width>
            </LineStyle>
        </Style>
        <Style id="43989">
            <LineStyle id="43990">
                <color>ff90392B</color>
                <colorMode>normal</colorMode>
                <width>4</width>
            </LineStyle>
        </Style>
        <Style id="43993">
            <LineStyle id="43994">
                <color>ff90392B</color>
                <colorMode>normal</colorMode>
                <width>4</width>
            </LineStyle>
        </Style>
        <Style id="43997">
            <LineStyle id="43998">
                <color>ff90392B</color>
                <colorMode>normal</colorMode>
                <width>4</width>
            </LineStyle>
        </Style>
        <Style id="44001">
            <LineStyle id="44002">
                <color>ff90392B</color>
                <colorMode>normal</colorMode>
                <width>4</width>
            </LineStyle>
        </Style>
        <Style id="44005">
            <LineStyle id="44006">
                <color>ff90392B</color>
                <colorMode>normal</colorMode>
                <width>4</width>
            </LineStyle>
        </Style>
        <Style id="44009">
            <LineStyle id="44010">
                <color>ff90392B</color>
                <colorMode>normal</colorMode>
                <width>4</width>
            </LineStyle>
        </Style>
        <Style id="44013">
            <LineStyle id="44014">
                <color>ff90392B</color>
                <colorMode>normal</colorMode>
                <width>4</width>
            </LineStyle>
        </Style>
        <Style id="44017">
            <LineStyle id="44018">
                <color>ff90392B</color>
                <colorMode>normal</colorMode>
                <width>4</width>
            </LineStyle>
        </Style>
        <Style id="44021">
            <LineStyle id="44022">
                <color>ff90392B</color>
                <colorMode>normal</colorMode>
                <width>4</width>
            </LineStyle>
        </Style>
        <Style id="44025">
            <LineStyle id="44026">
                <color>ff90392B</color>
                <colorMode>normal</colorMode>
                <width>4</width>
            </LineStyle>
        </Style>
        <Style id="44029">
            <LineStyle id="44030">
                <color>ff90392B</color>
                <colorMode>normal</colorMode>
                <width>4</width>
            </LineStyle>
        </Style>
        <Style id="44033">
            <LineStyle id="44034">
                <color>ff90392B</color>
                <colorMode>normal</colorMode>
                <width>4</width>
            </LineStyle>
        </Style>
        <Style id="44037">
            <LineStyle id="44038">
                <color>ff90392B</color>
                <colorMode>normal</colorMode>
                <width>4</width>
            </LineStyle>
        </Style>
        <Style id="44041">
            <LineStyle id="44042">
                <color>ff90392B</color>
                <colorMode>normal</colorMode>
                <width>4</width>
            </LineStyle>
        </Style>
        <Style id="44045">
            <LineStyle id="44046">
                <color>ff90392B</color>
                <colorMode>normal</colorMode>
                <width>4</width>
            </LineStyle>
        </Style>
        <Style id="44049">
            <LineStyle id="44050">
                <color>ff90392B</color>
                <colorMode>normal</colorMode>
                <width>4</width>
            </LineStyle>
        </Style>
        <Style id="44053">
            <LineStyle id="44054">
                <color>ff90392B</color>
                <colorMode>normal</colorMode>
                <width>4</width>
            </LineStyle>
        </Style>
        <Style id="44057">
            <LineStyle id="44058">
                <color>ff90392B</color>
                <colorMode>normal</colorMode>
                <width>4</width>
            </LineStyle>
        </Style>
        <Style id="44061">
            <LineStyle id="44062">
                <color>ff90392B</color>
                <colorMode>normal</colorMode>
                <width>4</width>
            </LineStyle>
        </Style>
        <Style id="44065">
            <LineStyle id="44066">
                <color>ff90392B</color>
                <colorMode>normal</colorMode>
                <width>4</width>
            </LineStyle>
        </Style>
        <Style id="44069">
            <LineStyle id="44070">
                <color>ff90392B</color>
                <colorMode>normal</colorMode>
                <width>4</width>
            </LineStyle>
        </Style>
        <Style id="44073">
            <LineStyle id="44074">
                <color>ff90392B</color>
                <colorMode>normal</colorMode>
                <width>4</width>
            </LineStyle>
        </Style>
        <Style id="44077">
            <LineStyle id="44078">
                <color>ff90392B</color>
                <colorMode>normal</colorMode>
                <width>4</width>
            </LineStyle>
        </Style>
        <Style id="44081">
            <LineStyle id="44082">
                <color>ff90392B</color>
                <colorMode>normal</colorMode>
                <width>4</width>
            </LineStyle>
        </Style>
        <Style id="44085">
            <LineStyle id="44086">
                <color>ff90392B</color>
                <colorMode>normal</colorMode>
                <width>4</width>
            </LineStyle>
        </Style>
        <Style id="44089">
            <LineStyle id="44090">
                <color>ff90392B</color>
                <colorMode>normal</colorMode>
                <width>4</width>
            </LineStyle>
        </Style>
        <Style id="44093">
            <LineStyle id="44094">
                <color>ff90392B</color>
                <colorMode>normal</colorMode>
                <width>4</width>
            </LineStyle>
        </Style>
        <Style id="44097">
            <LineStyle id="44098">
                <color>ff90392B</color>
                <colorMode>normal</colorMode>
                <width>4</width>
            </LineStyle>
        </Style>
        <Style id="44101">
            <LineStyle id="44102">
                <color>ff90392B</color>
                <colorMode>normal</colorMode>
                <width>4</width>
            </LineStyle>
        </Style>
        <Style id="44105">
            <LineStyle id="44106">
                <color>ff90392B</color>
                <colorMode>normal</colorMode>
                <width>4</width>
            </LineStyle>
        </Style>
        <Style id="44109">
            <LineStyle id="44110">
                <color>ff90392B</color>
                <colorMode>normal</colorMode>
                <width>4</width>
            </LineStyle>
        </Style>
        <Style id="44113">
            <LineStyle id="44114">
                <color>ff90392B</color>
                <colorMode>normal</colorMode>
                <width>4</width>
            </LineStyle>
        </Style>
        <Style id="44117">
            <LineStyle id="44118">
                <color>ff90392B</color>
                <colorMode>normal</colorMode>
                <width>4</width>
            </LineStyle>
        </Style>
        <Style id="44121">
            <LineStyle id="44122">
                <color>ff90392B</color>
                <colorMode>normal</colorMode>
                <width>4</width>
            </LineStyle>
        </Style>
        <Style id="44125">
            <LineStyle id="44126">
                <color>ff90392B</color>
                <colorMode>normal</colorMode>
                <width>4</width>
            </LineStyle>
        </Style>
        <Style id="44129">
            <LineStyle id="44130">
                <color>ff90392B</color>
                <colorMode>normal</colorMode>
                <width>4</width>
            </LineStyle>
        </Style>
        <Style id="44133">
            <LineStyle id="44134">
                <color>ff90392B</color>
                <colorMode>normal</colorMode>
                <width>4</width>
            </LineStyle>
        </Style>
        <Style id="44137">
            <LineStyle id="44138">
                <color>ff90392B</color>
                <colorMode>normal</colorMode>
                <width>4</width>
            </LineStyle>
        </Style>
        <Style id="44141">
            <LineStyle id="44142">
                <color>ff90392B</color>
                <colorMode>normal</colorMode>
                <width>4</width>
            </LineStyle>
        </Style>
        <Style id="44145">
            <LineStyle id="44146">
                <color>ff90392B</color>
                <colorMode>normal</colorMode>
                <width>4</width>
            </LineStyle>
        </Style>
        <Style id="44149">
            <LineStyle id="44150">
                <color>ff90392B</color>
                <colorMode>normal</colorMode>
                <width>4</width>
            </LineStyle>
        </Style>
        <Style id="44153">
            <LineStyle id="44154">
                <color>ff90392B</color>
                <colorMode>normal</colorMode>
                <width>4</width>
            </LineStyle>
        </Style>
        <Style id="44157">
            <LineStyle id="44158">
                <color>ff90392B</color>
                <colorMode>normal</colorMode>
                <width>4</width>
            </LineStyle>
        </Style>
        <Style id="44161">
            <LineStyle id="44162">
                <color>ff90392B</color>
                <colorMode>normal</colorMode>
                <width>4</width>
            </LineStyle>
        </Style>
        <Style id="44165">
            <LineStyle id="44166">
                <color>ff90392B</color>
                <colorMode>normal</colorMode>
                <width>4</width>
            </LineStyle>
        </Style>
        <Style id="44169">
            <LineStyle id="44170">
                <color>ff90392B</color>
                <colorMode>normal</colorMode>
                <width>4</width>
            </LineStyle>
        </Style>
        <Style id="44173">
            <LineStyle id="44174">
                <color>ff90392B</color>
                <colorMode>normal</colorMode>
                <width>4</width>
            </LineStyle>
        </Style>
        <Style id="44177">
            <LineStyle id="44178">
                <color>ff90392B</color>
                <colorMode>normal</colorMode>
                <width>4</width>
            </LineStyle>
        </Style>
        <Style id="44181">
            <LineStyle id="44182">
                <color>ff90392B</color>
                <colorMode>normal</colorMode>
                <width>4</width>
            </LineStyle>
        </Style>
        <Style id="44185">
            <LineStyle id="44186">
                <color>ff90392B</color>
                <colorMode>normal</colorMode>
                <width>4</width>
            </LineStyle>
        </Style>
        <Style id="44189">
            <LineStyle id="44190">
                <color>ff90392B</color>
                <colorMode>normal</colorMode>
                <width>4</width>
            </LineStyle>
        </Style>
        <Style id="44193">
            <LineStyle id="44194">
                <color>ff90392B</color>
                <colorMode>normal</colorMode>
                <width>4</width>
            </LineStyle>
        </Style>
        <Style id="44197">
            <LineStyle id="44198">
                <color>ff90392B</color>
                <colorMode>normal</colorMode>
                <width>4</width>
            </LineStyle>
        </Style>
        <Style id="44201">
            <LineStyle id="44202">
                <color>ff90392B</color>
                <colorMode>normal</colorMode>
                <width>4</width>
            </LineStyle>
        </Style>
        <Style id="44205">
            <LineStyle id="44206">
                <color>ff90392B</color>
                <colorMode>normal</colorMode>
                <width>4</width>
            </LineStyle>
        </Style>
        <Style id="44209">
            <LineStyle id="44210">
                <color>ff90392B</color>
                <colorMode>normal</colorMode>
                <width>4</width>
            </LineStyle>
        </Style>
        <Style id="44213">
            <LineStyle id="44214">
                <color>ff90392B</color>
                <colorMode>normal</colorMode>
                <width>4</width>
            </LineStyle>
        </Style>
        <Style id="44217">
            <LineStyle id="44218">
                <color>ff90392B</color>
                <colorMode>normal</colorMode>
                <width>4</width>
            </LineStyle>
        </Style>
        <Style id="44221">
            <LineStyle id="44222">
                <color>ff90392B</color>
                <colorMode>normal</colorMode>
                <width>4</width>
            </LineStyle>
        </Style>
        <Style id="44225">
            <LineStyle id="44226">
                <color>ff90392B</color>
                <colorMode>normal</colorMode>
                <width>4</width>
            </LineStyle>
        </Style>
        <Style id="44229">
            <LineStyle id="44230">
                <color>ff90392B</color>
                <colorMode>normal</colorMode>
                <width>4</width>
            </LineStyle>
        </Style>
        <Style id="44233">
            <LineStyle id="44234">
                <color>ff90392B</color>
                <colorMode>normal</colorMode>
                <width>4</width>
            </LineStyle>
        </Style>
        <ExtendedData>
            <Data name="route-name">
                <value>22: Kalapa → Buah Batu</value>
            </Data>
            <Data name="source">
                <value>Transport for Bandung</value>
            </Data>
        </ExtendedData>
        <Placemark id="43958">
            <name>Terminal Abdul Muis/Kebon Kalapa</name>
            <styleUrl>#43959</styleUrl>
            <Point id="43957">
                <coordinates>107.6058322,-6.9276428,0.0</coordinates>
            </Point>
        </Placemark>
        <Placemark id="43963">
            <name>Cipagalo</name>
            <styleUrl>#43964</styleUrl>
            <Point id="43962">
                <coordinates>107.6379086,-6.9657162,0.0</coordinates>
            </Point>
        </Placemark>
        <Placemark id="43968">
            <name>Jalan Kyai Haji Ahmad Dahlan</name>
            <styleUrl>#43969</styleUrl>
            <LineString id="43967">
                <coordinates>107.6220155,-6.9328922,0.0 107.6228829,-6.9335325,0.0 107.6229592,-6.9335888,0.0 107.6232495,-6.9338032,0.0 107.6233995,-6.9339131,0.0 107.6234465,-6.9339493,0.0 107.6235919,-6.9340559,0.0 107.6236943,-6.9341315,0.0 107.623828,-6.9342302,0.0 107.6241918,-6.9344988,0.0 107.6242929,-6.9345733,0.0 107.6243482,-6.9346141,0.0 107.6245659,-6.9347749,0.0 107.6247477,-6.9349091,0.0 107.6247775,-6.9349311,0.0</coordinates>
            </LineString>
        </Placemark>
        <Placemark id="43972">
            <name>Jalan Lengkong Besar</name>
            <styleUrl>#43973</styleUrl>
            <LineString id="43971">
                <coordinates>107.612647,-6.9262231,0.0 107.6128857,-6.926502,0.0 107.6130005,-6.9266412,0.0 107.6130714,-6.926733,0.0 107.6131037,-6.9268116,0.0 107.6131248,-6.9268697,0.0 107.6131331,-6.9269146,0.0 107.6131443,-6.9269688,0.0</coordinates>
            </LineString>
        </Placemark>
        <Placemark id="43976">
            <name>Jalan Dalem Kaum</name>
            <styleUrl>#43977</styleUrl>
            <LineString id="43975">
                <coordinates>107.6085038,-6.9226424,0.0 107.6087199,-6.9226665,0.0</coordinates>
            </LineString>
        </Placemark>
        <Placemark id="43980">
            <name>Jalan Dalem Kaum</name>
            <styleUrl>#43981</styleUrl>
            <LineString id="43979">
                <coordinates>107.6087199,-6.9226665,0.0 107.6098141,-6.9227936,0.0 107.6103819,-6.9228595,0.0 107.610457,-6.9228683,0.0 107.6104966,-6.9228729,0.0 107.6107335,-6.9229004,0.0 107.6109162,-6.9229216,0.0 107.6113765,-6.922975,0.0 107.6118585,-6.9230332,0.0</coordinates>
            </LineString>
        </Placemark>
        <Placemark id="43984">
            <name>Jalan Kyai Haji Ahmad Dahlan</name>
            <styleUrl>#43985</styleUrl>
            <LineString id="43983">
                <coordinates>107.6181273,-6.9318132,0.0 107.6182444,-6.9316927,0.0 107.6183599,-6.9316133,0.0 107.6185305,-6.9315221,0.0 107.6187946,-6.9314272,0.0 107.619075,-6.931384,0.0 107.6192569,-6.9313802,0.0</coordinates>
            </LineString>
        </Placemark>
        <Placemark id="43988">
            <name>Route Segment</name>
            <styleUrl>#43989</styleUrl>
            <LineString id="43987">
                <coordinates>107.6254318,-6.9335047,0.0 107.6254463,-6.9334861,0.0 107.6254677,-6.9334761,0.0 107.6254914,-6.9334767,0.0 107.6255122,-6.933488,0.0 107.6255256,-6.9335073,0.0 107.6255287,-6.9335306,0.0</coordinates>
            </LineString>
        </Placemark>
        <Placemark id="43992">
            <name>Jalan Cikawao</name>
            <styleUrl>#43993</styleUrl>
            <LineString id="43991">
                <coordinates>107.6131443,-6.9269688,0.0 107.6132071,-6.9270879,0.0 107.6132753,-6.9272001,0.0 107.6132822,-6.927209,0.0 107.6133419,-6.9272867,0.0 107.6134072,-6.9273393,0.0</coordinates>
            </LineString>
        </Placemark>
        <Placemark id="43996">
            <name>Jalan Kyai Haji Ahmad Dahlan</name>
            <styleUrl>#43997</styleUrl>
            <LineString id="43995">
                <coordinates>107.6192569,-6.9313802,0.0 107.6195403,-6.9314027,0.0 107.6198275,-6.9314581,0.0 107.6200483,-6.9315397,0.0 107.6202525,-6.9316471,0.0 107.6203316,-6.9317067,0.0 107.6204269,-6.9317785,0.0</coordinates>
            </LineString>
        </Placemark>
        <Placemark id="44000">
            <name>Jalan Cikawao</name>
            <styleUrl>#44001</styleUrl>
            <LineString id="43999">
                <coordinates>107.6157613,-6.9283977,0.0 107.6151581,-6.9281304,0.0 107.6147806,-6.9279607,0.0 107.614603,-6.9278809,0.0 107.6144924,-6.927831,0.0 107.6138049,-6.9275287,0.0 107.6137563,-6.9275081,0.0 107.6134072,-6.9273393,0.0</coordinates>
            </LineString>
        </Placemark>
        <Placemark id="44004">
            <name>Jalan Buah Batu</name>
            <styleUrl>#44005</styleUrl>
            <LineString id="44003">
                <coordinates>107.6333973,-6.9479551,0.0 107.6335261,-6.9480768,0.0</coordinates>
            </LineString>
        </Placemark>
        <Placemark id="44008">
            <name>Jalan Buah Batu</name>
            <styleUrl>#44009</styleUrl>
            <LineString id="44007">
                <coordinates>107.6335261,-6.9480768,0.0 107.6335616,-6.9481122,0.0 107.6336244,-6.9481774,0.0 107.6337288,-6.9482852,0.0</coordinates>
            </LineString>
        </Placemark>
        <Placemark id="44012">
            <name>Jalan Dewi Sartika</name>
            <styleUrl>#44013</styleUrl>
            <LineString id="44011">
                <coordinates>107.6059454,-6.9273849,0.0 107.6059791,-6.9270185,0.0 107.6059757,-6.9268782,0.0 107.6059805,-6.9267319,0.0 107.6059951,-6.9265345,0.0 107.6060102,-6.926383,0.0 107.6060764,-6.9256868,0.0</coordinates>
            </LineString>
        </Placemark>
        <Placemark id="44016">
            <name>Jalan Dewi Sartika</name>
            <styleUrl>#44017</styleUrl>
            <LineString id="44015">
                <coordinates>107.6060764,-6.9256868,0.0 107.6061378,-6.9250253,0.0 107.6061983,-6.9243822,0.0 107.6062071,-6.924326,0.0 107.6062157,-6.9242858,0.0 107.6062271,-6.9242427,0.0 107.6062411,-6.9241764,0.0 107.6062448,-6.9241528,0.0 107.6062731,-6.9238523,0.0 107.6063064,-6.9235364,0.0</coordinates>
            </LineString>
        </Placemark>
        <Placemark id="44020">
            <name>Jalan Buah Batu</name>
            <styleUrl>#44021</styleUrl>
            <LineString id="44019">
                <coordinates>107.6392468,-6.9552162,0.0 107.6393343,-6.9559465,0.0 107.6394517,-6.956606,0.0</coordinates>
            </LineString>
        </Placemark>
        <Placemark id="44024">
            <name>Jalan Dewi Sartika</name>
            <styleUrl>#44025</styleUrl>
            <LineString id="44023">
                <coordinates>107.6063064,-6.9235364,0.0 107.6063176,-6.9234981,0.0 107.6063289,-6.9234418,0.0 107.6063543,-6.9231005,0.0 107.6063668,-6.9228999,0.0 107.6063912,-6.9225658,0.0 107.606396,-6.9224934,0.0 107.6064134,-6.9224385,0.0 107.6064448,-6.9224162,0.0</coordinates>
            </LineString>
        </Placemark>
        <Placemark id="44028">
            <name>Jalan Dalem Kaum</name>
            <styleUrl>#44029</styleUrl>
            <LineString id="44027">
                <coordinates>107.6065203,-6.9224203,0.0 107.607062,-6.9224762,0.0 107.6073353,-6.9225078,0.0 107.6074316,-6.9225178,0.0 107.6075166,-6.9225267,0.0</coordinates>
            </LineString>
        </Placemark>
        <Placemark id="44032">
            <name>Jalan Dalem Kaum</name>
            <styleUrl>#44033</styleUrl>
            <LineString id="44031">
                <coordinates>107.6075166,-6.9225267,0.0 107.6076772,-6.9225455,0.0 107.6077318,-6.9225519,0.0 107.6084422,-6.9226352,0.0 107.6085038,-6.9226424,0.0</coordinates>
            </LineString>
        </Placemark>
        <Placemark id="44036">
            <name>Jalan Pelajar Pejuang 45</name>
            <styleUrl>#44037</styleUrl>
            <LineString id="44035">
                <coordinates>107.6255287,-6.9335306,0.0 107.6254673,-6.9337607,0.0 107.6253996,-6.9339927,0.0 107.6253661,-6.9341125,0.0 107.6253131,-6.9342776,0.0 107.6252887,-6.9343354,0.0 107.6252568,-6.9344147,0.0 107.6252253,-6.9344866,0.0 107.6251797,-6.9345751,0.0 107.6251233,-6.9346683,0.0 107.6250543,-6.9347675,0.0 107.6248605,-6.9350024,0.0</coordinates>
            </LineString>
        </Placemark>
        <Placemark id="44040">
            <name>Jalan Sadakeling</name>
            <styleUrl>#44041</styleUrl>
            <LineString id="44039">
                <coordinates>107.61707,-6.9301863,0.0 107.6171074,-6.9303882,0.0 107.6171605,-6.9305861,0.0 107.6172291,-6.9307792,0.0 107.6173128,-6.9309664,0.0 107.617411,-6.9311464,0.0 107.6174984,-6.9312843,0.0 107.617656,-6.9314894,0.0 107.617959,-6.9317935,0.0</coordinates>
            </LineString>
        </Placemark>
        <Placemark id="44044">
            <name>Route Segment</name>
            <styleUrl>#44045</styleUrl>
            <LineString id="44043">
                <coordinates>107.6229766,-6.9368169,0.0 107.6229565,-6.9368689,0.0 107.6229479,-6.9369154,0.0 107.6229447,-6.9369508,0.0 107.6229395,-6.9369839,0.0 107.6229383,-6.9370012,0.0 107.6229373,-6.9370174,0.0 107.6229389,-6.9370597,0.0 107.6229645,-6.9371235,0.0 107.6229896,-6.9371758,0.0 107.6230261,-6.9372363,0.0</coordinates>
            </LineString>
        </Placemark>
        <Placemark id="44048">
            <name>Jalan Cikawao</name>
            <styleUrl>#44049</styleUrl>
            <LineString id="44047">
                <coordinates>107.6157613,-6.9283977,0.0 107.6157999,-6.9283989,0.0 107.6158546,-6.9284142,0.0 107.6160481,-6.9285111,0.0 107.6164635,-6.9287163,0.0</coordinates>
            </LineString>
        </Placemark>
        <Placemark id="44052">
            <name>Jalan Kyai Haji Ahmad Dahlan</name>
            <styleUrl>#44053</styleUrl>
            <LineString id="44051">
                <coordinates>107.6204269,-6.9317785,0.0 107.6207279,-6.9319958,0.0 107.6219116,-6.9328188,0.0</coordinates>
            </LineString>
        </Placemark>
        <Placemark id="44056">
            <name>Jalan Kyai Haji Ahmad Dahlan</name>
            <styleUrl>#44057</styleUrl>
            <LineString id="44055">
                <coordinates>107.6220155,-6.9328922,0.0 107.6219116,-6.9328188,0.0</coordinates>
            </LineString>
        </Placemark>
        <Placemark id="44060">
            <name>Jalan Buah Batu</name>
            <styleUrl>#44061</styleUrl>
            <LineString id="44059">
                <coordinates>107.6322352,-6.9468242,0.0 107.632848,-6.9474115,0.0 107.6330285,-6.9475875,0.0 107.6332291,-6.9477884,0.0</coordinates>
            </LineString>
        </Placemark>
        <Placemark id="44064">
            <name>Jalan Lengkong Besar</name>
            <styleUrl>#44065</styleUrl>
            <LineString id="44063">
                <coordinates>107.6118585,-6.9230332,0.0 107.6118166,-6.9234656,0.0 107.6117934,-6.9237378,0.0 107.611746,-6.9242192,0.0 107.6117142,-6.9246889,0.0 107.6117081,-6.9247371,0.0 107.6117028,-6.9248556,0.0 107.6117078,-6.9249159,0.0 107.6117224,-6.9249903,0.0 107.6117513,-6.925068,0.0 107.6117998,-6.9251562,0.0 107.6118687,-6.9252698,0.0 107.6119571,-6.9254045,0.0 107.6120282,-6.9254956,0.0 107.6120768,-6.9255532,0.0 107.6121706,-6.9256697,0.0 107.6126055,-6.9261738,0.0 107.6126274,-6.9261996,0.0 107.612647,-6.9262231,0.0</coordinates>
            </LineString>
        </Placemark>
        <Placemark id="44068">
            <name>Jalan Pelajar Pejuang 45</name>
            <styleUrl>#44069</styleUrl>
            <LineString id="44067">
                <coordinates>107.6248605,-6.9350024,0.0 107.6246392,-6.935218,0.0 107.6242435,-6.9356055,0.0 107.6240525,-6.9357906,0.0 107.6237769,-6.9360502,0.0 107.6237206,-6.9361054,0.0 107.6236477,-6.9361789,0.0</coordinates>
            </LineString>
        </Placemark>
        <Placemark id="44072">
            <name>Jalan Buah Batu</name>
            <styleUrl>#44073</styleUrl>
            <LineString id="44071">
                <coordinates>107.6361046,-6.9507159,0.0 107.6363023,-6.950904,0.0 107.6365624,-6.9511515,0.0</coordinates>
            </LineString>
        </Placemark>
        <Placemark id="44076">
            <name>Jalan Buah Batu</name>
            <styleUrl>#44077</styleUrl>
            <LineString id="44075">
                <coordinates>107.6387597,-6.953529,0.0 107.6388448,-6.9537201,0.0</coordinates>
            </LineString>
        </Placemark>
        <Placemark id="44080">
            <name>Jalan Sadakeling</name>
            <styleUrl>#44081</styleUrl>
            <LineString id="44079">
                <coordinates>107.6164635,-6.9287163,0.0 107.6169027,-6.9289448,0.0 107.6171713,-6.9290845,0.0</coordinates>
            </LineString>
        </Placemark>
        <Placemark id="44084">
            <name>Jalan Buah Batu</name>
            <styleUrl>#44085</styleUrl>
            <LineString id="44083">
                <coordinates>107.6389544,-6.9539868,0.0 107.6390244,-6.9541598,0.0 107.6391061,-6.954383,0.0</coordinates>
            </LineString>
        </Placemark>
        <Placemark id="44088">
            <name>Jalan Buah Batu</name>
            <styleUrl>#44089</styleUrl>
            <LineString id="44087">
                <coordinates>107.6388448,-6.9537201,0.0 107.6389544,-6.9539868,0.0</coordinates>
            </LineString>
        </Placemark>
        <Placemark id="44092">
            <name>Jalan Sadakeling</name>
            <styleUrl>#44093</styleUrl>
            <LineString id="44091">
                <coordinates>107.6171713,-6.9290845,0.0 107.6171381,-6.9291538,0.0</coordinates>
            </LineString>
        </Placemark>
        <Placemark id="44096">
            <name>Jalan Pelajar Pejuang 45</name>
            <styleUrl>#44097</styleUrl>
            <LineString id="44095">
                <coordinates>107.6236477,-6.9361789,0.0 107.6235824,-6.9362369,0.0 107.6235086,-6.9363093,0.0 107.6231823,-6.9366255,0.0 107.6229766,-6.9368169,0.0</coordinates>
            </LineString>
        </Placemark>
        <Placemark id="44100">
            <name>Jalan Buah Batu</name>
            <styleUrl>#44101</styleUrl>
            <LineString id="44099">
                <coordinates>107.6351294,-6.9497169,0.0 107.6352528,-6.9498433,0.0 107.635567,-6.9501652,0.0 107.6356443,-6.9502444,0.0 107.6357751,-6.9503784,0.0 107.6361046,-6.9507159,0.0</coordinates>
            </LineString>
        </Placemark>
        <Placemark id="44104">
            <name>Jalan Buah Batu</name>
            <styleUrl>#44105</styleUrl>
            <LineString id="44103">
                <coordinates>107.6230261,-6.9372363,0.0 107.6234814,-6.9377173,0.0 107.6239237,-6.9381835,0.0 107.6240128,-6.9382774,0.0 107.6243051,-6.9385814,0.0 107.6245315,-6.93881,0.0 107.6247269,-6.9390107,0.0 107.6248837,-6.9391749,0.0</coordinates>
            </LineString>
        </Placemark>
        <Placemark id="44108">
            <name>Jalan Buah Batu</name>
            <styleUrl>#44109</styleUrl>
            <LineString id="44107">
                <coordinates>107.6279552,-6.9423722,0.0 107.6282283,-6.9426596,0.0 107.630216,-6.9447298,0.0 107.6304557,-6.9449794,0.0 107.6305314,-6.9450583,0.0 107.6312283,-6.9457923,0.0 107.6319503,-6.9465372,0.0 107.6320775,-6.9466684,0.0</coordinates>
            </LineString>
        </Placemark>
        <Placemark id="44112">
            <name>Jalan Buah Batu</name>
            <styleUrl>#44113</styleUrl>
            <LineString id="44111">
                <coordinates>107.6257709,-6.9400994,0.0 107.625925,-6.9402599,0.0 107.6261951,-6.9405413,0.0 107.6264456,-6.9408023,0.0 107.6267673,-6.9411375,0.0 107.626856,-6.9412299,0.0 107.627077,-6.9414562,0.0 107.6275375,-6.94194,0.0 107.627593,-6.9419978,0.0</coordinates>
            </LineString>
        </Placemark>
        <Placemark id="44116">
            <name>Jalan Buah Batu</name>
            <styleUrl>#44117</styleUrl>
            <LineString id="44115">
                <coordinates>107.6337288,-6.9482852,0.0 107.6339239,-6.9484693,0.0 107.6341254,-6.9486613,0.0 107.6347709,-6.9493298,0.0 107.6351294,-6.9497169,0.0</coordinates>
            </LineString>
        </Placemark>
        <Placemark id="44120">
            <name>Jalan Pelajar Pejuang 45</name>
            <styleUrl>#44121</styleUrl>
            <LineString id="44119">
                <coordinates>107.6247775,-6.9349311,0.0 107.6249855,-6.9346776,0.0 107.6250422,-6.9346084,0.0 107.6251837,-6.9343381,0.0 107.6251981,-6.9343038,0.0 107.6252675,-6.9340965,0.0 107.6254318,-6.9335047,0.0</coordinates>
            </LineString>
        </Placemark>
        <Placemark id="44124">
            <name>Jalan Sadakeling</name>
            <styleUrl>#44125</styleUrl>
            <LineString id="44123">
                <coordinates>107.617959,-6.9317935,0.0 107.617994,-6.9318213,0.0 107.6180396,-6.9318293,0.0 107.6181273,-6.9318132,0.0</coordinates>
            </LineString>
        </Placemark>
        <Placemark id="44128">
            <name>Jalan Buah Batu</name>
            <styleUrl>#44129</styleUrl>
            <LineString id="44127">
                <coordinates>107.6248837,-6.9391749,0.0 107.6249902,-6.9392822,0.0 107.6251387,-6.9394388,0.0 107.6252913,-6.9395996,0.0 107.6254399,-6.9397544,0.0 107.6257709,-6.9400994,0.0</coordinates>
            </LineString>
        </Placemark>
        <Placemark id="44132">
            <name>Jalan Buah Batu</name>
            <styleUrl>#44133</styleUrl>
            <LineString id="44131">
                <coordinates>107.6320775,-6.9466684,0.0 107.6322352,-6.9468242,0.0</coordinates>
            </LineString>
        </Placemark>
        <Placemark id="44136">
            <name>Jalan Buah Batu</name>
            <styleUrl>#44137</styleUrl>
            <LineString id="44135">
                <coordinates>107.6332291,-6.9477884,0.0 107.6333433,-6.9479025,0.0 107.6333973,-6.9479551,0.0</coordinates>
            </LineString>
        </Placemark>
        <Placemark id="44140">
            <name>Jalan Sadakeling</name>
            <styleUrl>#44141</styleUrl>
            <LineString id="44139">
                <coordinates>107.6171381,-6.9291538,0.0 107.6170723,-6.929434,0.0 107.6170471,-6.9296845,0.0 107.6170464,-6.9299362,0.0 107.61707,-6.9301863,0.0</coordinates>
            </LineString>
        </Placemark>
        <Placemark id="44144">
            <name>Jalan Buah Batu</name>
            <styleUrl>#44145</styleUrl>
            <LineString id="44143">
                <coordinates>107.627593,-6.9419978,0.0 107.6279552,-6.9423722,0.0</coordinates>
            </LineString>
        </Placemark>
        <Placemark id="44148">
            <name>Jalan Dalem Kaum</name>
            <styleUrl>#44149</styleUrl>
            <LineString id="44147">
                <coordinates>107.6064448,-6.9224162,0.0 107.6064668,-6.9224144,0.0 107.6065203,-6.9224203,0.0</coordinates>
            </LineString>
        </Placemark>
        <Placemark id="44152">
            <name>Jalan Buah Batu</name>
            <styleUrl>#44153</styleUrl>
            <LineString id="44151">
                <coordinates>107.6391061,-6.954383,0.0 107.6391514,-6.9545526,0.0</coordinates>
            </LineString>
        </Placemark>
        <Placemark id="44156">
            <name>Jalan Dewi Sartika</name>
            <styleUrl>#44157</styleUrl>
            <LineString id="44155">
                <coordinates>107.6058386,-6.9275637,0.0 107.6058453,-6.9274973,0.0</coordinates>
            </LineString>
        </Placemark>
        <Placemark id="44160">
            <name>Jalan Dewi Sartika</name>
            <styleUrl>#44161</styleUrl>
            <LineString id="44159">
                <coordinates>107.6058453,-6.9274973,0.0 107.6058559,-6.9274746,0.0 107.605878,-6.9274596,0.0 107.6059082,-6.9274425,0.0 107.6059305,-6.9274223,0.0 107.6059373,-6.9274102,0.0 107.6059454,-6.9273849,0.0</coordinates>
            </LineString>
        </Placemark>
        <Placemark id="44164">
            <name>Jalan Buah Batu</name>
            <styleUrl>#44165</styleUrl>
            <LineString id="44163">
                <coordinates>107.6386939,-6.961947,0.0 107.6386768,-6.9620232,0.0 107.6384895,-6.9629095,0.0 107.6381098,-6.9649586,0.0 107.6380538,-6.9652734,0.0 107.6379965,-6.9653319,0.0</coordinates>
            </LineString>
        </Placemark>
        <Placemark id="44168">
            <name>Jalan Buah Batu</name>
            <styleUrl>#44169</styleUrl>
            <LineString id="44167">
                <coordinates>107.6379086,-6.9657162,0.0 107.6379887,-6.9653666,0.0 107.6379942,-6.9653424,0.0 107.6379965,-6.9653319,0.0</coordinates>
            </LineString>
        </Placemark>
        <Placemark id="44172">
            <name>Jalan Dewi Sartika</name>
            <styleUrl>#44173</styleUrl>
            <LineString id="44171">
                <coordinates>107.6058322,-6.9276428,0.0 107.6058386,-6.9275637,0.0</coordinates>
            </LineString>
        </Placemark>
        <Placemark id="44176">
            <name>Jalan Buah Batu</name>
            <styleUrl>#44177</styleUrl>
            <LineString id="44175">
                <coordinates>107.6394517,-6.956606,0.0 107.6395289,-6.9570266,0.0</coordinates>
            </LineString>
        </Placemark>
        <Placemark id="44180">
            <name>Jalan Buah Batu</name>
            <styleUrl>#44181</styleUrl>
            <LineString id="44179">
                <coordinates>107.6395289,-6.9570266,0.0 107.6395491,-6.9571696,0.0</coordinates>
            </LineString>
        </Placemark>
        <Placemark id="44184">
            <name>Jalan Buah Batu</name>
            <styleUrl>#44185</styleUrl>
            <LineString id="44183">
                <coordinates>107.6395491,-6.9571696,0.0 107.6395936,-6.9575518,0.0 107.6395984,-6.9579307,0.0 107.6395876,-6.9580497,0.0 107.6395723,-6.9581613,0.0 107.639519,-6.9584058,0.0 107.6394347,-6.9587335,0.0</coordinates>
            </LineString>
        </Placemark>
        <Placemark id="44188">
            <name>Jalan Buah Batu</name>
            <styleUrl>#44189</styleUrl>
            <LineString id="44187">
                <coordinates>107.6394347,-6.9587335,0.0 107.6392201,-6.9597843,0.0</coordinates>
            </LineString>
        </Placemark>
        <Placemark id="44192">
            <name>Jalan Buah Batu</name>
            <styleUrl>#44193</styleUrl>
            <LineString id="44191">
                <coordinates>107.6392201,-6.9597843,0.0 107.6391051,-6.960282,0.0</coordinates>
            </LineString>
        </Placemark>
        <Placemark id="44196">
            <name>Jalan Buah Batu</name>
            <styleUrl>#44197</styleUrl>
            <LineString id="44195">
                <coordinates>107.6391051,-6.960282,0.0 107.6390503,-6.9605477,0.0 107.6389921,-6.9607716,0.0</coordinates>
            </LineString>
        </Placemark>
        <Placemark id="44200">
            <name>Jalan Buah Batu</name>
            <styleUrl>#44201</styleUrl>
            <LineString id="44199">
                <coordinates>107.6389921,-6.9607716,0.0 107.6387182,-6.9618449,0.0 107.6386939,-6.961947,0.0</coordinates>
            </LineString>
        </Placemark>
        <Placemark id="44204">
            <name>Jalan Buah Batu</name>
            <styleUrl>#44205</styleUrl>
            <LineString id="44203">
                <coordinates>107.6374606,-6.9520354,0.0 107.6377182,-6.952308,0.0</coordinates>
            </LineString>
        </Placemark>
        <Placemark id="44208">
            <name>Jalan Buah Batu</name>
            <styleUrl>#44209</styleUrl>
            <LineString id="44207">
                <coordinates>107.6377182,-6.952308,0.0 107.6377782,-6.9523724,0.0</coordinates>
            </LineString>
        </Placemark>
        <Placemark id="44212">
            <name>Jalan Buah Batu</name>
            <styleUrl>#44213</styleUrl>
            <LineString id="44211">
                <coordinates>107.6377782,-6.9523724,0.0 107.6379835,-6.952571,0.0</coordinates>
            </LineString>
        </Placemark>
        <Placemark id="44216">
            <name>Jalan Buah Batu</name>
            <styleUrl>#44217</styleUrl>
            <LineString id="44215">
                <coordinates>107.6379835,-6.952571,0.0 107.6380427,-6.9526321,0.0</coordinates>
            </LineString>
        </Placemark>
        <Placemark id="44220">
            <name>Jalan Buah Batu</name>
            <styleUrl>#44221</styleUrl>
            <LineString id="44219">
                <coordinates>107.6380427,-6.9526321,0.0 107.6381582,-6.9527501,0.0 107.638476,-6.9530784,0.0 107.6386143,-6.9532526,0.0 107.6387335,-6.9534763,0.0 107.6387597,-6.953529,0.0</coordinates>
            </LineString>
        </Placemark>
        <Placemark id="44224">
            <name>Jalan Buah Batu</name>
            <styleUrl>#44225</styleUrl>
            <LineString id="44223">
                <coordinates>107.6365624,-6.9511515,0.0 107.6368785,-6.9514617,0.0 107.6369488,-6.9515306,0.0</coordinates>
            </LineString>
        </Placemark>
        <Placemark id="44228">
            <name>Jalan Buah Batu</name>
            <styleUrl>#44229</styleUrl>
            <LineString id="44227">
                <coordinates>107.6369488,-6.9515306,0.0 107.6374606,-6.9520354,0.0</coordinates>
            </LineString>
        </Placemark>
        <Placemark id="44232">
            <name>Jalan Buah Batu</name>
            <styleUrl>#44233</styleUrl>
            <LineString id="44231">
                <coordinates>107.6391514,-6.9545526,0.0 107.6391882,-6.9547271,0.0 107.6392468,-6.9552162,0.0</coordinates>
            </LineString>
        </Placemark>
    </Document>
</kml>
