<?xml version="1.0" encoding="UTF-8"?>
<kml xmlns="http://www.opengis.net/kml/2.2" xmlns:gx="http://www.google.com/kml/ext/2.2">
    <Document id="44894">
        <Style id="44900">
            <IconStyle id="44901">
                <colorMode>normal</colorMode>
                <scale>1</scale>
                <heading>0</heading>
                <Icon id="44902">
                    <href>http://maps.google.com/mapfiles/kml/pushpin/ylw-pushpin.png</href>
                </Icon>
            </IconStyle>
        </Style>
        <Style id="44905">
            <IconStyle id="44906">
                <colorMode>normal</colorMode>
                <scale>1</scale>
                <heading>0</heading>
                <Icon id="44907">
                    <href>http://maps.google.com/mapfiles/kml/pushpin/ylw-pushpin.png</href>
                </Icon>
            </IconStyle>
        </Style>
        <Style id="44910">
            <LineStyle id="44911">
                <color>ff90392B</color>
                <colorMode>normal</colorMode>
                <width>4</width>
            </LineStyle>
        </Style>
        <Style id="44914">
            <LineStyle id="44915">
                <color>ff90392B</color>
                <colorMode>normal</colorMode>
                <width>4</width>
            </LineStyle>
        </Style>
        <Style id="44918">
            <LineStyle id="44919">
                <color>ff90392B</color>
                <colorMode>normal</colorMode>
                <width>4</width>
            </LineStyle>
        </Style>
        <Style id="44922">
            <LineStyle id="44923">
                <color>ff90392B</color>
                <colorMode>normal</colorMode>
                <width>4</width>
            </LineStyle>
        </Style>
        <Style id="44926">
            <LineStyle id="44927">
                <color>ff90392B</color>
                <colorMode>normal</colorMode>
                <width>4</width>
            </LineStyle>
        </Style>
        <Style id="44930">
            <LineStyle id="44931">
                <color>ff90392B</color>
                <colorMode>normal</colorMode>
                <width>4</width>
            </LineStyle>
        </Style>
        <Style id="44934">
            <LineStyle id="44935">
                <color>ff90392B</color>
                <colorMode>normal</colorMode>
                <width>4</width>
            </LineStyle>
        </Style>
        <Style id="44938">
            <LineStyle id="44939">
                <color>ff90392B</color>
                <colorMode>normal</colorMode>
                <width>4</width>
            </LineStyle>
        </Style>
        <Style id="44942">
            <LineStyle id="44943">
                <color>ff90392B</color>
                <colorMode>normal</colorMode>
                <width>4</width>
            </LineStyle>
        </Style>
        <Style id="44946">
            <LineStyle id="44947">
                <color>ff90392B</color>
                <colorMode>normal</colorMode>
                <width>4</width>
            </LineStyle>
        </Style>
        <Style id="44950">
            <LineStyle id="44951">
                <color>ff90392B</color>
                <colorMode>normal</colorMode>
                <width>4</width>
            </LineStyle>
        </Style>
        <Style id="44954">
            <LineStyle id="44955">
                <color>ff90392B</color>
                <colorMode>normal</colorMode>
                <width>4</width>
            </LineStyle>
        </Style>
        <Style id="44958">
            <LineStyle id="44959">
                <color>ff90392B</color>
                <colorMode>normal</colorMode>
                <width>4</width>
            </LineStyle>
        </Style>
        <Style id="44962">
            <LineStyle id="44963">
                <color>ff90392B</color>
                <colorMode>normal</colorMode>
                <width>4</width>
            </LineStyle>
        </Style>
        <Style id="44966">
            <LineStyle id="44967">
                <color>ff90392B</color>
                <colorMode>normal</colorMode>
                <width>4</width>
            </LineStyle>
        </Style>
        <Style id="44970">
            <LineStyle id="44971">
                <color>ff90392B</color>
                <colorMode>normal</colorMode>
                <width>4</width>
            </LineStyle>
        </Style>
        <Style id="44974">
            <LineStyle id="44975">
                <color>ff90392B</color>
                <colorMode>normal</colorMode>
                <width>4</width>
            </LineStyle>
        </Style>
        <Style id="44978">
            <LineStyle id="44979">
                <color>ff90392B</color>
                <colorMode>normal</colorMode>
                <width>4</width>
            </LineStyle>
        </Style>
        <Style id="44982">
            <LineStyle id="44983">
                <color>ff90392B</color>
                <colorMode>normal</colorMode>
                <width>4</width>
            </LineStyle>
        </Style>
        <Style id="44986">
            <LineStyle id="44987">
                <color>ff90392B</color>
                <colorMode>normal</colorMode>
                <width>4</width>
            </LineStyle>
        </Style>
        <Style id="44990">
            <LineStyle id="44991">
                <color>ff90392B</color>
                <colorMode>normal</colorMode>
                <width>4</width>
            </LineStyle>
        </Style>
        <Style id="44994">
            <LineStyle id="44995">
                <color>ff90392B</color>
                <colorMode>normal</colorMode>
                <width>4</width>
            </LineStyle>
        </Style>
        <Style id="44998">
            <LineStyle id="44999">
                <color>ff90392B</color>
                <colorMode>normal</colorMode>
                <width>4</width>
            </LineStyle>
        </Style>
        <Style id="45002">
            <LineStyle id="45003">
                <color>ff90392B</color>
                <colorMode>normal</colorMode>
                <width>4</width>
            </LineStyle>
        </Style>
        <Style id="45006">
            <LineStyle id="45007">
                <color>ff90392B</color>
                <colorMode>normal</colorMode>
                <width>4</width>
            </LineStyle>
        </Style>
        <Style id="45010">
            <LineStyle id="45011">
                <color>ff90392B</color>
                <colorMode>normal</colorMode>
                <width>4</width>
            </LineStyle>
        </Style>
        <Style id="45014">
            <LineStyle id="45015">
                <color>ff90392B</color>
                <colorMode>normal</colorMode>
                <width>4</width>
            </LineStyle>
        </Style>
        <Style id="45018">
            <LineStyle id="45019">
                <color>ff90392B</color>
                <colorMode>normal</colorMode>
                <width>4</width>
            </LineStyle>
        </Style>
        <Style id="45022">
            <LineStyle id="45023">
                <color>ff90392B</color>
                <colorMode>normal</colorMode>
                <width>4</width>
            </LineStyle>
        </Style>
        <Style id="45026">
            <LineStyle id="45027">
                <color>ff90392B</color>
                <colorMode>normal</colorMode>
                <width>4</width>
            </LineStyle>
        </Style>
        <Style id="45030">
            <LineStyle id="45031">
                <color>ff90392B</color>
                <colorMode>normal</colorMode>
                <width>4</width>
            </LineStyle>
        </Style>
        <Style id="45034">
            <LineStyle id="45035">
                <color>ff90392B</color>
                <colorMode>normal</colorMode>
                <width>4</width>
            </LineStyle>
        </Style>
        <Style id="45038">
            <LineStyle id="45039">
                <color>ff90392B</color>
                <colorMode>normal</colorMode>
                <width>4</width>
            </LineStyle>
        </Style>
        <Style id="45042">
            <LineStyle id="45043">
                <color>ff90392B</color>
                <colorMode>normal</colorMode>
                <width>4</width>
            </LineStyle>
        </Style>
        <Style id="45046">
            <LineStyle id="45047">
                <color>ff90392B</color>
                <colorMode>normal</colorMode>
                <width>4</width>
            </LineStyle>
        </Style>
        <Style id="45050">
            <LineStyle id="45051">
                <color>ff90392B</color>
                <colorMode>normal</colorMode>
                <width>4</width>
            </LineStyle>
        </Style>
        <Style id="45054">
            <LineStyle id="45055">
                <color>ff90392B</color>
                <colorMode>normal</colorMode>
                <width>4</width>
            </LineStyle>
        </Style>
        <Style id="45058">
            <LineStyle id="45059">
                <color>ff90392B</color>
                <colorMode>normal</colorMode>
                <width>4</width>
            </LineStyle>
        </Style>
        <Style id="45062">
            <LineStyle id="45063">
                <color>ff90392B</color>
                <colorMode>normal</colorMode>
                <width>4</width>
            </LineStyle>
        </Style>
        <Style id="45066">
            <LineStyle id="45067">
                <color>ff90392B</color>
                <colorMode>normal</colorMode>
                <width>4</width>
            </LineStyle>
        </Style>
        <Style id="45070">
            <LineStyle id="45071">
                <color>ff90392B</color>
                <colorMode>normal</colorMode>
                <width>4</width>
            </LineStyle>
        </Style>
        <Style id="45074">
            <LineStyle id="45075">
                <color>ff90392B</color>
                <colorMode>normal</colorMode>
                <width>4</width>
            </LineStyle>
        </Style>
        <Style id="45078">
            <LineStyle id="45079">
                <color>ff90392B</color>
                <colorMode>normal</colorMode>
                <width>4</width>
            </LineStyle>
        </Style>
        <Style id="45082">
            <LineStyle id="45083">
                <color>ff90392B</color>
                <colorMode>normal</colorMode>
                <width>4</width>
            </LineStyle>
        </Style>
        <Style id="45086">
            <LineStyle id="45087">
                <color>ff90392B</color>
                <colorMode>normal</colorMode>
                <width>4</width>
            </LineStyle>
        </Style>
        <Style id="45090">
            <LineStyle id="45091">
                <color>ff90392B</color>
                <colorMode>normal</colorMode>
                <width>4</width>
            </LineStyle>
        </Style>
        <Style id="45094">
            <LineStyle id="45095">
                <color>ff90392B</color>
                <colorMode>normal</colorMode>
                <width>4</width>
            </LineStyle>
        </Style>
        <Style id="45098">
            <LineStyle id="45099">
                <color>ff90392B</color>
                <colorMode>normal</colorMode>
                <width>4</width>
            </LineStyle>
        </Style>
        <Style id="45102">
            <LineStyle id="45103">
                <color>ff90392B</color>
                <colorMode>normal</colorMode>
                <width>4</width>
            </LineStyle>
        </Style>
        <Style id="45106">
            <LineStyle id="45107">
                <color>ff90392B</color>
                <colorMode>normal</colorMode>
                <width>4</width>
            </LineStyle>
        </Style>
        <Style id="45110">
            <LineStyle id="45111">
                <color>ff90392B</color>
                <colorMode>normal</colorMode>
                <width>4</width>
            </LineStyle>
        </Style>
        <Style id="45114">
            <LineStyle id="45115">
                <color>ff90392B</color>
                <colorMode>normal</colorMode>
                <width>4</width>
            </LineStyle>
        </Style>
        <Style id="45118">
            <LineStyle id="45119">
                <color>ff90392B</color>
                <colorMode>normal</colorMode>
                <width>4</width>
            </LineStyle>
        </Style>
        <Style id="45122">
            <LineStyle id="45123">
                <color>ff90392B</color>
                <colorMode>normal</colorMode>
                <width>4</width>
            </LineStyle>
        </Style>
        <Style id="45126">
            <LineStyle id="45127">
                <color>ff90392B</color>
                <colorMode>normal</colorMode>
                <width>4</width>
            </LineStyle>
        </Style>
        <Style id="45130">
            <LineStyle id="45131">
                <color>ff90392B</color>
                <colorMode>normal</colorMode>
                <width>4</width>
            </LineStyle>
        </Style>
        <Style id="45134">
            <LineStyle id="45135">
                <color>ff90392B</color>
                <colorMode>normal</colorMode>
                <width>4</width>
            </LineStyle>
        </Style>
        <Style id="45138">
            <LineStyle id="45139">
                <color>ff90392B</color>
                <colorMode>normal</colorMode>
                <width>4</width>
            </LineStyle>
        </Style>
        <Style id="45142">
            <LineStyle id="45143">
                <color>ff90392B</color>
                <colorMode>normal</colorMode>
                <width>4</width>
            </LineStyle>
        </Style>
        <Style id="45146">
            <LineStyle id="45147">
                <color>ff90392B</color>
                <colorMode>normal</colorMode>
                <width>4</width>
            </LineStyle>
        </Style>
        <Style id="45150">
            <LineStyle id="45151">
                <color>ff90392B</color>
                <colorMode>normal</colorMode>
                <width>4</width>
            </LineStyle>
        </Style>
        <Style id="45154">
            <LineStyle id="45155">
                <color>ff90392B</color>
                <colorMode>normal</colorMode>
                <width>4</width>
            </LineStyle>
        </Style>
        <Style id="45158">
            <LineStyle id="45159">
                <color>ff90392B</color>
                <colorMode>normal</colorMode>
                <width>4</width>
            </LineStyle>
        </Style>
        <Style id="45162">
            <LineStyle id="45163">
                <color>ff90392B</color>
                <colorMode>normal</colorMode>
                <width>4</width>
            </LineStyle>
        </Style>
        <Style id="45166">
            <LineStyle id="45167">
                <color>ff90392B</color>
                <colorMode>normal</colorMode>
                <width>4</width>
            </LineStyle>
        </Style>
        <Style id="45170">
            <LineStyle id="45171">
                <color>ff90392B</color>
                <colorMode>normal</colorMode>
                <width>4</width>
            </LineStyle>
        </Style>
        <Style id="45174">
            <LineStyle id="45175">
                <color>ff90392B</color>
                <colorMode>normal</colorMode>
                <width>4</width>
            </LineStyle>
        </Style>
        <Style id="45178">
            <LineStyle id="45179">
                <color>ff90392B</color>
                <colorMode>normal</colorMode>
                <width>4</width>
            </LineStyle>
        </Style>
        <Style id="45182">
            <LineStyle id="45183">
                <color>ff90392B</color>
                <colorMode>normal</colorMode>
                <width>4</width>
            </LineStyle>
        </Style>
        <Style id="45186">
            <LineStyle id="45187">
                <color>ff90392B</color>
                <colorMode>normal</colorMode>
                <width>4</width>
            </LineStyle>
        </Style>
        <Style id="45190">
            <LineStyle id="45191">
                <color>ff90392B</color>
                <colorMode>normal</colorMode>
                <width>4</width>
            </LineStyle>
        </Style>
        <Style id="45194">
            <LineStyle id="45195">
                <color>ff90392B</color>
                <colorMode>normal</colorMode>
                <width>4</width>
            </LineStyle>
        </Style>
        <Style id="45198">
            <LineStyle id="45199">
                <color>ff90392B</color>
                <colorMode>normal</colorMode>
                <width>4</width>
            </LineStyle>
        </Style>
        <Style id="45202">
            <LineStyle id="45203">
                <color>ff90392B</color>
                <colorMode>normal</colorMode>
                <width>4</width>
            </LineStyle>
        </Style>
        <Style id="45206">
            <LineStyle id="45207">
                <color>ff90392B</color>
                <colorMode>normal</colorMode>
                <width>4</width>
            </LineStyle>
        </Style>
        <Style id="45210">
            <LineStyle id="45211">
                <color>ff90392B</color>
                <colorMode>normal</colorMode>
                <width>4</width>
            </LineStyle>
        </Style>
        <Style id="45214">
            <LineStyle id="45215">
                <color>ff90392B</color>
                <colorMode>normal</colorMode>
                <width>4</width>
            </LineStyle>
        </Style>
        <Style id="45218">
            <LineStyle id="45219">
                <color>ff90392B</color>
                <colorMode>normal</colorMode>
                <width>4</width>
            </LineStyle>
        </Style>
        <Style id="45222">
            <LineStyle id="45223">
                <color>ff90392B</color>
                <colorMode>normal</colorMode>
                <width>4</width>
            </LineStyle>
        </Style>
        <Style id="45226">
            <LineStyle id="45227">
                <color>ff90392B</color>
                <colorMode>normal</colorMode>
                <width>4</width>
            </LineStyle>
        </Style>
        <Style id="45230">
            <LineStyle id="45231">
                <color>ff90392B</color>
                <colorMode>normal</colorMode>
                <width>4</width>
            </LineStyle>
        </Style>
        <Style id="45234">
            <LineStyle id="45235">
                <color>ff90392B</color>
                <colorMode>normal</colorMode>
                <width>4</width>
            </LineStyle>
        </Style>
        <Style id="45238">
            <LineStyle id="45239">
                <color>ff90392B</color>
                <colorMode>normal</colorMode>
                <width>4</width>
            </LineStyle>
        </Style>
        <Style id="45242">
            <LineStyle id="45243">
                <color>ff90392B</color>
                <colorMode>normal</colorMode>
                <width>4</width>
            </LineStyle>
        </Style>
        <Style id="45246">
            <LineStyle id="45247">
                <color>ff90392B</color>
                <colorMode>normal</colorMode>
                <width>4</width>
            </LineStyle>
        </Style>
        <Style id="45250">
            <LineStyle id="45251">
                <color>ff90392B</color>
                <colorMode>normal</colorMode>
                <width>4</width>
            </LineStyle>
        </Style>
        <Style id="45254">
            <LineStyle id="45255">
                <color>ff90392B</color>
                <colorMode>normal</colorMode>
                <width>4</width>
            </LineStyle>
        </Style>
        <Style id="45258">
            <LineStyle id="45259">
                <color>ff90392B</color>
                <colorMode>normal</colorMode>
                <width>4</width>
            </LineStyle>
        </Style>
        <Style id="45262">
            <LineStyle id="45263">
                <color>ff90392B</color>
                <colorMode>normal</colorMode>
                <width>4</width>
            </LineStyle>
        </Style>
        <Style id="45266">
            <LineStyle id="45267">
                <color>ff90392B</color>
                <colorMode>normal</colorMode>
                <width>4</width>
            </LineStyle>
        </Style>
        <Style id="45270">
            <LineStyle id="45271">
                <color>ff90392B</color>
                <colorMode>normal</colorMode>
                <width>4</width>
            </LineStyle>
        </Style>
        <Style id="45274">
            <LineStyle id="45275">
                <color>ff90392B</color>
                <colorMode>normal</colorMode>
                <width>4</width>
            </LineStyle>
        </Style>
        <Style id="45278">
            <LineStyle id="45279">
                <color>ff90392B</color>
                <colorMode>normal</colorMode>
                <width>4</width>
            </LineStyle>
        </Style>
        <ExtendedData>
            <Data name="route-name">
                <value>22: Sukajadi → Kalapa</value>
            </Data>
            <Data name="source">
                <value>Transport for Bandung</value>
            </Data>
        </ExtendedData>
        <Placemark id="44899">
            <name>Junction 8 Sukajadi</name>
            <styleUrl>#44900</styleUrl>
            <Point id="44898">
                <coordinates>107.596703,-6.8840134,0.0</coordinates>
            </Point>
        </Placemark>
        <Placemark id="44904">
            <name>Terminal Abdul Muis/Kebon Kalapa</name>
            <styleUrl>#44905</styleUrl>
            <Point id="44903">
                <coordinates>107.6058322,-6.9276428,0.0</coordinates>
            </Point>
        </Placemark>
        <Placemark id="44909">
            <name>Jalan Cicendo</name>
            <styleUrl>#44910</styleUrl>
            <LineString id="44908">
                <coordinates>107.6044417,-6.9072201,0.0 107.6044521,-6.9072879,0.0 107.604458,-6.9073889,0.0 107.6044748,-6.9078654,0.0 107.6044776,-6.9079587,0.0 107.6044909,-6.9084617,0.0 107.6044917,-6.9087943,0.0 107.6044683,-6.9089756,0.0 107.6044333,-6.9091247,0.0 107.6043797,-6.9092856,0.0 107.6043042,-6.9094657,0.0 107.6042851,-6.9095101,0.0 107.6042598,-6.9095715,0.0 107.6042199,-6.9096823,0.0 107.6041664,-6.9098645,0.0 107.60413,-6.9100304,0.0 107.6041131,-6.910177,0.0 107.604095,-6.9104032,0.0 107.6040795,-6.910612,0.0 107.6040749,-6.9106747,0.0 107.6040736,-6.9106984,0.0 107.6040635,-6.9108642,0.0 107.6040608,-6.9109088,0.0 107.6039986,-6.911908,0.0 107.6039597,-6.9124977,0.0 107.6039561,-6.9125447,0.0</coordinates>
            </LineString>
        </Placemark>
        <Placemark id="44913">
            <name>Jalan Pajajaran</name>
            <styleUrl>#44914</styleUrl>
            <LineString id="44912">
                <coordinates>107.6073865,-6.9076628,0.0 107.6073442,-6.9076324,0.0 107.6072754,-6.9075859,0.0 107.6071035,-6.9074752,0.0 107.6070242,-6.9074318,0.0 107.6068765,-6.907351,0.0 107.6066403,-6.907244,0.0 107.6065225,-6.9072053,0.0 107.6064209,-6.9071852,0.0 107.6062761,-6.9071663,0.0 107.6061572,-6.9071583,0.0 107.6058415,-6.9071486,0.0 107.6055894,-6.9071347,0.0</coordinates>
            </LineString>
        </Placemark>
        <Placemark id="44917">
            <name>Jalan Lembong</name>
            <styleUrl>#44918</styleUrl>
            <LineString id="44916">
                <coordinates>107.6092086,-6.9161842,0.0 107.6092295,-6.9161907,0.0 107.6094526,-6.9162909,0.0 107.6097121,-6.9164037,0.0 107.609811,-6.916445,0.0 107.6099117,-6.9164912,0.0 107.610072,-6.9165602,0.0</coordinates>
            </LineString>
        </Placemark>
        <Placemark id="44921">
            <name>Jalan Braga</name>
            <styleUrl>#44922</styleUrl>
            <LineString id="44920">
                <coordinates>107.6090254,-6.9139243,0.0 107.6090188,-6.9140707,0.0 107.6090157,-6.9141626,0.0 107.6090099,-6.9144741,0.0 107.6090078,-6.9145319,0.0 107.609003,-6.9147575,0.0 107.6090004,-6.9148441,0.0 107.609,-6.9150767,0.0 107.6090001,-6.9151162,0.0 107.6089998,-6.9151478,0.0 107.6089988,-6.9152244,0.0</coordinates>
            </LineString>
        </Placemark>
        <Placemark id="44925">
            <name>Jalan Cemara</name>
            <styleUrl>#44926</styleUrl>
            <LineString id="44924">
                <coordinates>107.60158,-6.8845161,0.0 107.6011691,-6.8846055,0.0</coordinates>
            </LineString>
        </Placemark>
        <Placemark id="44929">
            <name>Jalan Perintis Kemerdekaan</name>
            <styleUrl>#44930</styleUrl>
            <LineString id="44928">
                <coordinates>107.6075641,-6.9142136,0.0 107.6078626,-6.9140606,0.0 107.607935,-6.9140241,0.0 107.6079799,-6.9140014,0.0 107.6081711,-6.9139136,0.0 107.6082715,-6.9138902,0.0 107.6087543,-6.9138526,0.0 107.6088925,-6.9138457,0.0 107.6089516,-6.913844,0.0</coordinates>
            </LineString>
        </Placemark>
        <Placemark id="44933">
            <name>Jalan Dewi Sartika</name>
            <styleUrl>#44934</styleUrl>
            <LineString id="44932">
                <coordinates>107.6054273,-6.9316877,0.0 107.6055016,-6.9311384,0.0</coordinates>
            </LineString>
        </Placemark>
        <Placemark id="44937">
            <name>Jalan Lengkong Besar</name>
            <styleUrl>#44938</styleUrl>
            <LineString id="44936">
                <coordinates>107.612647,-6.9262231,0.0 107.6128857,-6.926502,0.0 107.6130005,-6.9266412,0.0 107.6130714,-6.926733,0.0 107.6131037,-6.9268116,0.0 107.6131248,-6.9268697,0.0 107.6131331,-6.9269146,0.0 107.6131443,-6.9269688,0.0</coordinates>
            </LineString>
        </Placemark>
        <Placemark id="44941">
            <name>Jalan Sederhana</name>
            <styleUrl>#44942</styleUrl>
            <LineString id="44940">
                <coordinates>107.5982533,-6.8959337,0.0 107.598061,-6.8961075,0.0 107.597854,-6.8962946,0.0 107.5975318,-6.8966067,0.0</coordinates>
            </LineString>
        </Placemark>
        <Placemark id="44945">
            <name>Jalan Kebon Jukut</name>
            <styleUrl>#44946</styleUrl>
            <LineString id="44944">
                <coordinates>107.606975,-6.9145811,0.0 107.6070234,-6.9144595,0.0 107.6070791,-6.9143956,0.0 107.6071398,-6.9143537,0.0 107.6073185,-6.9143005,0.0</coordinates>
            </LineString>
        </Placemark>
        <Placemark id="44949">
            <name>Jalan Lengkong Besar</name>
            <styleUrl>#44950</styleUrl>
            <LineString id="44948">
                <coordinates>107.6129597,-6.9294789,0.0 107.6129328,-6.9297497,0.0</coordinates>
            </LineString>
        </Placemark>
        <Placemark id="44953">
            <name>Jalan Lengkong Besar</name>
            <styleUrl>#44954</styleUrl>
            <LineString id="44952">
                <coordinates>107.6129328,-6.9297497,0.0 107.6129278,-6.9297903,0.0 107.6128864,-6.930269,0.0 107.612861,-6.9304102,0.0 107.6128137,-6.9306736,0.0 107.6127761,-6.9307702,0.0 107.6126488,-6.9309625,0.0 107.6124017,-6.9313355,0.0</coordinates>
            </LineString>
        </Placemark>
        <Placemark id="44957">
            <name>Jalan Pasir Kaliki</name>
            <styleUrl>#44958</styleUrl>
            <LineString id="44956">
                <coordinates>107.5974217,-6.8991501,0.0 107.597458,-6.899457,0.0 107.5974799,-6.8999882,0.0 107.5974825,-6.9000048,0.0 107.5974905,-6.9000261,0.0 107.5974993,-6.9000414,0.0 107.5975127,-6.9000574,0.0 107.5975315,-6.900076,0.0 107.5975596,-6.900098,0.0 107.5975838,-6.9001146,0.0 107.5976133,-6.9001333,0.0 107.5976491,-6.9001556,0.0 107.5976841,-6.9001782,0.0 107.5977317,-6.9002067,0.0</coordinates>
            </LineString>
        </Placemark>
        <Placemark id="44961">
            <name>Jalan Cemara</name>
            <styleUrl>#44962</styleUrl>
            <LineString id="44960">
                <coordinates>107.596703,-6.8840134,0.0 107.5969219,-6.8840009,0.0</coordinates>
            </LineString>
        </Placemark>
        <Placemark id="44965">
            <name>Jalan Ibu Inggit Ganarsih</name>
            <styleUrl>#44966</styleUrl>
            <LineString id="44964">
                <coordinates>107.606653,-6.9318519,0.0 107.6067033,-6.9318589,0.0 107.6067675,-6.9318679,0.0 107.6071921,-6.9319271,0.0 107.6072028,-6.9319286,0.0 107.6074894,-6.9319668,0.0 107.607795,-6.9320075,0.0 107.6084036,-6.9320886,0.0 107.6094967,-6.9322343,0.0 107.6095721,-6.9322443,0.0 107.6100523,-6.9323083,0.0 107.6106978,-6.9323912,0.0 107.6112601,-6.93245,0.0 107.6113455,-6.9324444,0.0 107.6114263,-6.9324291,0.0</coordinates>
            </LineString>
        </Placemark>
        <Placemark id="44969">
            <name>Jalan Pajajaran</name>
            <styleUrl>#44970</styleUrl>
            <LineString id="44968">
                <coordinates>107.6055894,-6.9071347,0.0 107.6053829,-6.907135,0.0</coordinates>
            </LineString>
        </Placemark>
        <Placemark id="44973">
            <name>Jalan Tamblong</name>
            <styleUrl>#44974</styleUrl>
            <LineString id="44972">
                <coordinates>107.6122092,-6.9201091,0.0 107.6121953,-6.9202135,0.0 107.612155,-6.9205282,0.0 107.6121207,-6.9208351,0.0 107.6120718,-6.9213137,0.0 107.6120281,-6.9216096,0.0 107.6120154,-6.9217245,0.0</coordinates>
            </LineString>
        </Placemark>
        <Placemark id="44977">
            <name>Jalan Lengkong Besar</name>
            <styleUrl>#44978</styleUrl>
            <LineString id="44976">
                <coordinates>107.6120154,-6.9217245,0.0 107.6120004,-6.9218318,0.0 107.6119659,-6.922102,0.0 107.6119291,-6.9224047,0.0 107.6119134,-6.9225354,0.0 107.6118585,-6.9230332,0.0</coordinates>
            </LineString>
        </Placemark>
        <Placemark id="44981">
            <name>Jalan Pasir Kaliki</name>
            <styleUrl>#44982</styleUrl>
            <LineString id="44980">
                <coordinates>107.5974,-6.8987139,0.0 107.5974075,-6.898977,0.0</coordinates>
            </LineString>
        </Placemark>
        <Placemark id="44985">
            <name>Jalan Lembong</name>
            <styleUrl>#44986</styleUrl>
            <LineString id="44984">
                <coordinates>107.6109278,-6.9169939,0.0 107.6111029,-6.9170839,0.0 107.6113003,-6.9171832,0.0 107.6113378,-6.917202,0.0</coordinates>
            </LineString>
        </Placemark>
        <Placemark id="44989">
            <name>Jalan Cihampelas</name>
            <styleUrl>#44990</styleUrl>
            <LineString id="44988">
                <coordinates>107.6042016,-6.9003842,0.0 107.604264,-6.9008715,0.0</coordinates>
            </LineString>
        </Placemark>
        <Placemark id="44993">
            <name>Jalan Cihampelas</name>
            <styleUrl>#44994</styleUrl>
            <LineString id="44992">
                <coordinates>107.6041803,-6.900144,0.0 107.6041813,-6.9001579,0.0 107.604189,-6.9002755,0.0 107.6041992,-6.9003596,0.0 107.6042016,-6.9003842,0.0</coordinates>
            </LineString>
        </Placemark>
        <Placemark id="44997">
            <name>Jalan Profesor Christiaan Eijkman</name>
            <styleUrl>#44998</styleUrl>
            <LineString id="44996">
                <coordinates>107.6014463,-6.8957141,0.0 107.6011223,-6.8958109,0.0 107.6008463,-6.8959681,0.0</coordinates>
            </LineString>
        </Placemark>
        <Placemark id="45001">
            <name>Jalan Pasteur</name>
            <styleUrl>#45002</styleUrl>
            <LineString id="45000">
                <coordinates>107.5993001,-6.900202,0.0 107.599805,-6.900195,0.0 107.6003645,-6.900192,0.0 107.6008037,-6.9002057,0.0 107.6010655,-6.9002051,0.0</coordinates>
            </LineString>
        </Placemark>
        <Placemark id="45005">
            <name>Jalan Cihampelas</name>
            <styleUrl>#45006</styleUrl>
            <LineString id="45004">
                <coordinates>107.604369,-6.9041823,0.0 107.6043878,-6.9042234,0.0 107.6044168,-6.9042582,0.0 107.604454,-6.9042842,0.0</coordinates>
            </LineString>
        </Placemark>
        <Placemark id="45009">
            <name>Jalan Wastukencana</name>
            <styleUrl>#45010</styleUrl>
            <LineString id="45008">
                <coordinates>107.604454,-6.9042842,0.0 107.6045194,-6.9042857,0.0</coordinates>
            </LineString>
        </Placemark>
        <Placemark id="45013">
            <name>Jalan Wastukancana</name>
            <styleUrl>#45014</styleUrl>
            <LineString id="45012">
                <coordinates>107.6075644,-6.9054686,0.0 107.607609,-6.9055867,0.0 107.6076511,-6.9057161,0.0 107.6076853,-6.905845,0.0</coordinates>
            </LineString>
        </Placemark>
        <Placemark id="45017">
            <name>Route Segment</name>
            <styleUrl>#45018</styleUrl>
            <LineString id="45016">
                <coordinates>107.611899,-6.9174826,0.0 107.6119638,-6.9175519,0.0 107.6120629,-6.9176091,0.0 107.6121927,-6.9176855,0.0 107.6122735,-6.9177431,0.0 107.612341,-6.9177922,0.0 107.6123749,-6.9178256,0.0 107.6124026,-6.9178815,0.0 107.6124151,-6.9179473,0.0 107.6124086,-6.91811,0.0 107.6124036,-6.9181433,0.0 107.6123969,-6.9182059,0.0 107.6123918,-6.9182691,0.0</coordinates>
            </LineString>
        </Placemark>
        <Placemark id="45021">
            <name>Jalan Ibu Inggit Ganarsih</name>
            <styleUrl>#45022</styleUrl>
            <LineString id="45020">
                <coordinates>107.6054273,-6.9316877,0.0 107.6059974,-6.9317627,0.0 107.6060299,-6.9317669,0.0 107.6064523,-6.9318239,0.0 107.606653,-6.9318519,0.0</coordinates>
            </LineString>
        </Placemark>
        <Placemark id="45025">
            <name>Jalan Raden Adipati Aria Wiranatakusumah</name>
            <styleUrl>#45026</styleUrl>
            <LineString id="45024">
                <coordinates>107.60158,-6.8845161,0.0 107.6016942,-6.8850534,0.0 107.6018127,-6.8856638,0.0 107.6018854,-6.8859731,0.0 107.6021499,-6.8872977,0.0 107.6021691,-6.887391,0.0</coordinates>
            </LineString>
        </Placemark>
        <Placemark id="45029">
            <name>Jalan Profesor Christiaan Eijkman</name>
            <styleUrl>#45030</styleUrl>
            <LineString id="45028">
                <coordinates>107.6014463,-6.8957141,0.0 107.6015518,-6.8957058,0.0 107.6021098,-6.8957803,0.0 107.6022353,-6.8957953,0.0 107.602268,-6.8958001,0.0</coordinates>
            </LineString>
        </Placemark>
        <Placemark id="45033">
            <name>Jalan Cemara</name>
            <styleUrl>#45034</styleUrl>
            <LineString id="45032">
                <coordinates>107.5969219,-6.8840009,0.0 107.5971285,-6.8838387,0.0 107.5973169,-6.8837035,0.0 107.5973613,-6.8836819,0.0 107.5973879,-6.883669,0.0 107.597458,-6.8836459,0.0 107.5975251,-6.883634,0.0 107.5976542,-6.8836218,0.0 107.5978569,-6.8836144,0.0 107.597984,-6.8836295,0.0 107.5981289,-6.8836697,0.0 107.5981388,-6.8836742,0.0 107.5982973,-6.883746,0.0 107.5984513,-6.8838512,0.0 107.5985516,-6.8839777,0.0 107.5987452,-6.8843001,0.0 107.5988118,-6.8843787,0.0 107.5988236,-6.8843926,0.0 107.5989322,-6.8844885,0.0 107.5990409,-6.8845537,0.0 107.5991397,-6.8845878,0.0 107.599298,-6.8845984,0.0 107.5994217,-6.8845695,0.0 107.5995129,-6.8845178,0.0 107.5996574,-6.8843937,0.0 107.5998679,-6.8841873,0.0 107.5998938,-6.8841712,0.0 107.5999468,-6.8841436,0.0 107.6000689,-6.8841185,0.0 107.6001788,-6.8841224,0.0 107.6001917,-6.8841255,0.0 107.6002895,-6.8841494,0.0 107.6003036,-6.8841528,0.0 107.6004343,-6.8842009,0.0 107.6007041,-6.8843216,0.0 107.600903,-6.8844414,0.0 107.6011082,-6.8845504,0.0 107.6011477,-6.8845764,0.0 107.6011691,-6.8846055,0.0</coordinates>
            </LineString>
        </Placemark>
        <Placemark id="45037">
            <name>Jalan Pasteur</name>
            <styleUrl>#45038</styleUrl>
            <LineString id="45036">
                <coordinates>107.5985704,-6.900207,0.0 107.5988449,-6.9002092,0.0 107.5988968,-6.9002096,0.0</coordinates>
            </LineString>
        </Placemark>
        <Placemark id="45041">
            <name>Jalan Ibu Inggit Ganarsih</name>
            <styleUrl>#45042</styleUrl>
            <LineString id="45040">
                <coordinates>107.6114263,-6.9324291,0.0 107.6115743,-6.9323207,0.0 107.6119021,-6.9320223,0.0 107.6121586,-6.9316762,0.0 107.6122593,-6.9315442,0.0 107.6124017,-6.9313355,0.0</coordinates>
            </LineString>
        </Placemark>
        <Placemark id="45045">
            <name>Jalan Wastukancana</name>
            <styleUrl>#45046</styleUrl>
            <LineString id="45044">
                <coordinates>107.604907,-6.904268,0.0 107.6050035,-6.9041885,0.0 107.6051531,-6.9040927,0.0 107.605225,-6.9040549,0.0 107.6052645,-6.9040341,0.0 107.605369,-6.9039986,0.0 107.6054495,-6.9039862,0.0 107.6055461,-6.9039795,0.0 107.6056396,-6.9039773,0.0 107.6058035,-6.9039995,0.0 107.6059967,-6.9040381,0.0 107.6061616,-6.9040807,0.0 107.606306,-6.9041384,0.0 107.6063615,-6.9041606,0.0 107.6065841,-6.9042698,0.0</coordinates>
            </LineString>
        </Placemark>
        <Placemark id="45049">
            <name>Jalan Cihampelas</name>
            <styleUrl>#45050</styleUrl>
            <LineString id="45048">
                <coordinates>107.604264,-6.9008715,0.0 107.6042787,-6.9010952,0.0 107.6042858,-6.9012975,0.0 107.6043224,-6.9023437,0.0 107.6043266,-6.9027188,0.0 107.6043559,-6.9036874,0.0 107.6043657,-6.9040669,0.0 107.6043665,-6.9040981,0.0 107.604369,-6.9041823,0.0</coordinates>
            </LineString>
        </Placemark>
        <Placemark id="45053">
            <name>Jalan Raden Adipati Aria Wiranatakusumah</name>
            <styleUrl>#45054</styleUrl>
            <LineString id="45052">
                <coordinates>107.6025639,-6.8915152,0.0 107.6025685,-6.8916549,0.0 107.6025732,-6.8920405,0.0 107.6025767,-6.8923319,0.0 107.6025976,-6.8928234,0.0 107.6026014,-6.892912,0.0 107.6026186,-6.8933289,0.0 107.602628,-6.8935563,0.0 107.6026469,-6.8940155,0.0 107.6026305,-6.8941606,0.0 107.6025407,-6.8946976,0.0 107.602517,-6.894782,0.0 107.6022794,-6.8957544,0.0 107.602268,-6.8958001,0.0</coordinates>
            </LineString>
        </Placemark>
        <Placemark id="45057">
            <name>Jalan Profesor Christiaan Eijkman</name>
            <styleUrl>#45058</styleUrl>
            <LineString id="45056">
                <coordinates>107.6008463,-6.8959681,0.0 107.6005885,-6.8961348,0.0 107.6003014,-6.8962499,0.0 107.6001433,-6.8962722,0.0 107.5999789,-6.8962674,0.0 107.5993726,-6.8961604,0.0</coordinates>
            </LineString>
        </Placemark>
        <Placemark id="45061">
            <name>Jalan Pasteur</name>
            <styleUrl>#45062</styleUrl>
            <LineString id="45060">
                <coordinates>107.5977317,-6.9002067,0.0 107.5979866,-6.900214,0.0</coordinates>
            </LineString>
        </Placemark>
        <Placemark id="45065">
            <name>Jalan Kebon Jukut</name>
            <styleUrl>#45066</styleUrl>
            <LineString id="45064">
                <coordinates>107.6046031,-6.9144539,0.0 107.6046132,-6.9144687,0.0 107.6046449,-6.9144848,0.0 107.606675,-6.9147337,0.0 107.606787,-6.9147395,0.0 107.6068501,-6.9147298,0.0 107.6069016,-6.9147011,0.0 107.6069388,-6.9146561,0.0 107.606975,-6.9145811,0.0</coordinates>
            </LineString>
        </Placemark>
        <Placemark id="45069">
            <name>Jalan Profesor Christiaan Eijkman</name>
            <styleUrl>#45070</styleUrl>
            <LineString id="45068">
                <coordinates>107.5993726,-6.8961604,0.0 107.5993061,-6.8961476,0.0 107.5989287,-6.8960775,0.0 107.5988179,-6.8960559,0.0 107.5986468,-6.8960201,0.0 107.5985248,-6.8959937,0.0</coordinates>
            </LineString>
        </Placemark>
        <Placemark id="45073">
            <name>Jalan Lengkong Besar</name>
            <styleUrl>#45074</styleUrl>
            <LineString id="45072">
                <coordinates>107.613137,-6.9274559,0.0 107.6131272,-6.9275689,0.0 107.6130412,-6.9283504,0.0 107.6129922,-6.9290293,0.0 107.6129813,-6.9291796,0.0 107.6129684,-6.9293583,0.0 107.6129608,-6.9294632,0.0 107.6129597,-6.9294789,0.0</coordinates>
            </LineString>
        </Placemark>
        <Placemark id="45077">
            <name>Jalan Lengkong Besar</name>
            <styleUrl>#45078</styleUrl>
            <LineString id="45076">
                <coordinates>107.6118585,-6.9230332,0.0 107.6118166,-6.9234656,0.0 107.6117934,-6.9237378,0.0 107.611746,-6.9242192,0.0 107.6117142,-6.9246889,0.0 107.6117081,-6.9247371,0.0 107.6117028,-6.9248556,0.0 107.6117078,-6.9249159,0.0 107.6117224,-6.9249903,0.0 107.6117513,-6.925068,0.0 107.6117998,-6.9251562,0.0 107.6118687,-6.9252698,0.0 107.6119571,-6.9254045,0.0 107.6120282,-6.9254956,0.0 107.6120768,-6.9255532,0.0 107.6121706,-6.9256697,0.0 107.6126055,-6.9261738,0.0 107.6126274,-6.9261996,0.0 107.612647,-6.9262231,0.0</coordinates>
            </LineString>
        </Placemark>
        <Placemark id="45081">
            <name>Jalan Wastukancana</name>
            <styleUrl>#45082</styleUrl>
            <LineString id="45080">
                <coordinates>107.6076516,-6.9060628,0.0 107.607682,-6.9063009,0.0 107.6076926,-6.9064512,0.0 107.6076908,-6.9066043,0.0 107.6076724,-6.9068066,0.0 107.6076183,-6.907233,0.0 107.6075667,-6.9075563,0.0 107.6075461,-6.9076136,0.0 107.6074993,-6.9076457,0.0 107.6073865,-6.9076628,0.0</coordinates>
            </LineString>
        </Placemark>
        <Placemark id="45085">
            <name>Jalan Pajajaran</name>
            <styleUrl>#45086</styleUrl>
            <LineString id="45084">
                <coordinates>107.6053829,-6.907135,0.0 107.6051824,-6.9071438,0.0 107.6051387,-6.9071446,0.0 107.6045501,-6.9071569,0.0 107.6045,-6.907158,0.0</coordinates>
            </LineString>
        </Placemark>
        <Placemark id="45089">
            <name>Jalan Profesor Christiaan Eijkman</name>
            <styleUrl>#45090</styleUrl>
            <LineString id="45088">
                <coordinates>107.5985248,-6.8959937,0.0 107.5984723,-6.8959815,0.0</coordinates>
            </LineString>
        </Placemark>
        <Placemark id="45093">
            <name>Jalan Profesor Christiaan Eijkman</name>
            <styleUrl>#45094</styleUrl>
            <LineString id="45092">
                <coordinates>107.5984723,-6.8959815,0.0 107.5982533,-6.8959337,0.0</coordinates>
            </LineString>
        </Placemark>
        <Placemark id="45097">
            <name>Route Segment</name>
            <styleUrl>#45098</styleUrl>
            <LineString id="45096">
                <coordinates>107.6077246,-6.9060495,0.0 107.6076516,-6.9060628,0.0</coordinates>
            </LineString>
        </Placemark>
        <Placemark id="45101">
            <name>Jalan Aceh</name>
            <styleUrl>#45102</styleUrl>
            <LineString id="45100">
                <coordinates>107.6041426,-6.9127091,0.0 107.604692,-6.9127619,0.0</coordinates>
            </LineString>
        </Placemark>
        <Placemark id="45105">
            <name>Jalan Cicendo</name>
            <styleUrl>#45106</styleUrl>
            <LineString id="45104">
                <coordinates>107.6039561,-6.9125447,0.0 107.6039966,-6.9126049,0.0 107.6040499,-6.9126535,0.0 107.6041426,-6.9127091,0.0</coordinates>
            </LineString>
        </Placemark>
        <Placemark id="45109">
            <name>Jalan Tamblong</name>
            <styleUrl>#45110</styleUrl>
            <LineString id="45108">
                <coordinates>107.61235,-6.918793,0.0 107.6123364,-6.9189576,0.0 107.6122952,-6.9194549,0.0 107.6122402,-6.9198677,0.0 107.6122212,-6.9200158,0.0 107.6122183,-6.920038,0.0 107.6122118,-6.9200856,0.0 107.6122092,-6.9201091,0.0</coordinates>
            </LineString>
        </Placemark>
        <Placemark id="45113">
            <name>Jalan Sederhana</name>
            <styleUrl>#45114</styleUrl>
            <LineString id="45112">
                <coordinates>107.5975318,-6.8966067,0.0 107.5974852,-6.8966564,0.0 107.5974629,-6.8966804,0.0</coordinates>
            </LineString>
        </Placemark>
        <Placemark id="45117">
            <name>Jalan Pasir Kaliki</name>
            <styleUrl>#45118</styleUrl>
            <LineString id="45116">
                <coordinates>107.5974629,-6.8966804,0.0 107.5973832,-6.8967895,0.0 107.5973739,-6.8968101,0.0 107.5973632,-6.8968394,0.0 107.5973563,-6.8969183,0.0 107.5973743,-6.8978579,0.0 107.5973757,-6.8980113,0.0 107.5973829,-6.8982378,0.0 107.5973873,-6.8983517,0.0 107.5973974,-6.8986245,0.0 107.5974,-6.8987139,0.0</coordinates>
            </LineString>
        </Placemark>
        <Placemark id="45121">
            <name>Jalan Perintis Kemerdekaan</name>
            <styleUrl>#45122</styleUrl>
            <LineString id="45120">
                <coordinates>107.6089516,-6.913844,0.0 107.6089515,-6.9138647,0.0 107.6089575,-6.9138845,0.0 107.6089691,-6.9139001,0.0 107.6089853,-6.9139148,0.0 107.6090046,-6.9139225,0.0 107.6090254,-6.9139243,0.0</coordinates>
            </LineString>
        </Placemark>
        <Placemark id="45125">
            <name>Jalan Pajajaran</name>
            <styleUrl>#45126</styleUrl>
            <LineString id="45124">
                <coordinates>107.6045,-6.907158,0.0 107.6044996,-6.907174,0.0 107.6044946,-6.9071893,0.0 107.6044854,-6.9072025,0.0 107.6044728,-6.9072125,0.0 107.6044578,-6.9072185,0.0 107.6044417,-6.9072201,0.0</coordinates>
            </LineString>
        </Placemark>
        <Placemark id="45129">
            <name>Jalan Wastukancana</name>
            <styleUrl>#45130</styleUrl>
            <LineString id="45128">
                <coordinates>107.607556,-6.9054463,0.0 107.6075644,-6.9054686,0.0</coordinates>
            </LineString>
        </Placemark>
        <Placemark id="45133">
            <name>Jalan Lembong</name>
            <styleUrl>#45134</styleUrl>
            <LineString id="45132">
                <coordinates>107.610072,-6.9165602,0.0 107.6101313,-6.9165901,0.0 107.6106113,-6.9168303,0.0 107.6108249,-6.916942,0.0 107.6109278,-6.9169939,0.0</coordinates>
            </LineString>
        </Placemark>
        <Placemark id="45137">
            <name>Jalan Lembong</name>
            <styleUrl>#45138</styleUrl>
            <LineString id="45136">
                <coordinates>107.6089865,-6.9159412,0.0 107.6090126,-6.9160368,0.0 107.6090539,-6.9160779,0.0 107.6090668,-6.9160857,0.0 107.6091109,-6.9161236,0.0 107.6092086,-6.9161842,0.0</coordinates>
            </LineString>
        </Placemark>
        <Placemark id="45141">
            <name>Jalan Pasteur</name>
            <styleUrl>#45142</styleUrl>
            <LineString id="45140">
                <coordinates>107.6035214,-6.9002184,0.0 107.6038638,-6.9002105,0.0 107.6039813,-6.9001984,0.0 107.6040453,-6.9001871,0.0 107.6040633,-6.9001819,0.0 107.6041064,-6.9001685,0.0 107.6041803,-6.900144,0.0</coordinates>
            </LineString>
        </Placemark>
        <Placemark id="45145">
            <name>Jalan Pasteur</name>
            <styleUrl>#45146</styleUrl>
            <LineString id="45144">
                <coordinates>107.6031071,-6.9002112,0.0 107.6035214,-6.9002184,0.0</coordinates>
            </LineString>
        </Placemark>
        <Placemark id="45149">
            <name>Jalan Wastukancana</name>
            <styleUrl>#45150</styleUrl>
            <LineString id="45148">
                <coordinates>107.6047378,-6.9043028,0.0 107.604907,-6.904268,0.0</coordinates>
            </LineString>
        </Placemark>
        <Placemark id="45153">
            <name>Jalan Wastukancana</name>
            <styleUrl>#45154</styleUrl>
            <LineString id="45152">
                <coordinates>107.6045194,-6.9042857,0.0 107.6045928,-6.9042871,0.0 107.6046289,-6.9042878,0.0 107.6047378,-6.9043028,0.0</coordinates>
            </LineString>
        </Placemark>
        <Placemark id="45157">
            <name>Jalan Wastukancana</name>
            <styleUrl>#45158</styleUrl>
            <LineString id="45156">
                <coordinates>107.6074587,-6.9052269,0.0 107.607556,-6.9054463,0.0</coordinates>
            </LineString>
        </Placemark>
        <Placemark id="45161">
            <name>Jalan Pasir Kaliki</name>
            <styleUrl>#45162</styleUrl>
            <LineString id="45160">
                <coordinates>107.5974075,-6.898977,0.0 107.5974217,-6.8991501,0.0</coordinates>
            </LineString>
        </Placemark>
        <Placemark id="45165">
            <name>Jalan Pasteur</name>
            <styleUrl>#45166</styleUrl>
            <LineString id="45164">
                <coordinates>107.5979866,-6.900214,0.0 107.5985704,-6.900207,0.0</coordinates>
            </LineString>
        </Placemark>
        <Placemark id="45169">
            <name>Jalan Braga</name>
            <styleUrl>#45170</styleUrl>
            <LineString id="45168">
                <coordinates>107.6089988,-6.9152244,0.0 107.6089979,-6.9152703,0.0 107.6089865,-6.9159412,0.0</coordinates>
            </LineString>
        </Placemark>
        <Placemark id="45173">
            <name>Jalan Pasteur</name>
            <styleUrl>#45174</styleUrl>
            <LineString id="45172">
                <coordinates>107.6022753,-6.900203,0.0 107.6027269,-6.9002045,0.0 107.6027515,-6.9002046,0.0 107.6029796,-6.9002088,0.0 107.6031071,-6.9002112,0.0</coordinates>
            </LineString>
        </Placemark>
        <Placemark id="45177">
            <name>Jalan Pasteur</name>
            <styleUrl>#45178</styleUrl>
            <LineString id="45176">
                <coordinates>107.5988968,-6.9002096,0.0 107.5993001,-6.900202,0.0</coordinates>
            </LineString>
        </Placemark>
        <Placemark id="45181">
            <name>Jalan Lengkong Besar</name>
            <styleUrl>#45182</styleUrl>
            <LineString id="45180">
                <coordinates>107.6131443,-6.9269688,0.0 107.613137,-6.9274559,0.0</coordinates>
            </LineString>
        </Placemark>
        <Placemark id="45185">
            <name>Jalan Wastukancana</name>
            <styleUrl>#45186</styleUrl>
            <LineString id="45184">
                <coordinates>107.6076853,-6.905845,0.0 107.6077246,-6.9060495,0.0</coordinates>
            </LineString>
        </Placemark>
        <Placemark id="45189">
            <name>Jalan Wastukancana</name>
            <styleUrl>#45190</styleUrl>
            <LineString id="45188">
                <coordinates>107.6070138,-6.9046,0.0 107.6071411,-6.9047305,0.0</coordinates>
            </LineString>
        </Placemark>
        <Placemark id="45193">
            <name>Jalan Wastukancana</name>
            <styleUrl>#45194</styleUrl>
            <LineString id="45192">
                <coordinates>107.6071411,-6.9047305,0.0 107.607265,-6.9048943,0.0 107.607283,-6.9049195,0.0 107.6074067,-6.905129,0.0 107.6074587,-6.9052269,0.0</coordinates>
            </LineString>
        </Placemark>
        <Placemark id="45197">
            <name>Jalan Perintis Kemerdekaan</name>
            <styleUrl>#45198</styleUrl>
            <LineString id="45196">
                <coordinates>107.6073185,-6.9143005,0.0 107.6073396,-6.9142915,0.0 107.6073918,-6.9142744,0.0 107.607494,-6.9142383,0.0 107.6075641,-6.9142136,0.0</coordinates>
            </LineString>
        </Placemark>
        <Placemark id="45201">
            <name>Jalan Wastukancana</name>
            <styleUrl>#45202</styleUrl>
            <LineString id="45200">
                <coordinates>107.6069187,-6.9045127,0.0 107.6070138,-6.9046,0.0</coordinates>
            </LineString>
        </Placemark>
        <Placemark id="45205">
            <name>Jalan Wastukancana</name>
            <styleUrl>#45206</styleUrl>
            <LineString id="45204">
                <coordinates>107.6065841,-6.9042698,0.0 107.6067222,-6.904359,0.0 107.6068568,-6.9044553,0.0 107.6069187,-6.9045127,0.0</coordinates>
            </LineString>
        </Placemark>
        <Placemark id="45209">
            <name>Jalan Raden Adipati Aria Wiranatakusumah</name>
            <styleUrl>#45210</styleUrl>
            <LineString id="45208">
                <coordinates>107.6022349,-6.8878097,0.0 107.6022457,-6.8878647,0.0 107.6022526,-6.8879165,0.0 107.6022762,-6.8881022,0.0 107.602334,-6.8886184,0.0 107.6024306,-6.8897621,0.0 107.6025268,-6.8910284,0.0 107.6025599,-6.8914898,0.0</coordinates>
            </LineString>
        </Placemark>
        <Placemark id="45213">
            <name>Jalan Raden Adipati Aria Wiranatakusumah</name>
            <styleUrl>#45214</styleUrl>
            <LineString id="45212">
                <coordinates>107.6025599,-6.8914898,0.0 107.6025639,-6.8915152,0.0</coordinates>
            </LineString>
        </Placemark>
        <Placemark id="45217">
            <name>Jalan Raden Adipati Aria Wiranatakusumah</name>
            <styleUrl>#45218</styleUrl>
            <LineString id="45216">
                <coordinates>107.6021691,-6.887391,0.0 107.6021839,-6.8874848,0.0 107.6022278,-6.8877643,0.0 107.6022305,-6.8877818,0.0 107.6022349,-6.8878097,0.0</coordinates>
            </LineString>
        </Placemark>
        <Placemark id="45221">
            <name>Jalan Pasteur</name>
            <styleUrl>#45222</styleUrl>
            <LineString id="45220">
                <coordinates>107.6010655,-6.9002051,0.0 107.6021013,-6.9002033,0.0 107.6021562,-6.9002043,0.0 107.6022098,-6.9002031,0.0 107.6022753,-6.900203,0.0</coordinates>
            </LineString>
        </Placemark>
        <Placemark id="45225">
            <name>Jalan Otto Iskandardinata</name>
            <styleUrl>#45226</styleUrl>
            <LineString id="45224">
                <coordinates>107.604692,-6.9127619,0.0 107.6046613,-6.913176,0.0 107.6046522,-6.9133158,0.0 107.6046393,-6.9134886,0.0 107.6046306,-6.9136374,0.0 107.6046271,-6.9136785,0.0 107.604621,-6.9137727,0.0 107.6046177,-6.9138395,0.0 107.6046089,-6.913972,0.0 107.6045855,-6.9143581,0.0 107.6045878,-6.9143974,0.0 107.6045929,-6.9144391,0.0 107.6046031,-6.9144539,0.0</coordinates>
            </LineString>
        </Placemark>
        <Placemark id="45229">
            <name>Jalan Tamblong</name>
            <styleUrl>#45230</styleUrl>
            <LineString id="45228">
                <coordinates>107.6123918,-6.9182691,0.0 107.6123449,-6.9186433,0.0 107.6123419,-6.9187305,0.0 107.61235,-6.918793,0.0</coordinates>
            </LineString>
        </Placemark>
        <Placemark id="45233">
            <name>Jalan Dewi Sartika</name>
            <styleUrl>#45234</styleUrl>
            <LineString id="45232">
                <coordinates>107.6055016,-6.9311384,0.0 107.6055192,-6.9309578,0.0 107.6055259,-6.9309078,0.0</coordinates>
            </LineString>
        </Placemark>
        <Placemark id="45237">
            <name>Jalan Dewi Sartika</name>
            <styleUrl>#45238</styleUrl>
            <LineString id="45236">
                <coordinates>107.6055259,-6.9309078,0.0 107.605557,-6.9305299,0.0 107.6055585,-6.9305004,0.0 107.6055781,-6.930239,0.0</coordinates>
            </LineString>
        </Placemark>
        <Placemark id="45241">
            <name>Jalan Dewi Sartika</name>
            <styleUrl>#45242</styleUrl>
            <LineString id="45240">
                <coordinates>107.6055781,-6.930239,0.0 107.6055888,-6.9300028,0.0</coordinates>
            </LineString>
        </Placemark>
        <Placemark id="45245">
            <name>Jalan Dewi Sartika</name>
            <styleUrl>#45246</styleUrl>
            <LineString id="45244">
                <coordinates>107.6055888,-6.9300028,0.0 107.6055993,-6.9298025,0.0</coordinates>
            </LineString>
        </Placemark>
        <Placemark id="45249">
            <name>Jalan Dewi Sartika</name>
            <styleUrl>#45250</styleUrl>
            <LineString id="45248">
                <coordinates>107.6055993,-6.9298025,0.0 107.6056708,-6.9290327,0.0</coordinates>
            </LineString>
        </Placemark>
        <Placemark id="45253">
            <name>Jalan Dewi Sartika</name>
            <styleUrl>#45254</styleUrl>
            <LineString id="45252">
                <coordinates>107.6056708,-6.9290327,0.0 107.6057162,-6.9286824,0.0</coordinates>
            </LineString>
        </Placemark>
        <Placemark id="45257">
            <name>Jalan Dewi Sartika</name>
            <styleUrl>#45258</styleUrl>
            <LineString id="45256">
                <coordinates>107.6057162,-6.9286824,0.0 107.6057961,-6.9281235,0.0</coordinates>
            </LineString>
        </Placemark>
        <Placemark id="45261">
            <name>Jalan Dewi Sartika</name>
            <styleUrl>#45262</styleUrl>
            <LineString id="45260">
                <coordinates>107.6057961,-6.9281235,0.0 107.6058055,-6.928016,0.0 107.6058217,-6.9278434,0.0</coordinates>
            </LineString>
        </Placemark>
        <Placemark id="45265">
            <name>Jalan Dewi Sartika</name>
            <styleUrl>#45266</styleUrl>
            <LineString id="45264">
                <coordinates>107.6058217,-6.9278434,0.0 107.6058322,-6.9276428,0.0</coordinates>
            </LineString>
        </Placemark>
        <Placemark id="45269">
            <name>Jalan Lembong</name>
            <styleUrl>#45270</styleUrl>
            <LineString id="45268">
                <coordinates>107.6113378,-6.917202,0.0 107.6114765,-6.9172727,0.0</coordinates>
            </LineString>
        </Placemark>
        <Placemark id="45273">
            <name>Jalan Lembong</name>
            <styleUrl>#45274</styleUrl>
            <LineString id="45272">
                <coordinates>107.6114765,-6.9172727,0.0 107.6115788,-6.9173248,0.0</coordinates>
            </LineString>
        </Placemark>
        <Placemark id="45277">
            <name>Jalan Lembong</name>
            <styleUrl>#45278</styleUrl>
            <LineString id="45276">
                <coordinates>107.6115788,-6.9173248,0.0 107.6118099,-6.9174381,0.0 107.611899,-6.9174826,0.0</coordinates>
            </LineString>
        </Placemark>
    </Document>
</kml>
