<?xml version="1.0" encoding="UTF-8"?>
<kml xmlns="http://www.opengis.net/kml/2.2" xmlns:gx="http://www.google.com/kml/ext/2.2">
    <Document id="45516">
        <Style id="45522">
            <IconStyle id="45523">
                <colorMode>normal</colorMode>
                <scale>1</scale>
                <heading>0</heading>
                <Icon id="45524">
                    <href>http://maps.google.com/mapfiles/kml/pushpin/ylw-pushpin.png</href>
                </Icon>
            </IconStyle>
        </Style>
        <Style id="45527">
            <IconStyle id="45528">
                <colorMode>normal</colorMode>
                <scale>1</scale>
                <heading>0</heading>
                <Icon id="45529">
                    <href>http://maps.google.com/mapfiles/kml/pushpin/ylw-pushpin.png</href>
                </Icon>
            </IconStyle>
        </Style>
        <Style id="45532">
            <IconStyle id="45533">
                <colorMode>normal</colorMode>
                <scale>1</scale>
                <heading>0</heading>
                <Icon id="45534">
                    <href>http://maps.google.com/mapfiles/kml/pushpin/ylw-pushpin.png</href>
                </Icon>
            </IconStyle>
        </Style>
        <Style id="45537">
            <LineStyle id="45538">
                <color>ff356618</color>
                <colorMode>normal</colorMode>
                <width>4</width>
            </LineStyle>
        </Style>
        <Style id="45541">
            <LineStyle id="45542">
                <color>ff356618</color>
                <colorMode>normal</colorMode>
                <width>4</width>
            </LineStyle>
        </Style>
        <Style id="45545">
            <LineStyle id="45546">
                <color>ff356618</color>
                <colorMode>normal</colorMode>
                <width>4</width>
            </LineStyle>
        </Style>
        <Style id="45549">
            <LineStyle id="45550">
                <color>ff356618</color>
                <colorMode>normal</colorMode>
                <width>4</width>
            </LineStyle>
        </Style>
        <Style id="45553">
            <LineStyle id="45554">
                <color>ff356618</color>
                <colorMode>normal</colorMode>
                <width>4</width>
            </LineStyle>
        </Style>
        <Style id="45557">
            <LineStyle id="45558">
                <color>ff356618</color>
                <colorMode>normal</colorMode>
                <width>4</width>
            </LineStyle>
        </Style>
        <Style id="45561">
            <LineStyle id="45562">
                <color>ff356618</color>
                <colorMode>normal</colorMode>
                <width>4</width>
            </LineStyle>
        </Style>
        <Style id="45565">
            <LineStyle id="45566">
                <color>ff356618</color>
                <colorMode>normal</colorMode>
                <width>4</width>
            </LineStyle>
        </Style>
        <Style id="45569">
            <LineStyle id="45570">
                <color>ff356618</color>
                <colorMode>normal</colorMode>
                <width>4</width>
            </LineStyle>
        </Style>
        <Style id="45573">
            <LineStyle id="45574">
                <color>ff356618</color>
                <colorMode>normal</colorMode>
                <width>4</width>
            </LineStyle>
        </Style>
        <Style id="45577">
            <LineStyle id="45578">
                <color>ff356618</color>
                <colorMode>normal</colorMode>
                <width>4</width>
            </LineStyle>
        </Style>
        <Style id="45581">
            <LineStyle id="45582">
                <color>ff356618</color>
                <colorMode>normal</colorMode>
                <width>4</width>
            </LineStyle>
        </Style>
        <Style id="45585">
            <LineStyle id="45586">
                <color>ff356618</color>
                <colorMode>normal</colorMode>
                <width>4</width>
            </LineStyle>
        </Style>
        <Style id="45589">
            <LineStyle id="45590">
                <color>ff356618</color>
                <colorMode>normal</colorMode>
                <width>4</width>
            </LineStyle>
        </Style>
        <Style id="45593">
            <LineStyle id="45594">
                <color>ff356618</color>
                <colorMode>normal</colorMode>
                <width>4</width>
            </LineStyle>
        </Style>
        <Style id="45597">
            <LineStyle id="45598">
                <color>ff356618</color>
                <colorMode>normal</colorMode>
                <width>4</width>
            </LineStyle>
        </Style>
        <Style id="45601">
            <LineStyle id="45602">
                <color>ff356618</color>
                <colorMode>normal</colorMode>
                <width>4</width>
            </LineStyle>
        </Style>
        <Style id="45605">
            <LineStyle id="45606">
                <color>ff356618</color>
                <colorMode>normal</colorMode>
                <width>4</width>
            </LineStyle>
        </Style>
        <Style id="45609">
            <LineStyle id="45610">
                <color>ff356618</color>
                <colorMode>normal</colorMode>
                <width>4</width>
            </LineStyle>
        </Style>
        <Style id="45613">
            <LineStyle id="45614">
                <color>ff356618</color>
                <colorMode>normal</colorMode>
                <width>4</width>
            </LineStyle>
        </Style>
        <Style id="45617">
            <LineStyle id="45618">
                <color>ff356618</color>
                <colorMode>normal</colorMode>
                <width>4</width>
            </LineStyle>
        </Style>
        <Style id="45621">
            <LineStyle id="45622">
                <color>ff356618</color>
                <colorMode>normal</colorMode>
                <width>4</width>
            </LineStyle>
        </Style>
        <Style id="45625">
            <LineStyle id="45626">
                <color>ff356618</color>
                <colorMode>normal</colorMode>
                <width>4</width>
            </LineStyle>
        </Style>
        <Style id="45629">
            <LineStyle id="45630">
                <color>ff356618</color>
                <colorMode>normal</colorMode>
                <width>4</width>
            </LineStyle>
        </Style>
        <Style id="45633">
            <LineStyle id="45634">
                <color>ff356618</color>
                <colorMode>normal</colorMode>
                <width>4</width>
            </LineStyle>
        </Style>
        <Style id="45637">
            <LineStyle id="45638">
                <color>ff356618</color>
                <colorMode>normal</colorMode>
                <width>4</width>
            </LineStyle>
        </Style>
        <Style id="45641">
            <LineStyle id="45642">
                <color>ff356618</color>
                <colorMode>normal</colorMode>
                <width>4</width>
            </LineStyle>
        </Style>
        <Style id="45645">
            <LineStyle id="45646">
                <color>ff356618</color>
                <colorMode>normal</colorMode>
                <width>4</width>
            </LineStyle>
        </Style>
        <Style id="45649">
            <LineStyle id="45650">
                <color>ff356618</color>
                <colorMode>normal</colorMode>
                <width>4</width>
            </LineStyle>
        </Style>
        <Style id="45653">
            <LineStyle id="45654">
                <color>ff356618</color>
                <colorMode>normal</colorMode>
                <width>4</width>
            </LineStyle>
        </Style>
        <Style id="45657">
            <LineStyle id="45658">
                <color>ff356618</color>
                <colorMode>normal</colorMode>
                <width>4</width>
            </LineStyle>
        </Style>
        <Style id="45661">
            <LineStyle id="45662">
                <color>ff356618</color>
                <colorMode>normal</colorMode>
                <width>4</width>
            </LineStyle>
        </Style>
        <Style id="45665">
            <LineStyle id="45666">
                <color>ff356618</color>
                <colorMode>normal</colorMode>
                <width>4</width>
            </LineStyle>
        </Style>
        <Style id="45669">
            <LineStyle id="45670">
                <color>ff356618</color>
                <colorMode>normal</colorMode>
                <width>4</width>
            </LineStyle>
        </Style>
        <Style id="45673">
            <LineStyle id="45674">
                <color>ff356618</color>
                <colorMode>normal</colorMode>
                <width>4</width>
            </LineStyle>
        </Style>
        <Style id="45677">
            <LineStyle id="45678">
                <color>ff356618</color>
                <colorMode>normal</colorMode>
                <width>4</width>
            </LineStyle>
        </Style>
        <Style id="45681">
            <LineStyle id="45682">
                <color>ff356618</color>
                <colorMode>normal</colorMode>
                <width>4</width>
            </LineStyle>
        </Style>
        <Style id="45685">
            <LineStyle id="45686">
                <color>ff356618</color>
                <colorMode>normal</colorMode>
                <width>4</width>
            </LineStyle>
        </Style>
        <Style id="45689">
            <LineStyle id="45690">
                <color>ff356618</color>
                <colorMode>normal</colorMode>
                <width>4</width>
            </LineStyle>
        </Style>
        <Style id="45693">
            <LineStyle id="45694">
                <color>ff356618</color>
                <colorMode>normal</colorMode>
                <width>4</width>
            </LineStyle>
        </Style>
        <Style id="45697">
            <LineStyle id="45698">
                <color>ff356618</color>
                <colorMode>normal</colorMode>
                <width>4</width>
            </LineStyle>
        </Style>
        <Style id="45701">
            <LineStyle id="45702">
                <color>ff356618</color>
                <colorMode>normal</colorMode>
                <width>4</width>
            </LineStyle>
        </Style>
        <Style id="45705">
            <LineStyle id="45706">
                <color>ff356618</color>
                <colorMode>normal</colorMode>
                <width>4</width>
            </LineStyle>
        </Style>
        <Style id="45709">
            <LineStyle id="45710">
                <color>ff356618</color>
                <colorMode>normal</colorMode>
                <width>4</width>
            </LineStyle>
        </Style>
        <Style id="45713">
            <LineStyle id="45714">
                <color>ff356618</color>
                <colorMode>normal</colorMode>
                <width>4</width>
            </LineStyle>
        </Style>
        <Style id="45717">
            <LineStyle id="45718">
                <color>ff356618</color>
                <colorMode>normal</colorMode>
                <width>4</width>
            </LineStyle>
        </Style>
        <Style id="45721">
            <LineStyle id="45722">
                <color>ff356618</color>
                <colorMode>normal</colorMode>
                <width>4</width>
            </LineStyle>
        </Style>
        <Style id="45725">
            <LineStyle id="45726">
                <color>ff356618</color>
                <colorMode>normal</colorMode>
                <width>4</width>
            </LineStyle>
        </Style>
        <Style id="45729">
            <LineStyle id="45730">
                <color>ff356618</color>
                <colorMode>normal</colorMode>
                <width>4</width>
            </LineStyle>
        </Style>
        <Style id="45733">
            <LineStyle id="45734">
                <color>ff356618</color>
                <colorMode>normal</colorMode>
                <width>4</width>
            </LineStyle>
        </Style>
        <Style id="45737">
            <LineStyle id="45738">
                <color>ff356618</color>
                <colorMode>normal</colorMode>
                <width>4</width>
            </LineStyle>
        </Style>
        <Style id="45741">
            <LineStyle id="45742">
                <color>ff356618</color>
                <colorMode>normal</colorMode>
                <width>4</width>
            </LineStyle>
        </Style>
        <Style id="45745">
            <LineStyle id="45746">
                <color>ff356618</color>
                <colorMode>normal</colorMode>
                <width>4</width>
            </LineStyle>
        </Style>
        <Style id="45749">
            <LineStyle id="45750">
                <color>ff356618</color>
                <colorMode>normal</colorMode>
                <width>4</width>
            </LineStyle>
        </Style>
        <Style id="45753">
            <LineStyle id="45754">
                <color>ff356618</color>
                <colorMode>normal</colorMode>
                <width>4</width>
            </LineStyle>
        </Style>
        <ExtendedData>
            <Data name="route-name">
                <value>23: Cijerah → Sederhana</value>
            </Data>
            <Data name="source">
                <value>Transport for Bandung</value>
            </Data>
        </ExtendedData>
        <Placemark id="45521">
            <name>Puskesmas Melong Asih</name>
            <styleUrl>#45522</styleUrl>
            <Point id="45520">
                <coordinates>107.5628736,-6.9239311,0.0</coordinates>
            </Point>
        </Placemark>
        <Placemark id="45526">
            <name>SDN 061 Cijerah</name>
            <styleUrl>#45527</styleUrl>
            <Point id="45525">
                <coordinates>107.5690228,-6.9218246,0.0</coordinates>
            </Point>
        </Placemark>
        <Placemark id="45531">
            <name>Pasar Sederhana</name>
            <styleUrl>#45532</styleUrl>
            <Point id="45530">
                <coordinates>107.5996153,-6.8908128,0.0</coordinates>
            </Point>
        </Placemark>
        <Placemark id="45536">
            <name>Jalan Dursasana</name>
            <styleUrl>#45537</styleUrl>
            <LineString id="45535">
                <coordinates>107.5963629,-6.9038698,0.0 107.5967047,-6.9039377,0.0 107.5967891,-6.9039548,0.0 107.596855,-6.9039658,0.0 107.5972103,-6.9039896,0.0 107.5975343,-6.9039924,0.0</coordinates>
            </LineString>
        </Placemark>
        <Placemark id="45540">
            <name>Jalan Rajawali Timur</name>
            <styleUrl>#45541</styleUrl>
            <LineString id="45539">
                <coordinates>107.5761151,-6.9132715,0.0 107.5762053,-6.9133088,0.0 107.5762519,-6.9133265,0.0 107.5765322,-6.9134206,0.0 107.5766744,-6.9134545,0.0 107.5768473,-6.9134956,0.0 107.5771173,-6.9135481,0.0 107.5772702,-6.9135797,0.0 107.5775341,-6.9136343,0.0 107.5776073,-6.9136496,0.0</coordinates>
            </LineString>
        </Placemark>
        <Placemark id="45544">
            <name>Jalan Pasir Kaliki</name>
            <styleUrl>#45545</styleUrl>
            <LineString id="45543">
                <coordinates>107.597321,-6.898017,0.0 107.5973143,-6.897839,0.0 107.5973006,-6.8973077,0.0 107.5972936,-6.8969114,0.0 107.5972895,-6.8968371,0.0</coordinates>
            </LineString>
        </Placemark>
        <Placemark id="45548">
            <name>Jalan Sederhana</name>
            <styleUrl>#45549</styleUrl>
            <LineString id="45547">
                <coordinates>107.5982533,-6.8959337,0.0 107.5984316,-6.8951102,0.0 107.5985705,-6.894601,0.0 107.5987172,-6.8940629,0.0</coordinates>
            </LineString>
        </Placemark>
        <Placemark id="45552">
            <name>Jalan Sederhana</name>
            <styleUrl>#45553</styleUrl>
            <LineString id="45551">
                <coordinates>107.5982533,-6.8959337,0.0 107.598061,-6.8961075,0.0 107.597854,-6.8962946,0.0 107.5975318,-6.8966067,0.0</coordinates>
            </LineString>
        </Placemark>
        <Placemark id="45556">
            <name>Jalan Astina</name>
            <styleUrl>#45557</styleUrl>
            <LineString id="45555">
                <coordinates>107.5962889,-6.9064673,0.0 107.5962554,-6.9062596,0.0 107.5962326,-6.9061052,0.0 107.5962205,-6.9059827,0.0 107.5962111,-6.9058775,0.0 107.5961991,-6.9057391,0.0 107.5961828,-6.9055899,0.0 107.596176,-6.9054878,0.0 107.596171,-6.9053889,0.0 107.596169,-6.9052811,0.0 107.5961694,-6.9051897,0.0 107.5961761,-6.9050714,0.0 107.5961881,-6.9049442,0.0 107.5962164,-6.9046946,0.0 107.5962473,-6.9044716,0.0 107.5962701,-6.9043338,0.0 107.596291,-6.9042031,0.0 107.5963629,-6.9038698,0.0</coordinates>
            </LineString>
        </Placemark>
        <Placemark id="45560">
            <name>Jalan HOS. Cokroaminoto</name>
            <styleUrl>#45561</styleUrl>
            <LineString id="45559">
                <coordinates>107.5974073,-6.9013528,0.0 107.5973841,-6.9009013,0.0 107.597381,-6.9007859,0.0 107.5973772,-6.900662,0.0</coordinates>
            </LineString>
        </Placemark>
        <Placemark id="45564">
            <name>Jalan Pasir Kaliki</name>
            <styleUrl>#45565</styleUrl>
            <LineString id="45563">
                <coordinates>107.5973503,-6.8989275,0.0 107.5973395,-6.8985629,0.0 107.5973325,-6.8983576,0.0 107.5973274,-6.898195,0.0 107.5973223,-6.8980478,0.0 107.597321,-6.898017,0.0</coordinates>
            </LineString>
        </Placemark>
        <Placemark id="45568">
            <name>Jalan Abdul Rahman Saleh</name>
            <styleUrl>#45569</styleUrl>
            <LineString id="45567">
                <coordinates>107.5859779,-6.9071842,0.0 107.5857665,-6.9072225,0.0 107.5856786,-6.9072381,0.0 107.5855372,-6.9072632,0.0 107.5854036,-6.907287,0.0 107.5852567,-6.9073131,0.0 107.5852174,-6.9073192,0.0 107.5850679,-6.9073423,0.0 107.5845137,-6.9074213,0.0 107.584189,-6.9074748,0.0 107.583989,-6.9075077,0.0 107.5838295,-6.9075339,0.0 107.5835821,-6.9075711,0.0 107.5834514,-6.9075864,0.0 107.5831743,-6.9076187,0.0 107.5830144,-6.907635,0.0 107.5826641,-6.9076608,0.0 107.5824393,-6.9076623,0.0 107.5822772,-6.9076634,0.0 107.5817406,-6.9076453,0.0 107.5811738,-6.9075993,0.0</coordinates>
            </LineString>
        </Placemark>
        <Placemark id="45572">
            <name>Jalan Garuda</name>
            <styleUrl>#45573</styleUrl>
            <LineString id="45571">
                <coordinates>107.5783486,-6.9103499,0.0 107.5782065,-6.910981,0.0 107.5781807,-6.9110965,0.0 107.5780214,-6.9117553,0.0</coordinates>
            </LineString>
        </Placemark>
        <Placemark id="45576">
            <name>Route Segment</name>
            <styleUrl>#45577</styleUrl>
            <LineString id="45575">
                <coordinates>107.5648451,-6.927117,0.0 107.5656266,-6.927185,0.0</coordinates>
            </LineString>
        </Placemark>
        <Placemark id="45580">
            <name>Jalan Raya Cijerah</name>
            <styleUrl>#45581</styleUrl>
            <LineString id="45579">
                <coordinates>107.5657238,-6.9266742,0.0 107.5657635,-6.9265863,0.0 107.5658966,-6.9262781,0.0 107.5661673,-6.9256374,0.0 107.5662228,-6.9255204,0.0 107.566279,-6.9253931,0.0 107.5663253,-6.9252957,0.0 107.5664356,-6.9251666,0.0 107.5664908,-6.9251326,0.0 107.5666555,-6.9250697,0.0 107.5668126,-6.9250097,0.0 107.5668697,-6.9249717,0.0 107.5668915,-6.9249552,0.0 107.5670537,-6.9247773,0.0 107.5671209,-6.9247041,0.0 107.5672138,-6.9246128,0.0 107.5673425,-6.9244992,0.0 107.5674644,-6.9244297,0.0 107.5675149,-6.9243986,0.0 107.5676,-6.9243532,0.0 107.5676737,-6.9242925,0.0 107.5677268,-6.9242152,0.0 107.5677779,-6.9241161,0.0 107.5678165,-6.9240414,0.0 107.5679081,-6.9238625,0.0 107.5680252,-6.9236278,0.0 107.56817,-6.923174,0.0 107.5681801,-6.9231401,0.0 107.5682257,-6.9229908,0.0 107.5683046,-6.9227279,0.0 107.5683678,-6.9225142,0.0 107.5683839,-6.9224599,0.0 107.5684655,-6.9221406,0.0 107.5685334,-6.9219723,0.0 107.5685963,-6.9218727,0.0 107.5686467,-6.9218258,0.0 107.5687098,-6.9217878,0.0 107.5687803,-6.9217774,0.0 107.5688526,-6.9217872,0.0 107.5690228,-6.9218246,0.0 107.5691156,-6.921845,0.0 107.5692341,-6.921871,0.0 107.5692777,-6.9218704,0.0 107.5693171,-6.9218595,0.0 107.5693481,-6.9218405,0.0 107.5693702,-6.9218079,0.0 107.5694988,-6.9214054,0.0 107.5695105,-6.9213687,0.0 107.569557,-6.9212084,0.0 107.5696276,-6.9209583,0.0 107.5697486,-6.9205542,0.0 107.5698295,-6.9203328,0.0</coordinates>
            </LineString>
        </Placemark>
        <Placemark id="45584">
            <name>Jalan Raya Cijerah</name>
            <styleUrl>#45585</styleUrl>
            <LineString id="45583">
                <coordinates>107.5700698,-6.9196362,0.0 107.5701063,-6.9195043,0.0 107.5701539,-6.9193649,0.0 107.5702336,-6.9191564,0.0 107.5703003,-6.91901,0.0 107.570468,-6.9185588,0.0 107.570555,-6.9183325,0.0 107.5706007,-6.918216,0.0 107.5706066,-6.9181993,0.0 107.5706466,-6.9180981,0.0 107.57071,-6.9179149,0.0 107.5707288,-6.9178384,0.0 107.5707434,-6.917782,0.0 107.5707595,-6.9176768,0.0 107.5707809,-6.9175368,0.0 107.5708036,-6.9174068,0.0 107.5708564,-6.9170528,0.0 107.5708964,-6.916782,0.0 107.570926,-6.9166096,0.0 107.5709729,-6.9163041,0.0 107.5710128,-6.9161379,0.0 107.571053,-6.9159991,0.0 107.5711184,-6.9157735,0.0 107.5711273,-6.9157427,0.0 107.5711502,-6.9156749,0.0 107.571235,-6.915424,0.0 107.5712548,-6.9153576,0.0 107.5713267,-6.9151148,0.0 107.571449,-6.9147677,0.0 107.5714752,-6.9147131,0.0 107.5715151,-6.9146659,0.0</coordinates>
            </LineString>
        </Placemark>
        <Placemark id="45588">
            <name>Jalan Rajawali Barat</name>
            <styleUrl>#45589</styleUrl>
            <LineString id="45587">
                <coordinates>107.5693569,-6.9106219,0.0 107.5694743,-6.9106678,0.0 107.569668,-6.9107436,0.0 107.5697302,-6.910768,0.0 107.5699681,-6.910861,0.0 107.5701462,-6.9109306,0.0 107.5702926,-6.9109879,0.0 107.5704868,-6.9110639,0.0 107.5705813,-6.9111009,0.0 107.570662,-6.9111324,0.0 107.5710798,-6.9112958,0.0 107.5715519,-6.9114805,0.0 107.5717818,-6.9115704,0.0 107.5718363,-6.9115918,0.0 107.5720087,-6.9116592,0.0 107.5723261,-6.9117833,0.0 107.5725782,-6.9118819,0.0 107.5729282,-6.9120185,0.0</coordinates>
            </LineString>
        </Placemark>
        <Placemark id="45592">
            <name>Jalan Pasir Kaliki</name>
            <styleUrl>#45593</styleUrl>
            <LineString id="45591">
                <coordinates>107.5973566,-6.9002078,0.0 107.5973521,-6.9001109,0.0 107.5973452,-6.8999212,0.0</coordinates>
            </LineString>
        </Placemark>
        <Placemark id="45596">
            <name>Jalan Sederhana</name>
            <styleUrl>#45597</styleUrl>
            <LineString id="45595">
                <coordinates>107.5996153,-6.8908128,0.0 107.5995145,-6.8910995,0.0 107.5992715,-6.8920002,0.0 107.599254,-6.8920726,0.0 107.5991519,-6.8925236,0.0 107.5990518,-6.8929922,0.0 107.5990034,-6.8931579,0.0 107.5988798,-6.8935471,0.0 107.5987366,-6.8940012,0.0 107.5987172,-6.8940629,0.0</coordinates>
            </LineString>
        </Placemark>
        <Placemark id="45600">
            <name>Jalan HOS. Cokroaminoto</name>
            <styleUrl>#45601</styleUrl>
            <LineString id="45599">
                <coordinates>107.5975116,-6.9035067,0.0 107.5974908,-6.9034505,0.0 107.5974789,-6.9033926,0.0 107.5974727,-6.9033217,0.0 107.5974521,-6.9026867,0.0 107.5974311,-6.9019145,0.0 107.5974213,-6.9017168,0.0 107.597414,-6.9015643,0.0 107.5974073,-6.9013528,0.0</coordinates>
            </LineString>
        </Placemark>
        <Placemark id="45604">
            <name>Jalan Jendral Sudirman</name>
            <styleUrl>#45605</styleUrl>
            <LineString id="45603">
                <coordinates>107.5708773,-6.9135594,0.0 107.5707008,-6.9132508,0.0 107.5705747,-6.9130517,0.0 107.5703429,-6.9126894,0.0</coordinates>
            </LineString>
        </Placemark>
        <Placemark id="45608">
            <name>Jalan Raya Cijerah</name>
            <styleUrl>#45609</styleUrl>
            <LineString id="45607">
                <coordinates>107.5656266,-6.927185,0.0 107.5656212,-6.9271265,0.0 107.5656199,-6.927006,0.0 107.5656359,-6.9268882,0.0 107.5656722,-6.9267883,0.0 107.5657238,-6.9266742,0.0</coordinates>
            </LineString>
        </Placemark>
        <Placemark id="45612">
            <name>Jalan Melong Raya</name>
            <styleUrl>#45613</styleUrl>
            <LineString id="45611">
                <coordinates>107.5648451,-6.927117,0.0 107.5647772,-6.9270124,0.0 107.5646768,-6.9268575,0.0 107.5645394,-6.9266457,0.0 107.5640253,-6.9258624,0.0 107.5639737,-6.9257843,0.0 107.5639271,-6.9257207,0.0</coordinates>
            </LineString>
        </Placemark>
        <Placemark id="45616">
            <name>Jalan Rajawali Barat</name>
            <styleUrl>#45617</styleUrl>
            <LineString id="45615">
                <coordinates>107.575721,-6.9131092,0.0 107.5758021,-6.913142,0.0</coordinates>
            </LineString>
        </Placemark>
        <Placemark id="45620">
            <name>Jalan Pajajaran</name>
            <styleUrl>#45621</styleUrl>
            <LineString id="45619">
                <coordinates>107.588219,-6.9067739,0.0 107.5883657,-6.9067835,0.0 107.5886607,-6.9068062,0.0 107.5888263,-6.9068235,0.0 107.5889202,-6.9068354,0.0 107.5889933,-6.9068461,0.0 107.5891215,-6.9068588,0.0 107.5898536,-6.90694,0.0 107.5902634,-6.9069819,0.0 107.5905238,-6.9070045,0.0 107.5906468,-6.9070144,0.0</coordinates>
            </LineString>
        </Placemark>
        <Placemark id="45624">
            <name>Jalan Melong Raya</name>
            <styleUrl>#45625</styleUrl>
            <LineString id="45623">
                <coordinates>107.5639271,-6.9257207,0.0 107.5637956,-6.9255173,0.0</coordinates>
            </LineString>
        </Placemark>
        <Placemark id="45628">
            <name>Jalan Melong Raya</name>
            <styleUrl>#45629</styleUrl>
            <LineString id="45627">
                <coordinates>107.5637956,-6.9255173,0.0 107.5634078,-6.9249216,0.0 107.5631903,-6.9245907,0.0 107.5630583,-6.9243887,0.0 107.5628572,-6.9240828,0.0 107.5628736,-6.9239311,0.0</coordinates>
            </LineString>
        </Placemark>
        <Placemark id="45632">
            <name>Jalan Abdul Rahman Saleh</name>
            <styleUrl>#45633</styleUrl>
            <LineString id="45631">
                <coordinates>107.5868079,-6.9070295,0.0 107.5868637,-6.9069992,0.0 107.5869339,-6.9069731,0.0 107.587079,-6.9069435,0.0 107.5873398,-6.9068931,0.0 107.5874941,-6.9068611,0.0 107.5875298,-6.9068523,0.0 107.5876047,-6.9068318,0.0 107.5876614,-6.906814,0.0</coordinates>
            </LineString>
        </Placemark>
        <Placemark id="45636">
            <name>Jalan Pajajaran</name>
            <styleUrl>#45637</styleUrl>
            <LineString id="45635">
                <coordinates>107.5876614,-6.906814,0.0 107.5877282,-6.9067939,0.0 107.5877685,-6.9067842,0.0</coordinates>
            </LineString>
        </Placemark>
        <Placemark id="45640">
            <name>Jalan Pajajaran</name>
            <styleUrl>#45641</styleUrl>
            <LineString id="45639">
                <coordinates>107.5959262,-6.9065893,0.0 107.5952568,-6.9066609,0.0 107.595037,-6.9066943,0.0 107.5945793,-6.9067595,0.0 107.5945435,-6.9067649,0.0 107.5942472,-6.906822,0.0 107.5941987,-6.9068309,0.0 107.594084,-6.9068527,0.0 107.5937537,-6.9069123,0.0 107.5936226,-6.9069359,0.0 107.5930436,-6.9070358,0.0</coordinates>
            </LineString>
        </Placemark>
        <Placemark id="45644">
            <name>Jalan Pajajaran</name>
            <styleUrl>#45645</styleUrl>
            <LineString id="45643">
                <coordinates>107.5920701,-6.9071489,0.0 107.5918373,-6.9071242,0.0 107.5916612,-6.9071113,0.0 107.5915994,-6.9071068,0.0 107.5913085,-6.9070897,0.0 107.5911224,-6.9070825,0.0</coordinates>
            </LineString>
        </Placemark>
        <Placemark id="45648">
            <name>Jalan Jendral Sudirman</name>
            <styleUrl>#45649</styleUrl>
            <LineString id="45647">
                <coordinates>107.5715151,-6.9146659,0.0 107.5714243,-6.9145091,0.0 107.571384,-6.9144417,0.0 107.5710851,-6.913941,0.0 107.5709375,-6.9136862,0.0 107.5708773,-6.9135594,0.0</coordinates>
            </LineString>
        </Placemark>
        <Placemark id="45652">
            <name>Jalan HOS. Cokroaminoto</name>
            <styleUrl>#45653</styleUrl>
            <LineString id="45651">
                <coordinates>107.5973772,-6.900662,0.0 107.5973654,-6.9003949,0.0</coordinates>
            </LineString>
        </Placemark>
        <Placemark id="45656">
            <name>Jalan Pajajaran</name>
            <styleUrl>#45657</styleUrl>
            <LineString id="45655">
                <coordinates>107.5959262,-6.9065893,0.0 107.5960029,-6.9065331,0.0 107.5960368,-6.9065206,0.0 107.596056,-6.9065146,0.0 107.596066,-6.9065114,0.0 107.5962889,-6.9064673,0.0</coordinates>
            </LineString>
        </Placemark>
        <Placemark id="45660">
            <name>Jalan Jendral Sudirman</name>
            <styleUrl>#45661</styleUrl>
            <LineString id="45659">
                <coordinates>107.5703429,-6.9126894,0.0 107.5701276,-6.9123274,0.0 107.5698951,-6.9119365,0.0</coordinates>
            </LineString>
        </Placemark>
        <Placemark id="45664">
            <name>Jalan Sederhana</name>
            <styleUrl>#45665</styleUrl>
            <LineString id="45663">
                <coordinates>107.5975318,-6.8966067,0.0 107.5974852,-6.8966564,0.0 107.5974629,-6.8966804,0.0</coordinates>
            </LineString>
        </Placemark>
        <Placemark id="45668">
            <name>Jalan Pajajaran</name>
            <styleUrl>#45669</styleUrl>
            <LineString id="45667">
                <coordinates>107.5906651,-6.9070158,0.0 107.5909034,-6.907037,0.0 107.5909941,-6.907047,0.0 107.5911224,-6.9070825,0.0</coordinates>
            </LineString>
        </Placemark>
        <Placemark id="45672">
            <name>Jalan Pajajaran</name>
            <styleUrl>#45673</styleUrl>
            <LineString id="45671">
                <coordinates>107.5906468,-6.9070144,0.0 107.5906651,-6.9070158,0.0</coordinates>
            </LineString>
        </Placemark>
        <Placemark id="45676">
            <name>Route Segment</name>
            <styleUrl>#45677</styleUrl>
            <LineString id="45675">
                <coordinates>107.5698951,-6.9119365,0.0 107.5699632,-6.911882,0.0</coordinates>
            </LineString>
        </Placemark>
        <Placemark id="45680">
            <name>Jalan Jendral Sudirman</name>
            <styleUrl>#45681</styleUrl>
            <LineString id="45679">
                <coordinates>107.5699632,-6.911882,0.0 107.5697698,-6.9115795,0.0 107.5696944,-6.9114612,0.0 107.5694831,-6.9111036,0.0 107.569361,-6.9109035,0.0 107.5693348,-6.9108606,0.0 107.5692858,-6.9107802,0.0 107.5692724,-6.9107365,0.0 107.5692799,-6.9106869,0.0 107.5693001,-6.9106543,0.0 107.5693282,-6.9106302,0.0 107.5693569,-6.9106219,0.0</coordinates>
            </LineString>
        </Placemark>
        <Placemark id="45684">
            <name>Jalan HOS. Cokroaminoto</name>
            <styleUrl>#45685</styleUrl>
            <LineString id="45683">
                <coordinates>107.5973654,-6.9003949,0.0 107.5973566,-6.9002078,0.0</coordinates>
            </LineString>
        </Placemark>
        <Placemark id="45688">
            <name>Jalan Sederhana</name>
            <styleUrl>#45689</styleUrl>
            <LineString id="45687">
                <coordinates>107.5972895,-6.8968371,0.0 107.5974629,-6.8966804,0.0</coordinates>
            </LineString>
        </Placemark>
        <Placemark id="45692">
            <name>Jalan HOS. Cokroaminoto</name>
            <styleUrl>#45693</styleUrl>
            <LineString id="45691">
                <coordinates>107.5975343,-6.9039924,0.0 107.5975116,-6.9035067,0.0</coordinates>
            </LineString>
        </Placemark>
        <Placemark id="45696">
            <name>Jalan Pajajaran</name>
            <styleUrl>#45697</styleUrl>
            <LineString id="45695">
                <coordinates>107.5930436,-6.9070358,0.0 107.592893,-6.9070548,0.0 107.5928538,-6.9070598,0.0 107.5926825,-6.9070846,0.0 107.5925401,-6.9070991,0.0 107.5923942,-6.9071118,0.0 107.592239,-6.9071272,0.0 107.5920701,-6.9071489,0.0</coordinates>
            </LineString>
        </Placemark>
        <Placemark id="45700">
            <name>Jalan Garuda</name>
            <styleUrl>#45701</styleUrl>
            <LineString id="45699">
                <coordinates>107.5780214,-6.9117553,0.0 107.5780145,-6.9117904,0.0 107.578003,-6.9118487,0.0 107.5779564,-6.9120857,0.0 107.5779077,-6.9123395,0.0 107.5778207,-6.9127137,0.0 107.5778075,-6.9127704,0.0 107.5776241,-6.9135596,0.0 107.5776188,-6.9135881,0.0 107.5776073,-6.9136496,0.0</coordinates>
            </LineString>
        </Placemark>
        <Placemark id="45704">
            <name>Jalan Rajawali Barat</name>
            <styleUrl>#45705</styleUrl>
            <LineString id="45703">
                <coordinates>107.5729282,-6.9120185,0.0 107.5729439,-6.9120247,0.0 107.573014,-6.9120524,0.0 107.5733246,-6.9121739,0.0 107.5735241,-6.9122519,0.0 107.5736798,-6.9123128,0.0 107.5737227,-6.9123296,0.0 107.5741069,-6.9124804,0.0 107.5746597,-6.9126961,0.0 107.5747971,-6.9127499,0.0 107.5748397,-6.9127665,0.0 107.575213,-6.9129126,0.0 107.5753191,-6.9129541,0.0 107.5753653,-6.9129722,0.0</coordinates>
            </LineString>
        </Placemark>
        <Placemark id="45708">
            <name>Jalan Pajajaran</name>
            <styleUrl>#45709</styleUrl>
            <LineString id="45707">
                <coordinates>107.5877685,-6.9067842,0.0 107.5878368,-6.9067717,0.0 107.5878467,-6.9067699,0.0 107.5879251,-6.9067629,0.0 107.5879557,-6.9067619,0.0 107.5880056,-6.9067602,0.0 107.5881625,-6.9067702,0.0 107.588219,-6.9067739,0.0</coordinates>
            </LineString>
        </Placemark>
        <Placemark id="45712">
            <name>Jalan Raya Cijerah</name>
            <styleUrl>#45713</styleUrl>
            <LineString id="45711">
                <coordinates>107.5698295,-6.9203328,0.0 107.5698625,-6.9202502,0.0 107.5699734,-6.9199722,0.0 107.5699912,-6.9199186,0.0 107.570031,-6.9197761,0.0 107.5700698,-6.9196362,0.0</coordinates>
            </LineString>
        </Placemark>
        <Placemark id="45716">
            <name>Jalan Rajawali Barat</name>
            <styleUrl>#45717</styleUrl>
            <LineString id="45715">
                <coordinates>107.5753653,-6.9129722,0.0 107.5754115,-6.9129902,0.0 107.5755013,-6.9130253,0.0 107.575721,-6.9131092,0.0</coordinates>
            </LineString>
        </Placemark>
        <Placemark id="45720">
            <name>Jalan Pasir Kaliki</name>
            <styleUrl>#45721</styleUrl>
            <LineString id="45719">
                <coordinates>107.5973572,-6.8990747,0.0 107.5973543,-6.8990234,0.0</coordinates>
            </LineString>
        </Placemark>
        <Placemark id="45724">
            <name>Jalan Pasir Kaliki</name>
            <styleUrl>#45725</styleUrl>
            <LineString id="45723">
                <coordinates>107.5973543,-6.8990234,0.0 107.5973503,-6.8989275,0.0</coordinates>
            </LineString>
        </Placemark>
        <Placemark id="45728">
            <name>Jalan Pasir Kaliki</name>
            <styleUrl>#45729</styleUrl>
            <LineString id="45727">
                <coordinates>107.5973452,-6.8999212,0.0 107.5973408,-6.8998291,0.0</coordinates>
            </LineString>
        </Placemark>
        <Placemark id="45732">
            <name>Jalan Pasir Kaliki</name>
            <styleUrl>#45733</styleUrl>
            <LineString id="45731">
                <coordinates>107.5973408,-6.8998291,0.0 107.5973293,-6.8994991,0.0 107.5973312,-6.8994022,0.0 107.5973423,-6.8991445,0.0 107.5973572,-6.8990747,0.0</coordinates>
            </LineString>
        </Placemark>
        <Placemark id="45736">
            <name>Jalan Abdul Rahman Saleh</name>
            <styleUrl>#45737</styleUrl>
            <LineString id="45735">
                <coordinates>107.5868079,-6.9070295,0.0 107.5866068,-6.9070674,0.0 107.5863259,-6.9071196,0.0 107.5861621,-6.9071508,0.0 107.5859779,-6.9071842,0.0</coordinates>
            </LineString>
        </Placemark>
        <Placemark id="45740">
            <name>Jalan Layang Nurtanio</name>
            <styleUrl>#45741</styleUrl>
            <LineString id="45739">
                <coordinates>107.5783486,-6.9103499,0.0 107.5785563,-6.9094641,0.0 107.5786794,-6.9089112,0.0 107.5787312,-6.9087166,0.0 107.5787723,-6.9085918,0.0 107.5788134,-6.9084914,0.0 107.5788589,-6.9083921,0.0 107.5789019,-6.9083181,0.0</coordinates>
            </LineString>
        </Placemark>
        <Placemark id="45744">
            <name>Jalan Layang Nurtanio</name>
            <styleUrl>#45745</styleUrl>
            <LineString id="45743">
                <coordinates>107.5794204,-6.9076036,0.0 107.5795244,-6.9075473,0.0 107.5797046,-6.9074852,0.0 107.5797916,-6.9074652,0.0 107.5798841,-6.9074506,0.0 107.5799775,-6.9074488,0.0 107.5800457,-6.9074531,0.0 107.5802379,-6.907476,0.0 107.5811738,-6.9075993,0.0</coordinates>
            </LineString>
        </Placemark>
        <Placemark id="45748">
            <name>Jalan Layang Nurtanio</name>
            <styleUrl>#45749</styleUrl>
            <LineString id="45747">
                <coordinates>107.5789019,-6.9083181,0.0 107.5790202,-6.9081211,0.0 107.5792369,-6.9077861,0.0 107.5792779,-6.9077322,0.0 107.579326,-6.9076782,0.0 107.5794204,-6.9076036,0.0</coordinates>
            </LineString>
        </Placemark>
        <Placemark id="45752">
            <name>Jalan Rajawali Timur</name>
            <styleUrl>#45753</styleUrl>
            <LineString id="45751">
                <coordinates>107.5758021,-6.913142,0.0 107.5761151,-6.9132715,0.0</coordinates>
            </LineString>
        </Placemark>
    </Document>
</kml>
