<?xml version="1.0" encoding="UTF-8"?>
<kml xmlns="http://www.opengis.net/kml/2.2" xmlns:gx="http://www.google.com/kml/ext/2.2">
    <Document id="45281">
        <Style id="45287">
            <IconStyle id="45288">
                <colorMode>normal</colorMode>
                <scale>1</scale>
                <heading>0</heading>
                <Icon id="45289">
                    <href>http://maps.google.com/mapfiles/kml/pushpin/ylw-pushpin.png</href>
                </Icon>
            </IconStyle>
        </Style>
        <Style id="45292">
            <IconStyle id="45293">
                <colorMode>normal</colorMode>
                <scale>1</scale>
                <heading>0</heading>
                <Icon id="45294">
                    <href>http://maps.google.com/mapfiles/kml/pushpin/ylw-pushpin.png</href>
                </Icon>
            </IconStyle>
        </Style>
        <Style id="45297">
            <IconStyle id="45298">
                <colorMode>normal</colorMode>
                <scale>1</scale>
                <heading>0</heading>
                <Icon id="45299">
                    <href>http://maps.google.com/mapfiles/kml/pushpin/ylw-pushpin.png</href>
                </Icon>
            </IconStyle>
        </Style>
        <Style id="45302">
            <LineStyle id="45303">
                <color>ff356618</color>
                <colorMode>normal</colorMode>
                <width>4</width>
            </LineStyle>
        </Style>
        <Style id="45306">
            <LineStyle id="45307">
                <color>ff356618</color>
                <colorMode>normal</colorMode>
                <width>4</width>
            </LineStyle>
        </Style>
        <Style id="45310">
            <LineStyle id="45311">
                <color>ff356618</color>
                <colorMode>normal</colorMode>
                <width>4</width>
            </LineStyle>
        </Style>
        <Style id="45314">
            <LineStyle id="45315">
                <color>ff356618</color>
                <colorMode>normal</colorMode>
                <width>4</width>
            </LineStyle>
        </Style>
        <Style id="45318">
            <LineStyle id="45319">
                <color>ff356618</color>
                <colorMode>normal</colorMode>
                <width>4</width>
            </LineStyle>
        </Style>
        <Style id="45322">
            <LineStyle id="45323">
                <color>ff356618</color>
                <colorMode>normal</colorMode>
                <width>4</width>
            </LineStyle>
        </Style>
        <Style id="45326">
            <LineStyle id="45327">
                <color>ff356618</color>
                <colorMode>normal</colorMode>
                <width>4</width>
            </LineStyle>
        </Style>
        <Style id="45330">
            <LineStyle id="45331">
                <color>ff356618</color>
                <colorMode>normal</colorMode>
                <width>4</width>
            </LineStyle>
        </Style>
        <Style id="45334">
            <LineStyle id="45335">
                <color>ff356618</color>
                <colorMode>normal</colorMode>
                <width>4</width>
            </LineStyle>
        </Style>
        <Style id="45338">
            <LineStyle id="45339">
                <color>ff356618</color>
                <colorMode>normal</colorMode>
                <width>4</width>
            </LineStyle>
        </Style>
        <Style id="45342">
            <LineStyle id="45343">
                <color>ff356618</color>
                <colorMode>normal</colorMode>
                <width>4</width>
            </LineStyle>
        </Style>
        <Style id="45346">
            <LineStyle id="45347">
                <color>ff356618</color>
                <colorMode>normal</colorMode>
                <width>4</width>
            </LineStyle>
        </Style>
        <Style id="45350">
            <LineStyle id="45351">
                <color>ff356618</color>
                <colorMode>normal</colorMode>
                <width>4</width>
            </LineStyle>
        </Style>
        <Style id="45354">
            <LineStyle id="45355">
                <color>ff356618</color>
                <colorMode>normal</colorMode>
                <width>4</width>
            </LineStyle>
        </Style>
        <Style id="45358">
            <LineStyle id="45359">
                <color>ff356618</color>
                <colorMode>normal</colorMode>
                <width>4</width>
            </LineStyle>
        </Style>
        <Style id="45362">
            <LineStyle id="45363">
                <color>ff356618</color>
                <colorMode>normal</colorMode>
                <width>4</width>
            </LineStyle>
        </Style>
        <Style id="45366">
            <LineStyle id="45367">
                <color>ff356618</color>
                <colorMode>normal</colorMode>
                <width>4</width>
            </LineStyle>
        </Style>
        <Style id="45370">
            <LineStyle id="45371">
                <color>ff356618</color>
                <colorMode>normal</colorMode>
                <width>4</width>
            </LineStyle>
        </Style>
        <Style id="45374">
            <LineStyle id="45375">
                <color>ff356618</color>
                <colorMode>normal</colorMode>
                <width>4</width>
            </LineStyle>
        </Style>
        <Style id="45378">
            <LineStyle id="45379">
                <color>ff356618</color>
                <colorMode>normal</colorMode>
                <width>4</width>
            </LineStyle>
        </Style>
        <Style id="45382">
            <LineStyle id="45383">
                <color>ff356618</color>
                <colorMode>normal</colorMode>
                <width>4</width>
            </LineStyle>
        </Style>
        <Style id="45386">
            <LineStyle id="45387">
                <color>ff356618</color>
                <colorMode>normal</colorMode>
                <width>4</width>
            </LineStyle>
        </Style>
        <Style id="45390">
            <LineStyle id="45391">
                <color>ff356618</color>
                <colorMode>normal</colorMode>
                <width>4</width>
            </LineStyle>
        </Style>
        <Style id="45394">
            <LineStyle id="45395">
                <color>ff356618</color>
                <colorMode>normal</colorMode>
                <width>4</width>
            </LineStyle>
        </Style>
        <Style id="45398">
            <LineStyle id="45399">
                <color>ff356618</color>
                <colorMode>normal</colorMode>
                <width>4</width>
            </LineStyle>
        </Style>
        <Style id="45402">
            <LineStyle id="45403">
                <color>ff356618</color>
                <colorMode>normal</colorMode>
                <width>4</width>
            </LineStyle>
        </Style>
        <Style id="45406">
            <LineStyle id="45407">
                <color>ff356618</color>
                <colorMode>normal</colorMode>
                <width>4</width>
            </LineStyle>
        </Style>
        <Style id="45410">
            <LineStyle id="45411">
                <color>ff356618</color>
                <colorMode>normal</colorMode>
                <width>4</width>
            </LineStyle>
        </Style>
        <Style id="45414">
            <LineStyle id="45415">
                <color>ff356618</color>
                <colorMode>normal</colorMode>
                <width>4</width>
            </LineStyle>
        </Style>
        <Style id="45418">
            <LineStyle id="45419">
                <color>ff356618</color>
                <colorMode>normal</colorMode>
                <width>4</width>
            </LineStyle>
        </Style>
        <Style id="45422">
            <LineStyle id="45423">
                <color>ff356618</color>
                <colorMode>normal</colorMode>
                <width>4</width>
            </LineStyle>
        </Style>
        <Style id="45426">
            <LineStyle id="45427">
                <color>ff356618</color>
                <colorMode>normal</colorMode>
                <width>4</width>
            </LineStyle>
        </Style>
        <Style id="45430">
            <LineStyle id="45431">
                <color>ff356618</color>
                <colorMode>normal</colorMode>
                <width>4</width>
            </LineStyle>
        </Style>
        <Style id="45434">
            <LineStyle id="45435">
                <color>ff356618</color>
                <colorMode>normal</colorMode>
                <width>4</width>
            </LineStyle>
        </Style>
        <Style id="45438">
            <LineStyle id="45439">
                <color>ff356618</color>
                <colorMode>normal</colorMode>
                <width>4</width>
            </LineStyle>
        </Style>
        <Style id="45442">
            <LineStyle id="45443">
                <color>ff356618</color>
                <colorMode>normal</colorMode>
                <width>4</width>
            </LineStyle>
        </Style>
        <Style id="45446">
            <LineStyle id="45447">
                <color>ff356618</color>
                <colorMode>normal</colorMode>
                <width>4</width>
            </LineStyle>
        </Style>
        <Style id="45450">
            <LineStyle id="45451">
                <color>ff356618</color>
                <colorMode>normal</colorMode>
                <width>4</width>
            </LineStyle>
        </Style>
        <Style id="45454">
            <LineStyle id="45455">
                <color>ff356618</color>
                <colorMode>normal</colorMode>
                <width>4</width>
            </LineStyle>
        </Style>
        <Style id="45458">
            <LineStyle id="45459">
                <color>ff356618</color>
                <colorMode>normal</colorMode>
                <width>4</width>
            </LineStyle>
        </Style>
        <Style id="45462">
            <LineStyle id="45463">
                <color>ff356618</color>
                <colorMode>normal</colorMode>
                <width>4</width>
            </LineStyle>
        </Style>
        <Style id="45466">
            <LineStyle id="45467">
                <color>ff356618</color>
                <colorMode>normal</colorMode>
                <width>4</width>
            </LineStyle>
        </Style>
        <Style id="45470">
            <LineStyle id="45471">
                <color>ff356618</color>
                <colorMode>normal</colorMode>
                <width>4</width>
            </LineStyle>
        </Style>
        <Style id="45474">
            <LineStyle id="45475">
                <color>ff356618</color>
                <colorMode>normal</colorMode>
                <width>4</width>
            </LineStyle>
        </Style>
        <Style id="45478">
            <LineStyle id="45479">
                <color>ff356618</color>
                <colorMode>normal</colorMode>
                <width>4</width>
            </LineStyle>
        </Style>
        <Style id="45482">
            <LineStyle id="45483">
                <color>ff356618</color>
                <colorMode>normal</colorMode>
                <width>4</width>
            </LineStyle>
        </Style>
        <Style id="45486">
            <LineStyle id="45487">
                <color>ff356618</color>
                <colorMode>normal</colorMode>
                <width>4</width>
            </LineStyle>
        </Style>
        <Style id="45490">
            <LineStyle id="45491">
                <color>ff356618</color>
                <colorMode>normal</colorMode>
                <width>4</width>
            </LineStyle>
        </Style>
        <Style id="45494">
            <LineStyle id="45495">
                <color>ff356618</color>
                <colorMode>normal</colorMode>
                <width>4</width>
            </LineStyle>
        </Style>
        <Style id="45498">
            <LineStyle id="45499">
                <color>ff356618</color>
                <colorMode>normal</colorMode>
                <width>4</width>
            </LineStyle>
        </Style>
        <Style id="45502">
            <LineStyle id="45503">
                <color>ff356618</color>
                <colorMode>normal</colorMode>
                <width>4</width>
            </LineStyle>
        </Style>
        <Style id="45506">
            <LineStyle id="45507">
                <color>ff356618</color>
                <colorMode>normal</colorMode>
                <width>4</width>
            </LineStyle>
        </Style>
        <Style id="45510">
            <LineStyle id="45511">
                <color>ff356618</color>
                <colorMode>normal</colorMode>
                <width>4</width>
            </LineStyle>
        </Style>
        <Style id="45514">
            <LineStyle id="45515">
                <color>ff356618</color>
                <colorMode>normal</colorMode>
                <width>4</width>
            </LineStyle>
        </Style>
        <Style id="45518">
            <LineStyle id="45519">
                <color>ff356618</color>
                <colorMode>normal</colorMode>
                <width>4</width>
            </LineStyle>
        </Style>
        <Style id="45522">
            <LineStyle id="45523">
                <color>ff356618</color>
                <colorMode>normal</colorMode>
                <width>4</width>
            </LineStyle>
        </Style>
        <Style id="45526">
            <LineStyle id="45527">
                <color>ff356618</color>
                <colorMode>normal</colorMode>
                <width>4</width>
            </LineStyle>
        </Style>
        <Style id="45530">
            <LineStyle id="45531">
                <color>ff356618</color>
                <colorMode>normal</colorMode>
                <width>4</width>
            </LineStyle>
        </Style>
        <Style id="45534">
            <LineStyle id="45535">
                <color>ff356618</color>
                <colorMode>normal</colorMode>
                <width>4</width>
            </LineStyle>
        </Style>
        <Style id="45538">
            <LineStyle id="45539">
                <color>ff356618</color>
                <colorMode>normal</colorMode>
                <width>4</width>
            </LineStyle>
        </Style>
        <Style id="45542">
            <LineStyle id="45543">
                <color>ff356618</color>
                <colorMode>normal</colorMode>
                <width>4</width>
            </LineStyle>
        </Style>
        <Style id="45546">
            <LineStyle id="45547">
                <color>ff356618</color>
                <colorMode>normal</colorMode>
                <width>4</width>
            </LineStyle>
        </Style>
        <Style id="45550">
            <LineStyle id="45551">
                <color>ff356618</color>
                <colorMode>normal</colorMode>
                <width>4</width>
            </LineStyle>
        </Style>
        <Style id="45554">
            <LineStyle id="45555">
                <color>ff356618</color>
                <colorMode>normal</colorMode>
                <width>4</width>
            </LineStyle>
        </Style>
        <Style id="45558">
            <LineStyle id="45559">
                <color>ff356618</color>
                <colorMode>normal</colorMode>
                <width>4</width>
            </LineStyle>
        </Style>
        <Style id="45562">
            <LineStyle id="45563">
                <color>ff356618</color>
                <colorMode>normal</colorMode>
                <width>4</width>
            </LineStyle>
        </Style>
        <Style id="45566">
            <LineStyle id="45567">
                <color>ff356618</color>
                <colorMode>normal</colorMode>
                <width>4</width>
            </LineStyle>
        </Style>
        <Style id="45570">
            <LineStyle id="45571">
                <color>ff356618</color>
                <colorMode>normal</colorMode>
                <width>4</width>
            </LineStyle>
        </Style>
        <Style id="45574">
            <LineStyle id="45575">
                <color>ff356618</color>
                <colorMode>normal</colorMode>
                <width>4</width>
            </LineStyle>
        </Style>
        <Style id="45578">
            <LineStyle id="45579">
                <color>ff356618</color>
                <colorMode>normal</colorMode>
                <width>4</width>
            </LineStyle>
        </Style>
        <Style id="45582">
            <LineStyle id="45583">
                <color>ff356618</color>
                <colorMode>normal</colorMode>
                <width>4</width>
            </LineStyle>
        </Style>
        <ExtendedData>
            <Data name="route-name">
                <value>23: Sederhana → Cijerah</value>
            </Data>
            <Data name="source">
                <value>Transport for Bandung</value>
            </Data>
        </ExtendedData>
        <Placemark id="45286">
            <name>Makmur</name>
            <styleUrl>#45287</styleUrl>
            <Point id="45285">
                <coordinates>107.5989838,-6.8941794,0.0</coordinates>
            </Point>
        </Placemark>
        <Placemark id="45291">
            <name>Pasar Sederhana</name>
            <styleUrl>#45292</styleUrl>
            <Point id="45290">
                <coordinates>107.5996153,-6.8908128,0.0</coordinates>
            </Point>
        </Placemark>
        <Placemark id="45296">
            <name>Puskesmas Melong Asih</name>
            <styleUrl>#45297</styleUrl>
            <Point id="45295">
                <coordinates>107.5629011,-6.9239338,0.0</coordinates>
            </Point>
        </Placemark>
        <Placemark id="45301">
            <name>Jalan HOS. Cokroaminoto</name>
            <styleUrl>#45302</styleUrl>
            <LineString id="45300">
                <coordinates>107.5976101,-6.9055012,0.0 107.5976119,-6.9055512,0.0 107.5976179,-6.9058357,0.0 107.5976349,-6.9062206,0.0 107.5976387,-6.9064293,0.0</coordinates>
            </LineString>
        </Placemark>
        <Placemark id="45305">
            <name>Jalan Jendral Sudirman</name>
            <styleUrl>#45306</styleUrl>
            <LineString id="45304">
                <coordinates>107.5741991,-6.9172935,0.0 107.5741057,-6.9172433,0.0 107.5739928,-6.9171937,0.0 107.5739676,-6.9171826,0.0 107.5739351,-6.917172,0.0 107.5737577,-6.9170672,0.0 107.57361,-6.916953,0.0 107.5735023,-6.9168687,0.0 107.5731624,-6.916607,0.0 107.5730285,-6.9164995,0.0 107.5725721,-6.916133,0.0</coordinates>
            </LineString>
        </Placemark>
        <Placemark id="45309">
            <name>Jalan Makmur</name>
            <styleUrl>#45310</styleUrl>
            <LineString id="45308">
                <coordinates>107.5989838,-6.8941794,0.0 107.599781,-6.8945342,0.0 107.6003652,-6.8948265,0.0</coordinates>
            </LineString>
        </Placemark>
        <Placemark id="45313">
            <name>Jalan Profesor Christiaan Eijkman</name>
            <styleUrl>#45314</styleUrl>
            <LineString id="45312">
                <coordinates>107.6009465,-6.8954647,0.0 107.6009288,-6.8957674,0.0 107.6008463,-6.8959681,0.0</coordinates>
            </LineString>
        </Placemark>
        <Placemark id="45317">
            <name>Jalan Sederhana</name>
            <styleUrl>#45318</styleUrl>
            <LineString id="45316">
                <coordinates>107.5982533,-6.8959337,0.0 107.598061,-6.8961075,0.0 107.597854,-6.8962946,0.0 107.5975318,-6.8966067,0.0</coordinates>
            </LineString>
        </Placemark>
        <Placemark id="45321">
            <name>Jalan Melong Raya</name>
            <styleUrl>#45322</styleUrl>
            <LineString id="45320">
                <coordinates>107.5656754,-6.928252,0.0 107.5656051,-6.9282281,0.0 107.5655541,-6.9281882,0.0 107.5654718,-6.9280824,0.0 107.5650109,-6.9273727,0.0 107.5648451,-6.927117,0.0</coordinates>
            </LineString>
        </Placemark>
        <Placemark id="45325">
            <name>Jalan Pasir Kaliki</name>
            <styleUrl>#45326</styleUrl>
            <LineString id="45324">
                <coordinates>107.5974217,-6.8991501,0.0 107.597458,-6.899457,0.0 107.5974799,-6.8999882,0.0 107.5974825,-6.9000048,0.0 107.5974905,-6.9000261,0.0 107.5974993,-6.9000414,0.0 107.5975127,-6.9000574,0.0 107.5975315,-6.900076,0.0 107.5975596,-6.900098,0.0 107.5975838,-6.9001146,0.0 107.5976133,-6.9001333,0.0 107.5976491,-6.9001556,0.0 107.5976841,-6.9001782,0.0 107.5977317,-6.9002067,0.0</coordinates>
            </LineString>
        </Placemark>
        <Placemark id="45329">
            <name>Jalan Pasteur</name>
            <styleUrl>#45330</styleUrl>
            <LineString id="45328">
                <coordinates>107.5982442,-6.9003802,0.0 107.597773,-6.9003861,0.0 107.5977337,-6.9003863,0.0</coordinates>
            </LineString>
        </Placemark>
        <Placemark id="45333">
            <name>Jalan Pajajaran</name>
            <styleUrl>#45334</styleUrl>
            <LineString id="45332">
                <coordinates>107.5975328,-6.9064531,0.0 107.5972812,-6.9064634,0.0 107.5971648,-6.9064676,0.0 107.5970224,-6.9064779,0.0 107.5968205,-6.9064928,0.0</coordinates>
            </LineString>
        </Placemark>
        <Placemark id="45337">
            <name>Jalan HOS. Cokroaminoto</name>
            <styleUrl>#45338</styleUrl>
            <LineString id="45336">
                <coordinates>107.5975702,-6.9053954,0.0 107.5976013,-6.9054493,0.0 107.5976101,-6.9055012,0.0</coordinates>
            </LineString>
        </Placemark>
        <Placemark id="45341">
            <name>Jalan Pasir Kaliki</name>
            <styleUrl>#45342</styleUrl>
            <LineString id="45340">
                <coordinates>107.5974,-6.8987139,0.0 107.5974075,-6.898977,0.0</coordinates>
            </LineString>
        </Placemark>
        <Placemark id="45345">
            <name>Jalan Abdul Rahman Saleh</name>
            <styleUrl>#45346</styleUrl>
            <LineString id="45344">
                <coordinates>107.5859779,-6.9071842,0.0 107.5857665,-6.9072225,0.0 107.5856786,-6.9072381,0.0 107.5855372,-6.9072632,0.0 107.5854036,-6.907287,0.0 107.5852567,-6.9073131,0.0 107.5852174,-6.9073192,0.0 107.5850679,-6.9073423,0.0 107.5845137,-6.9074213,0.0 107.584189,-6.9074748,0.0 107.583989,-6.9075077,0.0 107.5838295,-6.9075339,0.0 107.5835821,-6.9075711,0.0 107.5834514,-6.9075864,0.0 107.5831743,-6.9076187,0.0 107.5830144,-6.907635,0.0 107.5826641,-6.9076608,0.0 107.5824393,-6.9076623,0.0 107.5822772,-6.9076634,0.0 107.5817406,-6.9076453,0.0 107.5811738,-6.9075993,0.0</coordinates>
            </LineString>
        </Placemark>
        <Placemark id="45349">
            <name>Jalan Garuda</name>
            <styleUrl>#45350</styleUrl>
            <LineString id="45348">
                <coordinates>107.5783486,-6.9103499,0.0 107.5782065,-6.910981,0.0 107.5781807,-6.9110965,0.0 107.5780214,-6.9117553,0.0</coordinates>
            </LineString>
        </Placemark>
        <Placemark id="45353">
            <name>Jalan Pasteur</name>
            <styleUrl>#45354</styleUrl>
            <LineString id="45352">
                <coordinates>107.6010646,-6.9003568,0.0 107.6010291,-6.9003565,0.0 107.600771,-6.9003544,0.0 107.6005268,-6.9003545,0.0 107.6003874,-6.9003546,0.0 107.5999891,-6.9003576,0.0 107.5995868,-6.9003613,0.0</coordinates>
            </LineString>
        </Placemark>
        <Placemark id="45357">
            <name>Jalan Pasteur</name>
            <styleUrl>#45358</styleUrl>
            <LineString id="45356">
                <coordinates>107.5993001,-6.900202,0.0 107.599805,-6.900195,0.0 107.6003645,-6.900192,0.0 107.6008037,-6.9002057,0.0 107.6010655,-6.9002051,0.0</coordinates>
            </LineString>
        </Placemark>
        <Placemark id="45361">
            <name>Jalan Raya Cijerah</name>
            <styleUrl>#45362</styleUrl>
            <LineString id="45360">
                <coordinates>107.5657238,-6.9266742,0.0 107.5657635,-6.9265863,0.0 107.5658966,-6.9262781,0.0 107.5661673,-6.9256374,0.0 107.5662228,-6.9255204,0.0 107.566279,-6.9253931,0.0 107.5663253,-6.9252957,0.0 107.5664356,-6.9251666,0.0 107.5664908,-6.9251326,0.0 107.5666555,-6.9250697,0.0 107.5668126,-6.9250097,0.0 107.5668697,-6.9249717,0.0 107.5668915,-6.9249552,0.0 107.5670537,-6.9247773,0.0 107.5671209,-6.9247041,0.0 107.5672138,-6.9246128,0.0 107.5673425,-6.9244992,0.0 107.5674644,-6.9244297,0.0 107.5675149,-6.9243986,0.0 107.5676,-6.9243532,0.0 107.5676737,-6.9242925,0.0 107.5677268,-6.9242152,0.0 107.5677779,-6.9241161,0.0 107.5678165,-6.9240414,0.0 107.5679081,-6.9238625,0.0 107.5680252,-6.9236278,0.0 107.56817,-6.923174,0.0 107.5681801,-6.9231401,0.0 107.5682257,-6.9229908,0.0 107.5683046,-6.9227279,0.0 107.5683678,-6.9225142,0.0 107.5683839,-6.9224599,0.0 107.5684655,-6.9221406,0.0 107.5685334,-6.9219723,0.0 107.5685963,-6.9218727,0.0 107.5686467,-6.9218258,0.0 107.5687098,-6.9217878,0.0 107.5687803,-6.9217774,0.0 107.5688526,-6.9217872,0.0 107.5690228,-6.9218246,0.0 107.5691156,-6.921845,0.0 107.5692341,-6.921871,0.0 107.5692777,-6.9218704,0.0 107.5693171,-6.9218595,0.0 107.5693481,-6.9218405,0.0 107.5693702,-6.9218079,0.0 107.5694988,-6.9214054,0.0 107.5695105,-6.9213687,0.0 107.569557,-6.9212084,0.0 107.5696276,-6.9209583,0.0 107.5697486,-6.9205542,0.0 107.5698295,-6.9203328,0.0</coordinates>
            </LineString>
        </Placemark>
        <Placemark id="45365">
            <name>Jalan Raya Cijerah</name>
            <styleUrl>#45366</styleUrl>
            <LineString id="45364">
                <coordinates>107.5700698,-6.9196362,0.0 107.5701063,-6.9195043,0.0 107.5701539,-6.9193649,0.0 107.5702336,-6.9191564,0.0 107.5703003,-6.91901,0.0 107.570468,-6.9185588,0.0 107.570555,-6.9183325,0.0 107.5706007,-6.918216,0.0 107.5706066,-6.9181993,0.0 107.5706466,-6.9180981,0.0 107.57071,-6.9179149,0.0 107.5707288,-6.9178384,0.0 107.5707434,-6.917782,0.0 107.5707595,-6.9176768,0.0 107.5707809,-6.9175368,0.0 107.5708036,-6.9174068,0.0 107.5708564,-6.9170528,0.0 107.5708964,-6.916782,0.0 107.570926,-6.9166096,0.0 107.5709729,-6.9163041,0.0 107.5710128,-6.9161379,0.0 107.571053,-6.9159991,0.0 107.5711184,-6.9157735,0.0 107.5711273,-6.9157427,0.0 107.5711502,-6.9156749,0.0 107.571235,-6.915424,0.0 107.5712548,-6.9153576,0.0 107.5713267,-6.9151148,0.0 107.571449,-6.9147677,0.0 107.5714752,-6.9147131,0.0 107.5715151,-6.9146659,0.0</coordinates>
            </LineString>
        </Placemark>
        <Placemark id="45369">
            <name>Jalan Jendral Sudirman</name>
            <styleUrl>#45370</styleUrl>
            <LineString id="45368">
                <coordinates>107.5766159,-6.9175515,0.0 107.5762592,-6.9175155,0.0 107.5760342,-6.9174893,0.0 107.5757932,-6.9174613,0.0 107.5756139,-6.9174409,0.0 107.5754537,-6.9174221,0.0 107.5751233,-6.9173833,0.0 107.5750142,-6.9173706,0.0 107.5747901,-6.9173287,0.0 107.5747047,-6.9173134,0.0 107.5746765,-6.9173067,0.0 107.5745601,-6.9172787,0.0</coordinates>
            </LineString>
        </Placemark>
        <Placemark id="45373">
            <name>Jalan Garuda</name>
            <styleUrl>#45374</styleUrl>
            <LineString id="45372">
                <coordinates>107.5776073,-6.9136496,0.0 107.5774382,-6.9143939,0.0 107.5772255,-6.9153302,0.0 107.5771848,-6.9155032,0.0 107.5771079,-6.9158293,0.0 107.5770623,-6.916012,0.0 107.5770472,-6.9160725,0.0 107.5770267,-6.9161661,0.0 107.5768707,-6.91682,0.0 107.5768513,-6.9168985,0.0 107.5768101,-6.9171039,0.0 107.5767538,-6.9173844,0.0</coordinates>
            </LineString>
        </Placemark>
        <Placemark id="45377">
            <name>Jalan HOS. Cokroaminoto</name>
            <styleUrl>#45378</styleUrl>
            <LineString id="45376">
                <coordinates>107.5974523,-6.9006598,0.0 107.5974536,-6.9007224,0.0 107.5974543,-6.9007808,0.0 107.5974649,-6.9013037,0.0 107.5974913,-6.9019914,0.0 107.5975373,-6.9033184,0.0 107.5975385,-6.9033942,0.0 107.5975276,-6.9034547,0.0 107.5975116,-6.9035067,0.0</coordinates>
            </LineString>
        </Placemark>
        <Placemark id="45381">
            <name>Jalan Pasteur</name>
            <styleUrl>#45382</styleUrl>
            <LineString id="45380">
                <coordinates>107.5985704,-6.900207,0.0 107.5988449,-6.9002092,0.0 107.5988968,-6.9002096,0.0</coordinates>
            </LineString>
        </Placemark>
        <Placemark id="45385">
            <name>Route Segment</name>
            <styleUrl>#45386</styleUrl>
            <LineString id="45384">
                <coordinates>107.5977337,-6.9003863,0.0 107.5976719,-6.900404,0.0 107.5976493,-6.9004086,0.0 107.5976271,-6.9004144,0.0 107.597606,-6.9004235,0.0 107.5975891,-6.9004348,0.0 107.5975669,-6.9004529,0.0 107.5975478,-6.9004761,0.0 107.5975307,-6.9005049,0.0 107.5975109,-6.9005434,0.0 107.5974955,-6.9005724,0.0 107.5974759,-6.9006116,0.0 107.5974523,-6.9006598,0.0</coordinates>
            </LineString>
        </Placemark>
        <Placemark id="45389">
            <name>Jalan Pajajaran</name>
            <styleUrl>#45390</styleUrl>
            <LineString id="45388">
                <coordinates>107.5976387,-6.9064293,0.0 107.5976191,-6.9064414,0.0 107.5975949,-6.9064488,0.0 107.5975328,-6.9064531,0.0</coordinates>
            </LineString>
        </Placemark>
        <Placemark id="45393">
            <name>Jalan Sederhana</name>
            <styleUrl>#45394</styleUrl>
            <LineString id="45392">
                <coordinates>107.5996153,-6.8908128,0.0 107.5995145,-6.8910995,0.0 107.5992715,-6.8920002,0.0 107.599254,-6.8920726,0.0 107.5991519,-6.8925236,0.0 107.5990518,-6.8929922,0.0 107.5990034,-6.8931579,0.0 107.5988798,-6.8935471,0.0 107.5987366,-6.8940012,0.0 107.5987172,-6.8940629,0.0</coordinates>
            </LineString>
        </Placemark>
        <Placemark id="45397">
            <name>Jalan Profesor Christiaan Eijkman</name>
            <styleUrl>#45398</styleUrl>
            <LineString id="45396">
                <coordinates>107.6008463,-6.8959681,0.0 107.6005885,-6.8961348,0.0 107.6003014,-6.8962499,0.0 107.6001433,-6.8962722,0.0 107.5999789,-6.8962674,0.0 107.5993726,-6.8961604,0.0</coordinates>
            </LineString>
        </Placemark>
        <Placemark id="45401">
            <name>Jalan Raya Cijerah</name>
            <styleUrl>#45402</styleUrl>
            <LineString id="45400">
                <coordinates>107.5656266,-6.927185,0.0 107.5656212,-6.9271265,0.0 107.5656199,-6.927006,0.0 107.5656359,-6.9268882,0.0 107.5656722,-6.9267883,0.0 107.5657238,-6.9266742,0.0</coordinates>
            </LineString>
        </Placemark>
        <Placemark id="45405">
            <name>Jalan Raya Cijerah</name>
            <styleUrl>#45406</styleUrl>
            <LineString id="45404">
                <coordinates>107.5656754,-6.928252,0.0 107.565716,-6.9281025,0.0 107.5657292,-6.9280231,0.0 107.5657292,-6.9279445,0.0 107.5656866,-6.9276291,0.0 107.5656266,-6.927185,0.0</coordinates>
            </LineString>
        </Placemark>
        <Placemark id="45409">
            <name>Jalan Melong Raya</name>
            <styleUrl>#45410</styleUrl>
            <LineString id="45408">
                <coordinates>107.5648451,-6.927117,0.0 107.5647772,-6.9270124,0.0 107.5646768,-6.9268575,0.0 107.5645394,-6.9266457,0.0 107.5640253,-6.9258624,0.0 107.5639737,-6.9257843,0.0 107.5639271,-6.9257207,0.0</coordinates>
            </LineString>
        </Placemark>
        <Placemark id="45413">
            <name>Jalan HOS. Cokroaminoto</name>
            <styleUrl>#45414</styleUrl>
            <LineString id="45412">
                <coordinates>107.5975702,-6.9053954,0.0 107.5975685,-6.9053623,0.0 107.5975647,-6.9052979,0.0 107.5975641,-6.9052785,0.0 107.5975561,-6.9050098,0.0 107.5975537,-6.9049333,0.0</coordinates>
            </LineString>
        </Placemark>
        <Placemark id="45417">
            <name>Jalan Pasteur</name>
            <styleUrl>#45418</styleUrl>
            <LineString id="45416">
                <coordinates>107.5977317,-6.9002067,0.0 107.5979866,-6.900214,0.0</coordinates>
            </LineString>
        </Placemark>
        <Placemark id="45421">
            <name>Jalan Pasteur</name>
            <styleUrl>#45422</styleUrl>
            <LineString id="45420">
                <coordinates>107.5988975,-6.9003711,0.0 107.5988453,-6.9003703,0.0 107.5985681,-6.9003769,0.0</coordinates>
            </LineString>
        </Placemark>
        <Placemark id="45425">
            <name>Jalan Profesor Christiaan Eijkman</name>
            <styleUrl>#45426</styleUrl>
            <LineString id="45424">
                <coordinates>107.5993726,-6.8961604,0.0 107.5993061,-6.8961476,0.0 107.5989287,-6.8960775,0.0 107.5988179,-6.8960559,0.0 107.5986468,-6.8960201,0.0 107.5985248,-6.8959937,0.0</coordinates>
            </LineString>
        </Placemark>
        <Placemark id="45429">
            <name>Jalan Abdul Rahman Saleh</name>
            <styleUrl>#45430</styleUrl>
            <LineString id="45428">
                <coordinates>107.5876926,-6.9068803,0.0 107.5876293,-6.9068983,0.0 107.5875446,-6.9069184,0.0 107.5873631,-6.9069557,0.0 107.5870558,-6.9070125,0.0 107.5869505,-6.9070316,0.0 107.5868733,-6.9070351,0.0 107.5868079,-6.9070295,0.0</coordinates>
            </LineString>
        </Placemark>
        <Placemark id="45433">
            <name>Jalan Profesor Christiaan Eijkman</name>
            <styleUrl>#45434</styleUrl>
            <LineString id="45432">
                <coordinates>107.5985248,-6.8959937,0.0 107.5984723,-6.8959815,0.0</coordinates>
            </LineString>
        </Placemark>
        <Placemark id="45437">
            <name>Jalan Melong Raya</name>
            <styleUrl>#45438</styleUrl>
            <LineString id="45436">
                <coordinates>107.5639271,-6.9257207,0.0 107.5637956,-6.9255173,0.0</coordinates>
            </LineString>
        </Placemark>
        <Placemark id="45441">
            <name>Jalan Melong Raya</name>
            <styleUrl>#45442</styleUrl>
            <LineString id="45440">
                <coordinates>107.5637956,-6.9255173,0.0 107.5634078,-6.9249216,0.0 107.5631903,-6.9245907,0.0 107.5630583,-6.9243887,0.0 107.5628894,-6.9241114,0.0 107.5629011,-6.9239338,0.0</coordinates>
            </LineString>
        </Placemark>
        <Placemark id="45445">
            <name>Jalan Pajajaran</name>
            <styleUrl>#45446</styleUrl>
            <LineString id="45444">
                <coordinates>107.5959262,-6.9065893,0.0 107.5952568,-6.9066609,0.0 107.595037,-6.9066943,0.0 107.5945793,-6.9067595,0.0 107.5945435,-6.9067649,0.0 107.5942472,-6.906822,0.0 107.5941987,-6.9068309,0.0 107.594084,-6.9068527,0.0 107.5937537,-6.9069123,0.0 107.5936226,-6.9069359,0.0 107.5930436,-6.9070358,0.0</coordinates>
            </LineString>
        </Placemark>
        <Placemark id="45449">
            <name>Jalan Pajajaran</name>
            <styleUrl>#45450</styleUrl>
            <LineString id="45448">
                <coordinates>107.5920701,-6.9071489,0.0 107.5918373,-6.9071242,0.0 107.5916612,-6.9071113,0.0 107.5915994,-6.9071068,0.0 107.5913085,-6.9070897,0.0 107.5911224,-6.9070825,0.0</coordinates>
            </LineString>
        </Placemark>
        <Placemark id="45453">
            <name>Jalan Pajajaran</name>
            <styleUrl>#45454</styleUrl>
            <LineString id="45452">
                <coordinates>107.5877524,-6.9068648,0.0 107.5876926,-6.9068803,0.0</coordinates>
            </LineString>
        </Placemark>
        <Placemark id="45457">
            <name>Jalan Pajajaran</name>
            <styleUrl>#45458</styleUrl>
            <LineString id="45456">
                <coordinates>107.5906383,-6.9070791,0.0 107.5904897,-6.9070683,0.0 107.5902528,-6.9070511,0.0 107.5892287,-6.9069531,0.0 107.5890575,-6.9069317,0.0 107.5889568,-6.9069197,0.0 107.5888977,-6.9069111,0.0 107.5887781,-6.9068994,0.0 107.5886037,-6.906884,0.0 107.5883918,-6.9068594,0.0 107.588209,-6.9068423,0.0</coordinates>
            </LineString>
        </Placemark>
        <Placemark id="45461">
            <name>Jalan Profesor Christiaan Eijkman</name>
            <styleUrl>#45462</styleUrl>
            <LineString id="45460">
                <coordinates>107.5984723,-6.8959815,0.0 107.5982533,-6.8959337,0.0</coordinates>
            </LineString>
        </Placemark>
        <Placemark id="45465">
            <name>Jalan HOS. Cokroaminoto</name>
            <styleUrl>#45466</styleUrl>
            <LineString id="45464">
                <coordinates>107.5975537,-6.9049333,0.0 107.5975448,-6.904529,0.0 107.5975406,-6.9043005,0.0 107.5975343,-6.9039924,0.0</coordinates>
            </LineString>
        </Placemark>
        <Placemark id="45469">
            <name>Jalan Pajajaran</name>
            <styleUrl>#45470</styleUrl>
            <LineString id="45468">
                <coordinates>107.5968205,-6.9064928,0.0 107.5966166,-6.906518,0.0 107.5964032,-6.9065473,0.0 107.5961119,-6.9066005,0.0 107.5960526,-6.9066041,0.0 107.5959951,-6.9065992,0.0 107.5959262,-6.9065893,0.0</coordinates>
            </LineString>
        </Placemark>
        <Placemark id="45473">
            <name>Route Segment</name>
            <styleUrl>#45474</styleUrl>
            <LineString id="45472">
                <coordinates>107.6010655,-6.9002051,0.0 107.6010646,-6.9003371,0.0 107.6010646,-6.9003568,0.0</coordinates>
            </LineString>
        </Placemark>
        <Placemark id="45477">
            <name>Jalan Makmur</name>
            <styleUrl>#45478</styleUrl>
            <LineString id="45476">
                <coordinates>107.6003652,-6.8948265,0.0 107.6006902,-6.8950481,0.0 107.6009023,-6.8953025,0.0 107.6009465,-6.8954647,0.0</coordinates>
            </LineString>
        </Placemark>
        <Placemark id="45481">
            <name>Jalan Sederhana</name>
            <styleUrl>#45482</styleUrl>
            <LineString id="45480">
                <coordinates>107.5975318,-6.8966067,0.0 107.5974852,-6.8966564,0.0 107.5974629,-6.8966804,0.0</coordinates>
            </LineString>
        </Placemark>
        <Placemark id="45485">
            <name>Jalan Pasir Kaliki</name>
            <styleUrl>#45486</styleUrl>
            <LineString id="45484">
                <coordinates>107.5974629,-6.8966804,0.0 107.5973832,-6.8967895,0.0 107.5973739,-6.8968101,0.0 107.5973632,-6.8968394,0.0 107.5973563,-6.8969183,0.0 107.5973743,-6.8978579,0.0 107.5973757,-6.8980113,0.0 107.5973829,-6.8982378,0.0 107.5973873,-6.8983517,0.0 107.5973974,-6.8986245,0.0 107.5974,-6.8987139,0.0</coordinates>
            </LineString>
        </Placemark>
        <Placemark id="45489">
            <name>Jalan Pajajaran</name>
            <styleUrl>#45490</styleUrl>
            <LineString id="45488">
                <coordinates>107.5877897,-6.9068561,0.0 107.5877524,-6.9068648,0.0</coordinates>
            </LineString>
        </Placemark>
        <Placemark id="45493">
            <name>Jalan Pajajaran</name>
            <styleUrl>#45494</styleUrl>
            <LineString id="45492">
                <coordinates>107.5906641,-6.907081,0.0 107.5906383,-6.9070791,0.0</coordinates>
            </LineString>
        </Placemark>
        <Placemark id="45497">
            <name>Jalan Pajajaran</name>
            <styleUrl>#45498</styleUrl>
            <LineString id="45496">
                <coordinates>107.5911224,-6.9070825,0.0 107.5910022,-6.9071149,0.0 107.5906641,-6.907081,0.0</coordinates>
            </LineString>
        </Placemark>
        <Placemark id="45501">
            <name>Bunderan Cibeureum</name>
            <styleUrl>#45502</styleUrl>
            <LineString id="45500">
                <coordinates>107.5745601,-6.9172787,0.0 107.5745248,-6.9173306,0.0 107.5744751,-6.9173693,0.0 107.5744159,-6.9173911,0.0</coordinates>
            </LineString>
        </Placemark>
        <Placemark id="45505">
            <name>Jalan Garuda</name>
            <styleUrl>#45506</styleUrl>
            <LineString id="45504">
                <coordinates>107.5767538,-6.9173844,0.0 107.5766836,-6.9174697,0.0</coordinates>
            </LineString>
        </Placemark>
        <Placemark id="45509">
            <name>Bunderan Cibeureum</name>
            <styleUrl>#45510</styleUrl>
            <LineString id="45508">
                <coordinates>107.5742937,-6.9173779,0.0 107.5742396,-6.9173432,0.0 107.5741991,-6.9172935,0.0</coordinates>
            </LineString>
        </Placemark>
        <Placemark id="45513">
            <name>Bunderan Cibeureum</name>
            <styleUrl>#45514</styleUrl>
            <LineString id="45512">
                <coordinates>107.5744159,-6.9173911,0.0 107.5743538,-6.9173939,0.0 107.5742937,-6.9173779,0.0</coordinates>
            </LineString>
        </Placemark>
        <Placemark id="45517">
            <name>Jalan Pasir Kaliki</name>
            <styleUrl>#45518</styleUrl>
            <LineString id="45516">
                <coordinates>107.5974075,-6.898977,0.0 107.5974217,-6.8991501,0.0</coordinates>
            </LineString>
        </Placemark>
        <Placemark id="45521">
            <name>Jalan HOS. Cokroaminoto</name>
            <styleUrl>#45522</styleUrl>
            <LineString id="45520">
                <coordinates>107.5975343,-6.9039924,0.0 107.5975116,-6.9035067,0.0</coordinates>
            </LineString>
        </Placemark>
        <Placemark id="45525">
            <name>Jalan Pasteur</name>
            <styleUrl>#45526</styleUrl>
            <LineString id="45524">
                <coordinates>107.5979866,-6.900214,0.0 107.5985704,-6.900207,0.0</coordinates>
            </LineString>
        </Placemark>
        <Placemark id="45529">
            <name>Jalan Pasteur</name>
            <styleUrl>#45530</styleUrl>
            <LineString id="45528">
                <coordinates>107.5985681,-6.9003769,0.0 107.5982442,-6.9003802,0.0</coordinates>
            </LineString>
        </Placemark>
        <Placemark id="45533">
            <name>Jalan Pasteur</name>
            <styleUrl>#45534</styleUrl>
            <LineString id="45532">
                <coordinates>107.5988968,-6.9002096,0.0 107.5993001,-6.900202,0.0</coordinates>
            </LineString>
        </Placemark>
        <Placemark id="45537">
            <name>Jalan Pasteur</name>
            <styleUrl>#45538</styleUrl>
            <LineString id="45536">
                <coordinates>107.5995868,-6.9003613,0.0 107.5988975,-6.9003711,0.0</coordinates>
            </LineString>
        </Placemark>
        <Placemark id="45541">
            <name>Jalan Pajajaran</name>
            <styleUrl>#45542</styleUrl>
            <LineString id="45540">
                <coordinates>107.5930436,-6.9070358,0.0 107.592893,-6.9070548,0.0 107.5928538,-6.9070598,0.0 107.5926825,-6.9070846,0.0 107.5925401,-6.9070991,0.0 107.5923942,-6.9071118,0.0 107.592239,-6.9071272,0.0 107.5920701,-6.9071489,0.0</coordinates>
            </LineString>
        </Placemark>
        <Placemark id="45545">
            <name>Jalan Garuda</name>
            <styleUrl>#45546</styleUrl>
            <LineString id="45544">
                <coordinates>107.5780214,-6.9117553,0.0 107.5780145,-6.9117904,0.0 107.578003,-6.9118487,0.0 107.5779564,-6.9120857,0.0 107.5779077,-6.9123395,0.0 107.5778207,-6.9127137,0.0 107.5778075,-6.9127704,0.0 107.5776241,-6.9135596,0.0 107.5776188,-6.9135881,0.0 107.5776073,-6.9136496,0.0</coordinates>
            </LineString>
        </Placemark>
        <Placemark id="45549">
            <name>Jalan Pajajaran</name>
            <styleUrl>#45550</styleUrl>
            <LineString id="45548">
                <coordinates>107.588209,-6.9068423,0.0 107.5881464,-6.9068364,0.0 107.5880555,-6.9068315,0.0 107.5879978,-6.9068303,0.0 107.5879768,-6.9068298,0.0 107.5879555,-6.9068304,0.0 107.5879312,-6.9068311,0.0 107.5878886,-6.9068344,0.0 107.5878356,-6.9068448,0.0 107.5877897,-6.9068561,0.0</coordinates>
            </LineString>
        </Placemark>
        <Placemark id="45553">
            <name>Jalan Raya Cijerah</name>
            <styleUrl>#45554</styleUrl>
            <LineString id="45552">
                <coordinates>107.5698295,-6.9203328,0.0 107.5698625,-6.9202502,0.0 107.5699734,-6.9199722,0.0 107.5699912,-6.9199186,0.0 107.570031,-6.9197761,0.0 107.5700698,-6.9196362,0.0</coordinates>
            </LineString>
        </Placemark>
        <Placemark id="45557">
            <name>Route Segment</name>
            <styleUrl>#45558</styleUrl>
            <LineString id="45556">
                <coordinates>107.5766836,-6.9174697,0.0 107.5766159,-6.9175515,0.0</coordinates>
            </LineString>
        </Placemark>
        <Placemark id="45561">
            <name>Jalan Jendral Sudirman</name>
            <styleUrl>#45562</styleUrl>
            <LineString id="45560">
                <coordinates>107.5725721,-6.916133,0.0 107.5723979,-6.9159874,0.0 107.5723395,-6.9159333,0.0 107.5722759,-6.9158629,0.0 107.5722121,-6.9157842,0.0 107.5721531,-6.915707,0.0 107.5720994,-6.9156231,0.0 107.5720549,-6.9155598,0.0 107.5719123,-6.9153326,0.0 107.5718695,-6.9152634,0.0 107.5717819,-6.9151024,0.0 107.5717255,-6.9150035,0.0 107.5715151,-6.9146659,0.0</coordinates>
            </LineString>
        </Placemark>
        <Placemark id="45565">
            <name>Jalan Makmur</name>
            <styleUrl>#45566</styleUrl>
            <LineString id="45564">
                <coordinates>107.5987172,-6.8940629,0.0 107.5988837,-6.8941348,0.0 107.5989838,-6.8941794,0.0</coordinates>
            </LineString>
        </Placemark>
        <Placemark id="45569">
            <name>Jalan Abdul Rahman Saleh</name>
            <styleUrl>#45570</styleUrl>
            <LineString id="45568">
                <coordinates>107.5868079,-6.9070295,0.0 107.5866068,-6.9070674,0.0 107.5863259,-6.9071196,0.0 107.5861621,-6.9071508,0.0 107.5859779,-6.9071842,0.0</coordinates>
            </LineString>
        </Placemark>
        <Placemark id="45573">
            <name>Jalan Layang Nurtanio</name>
            <styleUrl>#45574</styleUrl>
            <LineString id="45572">
                <coordinates>107.5783486,-6.9103499,0.0 107.5785563,-6.9094641,0.0 107.5786794,-6.9089112,0.0 107.5787312,-6.9087166,0.0 107.5787723,-6.9085918,0.0 107.5788134,-6.9084914,0.0 107.5788589,-6.9083921,0.0 107.5789019,-6.9083181,0.0</coordinates>
            </LineString>
        </Placemark>
        <Placemark id="45577">
            <name>Jalan Layang Nurtanio</name>
            <styleUrl>#45578</styleUrl>
            <LineString id="45576">
                <coordinates>107.5794204,-6.9076036,0.0 107.5795244,-6.9075473,0.0 107.5797046,-6.9074852,0.0 107.5797916,-6.9074652,0.0 107.5798841,-6.9074506,0.0 107.5799775,-6.9074488,0.0 107.5800457,-6.9074531,0.0 107.5802379,-6.907476,0.0 107.5811738,-6.9075993,0.0</coordinates>
            </LineString>
        </Placemark>
        <Placemark id="45581">
            <name>Jalan Layang Nurtanio</name>
            <styleUrl>#45582</styleUrl>
            <LineString id="45580">
                <coordinates>107.5789019,-6.9083181,0.0 107.5790202,-6.9081211,0.0 107.5792369,-6.9077861,0.0 107.5792779,-6.9077322,0.0 107.579326,-6.9076782,0.0 107.5794204,-6.9076036,0.0</coordinates>
            </LineString>
        </Placemark>
    </Document>
</kml>
