<?xml version="1.0" encoding="UTF-8"?>
<kml xmlns="http://www.opengis.net/kml/2.2" xmlns:gx="http://www.google.com/kml/ext/2.2">
    <Document id="46185">
        <Style id="46191">
            <IconStyle id="46192">
                <colorMode>normal</colorMode>
                <scale>1</scale>
                <heading>0</heading>
                <Icon id="46193">
                    <href>http://maps.google.com/mapfiles/kml/pushpin/ylw-pushpin.png</href>
                </Icon>
            </IconStyle>
        </Style>
        <Style id="46196">
            <IconStyle id="46197">
                <colorMode>normal</colorMode>
                <scale>1</scale>
                <heading>0</heading>
                <Icon id="46198">
                    <href>http://maps.google.com/mapfiles/kml/pushpin/ylw-pushpin.png</href>
                </Icon>
            </IconStyle>
        </Style>
        <Style id="46201">
            <LineStyle id="46202">
                <color>ffEFAE00</color>
                <colorMode>normal</colorMode>
                <width>4</width>
            </LineStyle>
        </Style>
        <Style id="46205">
            <LineStyle id="46206">
                <color>ffEFAE00</color>
                <colorMode>normal</colorMode>
                <width>4</width>
            </LineStyle>
        </Style>
        <Style id="46209">
            <LineStyle id="46210">
                <color>ffEFAE00</color>
                <colorMode>normal</colorMode>
                <width>4</width>
            </LineStyle>
        </Style>
        <Style id="46213">
            <LineStyle id="46214">
                <color>ffEFAE00</color>
                <colorMode>normal</colorMode>
                <width>4</width>
            </LineStyle>
        </Style>
        <Style id="46217">
            <LineStyle id="46218">
                <color>ffEFAE00</color>
                <colorMode>normal</colorMode>
                <width>4</width>
            </LineStyle>
        </Style>
        <Style id="46221">
            <LineStyle id="46222">
                <color>ffEFAE00</color>
                <colorMode>normal</colorMode>
                <width>4</width>
            </LineStyle>
        </Style>
        <Style id="46225">
            <LineStyle id="46226">
                <color>ffEFAE00</color>
                <colorMode>normal</colorMode>
                <width>4</width>
            </LineStyle>
        </Style>
        <Style id="46229">
            <LineStyle id="46230">
                <color>ffEFAE00</color>
                <colorMode>normal</colorMode>
                <width>4</width>
            </LineStyle>
        </Style>
        <Style id="46233">
            <LineStyle id="46234">
                <color>ffEFAE00</color>
                <colorMode>normal</colorMode>
                <width>4</width>
            </LineStyle>
        </Style>
        <Style id="46237">
            <LineStyle id="46238">
                <color>ffEFAE00</color>
                <colorMode>normal</colorMode>
                <width>4</width>
            </LineStyle>
        </Style>
        <Style id="46241">
            <LineStyle id="46242">
                <color>ffEFAE00</color>
                <colorMode>normal</colorMode>
                <width>4</width>
            </LineStyle>
        </Style>
        <Style id="46245">
            <LineStyle id="46246">
                <color>ffEFAE00</color>
                <colorMode>normal</colorMode>
                <width>4</width>
            </LineStyle>
        </Style>
        <Style id="46249">
            <LineStyle id="46250">
                <color>ffEFAE00</color>
                <colorMode>normal</colorMode>
                <width>4</width>
            </LineStyle>
        </Style>
        <Style id="46253">
            <LineStyle id="46254">
                <color>ffEFAE00</color>
                <colorMode>normal</colorMode>
                <width>4</width>
            </LineStyle>
        </Style>
        <Style id="46257">
            <LineStyle id="46258">
                <color>ffEFAE00</color>
                <colorMode>normal</colorMode>
                <width>4</width>
            </LineStyle>
        </Style>
        <Style id="46261">
            <LineStyle id="46262">
                <color>ffEFAE00</color>
                <colorMode>normal</colorMode>
                <width>4</width>
            </LineStyle>
        </Style>
        <Style id="46265">
            <LineStyle id="46266">
                <color>ffEFAE00</color>
                <colorMode>normal</colorMode>
                <width>4</width>
            </LineStyle>
        </Style>
        <Style id="46269">
            <LineStyle id="46270">
                <color>ffEFAE00</color>
                <colorMode>normal</colorMode>
                <width>4</width>
            </LineStyle>
        </Style>
        <Style id="46273">
            <LineStyle id="46274">
                <color>ffEFAE00</color>
                <colorMode>normal</colorMode>
                <width>4</width>
            </LineStyle>
        </Style>
        <Style id="46277">
            <LineStyle id="46278">
                <color>ffEFAE00</color>
                <colorMode>normal</colorMode>
                <width>4</width>
            </LineStyle>
        </Style>
        <Style id="46281">
            <LineStyle id="46282">
                <color>ffEFAE00</color>
                <colorMode>normal</colorMode>
                <width>4</width>
            </LineStyle>
        </Style>
        <Style id="46285">
            <LineStyle id="46286">
                <color>ffEFAE00</color>
                <colorMode>normal</colorMode>
                <width>4</width>
            </LineStyle>
        </Style>
        <Style id="46289">
            <LineStyle id="46290">
                <color>ffEFAE00</color>
                <colorMode>normal</colorMode>
                <width>4</width>
            </LineStyle>
        </Style>
        <Style id="46293">
            <LineStyle id="46294">
                <color>ffEFAE00</color>
                <colorMode>normal</colorMode>
                <width>4</width>
            </LineStyle>
        </Style>
        <ExtendedData>
            <Data name="route-name">
                <value>25: Cipamokolan → Ciwastra</value>
            </Data>
            <Data name="source">
                <value>Transport for Bandung</value>
            </Data>
        </ExtendedData>
        <Placemark id="46190">
            <name>Bulog Kancab Bandung</name>
            <styleUrl>#46191</styleUrl>
            <Point id="46189">
                <coordinates>107.6773057,-6.9389794,0.0</coordinates>
            </Point>
        </Placemark>
        <Placemark id="46195">
            <name>Pasar Ciwastra</name>
            <styleUrl>#46196</styleUrl>
            <Point id="46194">
                <coordinates>107.6664238,-6.9611563,0.0</coordinates>
            </Point>
        </Placemark>
        <Placemark id="46200">
            <name>Jalan Cipamokolan</name>
            <styleUrl>#46201</styleUrl>
            <LineString id="46199">
                <coordinates>107.676778,-6.9437024,0.0 107.6768296,-6.9436984,0.0 107.6769684,-6.9436877,0.0 107.6770134,-6.9436757,0.0 107.6770543,-6.9436611,0.0 107.6770978,-6.9436238,0.0 107.677124,-6.9435879,0.0 107.6771381,-6.9435353,0.0 107.6771471,-6.9433995,0.0 107.677151,-6.94334,0.0 107.6771482,-6.9430787,0.0 107.6771505,-6.9428723,0.0 107.6771548,-6.9424783,0.0 107.6771813,-6.9419137,0.0 107.677192,-6.9416616,0.0</coordinates>
            </LineString>
        </Placemark>
        <Placemark id="46204">
            <name>Jalan Cipamokolan</name>
            <styleUrl>#46205</styleUrl>
            <LineString id="46203">
                <coordinates>107.6761689,-6.9437193,0.0 107.676142,-6.9441652,0.0 107.6761382,-6.9442138,0.0 107.6760746,-6.9448399,0.0 107.6760444,-6.9451368,0.0 107.6760144,-6.945403,0.0</coordinates>
            </LineString>
        </Placemark>
        <Placemark id="46208">
            <name>Jalan Cipamokolan</name>
            <styleUrl>#46209</styleUrl>
            <LineString id="46207">
                <coordinates>107.6760144,-6.945403,0.0 107.6760216,-6.9454829,0.0 107.6760357,-6.9455555,0.0 107.6760478,-6.9456041,0.0 107.6760974,-6.945831,0.0 107.6761217,-6.9459658,0.0 107.6761311,-6.9461257,0.0 107.6761452,-6.9462876,0.0 107.6761664,-6.9465954,0.0 107.6761678,-6.946729,0.0 107.6761624,-6.9468368,0.0 107.6761572,-6.9469155,0.0 107.6761553,-6.9470277,0.0 107.676155,-6.9470714,0.0 107.6761547,-6.9471151,0.0 107.676152,-6.9473241,0.0 107.6761345,-6.9475365,0.0 107.6761232,-6.9476861,0.0 107.6761085,-6.9478815,0.0 107.6760975,-6.9480158,0.0 107.676092,-6.9480823,0.0 107.6760894,-6.9481443,0.0 107.6760873,-6.9481927,0.0 107.6760719,-6.9484783,0.0 107.6760613,-6.9489249,0.0 107.6760754,-6.9494853,0.0 107.6760854,-6.9498833,0.0 107.676092,-6.9501504,0.0</coordinates>
            </LineString>
        </Placemark>
        <Placemark id="46212">
            <name>Jalan Cipamokolan</name>
            <styleUrl>#46213</styleUrl>
            <LineString id="46211">
                <coordinates>107.6761689,-6.9437193,0.0 107.6765536,-6.9437069,0.0 107.6766118,-6.9437069,0.0</coordinates>
            </LineString>
        </Placemark>
        <Placemark id="46216">
            <name>Marga Cinta</name>
            <styleUrl>#46217</styleUrl>
            <LineString id="46215">
                <coordinates>107.6719217,-6.9620401,0.0 107.6720429,-6.9620589,0.0</coordinates>
            </LineString>
        </Placemark>
        <Placemark id="46220">
            <name>Marga Cinta</name>
            <styleUrl>#46221</styleUrl>
            <LineString id="46219">
                <coordinates>107.6720775,-6.9620645,0.0 107.6726232,-6.9622086,0.0 107.6728043,-6.9622898,0.0 107.6727902,-6.9625361,0.0 107.6727755,-6.9629492,0.0 107.6727624,-6.963318,0.0 107.6727541,-6.9635517,0.0 107.6727512,-6.9636329,0.0 107.672748,-6.9637235,0.0</coordinates>
            </LineString>
        </Placemark>
        <Placemark id="46224">
            <name>Jalan Cipamokolan</name>
            <styleUrl>#46225</styleUrl>
            <LineString id="46223">
                <coordinates>107.6766118,-6.9437069,0.0 107.676778,-6.9437024,0.0</coordinates>
            </LineString>
        </Placemark>
        <Placemark id="46228">
            <name>Jalan Cipamokolan</name>
            <styleUrl>#46229</styleUrl>
            <LineString id="46227">
                <coordinates>107.677192,-6.9416616,0.0 107.6772242,-6.9409563,0.0 107.6772327,-6.9407701,0.0 107.6772455,-6.9404904,0.0 107.6772511,-6.9403669,0.0 107.6772585,-6.9402045,0.0 107.677261,-6.9401488,0.0 107.6772716,-6.9399169,0.0 107.6772804,-6.9397242,0.0 107.6772888,-6.9395406,0.0 107.6772921,-6.9393925,0.0 107.6772935,-6.9393623,0.0 107.6772997,-6.9391553,0.0 107.6773057,-6.9389794,0.0</coordinates>
            </LineString>
        </Placemark>
        <Placemark id="46232">
            <name>Jalan Cipamokolan</name>
            <styleUrl>#46233</styleUrl>
            <LineString id="46231">
                <coordinates>107.6776206,-6.9558869,0.0 107.6776036,-6.9560319,0.0 107.6775494,-6.9564562,0.0 107.6775478,-6.9565323,0.0 107.6775666,-6.9565949,0.0 107.6775675,-6.9566435,0.0 107.6775655,-6.9566581,0.0 107.6775135,-6.9570455,0.0 107.6774823,-6.9572784,0.0 107.6774369,-6.9576215,0.0 107.6774297,-6.9576777,0.0 107.6774137,-6.9577976,0.0 107.6773687,-6.9581397,0.0 107.6773491,-6.9583018,0.0 107.6773332,-6.9584266,0.0 107.6773003,-6.9586649,0.0 107.677283,-6.9588039,0.0 107.677276,-6.9588568,0.0</coordinates>
            </LineString>
        </Placemark>
        <Placemark id="46236">
            <name>Jalan Cipamokolan</name>
            <styleUrl>#46237</styleUrl>
            <LineString id="46235">
                <coordinates>107.677276,-6.9588568,0.0 107.6771678,-6.9596119,0.0 107.6771384,-6.9598424,0.0 107.6771347,-6.9599509,0.0 107.6771227,-6.960052,0.0 107.6771066,-6.9601359,0.0 107.677073,-6.9602211,0.0 107.6770259,-6.9603096,0.0 107.6769753,-6.9604046,0.0 107.676811,-6.9612474,0.0 107.6766374,-6.9624225,0.0 107.6765711,-6.9628618,0.0 107.6765372,-6.963101,0.0 107.6765245,-6.963187,0.0</coordinates>
            </LineString>
        </Placemark>
        <Placemark id="46240">
            <name>Route Segment</name>
            <styleUrl>#46241</styleUrl>
            <LineString id="46239">
                <coordinates>107.6765245,-6.963187,0.0 107.6765305,-6.9634838,0.0 107.6765357,-6.9637408,0.0 107.6765422,-6.9640624,0.0</coordinates>
            </LineString>
        </Placemark>
        <Placemark id="46244">
            <name>Route Segment</name>
            <styleUrl>#46245</styleUrl>
            <LineString id="46243">
                <coordinates>107.6763126,-6.9552093,0.0 107.6764619,-6.9551877,0.0 107.6766224,-6.9551917,0.0 107.6766821,-6.9551953,0.0 107.6770127,-6.955221,0.0 107.6774661,-6.9552597,0.0 107.6775344,-6.9552746,0.0 107.6775612,-6.9552869,0.0 107.6775905,-6.9553056,0.0 107.6776296,-6.9553422,0.0 107.6776579,-6.9553889,0.0 107.6776648,-6.9555594,0.0 107.6776395,-6.9557731,0.0 107.6776206,-6.9558869,0.0</coordinates>
            </LineString>
        </Placemark>
        <Placemark id="46248">
            <name>Route Segment</name>
            <styleUrl>#46249</styleUrl>
            <LineString id="46247">
                <coordinates>107.6765326,-6.9502329,0.0 107.6765127,-6.9507386,0.0 107.6764984,-6.9511028,0.0 107.6765027,-6.9515615,0.0 107.6765038,-6.9516752,0.0 107.6765127,-6.9518875,0.0 107.6765005,-6.9521073,0.0 107.6764843,-6.9524007,0.0 107.6764722,-6.9527463,0.0 107.6764508,-6.9530526,0.0</coordinates>
            </LineString>
        </Placemark>
        <Placemark id="46252">
            <name>Jalan Derwati</name>
            <styleUrl>#46253</styleUrl>
            <LineString id="46251">
                <coordinates>107.672748,-6.9637235,0.0 107.672872,-6.9637355,0.0 107.6734111,-6.9637914,0.0 107.6734714,-6.9637987,0.0 107.6738195,-6.9638334,0.0 107.674242,-6.9638681,0.0 107.674507,-6.9638911,0.0 107.6745845,-6.9638981,0.0 107.6747359,-6.9639119,0.0 107.6751648,-6.9639429,0.0 107.6756082,-6.9639815,0.0</coordinates>
            </LineString>
        </Placemark>
        <Placemark id="46256">
            <name>Route Segment</name>
            <styleUrl>#46257</styleUrl>
            <LineString id="46255">
                <coordinates>107.6765326,-6.9502329,0.0 107.676092,-6.9501504,0.0</coordinates>
            </LineString>
        </Placemark>
        <Placemark id="46260">
            <name>Route Segment</name>
            <styleUrl>#46261</styleUrl>
            <LineString id="46259">
                <coordinates>107.6764508,-6.9530526,0.0 107.6764444,-6.9531562,0.0 107.6764065,-6.953768,0.0 107.6763963,-6.9541791,0.0 107.6763347,-6.9549548,0.0 107.6763126,-6.9552093,0.0</coordinates>
            </LineString>
        </Placemark>
        <Placemark id="46264">
            <name>Jalan Marga Cinta</name>
            <styleUrl>#46265</styleUrl>
            <LineString id="46263">
                <coordinates>107.6664238,-6.9611563,0.0 107.6670034,-6.9612891,0.0 107.667172,-6.961328,0.0 107.6676083,-6.9614297,0.0 107.6680921,-6.9614777,0.0 107.6681391,-6.9614825,0.0 107.6684135,-6.961523,0.0 107.6686213,-6.9615661,0.0 107.6690383,-6.961653,0.0 107.6692021,-6.9616827,0.0 107.6693046,-6.9616978,0.0 107.6694877,-6.9617174,0.0 107.669646,-6.9617334,0.0 107.6697989,-6.9617513,0.0 107.6698462,-6.961756,0.0 107.6703105,-6.9618026,0.0 107.6706444,-6.9618456,0.0 107.6707571,-6.9618635,0.0</coordinates>
            </LineString>
        </Placemark>
        <Placemark id="46268">
            <name>Jalan Derwati</name>
            <styleUrl>#46269</styleUrl>
            <LineString id="46267">
                <coordinates>107.6756082,-6.9639815,0.0 107.6756749,-6.9639878,0.0</coordinates>
            </LineString>
        </Placemark>
        <Placemark id="46272">
            <name>Jalan Derwati</name>
            <styleUrl>#46273</styleUrl>
            <LineString id="46271">
                <coordinates>107.6764518,-6.9640587,0.0 107.6765155,-6.964061,0.0</coordinates>
            </LineString>
        </Placemark>
        <Placemark id="46276">
            <name>Jalan Derwati</name>
            <styleUrl>#46277</styleUrl>
            <LineString id="46275">
                <coordinates>107.6756749,-6.9639878,0.0 107.6764518,-6.9640587,0.0</coordinates>
            </LineString>
        </Placemark>
        <Placemark id="46280">
            <name>Marga Cinta</name>
            <styleUrl>#46281</styleUrl>
            <LineString id="46279">
                <coordinates>107.6720429,-6.9620589,0.0 107.6720775,-6.9620645,0.0</coordinates>
            </LineString>
        </Placemark>
        <Placemark id="46284">
            <name>Jalan Marga Cinta</name>
            <styleUrl>#46285</styleUrl>
            <LineString id="46283">
                <coordinates>107.6707933,-6.9618672,0.0 107.6709374,-6.9618945,0.0 107.6710864,-6.961918,0.0 107.6713023,-6.9619504,0.0 107.6715551,-6.9619861,0.0 107.6718722,-6.9620332,0.0 107.6719217,-6.9620401,0.0</coordinates>
            </LineString>
        </Placemark>
        <Placemark id="46288">
            <name>Jalan Marga Cinta</name>
            <styleUrl>#46289</styleUrl>
            <LineString id="46287">
                <coordinates>107.6707571,-6.9618635,0.0 107.6707933,-6.9618672,0.0</coordinates>
            </LineString>
        </Placemark>
        <Placemark id="46292">
            <name>Jalan Derwati</name>
            <styleUrl>#46293</styleUrl>
            <LineString id="46291">
                <coordinates>107.6765155,-6.964061,0.0 107.6765422,-6.9640624,0.0</coordinates>
            </LineString>
        </Placemark>
    </Document>
</kml>
