<?xml version="1.0" encoding="UTF-8"?>
<kml xmlns="http://www.opengis.net/kml/2.2" xmlns:gx="http://www.google.com/kml/ext/2.2">
    <Document id="46532">
        <Style id="46538">
            <IconStyle id="46539">
                <colorMode>normal</colorMode>
                <scale>1</scale>
                <heading>0</heading>
                <Icon id="46540">
                    <href>http://maps.google.com/mapfiles/kml/pushpin/ylw-pushpin.png</href>
                </Icon>
            </IconStyle>
        </Style>
        <Style id="46543">
            <IconStyle id="46544">
                <colorMode>normal</colorMode>
                <scale>1</scale>
                <heading>0</heading>
                <Icon id="46545">
                    <href>http://maps.google.com/mapfiles/kml/pushpin/ylw-pushpin.png</href>
                </Icon>
            </IconStyle>
        </Style>
        <Style id="46548">
            <LineStyle id="46549">
                <color>ffEFAE00</color>
                <colorMode>normal</colorMode>
                <width>4</width>
            </LineStyle>
        </Style>
        <Style id="46552">
            <LineStyle id="46553">
                <color>ffEFAE00</color>
                <colorMode>normal</colorMode>
                <width>4</width>
            </LineStyle>
        </Style>
        <Style id="46556">
            <LineStyle id="46557">
                <color>ffEFAE00</color>
                <colorMode>normal</colorMode>
                <width>4</width>
            </LineStyle>
        </Style>
        <Style id="46560">
            <LineStyle id="46561">
                <color>ffEFAE00</color>
                <colorMode>normal</colorMode>
                <width>4</width>
            </LineStyle>
        </Style>
        <Style id="46564">
            <LineStyle id="46565">
                <color>ffEFAE00</color>
                <colorMode>normal</colorMode>
                <width>4</width>
            </LineStyle>
        </Style>
        <Style id="46568">
            <LineStyle id="46569">
                <color>ffEFAE00</color>
                <colorMode>normal</colorMode>
                <width>4</width>
            </LineStyle>
        </Style>
        <Style id="46572">
            <LineStyle id="46573">
                <color>ffEFAE00</color>
                <colorMode>normal</colorMode>
                <width>4</width>
            </LineStyle>
        </Style>
        <Style id="46576">
            <LineStyle id="46577">
                <color>ffEFAE00</color>
                <colorMode>normal</colorMode>
                <width>4</width>
            </LineStyle>
        </Style>
        <Style id="46580">
            <LineStyle id="46581">
                <color>ffEFAE00</color>
                <colorMode>normal</colorMode>
                <width>4</width>
            </LineStyle>
        </Style>
        <Style id="46584">
            <LineStyle id="46585">
                <color>ffEFAE00</color>
                <colorMode>normal</colorMode>
                <width>4</width>
            </LineStyle>
        </Style>
        <Style id="46588">
            <LineStyle id="46589">
                <color>ffEFAE00</color>
                <colorMode>normal</colorMode>
                <width>4</width>
            </LineStyle>
        </Style>
        <Style id="46592">
            <LineStyle id="46593">
                <color>ffEFAE00</color>
                <colorMode>normal</colorMode>
                <width>4</width>
            </LineStyle>
        </Style>
        <Style id="46596">
            <LineStyle id="46597">
                <color>ffEFAE00</color>
                <colorMode>normal</colorMode>
                <width>4</width>
            </LineStyle>
        </Style>
        <Style id="46600">
            <LineStyle id="46601">
                <color>ffEFAE00</color>
                <colorMode>normal</colorMode>
                <width>4</width>
            </LineStyle>
        </Style>
        <Style id="46604">
            <LineStyle id="46605">
                <color>ffEFAE00</color>
                <colorMode>normal</colorMode>
                <width>4</width>
            </LineStyle>
        </Style>
        <Style id="46608">
            <LineStyle id="46609">
                <color>ffEFAE00</color>
                <colorMode>normal</colorMode>
                <width>4</width>
            </LineStyle>
        </Style>
        <Style id="46612">
            <LineStyle id="46613">
                <color>ffEFAE00</color>
                <colorMode>normal</colorMode>
                <width>4</width>
            </LineStyle>
        </Style>
        <Style id="46616">
            <LineStyle id="46617">
                <color>ffEFAE00</color>
                <colorMode>normal</colorMode>
                <width>4</width>
            </LineStyle>
        </Style>
        <Style id="46620">
            <LineStyle id="46621">
                <color>ffEFAE00</color>
                <colorMode>normal</colorMode>
                <width>4</width>
            </LineStyle>
        </Style>
        <Style id="46624">
            <LineStyle id="46625">
                <color>ffEFAE00</color>
                <colorMode>normal</colorMode>
                <width>4</width>
            </LineStyle>
        </Style>
        <Style id="46628">
            <LineStyle id="46629">
                <color>ffEFAE00</color>
                <colorMode>normal</colorMode>
                <width>4</width>
            </LineStyle>
        </Style>
        <Style id="46632">
            <LineStyle id="46633">
                <color>ffEFAE00</color>
                <colorMode>normal</colorMode>
                <width>4</width>
            </LineStyle>
        </Style>
        <Style id="46636">
            <LineStyle id="46637">
                <color>ffEFAE00</color>
                <colorMode>normal</colorMode>
                <width>4</width>
            </LineStyle>
        </Style>
        <Style id="46640">
            <LineStyle id="46641">
                <color>ffEFAE00</color>
                <colorMode>normal</colorMode>
                <width>4</width>
            </LineStyle>
        </Style>
        <Style id="46644">
            <LineStyle id="46645">
                <color>ffEFAE00</color>
                <colorMode>normal</colorMode>
                <width>4</width>
            </LineStyle>
        </Style>
        <Style id="46648">
            <LineStyle id="46649">
                <color>ffEFAE00</color>
                <colorMode>normal</colorMode>
                <width>4</width>
            </LineStyle>
        </Style>
        <Style id="46652">
            <LineStyle id="46653">
                <color>ffEFAE00</color>
                <colorMode>normal</colorMode>
                <width>4</width>
            </LineStyle>
        </Style>
        <Style id="46656">
            <LineStyle id="46657">
                <color>ffEFAE00</color>
                <colorMode>normal</colorMode>
                <width>4</width>
            </LineStyle>
        </Style>
        <ExtendedData>
            <Data name="route-name">
                <value>25: Ujungberung → Cisaranten Kulon</value>
            </Data>
            <Data name="source">
                <value>Transport for Bandung</value>
            </Data>
        </ExtendedData>
        <Placemark id="46537">
            <name>Terminal Ujungberung</name>
            <styleUrl>#46538</styleUrl>
            <Point id="46536">
                <coordinates>107.7028132,-6.9140461,0.0</coordinates>
            </Point>
        </Placemark>
        <Placemark id="46542">
            <name>STMIK Jabar</name>
            <styleUrl>#46543</styleUrl>
            <Point id="46541">
                <coordinates>107.6773616,-6.9377802,0.0</coordinates>
            </Point>
        </Placemark>
        <Placemark id="46547">
            <name>Jalan Cicukang</name>
            <styleUrl>#46548</styleUrl>
            <LineString id="46546">
                <coordinates>107.6853357,-6.9069314,0.0 107.6844878,-6.9089186,0.0 107.6844034,-6.909138,0.0 107.6842106,-6.9096389,0.0</coordinates>
            </LineString>
        </Placemark>
        <Placemark id="46551">
            <name>Route Segment</name>
            <styleUrl>#46552</styleUrl>
            <LineString id="46550">
                <coordinates>107.6847867,-6.9148759,0.0 107.6846777,-6.9156246,0.0 107.6846715,-6.9157234,0.0 107.6847394,-6.9157496,0.0 107.6849427,-6.9158827,0.0 107.685051,-6.9159792,0.0 107.6850875,-6.9160544,0.0 107.6850913,-6.9161392,0.0 107.6850807,-6.9161778,0.0 107.6850672,-6.916227,0.0 107.685054,-6.9162749,0.0 107.6849999,-6.916369,0.0 107.6848835,-6.9165152,0.0 107.6846053,-6.9166767,0.0 107.6845445,-6.9167636,0.0 107.6843774,-6.9170154,0.0 107.6843535,-6.9170521,0.0 107.6842272,-6.9172973,0.0 107.6840438,-6.9177435,0.0</coordinates>
            </LineString>
        </Placemark>
        <Placemark id="46555">
            <name>Jalan Cisaranten Kulon</name>
            <styleUrl>#46556</styleUrl>
            <LineString id="46554">
                <coordinates>107.6840438,-6.9177435,0.0 107.6843802,-6.9178836,0.0 107.6849704,-6.9181194,0.0 107.6849372,-6.9183032,0.0 107.6849004,-6.9185044,0.0 107.6848801,-6.918656,0.0 107.68483,-6.9190023,0.0 107.6848267,-6.9190549,0.0 107.6847907,-6.9194548,0.0 107.6847636,-6.9195933,0.0 107.6847382,-6.9196737,0.0 107.6847216,-6.919725,0.0 107.6845984,-6.9200657,0.0</coordinates>
            </LineString>
        </Placemark>
        <Placemark id="46559">
            <name>Jalan Cisaranten Kulon</name>
            <styleUrl>#46560</styleUrl>
            <LineString id="46558">
                <coordinates>107.6845984,-6.9200657,0.0 107.6844656,-6.9202721,0.0 107.6843809,-6.9204036,0.0 107.6843675,-6.9204245,0.0 107.6843151,-6.9205334,0.0 107.6842783,-6.9206777,0.0 107.6842414,-6.9208219,0.0 107.6841697,-6.9211451,0.0 107.6841208,-6.9213654,0.0 107.6840618,-6.9216309,0.0 107.6839326,-6.9220791,0.0 107.6838678,-6.92236,0.0 107.683862,-6.9223966,0.0 107.6838666,-6.9224463,0.0 107.6839378,-6.922592,0.0 107.6839585,-6.9226345,0.0 107.6839519,-6.9227314,0.0 107.6838165,-6.9232967,0.0 107.6837623,-6.923502,0.0</coordinates>
            </LineString>
        </Placemark>
        <Placemark id="46563">
            <name>Jalan Abdul Haris Nasution</name>
            <styleUrl>#46564</styleUrl>
            <LineString id="46562">
                <coordinates>107.6981324,-6.9140614,0.0 107.6978409,-6.9140523,0.0 107.6977578,-6.9140498,0.0 107.6967586,-6.91402,0.0 107.6966396,-6.9139937,0.0 107.6955657,-6.9136497,0.0 107.6953324,-6.913575,0.0 107.6950984,-6.9135008,0.0 107.6950575,-6.9134879,0.0 107.6940999,-6.9131835,0.0 107.6940118,-6.9131572,0.0 107.6939237,-6.9131308,0.0 107.6938253,-6.9131006,0.0 107.6937275,-6.9130705,0.0 107.6932002,-6.9128981,0.0 107.6925681,-6.9126992,0.0 107.6922664,-6.9126036,0.0</coordinates>
            </LineString>
        </Placemark>
        <Placemark id="46567">
            <name>Jalan Cisaranten Kulon</name>
            <styleUrl>#46568</styleUrl>
            <LineString id="46566">
                <coordinates>107.6773616,-6.9377802,0.0 107.6774122,-6.9368514,0.0 107.677513,-6.9363022,0.0 107.6775232,-6.9362617,0.0 107.6775439,-6.9362041,0.0 107.6775894,-6.9360815,0.0 107.6776122,-6.9360282,0.0 107.677647,-6.9359563,0.0 107.6776725,-6.9358991,0.0 107.6777033,-6.9358471,0.0 107.6777329,-6.9358006,0.0 107.6777699,-6.9357547,0.0 107.6778428,-6.9356674,0.0 107.6779142,-6.9356032,0.0 107.6779831,-6.9355631,0.0 107.6781204,-6.9354957,0.0 107.6781931,-6.9354654,0.0 107.6782298,-6.9354511,0.0 107.6784542,-6.9353768,0.0 107.6786188,-6.9353247,0.0 107.6788702,-6.9352264,0.0 107.6789828,-6.9351516,0.0 107.6790411,-6.9350963,0.0 107.6790746,-6.9350231,0.0 107.6791263,-6.934826,0.0 107.6791987,-6.9345891,0.0 107.6792148,-6.9345252,0.0 107.6792604,-6.9343481,0.0 107.6792725,-6.9342995,0.0 107.6793308,-6.9340852,0.0 107.6793549,-6.933994,0.0 107.6793864,-6.9338369,0.0 107.6793777,-6.9337843,0.0 107.6793502,-6.9337297,0.0 107.6791799,-6.9335254,0.0 107.679158,-6.9334689,0.0 107.6791504,-6.9334109,0.0 107.6791492,-6.933353,0.0 107.6791806,-6.9332658,0.0 107.6792242,-6.9331653,0.0 107.6792872,-6.9330295,0.0 107.6793348,-6.9328304,0.0 107.679375,-6.9323012,0.0 107.6793828,-6.9319938,0.0 107.6793871,-6.9318246,0.0 107.6793838,-6.9316336,0.0 107.6793911,-6.9315278,0.0 107.6794112,-6.9314113,0.0 107.6795025,-6.9310291,0.0 107.6795915,-6.9306564,0.0 107.6796581,-6.9303895,0.0 107.6797968,-6.9297625,0.0 107.6799336,-6.9291733,0.0</coordinates>
            </LineString>
        </Placemark>
        <Placemark id="46571">
            <name>Jalan Cisaranten Kulon</name>
            <styleUrl>#46572</styleUrl>
            <LineString id="46570">
                <coordinates>107.6799336,-6.9291733,0.0 107.6802207,-6.9291958,0.0 107.6805008,-6.9292132,0.0 107.6806684,-6.9291905,0.0 107.6807609,-6.9291797,0.0 107.6808518,-6.9291518,0.0 107.6814464,-6.9288033,0.0 107.6818231,-6.9285528,0.0 107.6819028,-6.9284883,0.0 107.6820354,-6.9283808,0.0 107.682085,-6.9283346,0.0 107.6822517,-6.9281678,0.0 107.6823297,-6.9280343,0.0 107.6824035,-6.9278428,0.0 107.6824371,-6.9277386,0.0 107.6824932,-6.9275596,0.0 107.6826452,-6.9271616,0.0 107.68265,-6.9271474,0.0 107.6826727,-6.9270729,0.0 107.682812,-6.926664,0.0 107.6829274,-6.9263197,0.0 107.6831773,-6.9256068,0.0 107.6832195,-6.9254737,0.0 107.6832758,-6.9252908,0.0 107.6833509,-6.9249763,0.0 107.6833778,-6.9248645,0.0</coordinates>
            </LineString>
        </Placemark>
        <Placemark id="46575">
            <name>Jalan Cisaranten Kulon</name>
            <styleUrl>#46576</styleUrl>
            <LineString id="46574">
                <coordinates>107.6836762,-6.9237775,0.0 107.6836388,-6.92389,0.0 107.6836097,-6.9239777,0.0 107.6835144,-6.9242654,0.0 107.6834604,-6.9244192,0.0 107.6834185,-6.9245846,0.0 107.683391,-6.9247735,0.0 107.6833778,-6.9248645,0.0</coordinates>
            </LineString>
        </Placemark>
        <Placemark id="46579">
            <name>Jalan Abdul Haris Nasution</name>
            <styleUrl>#46580</styleUrl>
            <LineString id="46578">
                <coordinates>107.6886554,-6.9089512,0.0 107.6884956,-6.9087587,0.0</coordinates>
            </LineString>
        </Placemark>
        <Placemark id="46583">
            <name>Jalan Abdul Haris Nasution</name>
            <styleUrl>#46584</styleUrl>
            <LineString id="46582">
                <coordinates>107.6884956,-6.9087587,0.0 107.6884665,-6.9087231,0.0 107.6883751,-6.9086112,0.0 107.6883498,-6.9085803,0.0 107.6882509,-6.9084646,0.0 107.6881997,-6.9084047,0.0 107.6881669,-6.9083663,0.0 107.6881296,-6.9083276,0.0 107.6879166,-6.9081066,0.0 107.6878856,-6.9080779,0.0 107.6878604,-6.9080595,0.0 107.6877557,-6.9079872,0.0 107.687718,-6.9079611,0.0 107.6875495,-6.9078678,0.0 107.6872801,-6.9077377,0.0 107.6871903,-6.9076995,0.0 107.6870374,-6.9076394,0.0 107.686994,-6.9076223,0.0 107.6867571,-6.9075283,0.0 107.6867495,-6.907525,0.0 107.6866954,-6.9075035,0.0 107.6864696,-6.9074116,0.0 107.6861292,-6.9072788,0.0</coordinates>
            </LineString>
        </Placemark>
        <Placemark id="46587">
            <name>Jalan Cicukang</name>
            <styleUrl>#46588</styleUrl>
            <LineString id="46586">
                <coordinates>107.6842106,-6.9096389,0.0 107.6840757,-6.9099636,0.0 107.6840396,-6.9100505,0.0 107.683441,-6.9116112,0.0 107.6833347,-6.9118872,0.0 107.6832092,-6.9122207,0.0 107.683082,-6.9128432,0.0 107.6830772,-6.9128659,0.0 107.6832604,-6.9130568,0.0 107.6832766,-6.9130962,0.0 107.6832818,-6.9131296,0.0 107.6832016,-6.9135359,0.0 107.6832293,-6.9135902,0.0 107.6839929,-6.9138004,0.0 107.6840106,-6.9138211,0.0 107.6840173,-6.9138471,0.0 107.6839312,-6.9141792,0.0 107.6839636,-6.9142092,0.0 107.6840501,-6.9142445,0.0 107.6842278,-6.9143077,0.0 107.6843378,-6.9143836,0.0 107.6843774,-6.9145134,0.0 107.6843827,-6.9145334,0.0 107.6843982,-6.9145507,0.0 107.6845783,-6.9147246,0.0 107.6847867,-6.9148759,0.0</coordinates>
            </LineString>
        </Placemark>
        <Placemark id="46591">
            <name>Jalan Abdul Haris Nasution</name>
            <styleUrl>#46592</styleUrl>
            <LineString id="46590">
                <coordinates>107.6895516,-6.9103253,0.0 107.689292,-6.9099117,0.0 107.6891272,-6.9096584,0.0 107.6889856,-6.9094288,0.0 107.6889178,-6.9093232,0.0 107.6888218,-6.9091822,0.0 107.6886554,-6.9089512,0.0</coordinates>
            </LineString>
        </Placemark>
        <Placemark id="46595">
            <name>Jalan Abdul Haris Nasution</name>
            <styleUrl>#46596</styleUrl>
            <LineString id="46594">
                <coordinates>107.6915575,-6.9123564,0.0 107.6914788,-6.9123269,0.0 107.691339,-6.9122714,0.0</coordinates>
            </LineString>
        </Placemark>
        <Placemark id="46599">
            <name>Jalan Abdul Haris Nasution</name>
            <styleUrl>#46600</styleUrl>
            <LineString id="46598">
                <coordinates>107.7032497,-6.91455,0.0 107.7031568,-6.9144994,0.0 107.7030871,-6.9144355,0.0 107.7029483,-6.914327,0.0 107.7028081,-6.9142652,0.0 107.7024501,-6.9142212,0.0 107.7020229,-6.9141985,0.0</coordinates>
            </LineString>
        </Placemark>
        <Placemark id="46603">
            <name>Jalan Abdul Haris Nasution</name>
            <styleUrl>#46604</styleUrl>
            <LineString id="46602">
                <coordinates>107.6993869,-6.9140921,0.0 107.6988139,-6.9140772,0.0 107.6987736,-6.9140758,0.0 107.6985678,-6.9140743,0.0 107.6985267,-6.9140727,0.0 107.698183,-6.9140629,0.0 107.6981324,-6.9140614,0.0</coordinates>
            </LineString>
        </Placemark>
        <Placemark id="46607">
            <name>Jalan Abdul Haris Nasution</name>
            <styleUrl>#46608</styleUrl>
            <LineString id="46606">
                <coordinates>107.7011554,-6.9141654,0.0 107.7007442,-6.9141513,0.0</coordinates>
            </LineString>
        </Placemark>
        <Placemark id="46611">
            <name>Jalan Abdul Haris Nasution</name>
            <styleUrl>#46612</styleUrl>
            <LineString id="46610">
                <coordinates>107.7007442,-6.9141513,0.0 107.7000087,-6.914134,0.0 107.6994319,-6.914122,0.0 107.6993869,-6.9140921,0.0</coordinates>
            </LineString>
        </Placemark>
        <Placemark id="46615">
            <name>Jalan Abdul Haris Nasution</name>
            <styleUrl>#46616</styleUrl>
            <LineString id="46614">
                <coordinates>107.7020229,-6.9141985,0.0 107.7017701,-6.9141965,0.0 107.7015059,-6.9141839,0.0 107.7013998,-6.9141805,0.0 107.7012141,-6.9141675,0.0 107.7011554,-6.9141654,0.0</coordinates>
            </LineString>
        </Placemark>
        <Placemark id="46619">
            <name>Jalan Abdul Haris Nasution</name>
            <styleUrl>#46620</styleUrl>
            <LineString id="46618">
                <coordinates>107.7027899,-6.914196,0.0 107.7028255,-6.9142064,0.0 107.7029436,-6.9142538,0.0 107.7031033,-6.9143708,0.0 107.7031981,-6.9144625,0.0 107.7032497,-6.91455,0.0</coordinates>
            </LineString>
        </Placemark>
        <Placemark id="46623">
            <name>Jalan Abdul Haris Nasution</name>
            <styleUrl>#46624</styleUrl>
            <LineString id="46622">
                <coordinates>107.6861292,-6.9072788,0.0 107.6860885,-6.9072625,0.0 107.6859727,-6.9072111,0.0 107.685821,-6.9071438,0.0 107.6856912,-6.907087,0.0 107.6853357,-6.9069314,0.0</coordinates>
            </LineString>
        </Placemark>
        <Placemark id="46627">
            <name>Jalan Abdul Haris Nasution</name>
            <styleUrl>#46628</styleUrl>
            <LineString id="46626">
                <coordinates>107.6904642,-6.9114295,0.0 107.6902863,-6.9112063,0.0 107.6898481,-6.9107388,0.0 107.6897602,-6.910638,0.0</coordinates>
            </LineString>
        </Placemark>
        <Placemark id="46631">
            <name>Jalan Abdul Haris Nasution</name>
            <styleUrl>#46632</styleUrl>
            <LineString id="46630">
                <coordinates>107.6910003,-6.9120482,0.0 107.6904642,-6.9114295,0.0</coordinates>
            </LineString>
        </Placemark>
        <Placemark id="46635">
            <name>Jalan Abdul Haris Nasution</name>
            <styleUrl>#46636</styleUrl>
            <LineString id="46634">
                <coordinates>107.691339,-6.9122714,0.0 107.6910003,-6.9120482,0.0</coordinates>
            </LineString>
        </Placemark>
        <Placemark id="46639">
            <name>Jalan Abdul Haris Nasution</name>
            <styleUrl>#46640</styleUrl>
            <LineString id="46638">
                <coordinates>107.6922664,-6.9126036,0.0 107.6921235,-6.912553,0.0 107.6917134,-6.9124105,0.0 107.6915575,-6.9123564,0.0</coordinates>
            </LineString>
        </Placemark>
        <Placemark id="46643">
            <name>Jalan Abdul Haris Nasution</name>
            <styleUrl>#46644</styleUrl>
            <LineString id="46642">
                <coordinates>107.6897602,-6.910638,0.0 107.6896681,-6.9104993,0.0 107.6895516,-6.9103253,0.0</coordinates>
            </LineString>
        </Placemark>
        <Placemark id="46647">
            <name>Route Segment</name>
            <styleUrl>#46648</styleUrl>
            <LineString id="46646">
                <coordinates>107.7028132,-6.9140461,0.0 107.7027931,-6.9141682,0.0 107.7027899,-6.914196,0.0</coordinates>
            </LineString>
        </Placemark>
        <Placemark id="46651">
            <name>Jalan Cisaranten Kulon</name>
            <styleUrl>#46652</styleUrl>
            <LineString id="46650">
                <coordinates>107.6837623,-6.923502,0.0 107.6837049,-6.923691,0.0</coordinates>
            </LineString>
        </Placemark>
        <Placemark id="46655">
            <name>Jalan Cisaranten Kulon</name>
            <styleUrl>#46656</styleUrl>
            <LineString id="46654">
                <coordinates>107.6837049,-6.923691,0.0 107.6836762,-6.9237775,0.0</coordinates>
            </LineString>
        </Placemark>
    </Document>
</kml>
