<?xml version="1.0" encoding="UTF-8"?>
<kml xmlns="http://www.opengis.net/kml/2.2" xmlns:gx="http://www.google.com/kml/ext/2.2">
    <Document id="48343">
        <Style id="48349">
            <IconStyle id="48350">
                <colorMode>normal</colorMode>
                <scale>1</scale>
                <heading>0</heading>
                <Icon id="48351">
                    <href>http://maps.google.com/mapfiles/kml/pushpin/ylw-pushpin.png</href>
                </Icon>
            </IconStyle>
        </Style>
        <Style id="48354">
            <IconStyle id="48355">
                <colorMode>normal</colorMode>
                <scale>1</scale>
                <heading>0</heading>
                <Icon id="48356">
                    <href>http://maps.google.com/mapfiles/kml/pushpin/ylw-pushpin.png</href>
                </Icon>
            </IconStyle>
        </Style>
        <Style id="48359">
            <LineStyle id="48360">
                <color>ffEFAE00</color>
                <colorMode>normal</colorMode>
                <width>4</width>
            </LineStyle>
        </Style>
        <Style id="48363">
            <LineStyle id="48364">
                <color>ffEFAE00</color>
                <colorMode>normal</colorMode>
                <width>4</width>
            </LineStyle>
        </Style>
        <Style id="48367">
            <LineStyle id="48368">
                <color>ffEFAE00</color>
                <colorMode>normal</colorMode>
                <width>4</width>
            </LineStyle>
        </Style>
        <Style id="48371">
            <LineStyle id="48372">
                <color>ffEFAE00</color>
                <colorMode>normal</colorMode>
                <width>4</width>
            </LineStyle>
        </Style>
        <Style id="48375">
            <LineStyle id="48376">
                <color>ffEFAE00</color>
                <colorMode>normal</colorMode>
                <width>4</width>
            </LineStyle>
        </Style>
        <Style id="48379">
            <LineStyle id="48380">
                <color>ffEFAE00</color>
                <colorMode>normal</colorMode>
                <width>4</width>
            </LineStyle>
        </Style>
        <Style id="48383">
            <LineStyle id="48384">
                <color>ffEFAE00</color>
                <colorMode>normal</colorMode>
                <width>4</width>
            </LineStyle>
        </Style>
        <Style id="48387">
            <LineStyle id="48388">
                <color>ffEFAE00</color>
                <colorMode>normal</colorMode>
                <width>4</width>
            </LineStyle>
        </Style>
        <Style id="48391">
            <LineStyle id="48392">
                <color>ffEFAE00</color>
                <colorMode>normal</colorMode>
                <width>4</width>
            </LineStyle>
        </Style>
        <Style id="48395">
            <LineStyle id="48396">
                <color>ffEFAE00</color>
                <colorMode>normal</colorMode>
                <width>4</width>
            </LineStyle>
        </Style>
        <Style id="48399">
            <LineStyle id="48400">
                <color>ffEFAE00</color>
                <colorMode>normal</colorMode>
                <width>4</width>
            </LineStyle>
        </Style>
        <Style id="48403">
            <LineStyle id="48404">
                <color>ffEFAE00</color>
                <colorMode>normal</colorMode>
                <width>4</width>
            </LineStyle>
        </Style>
        <Style id="48407">
            <LineStyle id="48408">
                <color>ffEFAE00</color>
                <colorMode>normal</colorMode>
                <width>4</width>
            </LineStyle>
        </Style>
        <Style id="48411">
            <LineStyle id="48412">
                <color>ffEFAE00</color>
                <colorMode>normal</colorMode>
                <width>4</width>
            </LineStyle>
        </Style>
        <Style id="48415">
            <LineStyle id="48416">
                <color>ffEFAE00</color>
                <colorMode>normal</colorMode>
                <width>4</width>
            </LineStyle>
        </Style>
        <Style id="48419">
            <LineStyle id="48420">
                <color>ffEFAE00</color>
                <colorMode>normal</colorMode>
                <width>4</width>
            </LineStyle>
        </Style>
        <Style id="48423">
            <LineStyle id="48424">
                <color>ffEFAE00</color>
                <colorMode>normal</colorMode>
                <width>4</width>
            </LineStyle>
        </Style>
        <Style id="48427">
            <LineStyle id="48428">
                <color>ffEFAE00</color>
                <colorMode>normal</colorMode>
                <width>4</width>
            </LineStyle>
        </Style>
        <Style id="48431">
            <LineStyle id="48432">
                <color>ffEFAE00</color>
                <colorMode>normal</colorMode>
                <width>4</width>
            </LineStyle>
        </Style>
        <Style id="48435">
            <LineStyle id="48436">
                <color>ffEFAE00</color>
                <colorMode>normal</colorMode>
                <width>4</width>
            </LineStyle>
        </Style>
        <Style id="48439">
            <LineStyle id="48440">
                <color>ffEFAE00</color>
                <colorMode>normal</colorMode>
                <width>4</width>
            </LineStyle>
        </Style>
        <Style id="48443">
            <LineStyle id="48444">
                <color>ffEFAE00</color>
                <colorMode>normal</colorMode>
                <width>4</width>
            </LineStyle>
        </Style>
        <Style id="48447">
            <LineStyle id="48448">
                <color>ffEFAE00</color>
                <colorMode>normal</colorMode>
                <width>4</width>
            </LineStyle>
        </Style>
        <Style id="48451">
            <LineStyle id="48452">
                <color>ffEFAE00</color>
                <colorMode>normal</colorMode>
                <width>4</width>
            </LineStyle>
        </Style>
        <Style id="48455">
            <LineStyle id="48456">
                <color>ffEFAE00</color>
                <colorMode>normal</colorMode>
                <width>4</width>
            </LineStyle>
        </Style>
        <Style id="48459">
            <LineStyle id="48460">
                <color>ffEFAE00</color>
                <colorMode>normal</colorMode>
                <width>4</width>
            </LineStyle>
        </Style>
        <Style id="48463">
            <LineStyle id="48464">
                <color>ffEFAE00</color>
                <colorMode>normal</colorMode>
                <width>4</width>
            </LineStyle>
        </Style>
        <Style id="48467">
            <LineStyle id="48468">
                <color>ffEFAE00</color>
                <colorMode>normal</colorMode>
                <width>4</width>
            </LineStyle>
        </Style>
        <Style id="48471">
            <LineStyle id="48472">
                <color>ffEFAE00</color>
                <colorMode>normal</colorMode>
                <width>4</width>
            </LineStyle>
        </Style>
        <Style id="48475">
            <LineStyle id="48476">
                <color>ffEFAE00</color>
                <colorMode>normal</colorMode>
                <width>4</width>
            </LineStyle>
        </Style>
        <Style id="48479">
            <LineStyle id="48480">
                <color>ffEFAE00</color>
                <colorMode>normal</colorMode>
                <width>4</width>
            </LineStyle>
        </Style>
        <Style id="48483">
            <LineStyle id="48484">
                <color>ffEFAE00</color>
                <colorMode>normal</colorMode>
                <width>4</width>
            </LineStyle>
        </Style>
        <Style id="48487">
            <LineStyle id="48488">
                <color>ffEFAE00</color>
                <colorMode>normal</colorMode>
                <width>4</width>
            </LineStyle>
        </Style>
        <Style id="48491">
            <LineStyle id="48492">
                <color>ffEFAE00</color>
                <colorMode>normal</colorMode>
                <width>4</width>
            </LineStyle>
        </Style>
        <Style id="48495">
            <LineStyle id="48496">
                <color>ffEFAE00</color>
                <colorMode>normal</colorMode>
                <width>4</width>
            </LineStyle>
        </Style>
        <Style id="48499">
            <LineStyle id="48500">
                <color>ffEFAE00</color>
                <colorMode>normal</colorMode>
                <width>4</width>
            </LineStyle>
        </Style>
        <Style id="48503">
            <LineStyle id="48504">
                <color>ffEFAE00</color>
                <colorMode>normal</colorMode>
                <width>4</width>
            </LineStyle>
        </Style>
        <Style id="48507">
            <LineStyle id="48508">
                <color>ffEFAE00</color>
                <colorMode>normal</colorMode>
                <width>4</width>
            </LineStyle>
        </Style>
        <Style id="48511">
            <LineStyle id="48512">
                <color>ffEFAE00</color>
                <colorMode>normal</colorMode>
                <width>4</width>
            </LineStyle>
        </Style>
        <Style id="48515">
            <LineStyle id="48516">
                <color>ffEFAE00</color>
                <colorMode>normal</colorMode>
                <width>4</width>
            </LineStyle>
        </Style>
        <Style id="48519">
            <LineStyle id="48520">
                <color>ffEFAE00</color>
                <colorMode>normal</colorMode>
                <width>4</width>
            </LineStyle>
        </Style>
        <Style id="48523">
            <LineStyle id="48524">
                <color>ffEFAE00</color>
                <colorMode>normal</colorMode>
                <width>4</width>
            </LineStyle>
        </Style>
        <Style id="48527">
            <LineStyle id="48528">
                <color>ffEFAE00</color>
                <colorMode>normal</colorMode>
                <width>4</width>
            </LineStyle>
        </Style>
        <Style id="48531">
            <LineStyle id="48532">
                <color>ffEFAE00</color>
                <colorMode>normal</colorMode>
                <width>4</width>
            </LineStyle>
        </Style>
        <Style id="48535">
            <LineStyle id="48536">
                <color>ffEFAE00</color>
                <colorMode>normal</colorMode>
                <width>4</width>
            </LineStyle>
        </Style>
        <Style id="48539">
            <LineStyle id="48540">
                <color>ffEFAE00</color>
                <colorMode>normal</colorMode>
                <width>4</width>
            </LineStyle>
        </Style>
        <Style id="48543">
            <LineStyle id="48544">
                <color>ffEFAE00</color>
                <colorMode>normal</colorMode>
                <width>4</width>
            </LineStyle>
        </Style>
        <Style id="48547">
            <LineStyle id="48548">
                <color>ffEFAE00</color>
                <colorMode>normal</colorMode>
                <width>4</width>
            </LineStyle>
        </Style>
        <Style id="48551">
            <LineStyle id="48552">
                <color>ffEFAE00</color>
                <colorMode>normal</colorMode>
                <width>4</width>
            </LineStyle>
        </Style>
        <Style id="48555">
            <LineStyle id="48556">
                <color>ffEFAE00</color>
                <colorMode>normal</colorMode>
                <width>4</width>
            </LineStyle>
        </Style>
        <Style id="48559">
            <LineStyle id="48560">
                <color>ffEFAE00</color>
                <colorMode>normal</colorMode>
                <width>4</width>
            </LineStyle>
        </Style>
        <Style id="48563">
            <LineStyle id="48564">
                <color>ffEFAE00</color>
                <colorMode>normal</colorMode>
                <width>4</width>
            </LineStyle>
        </Style>
        <Style id="48567">
            <LineStyle id="48568">
                <color>ffEFAE00</color>
                <colorMode>normal</colorMode>
                <width>4</width>
            </LineStyle>
        </Style>
        <Style id="48571">
            <LineStyle id="48572">
                <color>ffEFAE00</color>
                <colorMode>normal</colorMode>
                <width>4</width>
            </LineStyle>
        </Style>
        <Style id="48575">
            <LineStyle id="48576">
                <color>ffEFAE00</color>
                <colorMode>normal</colorMode>
                <width>4</width>
            </LineStyle>
        </Style>
        <Style id="48579">
            <LineStyle id="48580">
                <color>ffEFAE00</color>
                <colorMode>normal</colorMode>
                <width>4</width>
            </LineStyle>
        </Style>
        <Style id="48583">
            <LineStyle id="48584">
                <color>ffEFAE00</color>
                <colorMode>normal</colorMode>
                <width>4</width>
            </LineStyle>
        </Style>
        <Style id="48587">
            <LineStyle id="48588">
                <color>ffEFAE00</color>
                <colorMode>normal</colorMode>
                <width>4</width>
            </LineStyle>
        </Style>
        <Style id="48591">
            <LineStyle id="48592">
                <color>ffEFAE00</color>
                <colorMode>normal</colorMode>
                <width>4</width>
            </LineStyle>
        </Style>
        <Style id="48595">
            <LineStyle id="48596">
                <color>ffEFAE00</color>
                <colorMode>normal</colorMode>
                <width>4</width>
            </LineStyle>
        </Style>
        <Style id="48599">
            <LineStyle id="48600">
                <color>ffEFAE00</color>
                <colorMode>normal</colorMode>
                <width>4</width>
            </LineStyle>
        </Style>
        <Style id="48603">
            <LineStyle id="48604">
                <color>ffEFAE00</color>
                <colorMode>normal</colorMode>
                <width>4</width>
            </LineStyle>
        </Style>
        <Style id="48607">
            <LineStyle id="48608">
                <color>ffEFAE00</color>
                <colorMode>normal</colorMode>
                <width>4</width>
            </LineStyle>
        </Style>
        <Style id="48611">
            <LineStyle id="48612">
                <color>ffEFAE00</color>
                <colorMode>normal</colorMode>
                <width>4</width>
            </LineStyle>
        </Style>
        <Style id="48615">
            <LineStyle id="48616">
                <color>ffEFAE00</color>
                <colorMode>normal</colorMode>
                <width>4</width>
            </LineStyle>
        </Style>
        <Style id="48619">
            <LineStyle id="48620">
                <color>ffEFAE00</color>
                <colorMode>normal</colorMode>
                <width>4</width>
            </LineStyle>
        </Style>
        <Style id="48623">
            <LineStyle id="48624">
                <color>ffEFAE00</color>
                <colorMode>normal</colorMode>
                <width>4</width>
            </LineStyle>
        </Style>
        <Style id="48627">
            <LineStyle id="48628">
                <color>ffEFAE00</color>
                <colorMode>normal</colorMode>
                <width>4</width>
            </LineStyle>
        </Style>
        <Style id="48631">
            <LineStyle id="48632">
                <color>ffEFAE00</color>
                <colorMode>normal</colorMode>
                <width>4</width>
            </LineStyle>
        </Style>
        <Style id="48635">
            <LineStyle id="48636">
                <color>ffEFAE00</color>
                <colorMode>normal</colorMode>
                <width>4</width>
            </LineStyle>
        </Style>
        <Style id="48639">
            <LineStyle id="48640">
                <color>ffEFAE00</color>
                <colorMode>normal</colorMode>
                <width>4</width>
            </LineStyle>
        </Style>
        <Style id="48643">
            <LineStyle id="48644">
                <color>ffEFAE00</color>
                <colorMode>normal</colorMode>
                <width>4</width>
            </LineStyle>
        </Style>
        <Style id="48647">
            <LineStyle id="48648">
                <color>ffEFAE00</color>
                <colorMode>normal</colorMode>
                <width>4</width>
            </LineStyle>
        </Style>
        <Style id="48651">
            <LineStyle id="48652">
                <color>ffEFAE00</color>
                <colorMode>normal</colorMode>
                <width>4</width>
            </LineStyle>
        </Style>
        <Style id="48655">
            <LineStyle id="48656">
                <color>ffEFAE00</color>
                <colorMode>normal</colorMode>
                <width>4</width>
            </LineStyle>
        </Style>
        <Style id="48659">
            <LineStyle id="48660">
                <color>ffEFAE00</color>
                <colorMode>normal</colorMode>
                <width>4</width>
            </LineStyle>
        </Style>
        <Style id="48663">
            <LineStyle id="48664">
                <color>ffEFAE00</color>
                <colorMode>normal</colorMode>
                <width>4</width>
            </LineStyle>
        </Style>
        <Style id="48667">
            <LineStyle id="48668">
                <color>ffEFAE00</color>
                <colorMode>normal</colorMode>
                <width>4</width>
            </LineStyle>
        </Style>
        <Style id="48671">
            <LineStyle id="48672">
                <color>ffEFAE00</color>
                <colorMode>normal</colorMode>
                <width>4</width>
            </LineStyle>
        </Style>
        <Style id="48675">
            <LineStyle id="48676">
                <color>ffEFAE00</color>
                <colorMode>normal</colorMode>
                <width>4</width>
            </LineStyle>
        </Style>
        <Style id="48679">
            <LineStyle id="48680">
                <color>ffEFAE00</color>
                <colorMode>normal</colorMode>
                <width>4</width>
            </LineStyle>
        </Style>
        <Style id="48683">
            <LineStyle id="48684">
                <color>ffEFAE00</color>
                <colorMode>normal</colorMode>
                <width>4</width>
            </LineStyle>
        </Style>
        <Style id="48687">
            <LineStyle id="48688">
                <color>ffEFAE00</color>
                <colorMode>normal</colorMode>
                <width>4</width>
            </LineStyle>
        </Style>
        <Style id="48691">
            <LineStyle id="48692">
                <color>ffEFAE00</color>
                <colorMode>normal</colorMode>
                <width>4</width>
            </LineStyle>
        </Style>
        <Style id="48695">
            <LineStyle id="48696">
                <color>ffEFAE00</color>
                <colorMode>normal</colorMode>
                <width>4</width>
            </LineStyle>
        </Style>
        <Style id="48699">
            <LineStyle id="48700">
                <color>ffEFAE00</color>
                <colorMode>normal</colorMode>
                <width>4</width>
            </LineStyle>
        </Style>
        <Style id="48703">
            <LineStyle id="48704">
                <color>ffEFAE00</color>
                <colorMode>normal</colorMode>
                <width>4</width>
            </LineStyle>
        </Style>
        <Style id="48707">
            <LineStyle id="48708">
                <color>ffEFAE00</color>
                <colorMode>normal</colorMode>
                <width>4</width>
            </LineStyle>
        </Style>
        <Style id="48711">
            <LineStyle id="48712">
                <color>ffEFAE00</color>
                <colorMode>normal</colorMode>
                <width>4</width>
            </LineStyle>
        </Style>
        <Style id="48715">
            <LineStyle id="48716">
                <color>ffEFAE00</color>
                <colorMode>normal</colorMode>
                <width>4</width>
            </LineStyle>
        </Style>
        <Style id="48719">
            <LineStyle id="48720">
                <color>ffEFAE00</color>
                <colorMode>normal</colorMode>
                <width>4</width>
            </LineStyle>
        </Style>
        <Style id="48723">
            <LineStyle id="48724">
                <color>ffEFAE00</color>
                <colorMode>normal</colorMode>
                <width>4</width>
            </LineStyle>
        </Style>
        <Style id="48727">
            <LineStyle id="48728">
                <color>ffEFAE00</color>
                <colorMode>normal</colorMode>
                <width>4</width>
            </LineStyle>
        </Style>
        <Style id="48731">
            <LineStyle id="48732">
                <color>ffEFAE00</color>
                <colorMode>normal</colorMode>
                <width>4</width>
            </LineStyle>
        </Style>
        <Style id="48735">
            <LineStyle id="48736">
                <color>ffEFAE00</color>
                <colorMode>normal</colorMode>
                <width>4</width>
            </LineStyle>
        </Style>
        <Style id="48739">
            <LineStyle id="48740">
                <color>ffEFAE00</color>
                <colorMode>normal</colorMode>
                <width>4</width>
            </LineStyle>
        </Style>
        <Style id="48743">
            <LineStyle id="48744">
                <color>ffEFAE00</color>
                <colorMode>normal</colorMode>
                <width>4</width>
            </LineStyle>
        </Style>
        <Style id="48747">
            <LineStyle id="48748">
                <color>ffEFAE00</color>
                <colorMode>normal</colorMode>
                <width>4</width>
            </LineStyle>
        </Style>
        <Style id="48751">
            <LineStyle id="48752">
                <color>ffEFAE00</color>
                <colorMode>normal</colorMode>
                <width>4</width>
            </LineStyle>
        </Style>
        <Style id="48755">
            <LineStyle id="48756">
                <color>ffEFAE00</color>
                <colorMode>normal</colorMode>
                <width>4</width>
            </LineStyle>
        </Style>
        <Style id="48759">
            <LineStyle id="48760">
                <color>ffEFAE00</color>
                <colorMode>normal</colorMode>
                <width>4</width>
            </LineStyle>
        </Style>
        <Style id="48763">
            <LineStyle id="48764">
                <color>ffEFAE00</color>
                <colorMode>normal</colorMode>
                <width>4</width>
            </LineStyle>
        </Style>
        <Style id="48767">
            <LineStyle id="48768">
                <color>ffEFAE00</color>
                <colorMode>normal</colorMode>
                <width>4</width>
            </LineStyle>
        </Style>
        <Style id="48771">
            <LineStyle id="48772">
                <color>ffEFAE00</color>
                <colorMode>normal</colorMode>
                <width>4</width>
            </LineStyle>
        </Style>
        <Style id="48775">
            <LineStyle id="48776">
                <color>ffEFAE00</color>
                <colorMode>normal</colorMode>
                <width>4</width>
            </LineStyle>
        </Style>
        <Style id="48779">
            <LineStyle id="48780">
                <color>ffEFAE00</color>
                <colorMode>normal</colorMode>
                <width>4</width>
            </LineStyle>
        </Style>
        <Style id="48783">
            <LineStyle id="48784">
                <color>ffEFAE00</color>
                <colorMode>normal</colorMode>
                <width>4</width>
            </LineStyle>
        </Style>
        <Style id="48787">
            <LineStyle id="48788">
                <color>ffEFAE00</color>
                <colorMode>normal</colorMode>
                <width>4</width>
            </LineStyle>
        </Style>
        <Style id="48791">
            <LineStyle id="48792">
                <color>ffEFAE00</color>
                <colorMode>normal</colorMode>
                <width>4</width>
            </LineStyle>
        </Style>
        <Style id="48795">
            <LineStyle id="48796">
                <color>ffEFAE00</color>
                <colorMode>normal</colorMode>
                <width>4</width>
            </LineStyle>
        </Style>
        <Style id="48799">
            <LineStyle id="48800">
                <color>ffEFAE00</color>
                <colorMode>normal</colorMode>
                <width>4</width>
            </LineStyle>
        </Style>
        <Style id="48803">
            <LineStyle id="48804">
                <color>ffEFAE00</color>
                <colorMode>normal</colorMode>
                <width>4</width>
            </LineStyle>
        </Style>
        <Style id="48807">
            <LineStyle id="48808">
                <color>ffEFAE00</color>
                <colorMode>normal</colorMode>
                <width>4</width>
            </LineStyle>
        </Style>
        <ExtendedData>
            <Data name="route-name">
                <value>28: Elang → Gedebage → Ujungberung</value>
            </Data>
            <Data name="source">
                <value>Transport for Bandung</value>
            </Data>
        </ExtendedData>
        <Placemark id="48348">
            <name>Terminal Elang Damri</name>
            <styleUrl>#48349</styleUrl>
            <Point id="48347">
                <coordinates>107.5753136,-6.9144895,0.0</coordinates>
            </Point>
        </Placemark>
        <Placemark id="48353">
            <name>RSUD Ujungberung</name>
            <styleUrl>#48354</styleUrl>
            <Point id="48352">
                <coordinates>107.6992861,-6.9158662,0.0</coordinates>
            </Point>
        </Placemark>
        <Placemark id="48358">
            <name>Jalan Rajawali Timur</name>
            <styleUrl>#48359</styleUrl>
            <LineString id="48357">
                <coordinates>107.5761151,-6.9132715,0.0 107.5762053,-6.9133088,0.0 107.5762519,-6.9133265,0.0 107.5765322,-6.9134206,0.0 107.5766744,-6.9134545,0.0 107.5768473,-6.9134956,0.0 107.5771173,-6.9135481,0.0 107.5772702,-6.9135797,0.0 107.5775341,-6.9136343,0.0 107.5776073,-6.9136496,0.0</coordinates>
            </LineString>
        </Placemark>
        <Placemark id="48362">
            <name>Jalan Pasir Salam</name>
            <styleUrl>#48363</styleUrl>
            <LineString id="48361">
                <coordinates>107.6214142,-6.9483639,0.0 107.6214097,-6.9483095,0.0 107.6213904,-6.9481081,0.0 107.6211978,-6.9457709,0.0 107.6211069,-6.9447309,0.0</coordinates>
            </LineString>
        </Placemark>
        <Placemark id="48366">
            <name>Jalan Otto Iskandardinata</name>
            <styleUrl>#48367</styleUrl>
            <LineString id="48365">
                <coordinates>107.6032238,-6.935481,0.0 107.6032173,-6.935578,0.0 107.6032076,-6.9357215,0.0 107.6031855,-6.936049,0.0 107.6031741,-6.936219,0.0 107.6031624,-6.9363928,0.0 107.6031505,-6.9365689,0.0</coordinates>
            </LineString>
        </Placemark>
        <Placemark id="48370">
            <name>Jalan Sriwijaya</name>
            <styleUrl>#48371</styleUrl>
            <LineString id="48369">
                <coordinates>107.612765,-6.9378378,0.0 107.6127584,-6.9377875,0.0 107.6127538,-6.9377388,0.0</coordinates>
            </LineString>
        </Placemark>
        <Placemark id="48374">
            <name>Jalan Jamika</name>
            <styleUrl>#48375</styleUrl>
            <LineString id="48373">
                <coordinates>107.5865637,-6.9189871,0.0 107.586427,-6.9198273,0.0 107.5862144,-6.9209176,0.0</coordinates>
            </LineString>
        </Placemark>
        <Placemark id="48378">
            <name>Jalan Soekarno-Hatta</name>
            <styleUrl>#48379</styleUrl>
            <LineString id="48377">
                <coordinates>107.6336406,-6.9478818,0.0 107.6337248,-6.9478543,0.0 107.6338763,-6.9478077,0.0 107.6340014,-6.9477692,0.0 107.6341745,-6.9477159,0.0 107.6348946,-6.9474943,0.0 107.6350137,-6.9474577,0.0 107.6350586,-6.9474439,0.0 107.6350976,-6.9474319,0.0 107.6352499,-6.947385,0.0 107.6355559,-6.9472909,0.0 107.6359684,-6.9471669,0.0 107.6359872,-6.9471621,0.0 107.6360687,-6.9471331,0.0 107.636143,-6.9471102,0.0 107.6363926,-6.9470334,0.0 107.636644,-6.9469561,0.0 107.6367049,-6.9469373,0.0 107.6370708,-6.9468247,0.0 107.6373665,-6.9467337,0.0 107.638253,-6.946461,0.0 107.638452,-6.9463942,0.0 107.6385798,-6.9463604,0.0 107.6390869,-6.9462044,0.0 107.6391553,-6.9461833,0.0 107.6395007,-6.946077,0.0 107.6395637,-6.9460577,0.0 107.639643,-6.9460333,0.0 107.6399381,-6.9459425,0.0 107.6400313,-6.9459138,0.0 107.6400988,-6.945893,0.0</coordinates>
            </LineString>
        </Placemark>
        <Placemark id="48382">
            <name>Jalan Soekarno-Hatta</name>
            <styleUrl>#48383</styleUrl>
            <LineString id="48381">
                <coordinates>107.621611,-6.9491677,0.0 107.6219888,-6.9491964,0.0</coordinates>
            </LineString>
        </Placemark>
        <Placemark id="48386">
            <name>Jalan Soekarno-Hatta</name>
            <styleUrl>#48387</styleUrl>
            <LineString id="48385">
                <coordinates>107.6219888,-6.9491964,0.0 107.6225159,-6.949235,0.0 107.6230228,-6.9492832,0.0 107.6232787,-6.9493075,0.0 107.6236074,-6.9493402,0.0 107.6244902,-6.949411,0.0 107.6248137,-6.9494301,0.0 107.6249026,-6.9494354,0.0</coordinates>
            </LineString>
        </Placemark>
        <Placemark id="48390">
            <name>Jalan Pungkur</name>
            <styleUrl>#48391</styleUrl>
            <LineString id="48389">
                <coordinates>107.6016513,-6.9270273,0.0 107.6018825,-6.9270468,0.0 107.602104,-6.9270654,0.0 107.6025218,-6.9271006,0.0 107.6030174,-6.9271424,0.0 107.6035691,-6.9271889,0.0 107.6036918,-6.9271992,0.0</coordinates>
            </LineString>
        </Placemark>
        <Placemark id="48394">
            <name>Jalan Otto Iskandardinata</name>
            <styleUrl>#48395</styleUrl>
            <LineString id="48393">
                <coordinates>107.6036918,-6.9271992,0.0 107.6036329,-6.9280445,0.0 107.6035899,-6.9285343,0.0 107.6035334,-6.9293987,0.0 107.603525,-6.9295081,0.0 107.6035222,-6.9295501,0.0 107.6034974,-6.9299465,0.0 107.6034816,-6.9301831,0.0 107.6034721,-6.9303229,0.0 107.6034681,-6.9303751,0.0 107.6034639,-6.9304346,0.0 107.6033984,-6.9314197,0.0</coordinates>
            </LineString>
        </Placemark>
        <Placemark id="48398">
            <name>Jalan Otto Iskandardinata</name>
            <styleUrl>#48399</styleUrl>
            <LineString id="48397">
                <coordinates>107.6032271,-6.9338577,0.0 107.603223,-6.9339734,0.0 107.6032159,-6.9342862,0.0</coordinates>
            </LineString>
        </Placemark>
        <Placemark id="48402">
            <name>Jalan Otto Iskandardinata</name>
            <styleUrl>#48403</styleUrl>
            <LineString id="48401">
                <coordinates>107.6033984,-6.9314197,0.0 107.6033222,-6.9324354,0.0 107.6033078,-6.9326292,0.0 107.603267,-6.9332705,0.0 107.6032353,-6.9337195,0.0 107.6032271,-6.9338577,0.0</coordinates>
            </LineString>
        </Placemark>
        <Placemark id="48406">
            <name>Jalan Garuda</name>
            <styleUrl>#48407</styleUrl>
            <LineString id="48405">
                <coordinates>107.5776073,-6.9136496,0.0 107.5774382,-6.9143939,0.0 107.5772255,-6.9153302,0.0 107.5771848,-6.9155032,0.0 107.5771079,-6.9158293,0.0 107.5770623,-6.916012,0.0 107.5770472,-6.9160725,0.0 107.5770267,-6.9161661,0.0 107.5768707,-6.91682,0.0 107.5768513,-6.9168985,0.0 107.5768101,-6.9171039,0.0 107.5767538,-6.9173844,0.0</coordinates>
            </LineString>
        </Placemark>
        <Placemark id="48410">
            <name>Jalan Jendral Sudirman</name>
            <styleUrl>#48411</styleUrl>
            <LineString id="48409">
                <coordinates>107.5850246,-6.9184718,0.0 107.586478,-6.9186655,0.0 107.5864989,-6.9186732,0.0 107.586521,-6.9186858,0.0 107.5865344,-6.9186955,0.0 107.5865662,-6.9187469,0.0</coordinates>
            </LineString>
        </Placemark>
        <Placemark id="48414">
            <name>Jalan Pasir Koja</name>
            <styleUrl>#48415</styleUrl>
            <LineString id="48413">
                <coordinates>107.5857595,-6.9266278,0.0 107.5862856,-6.9264199,0.0 107.586442,-6.9264095,0.0</coordinates>
            </LineString>
        </Placemark>
        <Placemark id="48418">
            <name>Jalan BKR</name>
            <styleUrl>#48419</styleUrl>
            <LineString id="48417">
                <coordinates>107.6096639,-6.9376389,0.0 107.610179,-6.937657,0.0 107.6104253,-6.9376656,0.0 107.6110405,-6.9376854,0.0 107.6113683,-6.9376957,0.0</coordinates>
            </LineString>
        </Placemark>
        <Placemark id="48422">
            <name>Jalan Soekarno-Hatta</name>
            <styleUrl>#48423</styleUrl>
            <LineString id="48421">
                <coordinates>107.6215191,-6.9491613,0.0 107.6215656,-6.9491645,0.0 107.621611,-6.9491677,0.0</coordinates>
            </LineString>
        </Placemark>
        <Placemark id="48426">
            <name>Jalan Soekarno-Hatta</name>
            <styleUrl>#48427</styleUrl>
            <LineString id="48425">
                <coordinates>107.6400988,-6.945893,0.0 107.6404015,-6.9458025,0.0</coordinates>
            </LineString>
        </Placemark>
        <Placemark id="48430">
            <name>Jalan Soekarno-Hatta</name>
            <styleUrl>#48431</styleUrl>
            <LineString id="48429">
                <coordinates>107.6526343,-6.9418642,0.0 107.6528244,-6.9418009,0.0</coordinates>
            </LineString>
        </Placemark>
        <Placemark id="48434">
            <name>Jalan Soekarno-Hatta</name>
            <styleUrl>#48435</styleUrl>
            <LineString id="48433">
                <coordinates>107.6608909,-6.9394147,0.0 107.6611257,-6.9393605,0.0 107.6612045,-6.9393467,0.0 107.6613726,-6.9393143,0.0 107.6619723,-6.9392196,0.0 107.6620066,-6.9392142,0.0 107.6624766,-6.9391418,0.0 107.6629081,-6.9390878,0.0 107.6630544,-6.9390727,0.0 107.6635594,-6.9390207,0.0 107.6638937,-6.9389862,0.0 107.6648393,-6.9388924,0.0 107.6650947,-6.9388715,0.0 107.6656399,-6.9388388,0.0 107.6659038,-6.9388221,0.0 107.6664215,-6.9387937,0.0 107.6665285,-6.9387859,0.0 107.6667061,-6.9387731,0.0 107.6669354,-6.9387522,0.0 107.6672726,-6.938728,0.0 107.6676974,-6.9386975,0.0 107.6677908,-6.938693,0.0 107.6679806,-6.9386798,0.0 107.6682067,-6.9386642,0.0 107.6686684,-6.9386322,0.0 107.6690273,-6.9386024,0.0</coordinates>
            </LineString>
        </Placemark>
        <Placemark id="48438">
            <name>Jalan Soekarno-Hatta</name>
            <styleUrl>#48439</styleUrl>
            <LineString id="48437">
                <coordinates>107.6820516,-6.9376753,0.0 107.6829267,-6.9376226,0.0 107.6830504,-6.9376098,0.0 107.6836806,-6.9375672,0.0 107.6844521,-6.937515,0.0 107.6845012,-6.9375117,0.0</coordinates>
            </LineString>
        </Placemark>
        <Placemark id="48442">
            <name>Jalan Soekarno-Hatta</name>
            <styleUrl>#48443</styleUrl>
            <LineString id="48441">
                <coordinates>107.6811571,-6.9377409,0.0 107.6816983,-6.9377012,0.0 107.6820516,-6.9376753,0.0</coordinates>
            </LineString>
        </Placemark>
        <Placemark id="48446">
            <name>Soekarno Hatta Frontage Boulevard</name>
            <styleUrl>#48447</styleUrl>
            <LineString id="48445">
                <coordinates>107.6773491,-6.9380105,0.0 107.6775994,-6.9379921,0.0 107.6778057,-6.9379781,0.0 107.6784424,-6.9379331,0.0 107.6787487,-6.9379114,0.0 107.6788956,-6.937901,0.0 107.679119,-6.9378852,0.0 107.6794352,-6.9378628,0.0 107.6796089,-6.9378505,0.0 107.6801479,-6.9378123,0.0 107.6803968,-6.9378003,0.0</coordinates>
            </LineString>
        </Placemark>
        <Placemark id="48450">
            <name>Jalan Soekarno-Hatta</name>
            <styleUrl>#48451</styleUrl>
            <LineString id="48449">
                <coordinates>107.6881164,-6.9372393,0.0 107.6883018,-6.9372253,0.0 107.6884215,-6.9372162,0.0 107.6885014,-6.9372102,0.0 107.688678,-6.9371968,0.0 107.6890078,-6.9371718,0.0 107.689552,-6.9371306,0.0 107.6897157,-6.9371182,0.0 107.6900244,-6.9370948,0.0 107.6902435,-6.9370783,0.0 107.6906621,-6.9370418,0.0 107.6907699,-6.9370384,0.0 107.690912,-6.9370277,0.0 107.6912038,-6.9370042,0.0 107.6916934,-6.9369685,0.0 107.6917566,-6.9369649,0.0 107.691802,-6.9369632,0.0 107.691841,-6.9369664,0.0 107.6919976,-6.9369777,0.0</coordinates>
            </LineString>
        </Placemark>
        <Placemark id="48454">
            <name>Jalan Pasir Koja</name>
            <styleUrl>#48455</styleUrl>
            <LineString id="48453">
                <coordinates>107.5983304,-6.926733,0.0 107.598853,-6.9267805,0.0 107.5994238,-6.9268284,0.0 107.5995173,-6.9268375,0.0</coordinates>
            </LineString>
        </Placemark>
        <Placemark id="48458">
            <name>Jalan Rumah Sakit</name>
            <styleUrl>#48459</styleUrl>
            <LineString id="48457">
                <coordinates>107.6992861,-6.9158662,0.0 107.6992749,-6.9159358,0.0 107.6992682,-6.9159661,0.0 107.6992037,-6.9162662,0.0 107.6991677,-6.9164339,0.0 107.6990546,-6.9167403,0.0 107.6990476,-6.9168421,0.0 107.6989855,-6.9170446,0.0 107.6988872,-6.9173653,0.0 107.6987998,-6.9176505,0.0 107.6986593,-6.9179951,0.0 107.6985608,-6.9182368,0.0 107.6984811,-6.9184409,0.0 107.6983691,-6.9186772,0.0 107.6982012,-6.9190868,0.0 107.6980602,-6.9194497,0.0 107.6979614,-6.919757,0.0 107.6976627,-6.9208368,0.0 107.6975605,-6.9211546,0.0 107.6974662,-6.9214314,0.0 107.6973544,-6.9217192,0.0 107.6973249,-6.9217951,0.0 107.6973091,-6.9218357,0.0 107.6972209,-6.9220427,0.0 107.696939,-6.9226061,0.0 107.6967262,-6.9229736,0.0 107.6964386,-6.9235041,0.0 107.6963121,-6.9237232,0.0 107.69621,-6.9239046,0.0 107.696096,-6.9241339,0.0 107.6959809,-6.924369,0.0 107.6958313,-6.9247123,0.0 107.6957595,-6.9248797,0.0 107.6956949,-6.925036,0.0 107.695614,-6.9252455,0.0 107.6954953,-6.9255578,0.0 107.6949163,-6.9270848,0.0 107.6945747,-6.9280103,0.0 107.6945233,-6.9281511,0.0 107.6944834,-6.9282603,0.0 107.6943409,-6.9286441,0.0 107.6941072,-6.9292778,0.0 107.693901,-6.9298925,0.0 107.6937517,-6.9303102,0.0 107.6936754,-6.9305209,0.0 107.6936171,-6.9306943,0.0 107.6935622,-6.9308408,0.0 107.6935315,-6.930926,0.0 107.693494,-6.9310431,0.0</coordinates>
            </LineString>
        </Placemark>
        <Placemark id="48462">
            <name>Jalan Soekarno-Hatta</name>
            <styleUrl>#48463</styleUrl>
            <LineString id="48461">
                <coordinates>107.6404015,-6.9458025,0.0 107.6404102,-6.9458005,0.0 107.6404977,-6.9457738,0.0 107.6405916,-6.9457492,0.0 107.6406739,-6.9457264,0.0 107.6408783,-6.9456725,0.0 107.6410307,-6.9456323,0.0 107.6411836,-6.9455872,0.0 107.641371,-6.945532,0.0 107.6413988,-6.945524,0.0</coordinates>
            </LineString>
        </Placemark>
        <Placemark id="48466">
            <name>Jalan BKR</name>
            <styleUrl>#48467</styleUrl>
            <LineString id="48465">
                <coordinates>107.606583,-6.9375409,0.0 107.6066558,-6.9375429,0.0 107.6067624,-6.9375463,0.0 107.6075417,-6.9375714,0.0 107.6083051,-6.9375959,0.0 107.608358,-6.9375976,0.0 107.6084176,-6.9375995,0.0</coordinates>
            </LineString>
        </Placemark>
        <Placemark id="48470">
            <name>Jalan Peta</name>
            <styleUrl>#48471</styleUrl>
            <LineString id="48469">
                <coordinates>107.6058679,-6.9374947,0.0 107.6060689,-6.9375172,0.0 107.6061267,-6.9375223,0.0 107.6061748,-6.9375256,0.0</coordinates>
            </LineString>
        </Placemark>
        <Placemark id="48474">
            <name>Jalan Jendral Sudirman</name>
            <styleUrl>#48475</styleUrl>
            <LineString id="48473">
                <coordinates>107.5812049,-6.9180481,0.0 107.5812615,-6.9180369,0.0 107.5813402,-6.9180387,0.0 107.5819772,-6.918114,0.0 107.5823412,-6.9181572,0.0 107.5826947,-6.9181971,0.0 107.5828342,-6.9182129,0.0 107.5831721,-6.9182513,0.0 107.5832831,-6.9182648,0.0 107.5836116,-6.918305,0.0 107.5843983,-6.9184012,0.0 107.5850246,-6.9184718,0.0</coordinates>
            </LineString>
        </Placemark>
        <Placemark id="48478">
            <name>Jalan Soekarno-Hatta</name>
            <styleUrl>#48479</styleUrl>
            <LineString id="48477">
                <coordinates>107.6742862,-6.9382242,0.0 107.6744202,-6.9382178,0.0</coordinates>
            </LineString>
        </Placemark>
        <Placemark id="48482">
            <name>Jalan Soekarno-Hatta</name>
            <styleUrl>#48483</styleUrl>
            <LineString id="48481">
                <coordinates>107.6728746,-6.9383241,0.0 107.6735519,-6.9382758,0.0 107.673913,-6.9382504,0.0 107.6740809,-6.9382386,0.0 107.6742333,-6.9382279,0.0 107.6742862,-6.9382242,0.0</coordinates>
            </LineString>
        </Placemark>
        <Placemark id="48486">
            <name>Jalan Soekarno-Hatta</name>
            <styleUrl>#48487</styleUrl>
            <LineString id="48485">
                <coordinates>107.6696795,-6.9385517,0.0 107.6698031,-6.9385447,0.0</coordinates>
            </LineString>
        </Placemark>
        <Placemark id="48490">
            <name>Jalan Soekarno-Hatta</name>
            <styleUrl>#48491</styleUrl>
            <LineString id="48489">
                <coordinates>107.6698031,-6.9385447,0.0 107.6698055,-6.9385445,0.0 107.6706974,-6.9384772,0.0 107.6708415,-6.938467,0.0 107.6713626,-6.9384301,0.0 107.6717525,-6.9384018,0.0 107.6719529,-6.938388,0.0 107.6722412,-6.9383679,0.0 107.6725046,-6.9383493,0.0</coordinates>
            </LineString>
        </Placemark>
        <Placemark id="48494">
            <name>Jalan Kembar Timur II</name>
            <styleUrl>#48495</styleUrl>
            <LineString id="48493">
                <coordinates>107.6138085,-6.9429911,0.0 107.6155897,-6.9429954,0.0 107.6159869,-6.9430035,0.0</coordinates>
            </LineString>
        </Placemark>
        <Placemark id="48498">
            <name>Soekarno Hatta Frontage Boulevard</name>
            <styleUrl>#48499</styleUrl>
            <LineString id="48497">
                <coordinates>107.6845012,-6.9375117,0.0 107.6847668,-6.9374899,0.0</coordinates>
            </LineString>
        </Placemark>
        <Placemark id="48502">
            <name>Jalan Soekarno-Hatta</name>
            <styleUrl>#48503</styleUrl>
            <LineString id="48501">
                <coordinates>107.6865016,-6.9373601,0.0 107.6869969,-6.9373231,0.0 107.6875247,-6.9372836,0.0 107.6877514,-6.9372666,0.0 107.6881164,-6.9372393,0.0</coordinates>
            </LineString>
        </Placemark>
        <Placemark id="48506">
            <name>Route Segment</name>
            <styleUrl>#48507</styleUrl>
            <LineString id="48505">
                <coordinates>107.5855781,-6.9264302,0.0 107.5856754,-6.9265347,0.0 107.5857087,-6.9265749,0.0 107.5857595,-6.9266278,0.0</coordinates>
            </LineString>
        </Placemark>
        <Placemark id="48510">
            <name>Route Segment</name>
            <styleUrl>#48511</styleUrl>
            <LineString id="48509">
                <coordinates>107.6128194,-6.9431725,0.0 107.6133411,-6.9431426,0.0</coordinates>
            </LineString>
        </Placemark>
        <Placemark id="48514">
            <name>Route Segment</name>
            <styleUrl>#48515</styleUrl>
            <LineString id="48513">
                <coordinates>107.6031033,-6.9370152,0.0 107.6031707,-6.9371131,0.0 107.6032313,-6.9371919,0.0 107.6033103,-6.9372436,0.0</coordinates>
            </LineString>
        </Placemark>
        <Placemark id="48518">
            <name>Jalan Pasir Koja</name>
            <styleUrl>#48519</styleUrl>
            <LineString id="48517">
                <coordinates>107.5995173,-6.9268375,0.0 107.5995907,-6.9268449,0.0</coordinates>
            </LineString>
        </Placemark>
        <Placemark id="48522">
            <name>Jalan Pasir Koja</name>
            <styleUrl>#48523</styleUrl>
            <LineString id="48521">
                <coordinates>107.5995907,-6.9268449,0.0 107.5997798,-6.9268595,0.0 107.5999192,-6.9268738,0.0</coordinates>
            </LineString>
        </Placemark>
        <Placemark id="48526">
            <name>Jalan Pungkur</name>
            <styleUrl>#48527</styleUrl>
            <LineString id="48525">
                <coordinates>107.6014549,-6.92701,0.0 107.6016513,-6.9270273,0.0</coordinates>
            </LineString>
        </Placemark>
        <Placemark id="48530">
            <name>Jalan Pungkur</name>
            <styleUrl>#48531</styleUrl>
            <LineString id="48529">
                <coordinates>107.5999192,-6.9268738,0.0 107.6006119,-6.9269334,0.0 107.6006431,-6.9269362,0.0 107.6013286,-6.9269985,0.0 107.6014549,-6.92701,0.0</coordinates>
            </LineString>
        </Placemark>
        <Placemark id="48534">
            <name>Jalan Pasir Koja</name>
            <styleUrl>#48535</styleUrl>
            <LineString id="48533">
                <coordinates>107.5947205,-6.9263412,0.0 107.5947017,-6.9263393,0.0 107.5940657,-6.9262693,0.0 107.5933578,-6.9261911,0.0 107.5932247,-6.9261803,0.0 107.5930803,-6.9261716,0.0 107.5927416,-6.9261331,0.0 107.5919281,-6.9260427,0.0 107.5917633,-6.9260265,0.0 107.5912685,-6.9259603,0.0 107.5907126,-6.9259066,0.0 107.590187,-6.9258559,0.0 107.5900298,-6.925839,0.0 107.5896497,-6.9258073,0.0 107.5895895,-6.9258023,0.0 107.5893929,-6.9258012,0.0 107.5891087,-6.9257996,0.0</coordinates>
            </LineString>
        </Placemark>
        <Placemark id="48538">
            <name>Route Segment</name>
            <styleUrl>#48539</styleUrl>
            <LineString id="48537">
                <coordinates>107.616143,-6.943933,0.0 107.6159914,-6.9439331,0.0</coordinates>
            </LineString>
        </Placemark>
        <Placemark id="48542">
            <name>Jalan Rumah Sakit</name>
            <styleUrl>#48543</styleUrl>
            <LineString id="48541">
                <coordinates>107.6925989,-6.9365061,0.0 107.692621,-6.9362692,0.0 107.6926627,-6.9361706,0.0</coordinates>
            </LineString>
        </Placemark>
        <Placemark id="48546">
            <name>Jalan Jamika</name>
            <styleUrl>#48547</styleUrl>
            <LineString id="48545">
                <coordinates>107.5860074,-6.9222428,0.0 107.5858937,-6.9228972,0.0 107.5858209,-6.9235226,0.0 107.5858172,-6.9235544,0.0 107.5857993,-6.9237081,0.0 107.5857538,-6.9243078,0.0 107.5856919,-6.9250277,0.0 107.5856441,-6.9255835,0.0 107.5856161,-6.9259096,0.0</coordinates>
            </LineString>
        </Placemark>
        <Placemark id="48550">
            <name>Jalan Soekarno-Hatta</name>
            <styleUrl>#48551</styleUrl>
            <LineString id="48549">
                <coordinates>107.6558473,-6.9408628,0.0 107.6561907,-6.9407508,0.0</coordinates>
            </LineString>
        </Placemark>
        <Placemark id="48554">
            <name>Jalan Soekarno-Hatta</name>
            <styleUrl>#48555</styleUrl>
            <LineString id="48553">
                <coordinates>107.6528244,-6.9418009,0.0 107.6528692,-6.941787,0.0 107.6529599,-6.9417588,0.0 107.6531033,-6.9417143,0.0 107.6536022,-6.9415595,0.0 107.6539108,-6.9414637,0.0 107.6546859,-6.9412232,0.0 107.6548123,-6.941184,0.0 107.6550822,-6.9411002,0.0 107.6555631,-6.940951,0.0 107.6558473,-6.9408628,0.0</coordinates>
            </LineString>
        </Placemark>
        <Placemark id="48558">
            <name>Jalan Pasir Koja</name>
            <styleUrl>#48559</styleUrl>
            <LineString id="48557">
                <coordinates>107.5891087,-6.9257996,0.0 107.5887765,-6.9258124,0.0 107.5882726,-6.9258633,0.0 107.5881603,-6.9258895,0.0 107.5880816,-6.9259042,0.0 107.5876762,-6.9259913,0.0 107.5874403,-6.9260647,0.0 107.5873727,-6.9260863,0.0 107.5866023,-6.9263422,0.0 107.586442,-6.9264095,0.0</coordinates>
            </LineString>
        </Placemark>
        <Placemark id="48562">
            <name>Jalan Pasir Koja</name>
            <styleUrl>#48563</styleUrl>
            <LineString id="48561">
                <coordinates>107.5982512,-6.9267282,0.0 107.5983304,-6.926733,0.0</coordinates>
            </LineString>
        </Placemark>
        <Placemark id="48566">
            <name>Jalan Pasir Koja</name>
            <styleUrl>#48567</styleUrl>
            <LineString id="48565">
                <coordinates>107.5982512,-6.9267282,0.0 107.5981846,-6.9267271,0.0 107.5976669,-6.9266732,0.0 107.5969993,-6.9266036,0.0 107.5967868,-6.92658,0.0 107.5965542,-6.9265542,0.0 107.5964512,-6.9265428,0.0 107.5960199,-6.9264972,0.0 107.5953448,-6.9264031,0.0</coordinates>
            </LineString>
        </Placemark>
        <Placemark id="48570">
            <name>Jalan Soekarno-Hatta</name>
            <styleUrl>#48571</styleUrl>
            <LineString id="48569">
                <coordinates>107.6249026,-6.9494354,0.0 107.625063,-6.9494435,0.0 107.6251736,-6.9494469,0.0 107.6254122,-6.949452,0.0 107.6255564,-6.949455,0.0 107.6257226,-6.9494585,0.0 107.6258124,-6.9494604,0.0 107.6258467,-6.9494612,0.0 107.6258629,-6.9494614,0.0 107.6259741,-6.9494625,0.0</coordinates>
            </LineString>
        </Placemark>
        <Placemark id="48574">
            <name>Jalan Soekarno-Hatta</name>
            <styleUrl>#48575</styleUrl>
            <LineString id="48573">
                <coordinates>107.6262747,-6.9494594,0.0 107.6263148,-6.9494581,0.0 107.626731,-6.9494396,0.0 107.6268727,-6.9494332,0.0 107.6269742,-6.9494286,0.0 107.6272227,-6.9494137,0.0 107.6274709,-6.9493974,0.0 107.6278794,-6.9493563,0.0 107.627934,-6.9493489,0.0 107.6280918,-6.9493306,0.0 107.6281318,-6.9493252,0.0 107.6282234,-6.9493154,0.0 107.6285395,-6.9492726,0.0 107.6287484,-6.9492381,0.0 107.6289154,-6.9492105,0.0 107.6291337,-6.9491745,0.0 107.6293745,-6.9491302,0.0 107.6294404,-6.9491179,0.0 107.6298246,-6.949046,0.0 107.6301232,-6.94899,0.0 107.6303157,-6.9489398,0.0 107.6307487,-6.9488067,0.0 107.6309791,-6.9487354,0.0</coordinates>
            </LineString>
        </Placemark>
        <Placemark id="48578">
            <name>Jalan Soekarno-Hatta</name>
            <styleUrl>#48579</styleUrl>
            <LineString id="48577">
                <coordinates>107.6309791,-6.9487354,0.0 107.6315445,-6.948554,0.0 107.631909,-6.9484347,0.0 107.6321622,-6.9483559,0.0 107.6329015,-6.9481249,0.0 107.6330447,-6.9480758,0.0</coordinates>
            </LineString>
        </Placemark>
        <Placemark id="48582">
            <name>Jalan Soekarno-Hatta</name>
            <styleUrl>#48583</styleUrl>
            <LineString id="48581">
                <coordinates>107.6330447,-6.9480758,0.0 107.633231,-6.9480103,0.0 107.6332967,-6.9479888,0.0</coordinates>
            </LineString>
        </Placemark>
        <Placemark id="48586">
            <name>Jalan Soekarno-Hatta</name>
            <styleUrl>#48587</styleUrl>
            <LineString id="48585">
                <coordinates>107.6332967,-6.9479888,0.0 107.6333973,-6.9479551,0.0</coordinates>
            </LineString>
        </Placemark>
        <Placemark id="48590">
            <name>Jalan Soekarno-Hatta</name>
            <styleUrl>#48591</styleUrl>
            <LineString id="48589">
                <coordinates>107.6487109,-6.9431279,0.0 107.6489694,-6.9430456,0.0 107.6493101,-6.9429332,0.0 107.6495025,-6.9428706,0.0 107.6496409,-6.942824,0.0 107.6499821,-6.9427133,0.0 107.6505153,-6.9425403,0.0 107.6519647,-6.94207,0.0 107.6526343,-6.9418642,0.0</coordinates>
            </LineString>
        </Placemark>
        <Placemark id="48594">
            <name>Jalan Soekarno-Hatta</name>
            <styleUrl>#48595</styleUrl>
            <LineString id="48593">
                <coordinates>107.6413988,-6.945524,0.0 107.641692,-6.9454403,0.0 107.6417778,-6.9454077,0.0 107.641837,-6.9453875,0.0</coordinates>
            </LineString>
        </Placemark>
        <Placemark id="48598">
            <name>Jalan Soekarno-Hatta</name>
            <styleUrl>#48599</styleUrl>
            <LineString id="48597">
                <coordinates>107.6419307,-6.9453525,0.0 107.6419876,-6.9453267,0.0 107.6422973,-6.9452119,0.0</coordinates>
            </LineString>
        </Placemark>
        <Placemark id="48602">
            <name>Jalan Sriwijaya</name>
            <styleUrl>#48603</styleUrl>
            <LineString id="48601">
                <coordinates>107.6128167,-6.9385146,0.0 107.6128126,-6.9381902,0.0 107.612771,-6.9378872,0.0 107.612765,-6.9378378,0.0</coordinates>
            </LineString>
        </Placemark>
        <Placemark id="48606">
            <name>Jalan Jamika</name>
            <styleUrl>#48607</styleUrl>
            <LineString id="48605">
                <coordinates>107.5856161,-6.9259096,0.0 107.5855781,-6.9264302,0.0</coordinates>
            </LineString>
        </Placemark>
        <Placemark id="48610">
            <name>Jalan BKR</name>
            <styleUrl>#48611</styleUrl>
            <LineString id="48609">
                <coordinates>107.6090705,-6.9376195,0.0 107.6091826,-6.9376215,0.0 107.6092886,-6.9376285,0.0 107.6096639,-6.9376389,0.0</coordinates>
            </LineString>
        </Placemark>
        <Placemark id="48614">
            <name>Jalan Pasir Salam</name>
            <styleUrl>#48615</styleUrl>
            <LineString id="48613">
                <coordinates>107.6161533,-6.9434381,0.0 107.6166291,-6.9435002,0.0 107.6168436,-6.9435312,0.0 107.6170559,-6.9435619,0.0 107.6171261,-6.943572,0.0 107.6173375,-6.9436018,0.0 107.6175414,-6.9436284,0.0 107.6177533,-6.943647,0.0 107.6183083,-6.9436988,0.0 107.6187776,-6.9436987,0.0 107.6189704,-6.9437081,0.0 107.6193253,-6.9437206,0.0 107.6197818,-6.9437096,0.0 107.6198363,-6.9437077,0.0 107.6201767,-6.943697,0.0 107.6204964,-6.9437494,0.0 107.6207292,-6.9437856,0.0 107.6207866,-6.9437929,0.0 107.6208753,-6.9438042,0.0 107.620925,-6.9438188,0.0 107.6209585,-6.9438348,0.0 107.6209813,-6.9438535,0.0 107.6210323,-6.9440038,0.0 107.6210604,-6.9442089,0.0 107.621094,-6.9445524,0.0 107.6211069,-6.9447309,0.0</coordinates>
            </LineString>
        </Placemark>
        <Placemark id="48618">
            <name>Jalan Pasir Koja</name>
            <styleUrl>#48619</styleUrl>
            <LineString id="48617">
                <coordinates>107.594747,-6.9263438,0.0 107.5947205,-6.9263412,0.0</coordinates>
            </LineString>
        </Placemark>
        <Placemark id="48622">
            <name>Jalan Pasir Koja</name>
            <styleUrl>#48623</styleUrl>
            <LineString id="48621">
                <coordinates>107.5953448,-6.9264031,0.0 107.595278,-6.9263964,0.0 107.594747,-6.9263438,0.0</coordinates>
            </LineString>
        </Placemark>
        <Placemark id="48626">
            <name>Jalan BKR</name>
            <styleUrl>#48627</styleUrl>
            <LineString id="48625">
                <coordinates>107.6061748,-6.9375256,0.0 107.6062545,-6.937531,0.0</coordinates>
            </LineString>
        </Placemark>
        <Placemark id="48630">
            <name>Jalan BKR</name>
            <styleUrl>#48631</styleUrl>
            <LineString id="48629">
                <coordinates>107.6062545,-6.937531,0.0 107.606315,-6.9375353,0.0 107.606583,-6.9375409,0.0</coordinates>
            </LineString>
        </Placemark>
        <Placemark id="48634">
            <name>Jalan Peta</name>
            <styleUrl>#48635</styleUrl>
            <LineString id="48633">
                <coordinates>107.6047707,-6.9373901,0.0 107.6053694,-6.9374494,0.0 107.6058679,-6.9374947,0.0</coordinates>
            </LineString>
        </Placemark>
        <Placemark id="48638">
            <name>Jalan Peta</name>
            <styleUrl>#48639</styleUrl>
            <LineString id="48637">
                <coordinates>107.6033103,-6.9372436,0.0 107.6035072,-6.9372599,0.0 107.6039376,-6.9372954,0.0 107.6044053,-6.9373359,0.0 107.6044997,-6.9373449,0.0 107.6045611,-6.9373516,0.0 107.6046277,-6.9373634,0.0 107.6046918,-6.937377,0.0 107.6047707,-6.9373901,0.0</coordinates>
            </LineString>
        </Placemark>
        <Placemark id="48642">
            <name>Jalan Otto Iskandardinata</name>
            <styleUrl>#48643</styleUrl>
            <LineString id="48641">
                <coordinates>107.6031782,-6.9351372,0.0 107.6032137,-6.9352454,0.0 107.6032252,-6.9353491,0.0 107.6032238,-6.935481,0.0</coordinates>
            </LineString>
        </Placemark>
        <Placemark id="48646">
            <name>Jalan Otto Iskandardinata</name>
            <styleUrl>#48647</styleUrl>
            <LineString id="48645">
                <coordinates>107.6031505,-6.9365689,0.0 107.6031322,-6.9367751,0.0 107.6031033,-6.9370152,0.0</coordinates>
            </LineString>
        </Placemark>
        <Placemark id="48650">
            <name>Jalan Otto Iskandardinata</name>
            <styleUrl>#48651</styleUrl>
            <LineString id="48649">
                <coordinates>107.6032159,-6.9342862,0.0 107.6031855,-6.9349893,0.0 107.6031782,-6.9351372,0.0</coordinates>
            </LineString>
        </Placemark>
        <Placemark id="48654">
            <name>Jalan Jamika</name>
            <styleUrl>#48655</styleUrl>
            <LineString id="48653">
                <coordinates>107.5862144,-6.9209176,0.0 107.5860687,-6.9217892,0.0</coordinates>
            </LineString>
        </Placemark>
        <Placemark id="48658">
            <name>Jalan Jamika</name>
            <styleUrl>#48659</styleUrl>
            <LineString id="48657">
                <coordinates>107.5860687,-6.9217892,0.0 107.5860408,-6.9219918,0.0</coordinates>
            </LineString>
        </Placemark>
        <Placemark id="48662">
            <name>Jalan Pasir Salam</name>
            <styleUrl>#48663</styleUrl>
            <LineString id="48661">
                <coordinates>107.6214142,-6.9483639,0.0 107.621448,-6.9484476,0.0 107.6215191,-6.9491613,0.0</coordinates>
            </LineString>
        </Placemark>
        <Placemark id="48666">
            <name>Jalan Pasirluyu Timur</name>
            <styleUrl>#48667</styleUrl>
            <LineString id="48665">
                <coordinates>107.6161533,-6.9434381,0.0 107.616143,-6.943933,0.0</coordinates>
            </LineString>
        </Placemark>
        <Placemark id="48670">
            <name>Route Segment</name>
            <styleUrl>#48671</styleUrl>
            <LineString id="48669">
                <coordinates>107.6922068,-6.9369654,0.0 107.6923072,-6.9369059,0.0 107.6923411,-6.9368857,0.0 107.6923813,-6.9368594,0.0 107.6924253,-6.936828,0.0 107.6924654,-6.9367918,0.0 107.6925074,-6.936743,0.0 107.6925423,-6.936689,0.0 107.6925695,-6.9366308,0.0 107.6925885,-6.9365694,0.0 107.6925926,-6.9365445,0.0 107.6925989,-6.9365061,0.0</coordinates>
            </LineString>
        </Placemark>
        <Placemark id="48674">
            <name>Jalan BKR</name>
            <styleUrl>#48675</styleUrl>
            <LineString id="48673">
                <coordinates>107.6084176,-6.9375995,0.0 107.6084753,-6.9376013,0.0 107.6087624,-6.9376105,0.0 107.6089484,-6.9376165,0.0 107.6089838,-6.9376176,0.0 107.6090705,-6.9376195,0.0</coordinates>
            </LineString>
        </Placemark>
        <Placemark id="48678">
            <name>Jalan BKR</name>
            <styleUrl>#48679</styleUrl>
            <LineString id="48677">
                <coordinates>107.6113683,-6.9376957,0.0 107.612618,-6.9377348,0.0 107.6126817,-6.9377368,0.0 107.6127538,-6.9377388,0.0</coordinates>
            </LineString>
        </Placemark>
        <Placemark id="48682">
            <name>Jalan Soekarno-Hatta</name>
            <styleUrl>#48683</styleUrl>
            <LineString id="48681">
                <coordinates>107.6744202,-6.9382178,0.0 107.6744746,-6.9382139,0.0 107.6747162,-6.9381971,0.0 107.6753034,-6.9381554,0.0 107.6758906,-6.9381137,0.0 107.6762965,-6.938085,0.0 107.6766901,-6.9380571,0.0 107.6773491,-6.9380105,0.0</coordinates>
            </LineString>
        </Placemark>
        <Placemark id="48686">
            <name>Soekarno Hatta Frontage Boulevard</name>
            <styleUrl>#48687</styleUrl>
            <LineString id="48685">
                <coordinates>107.6803968,-6.9378003,0.0 107.6811571,-6.9377409,0.0</coordinates>
            </LineString>
        </Placemark>
        <Placemark id="48690">
            <name>Soekarno Hatta Frontage Boulevard</name>
            <styleUrl>#48691</styleUrl>
            <LineString id="48689">
                <coordinates>107.6859393,-6.9374022,0.0 107.6862087,-6.937382,0.0 107.6865016,-6.9373601,0.0</coordinates>
            </LineString>
        </Placemark>
        <Placemark id="48694">
            <name>Jalan Soekarno-Hatta</name>
            <styleUrl>#48695</styleUrl>
            <LineString id="48693">
                <coordinates>107.6847668,-6.9374899,0.0 107.684843,-6.9374842,0.0 107.6852525,-6.9374536,0.0 107.6854404,-6.9374395,0.0 107.6857888,-6.9374134,0.0 107.6859053,-6.9374047,0.0 107.6859393,-6.9374022,0.0</coordinates>
            </LineString>
        </Placemark>
        <Placemark id="48698">
            <name>Jalan Soekarno-Hatta</name>
            <styleUrl>#48699</styleUrl>
            <LineString id="48697">
                <coordinates>107.6333973,-6.9479551,0.0 107.6334979,-6.9479251,0.0 107.6336406,-6.9478818,0.0</coordinates>
            </LineString>
        </Placemark>
        <Placemark id="48702">
            <name>Jalan Soekarno-Hatta</name>
            <styleUrl>#48703</styleUrl>
            <LineString id="48701">
                <coordinates>107.6690273,-6.9386024,0.0 107.6696239,-6.9385543,0.0 107.6696795,-6.9385517,0.0</coordinates>
            </LineString>
        </Placemark>
        <Placemark id="48706">
            <name>Jalan Soekarno-Hatta</name>
            <styleUrl>#48707</styleUrl>
            <LineString id="48705">
                <coordinates>107.6422973,-6.9452119,0.0 107.6424896,-6.9451552,0.0 107.6425544,-6.9451302,0.0</coordinates>
            </LineString>
        </Placemark>
        <Placemark id="48710">
            <name>Jalan Jamika</name>
            <styleUrl>#48711</styleUrl>
            <LineString id="48709">
                <coordinates>107.5865662,-6.9187469,0.0 107.5865802,-6.9187808,0.0 107.586582,-6.9188373,0.0 107.5865637,-6.9189871,0.0</coordinates>
            </LineString>
        </Placemark>
        <Placemark id="48714">
            <name>Jalan Soekarno-Hatta</name>
            <styleUrl>#48715</styleUrl>
            <LineString id="48713">
                <coordinates>107.6725046,-6.9383493,0.0 107.6727325,-6.9383333,0.0 107.6728746,-6.9383241,0.0</coordinates>
            </LineString>
        </Placemark>
        <Placemark id="48718">
            <name>Jalan Pasirluyu Barat</name>
            <styleUrl>#48719</styleUrl>
            <LineString id="48717">
                <coordinates>107.6159869,-6.9430035,0.0 107.6159914,-6.9439331,0.0</coordinates>
            </LineString>
        </Placemark>
        <Placemark id="48722">
            <name>Jalan Kembar Timur Raya</name>
            <styleUrl>#48723</styleUrl>
            <LineString id="48721">
                <coordinates>107.613818,-6.9425506,0.0 107.6138085,-6.9429911,0.0</coordinates>
            </LineString>
        </Placemark>
        <Placemark id="48726">
            <name>Jalan Kembar Timur I</name>
            <styleUrl>#48727</styleUrl>
            <LineString id="48725">
                <coordinates>107.6133458,-6.9425478,0.0 107.613818,-6.9425506,0.0</coordinates>
            </LineString>
        </Placemark>
        <Placemark id="48730">
            <name>Jalan Kembar VIII</name>
            <styleUrl>#48731</styleUrl>
            <LineString id="48729">
                <coordinates>107.6133411,-6.9431426,0.0 107.6133436,-6.9429331,0.0 107.6133458,-6.9425478,0.0</coordinates>
            </LineString>
        </Placemark>
        <Placemark id="48734">
            <name>Jalan Sriwijaya</name>
            <styleUrl>#48735</styleUrl>
            <LineString id="48733">
                <coordinates>107.6128194,-6.9431725,0.0 107.6128304,-6.9416064,0.0 107.6128271,-6.9407769,0.0 107.6128168,-6.9401736,0.0 107.6128043,-6.9397452,0.0 107.6128011,-6.9390617,0.0 107.612817,-6.9385745,0.0 107.6128167,-6.9385146,0.0</coordinates>
            </LineString>
        </Placemark>
        <Placemark id="48738">
            <name>Jalan Rumah Sakit</name>
            <styleUrl>#48739</styleUrl>
            <LineString id="48737">
                <coordinates>107.6934663,-6.9311395,0.0 107.6933814,-6.9314001,0.0 107.6932889,-6.9316551,0.0 107.6932649,-6.9317146,0.0 107.6931715,-6.9319609,0.0 107.6930717,-6.9322299,0.0 107.6930272,-6.9324037,0.0 107.6930017,-6.9325813,0.0 107.6929565,-6.9331527,0.0 107.6929479,-6.9332584,0.0 107.6928642,-6.9342318,0.0 107.692839,-6.9344705,0.0 107.6928067,-6.934786,0.0 107.6927921,-6.9349278,0.0 107.6927778,-6.9350672,0.0 107.6926883,-6.9358839,0.0 107.6926627,-6.9361706,0.0</coordinates>
            </LineString>
        </Placemark>
        <Placemark id="48742">
            <name>Jalan Rumah Sakit</name>
            <styleUrl>#48743</styleUrl>
            <LineString id="48741">
                <coordinates>107.693494,-6.9310431,0.0 107.6934797,-6.9310873,0.0 107.6934663,-6.9311395,0.0</coordinates>
            </LineString>
        </Placemark>
        <Placemark id="48746">
            <name>Jalan Soekarno-Hatta</name>
            <styleUrl>#48747</styleUrl>
            <LineString id="48745">
                <coordinates>107.6469908,-6.9436739,0.0 107.6470631,-6.9436511,0.0 107.6472285,-6.9436003,0.0 107.647308,-6.9435737,0.0 107.6474499,-6.9435262,0.0 107.6477158,-6.9434372,0.0 107.6478935,-6.9433774,0.0 107.6479368,-6.9433624,0.0 107.6480159,-6.9433388,0.0 107.6482339,-6.9432732,0.0 107.6483747,-6.9432308,0.0 107.6486436,-6.9431498,0.0 107.6487109,-6.9431279,0.0</coordinates>
            </LineString>
        </Placemark>
        <Placemark id="48750">
            <name>Jalan Soekarno-Hatta</name>
            <styleUrl>#48751</styleUrl>
            <LineString id="48749">
                <coordinates>107.6450949,-6.9442703,0.0 107.6463553,-6.9438668,0.0 107.6464874,-6.9438278,0.0 107.6467219,-6.9437585,0.0 107.6467855,-6.9437385,0.0 107.6469908,-6.9436739,0.0</coordinates>
            </LineString>
        </Placemark>
        <Placemark id="48754">
            <name>Jalan Soekarno-Hatta</name>
            <styleUrl>#48755</styleUrl>
            <LineString id="48753">
                <coordinates>107.6425544,-6.9451302,0.0 107.6427153,-6.9450569,0.0 107.6428119,-6.9450226,0.0 107.6430412,-6.9449411,0.0 107.6431766,-6.9448945,0.0 107.6433657,-6.9448279,0.0 107.6437224,-6.9447161,0.0 107.6438888,-6.944662,0.0 107.6440102,-6.9446226,0.0 107.644326,-6.94452,0.0 107.6450949,-6.9442703,0.0</coordinates>
            </LineString>
        </Placemark>
        <Placemark id="48758">
            <name>Jalan Soekarno-Hatta</name>
            <styleUrl>#48759</styleUrl>
            <LineString id="48757">
                <coordinates>107.641837,-6.9453875,0.0 107.6419307,-6.9453525,0.0</coordinates>
            </LineString>
        </Placemark>
        <Placemark id="48762">
            <name>Jalan Soekarno-Hatta</name>
            <styleUrl>#48763</styleUrl>
            <LineString id="48761">
                <coordinates>107.6593041,-6.939778,0.0 107.659399,-6.9397509,0.0 107.6600931,-6.9395844,0.0 107.6601512,-6.9395718,0.0 107.6605856,-6.9394777,0.0 107.6606611,-6.93946,0.0 107.6608909,-6.9394147,0.0</coordinates>
            </LineString>
        </Placemark>
        <Placemark id="48766">
            <name>Jalan Soekarno-Hatta</name>
            <styleUrl>#48767</styleUrl>
            <LineString id="48765">
                <coordinates>107.6583101,-6.9400779,0.0 107.6584574,-6.9400339,0.0 107.6585694,-6.9399972,0.0 107.6588883,-6.9398952,0.0 107.6589472,-6.9398788,0.0 107.659028,-6.9398534,0.0 107.6591135,-6.9398278,0.0 107.6593041,-6.939778,0.0</coordinates>
            </LineString>
        </Placemark>
        <Placemark id="48770">
            <name>Jalan Soekarno-Hatta</name>
            <styleUrl>#48771</styleUrl>
            <LineString id="48769">
                <coordinates>107.6561907,-6.9407508,0.0 107.6567851,-6.9405596,0.0</coordinates>
            </LineString>
        </Placemark>
        <Placemark id="48774">
            <name>Jalan Soekarno-Hatta</name>
            <styleUrl>#48775</styleUrl>
            <LineString id="48773">
                <coordinates>107.6567851,-6.9405596,0.0 107.6569119,-6.9405212,0.0 107.6569958,-6.9404958,0.0 107.6571017,-6.9404592,0.0 107.6573469,-6.9403813,0.0 107.6575958,-6.9403023,0.0 107.6579317,-6.940197,0.0 107.6582639,-6.9400924,0.0 107.6583101,-6.9400779,0.0</coordinates>
            </LineString>
        </Placemark>
        <Placemark id="48778">
            <name>Jalan Soekarno-Hatta</name>
            <styleUrl>#48779</styleUrl>
            <LineString id="48777">
                <coordinates>107.6259741,-6.9494625,0.0 107.6261145,-6.9494645,0.0 107.6262003,-6.9494625,0.0 107.6262747,-6.9494594,0.0</coordinates>
            </LineString>
        </Placemark>
        <Placemark id="48782">
            <name>Jalan Elang</name>
            <styleUrl>#48783</styleUrl>
            <LineString id="48781">
                <coordinates>107.575723,-6.9133498,0.0 107.5758021,-6.913142,0.0</coordinates>
            </LineString>
        </Placemark>
        <Placemark id="48786">
            <name>Jalan Elang</name>
            <styleUrl>#48787</styleUrl>
            <LineString id="48785">
                <coordinates>107.5753136,-6.9144895,0.0 107.5755245,-6.9138801,0.0 107.575723,-6.9133498,0.0</coordinates>
            </LineString>
        </Placemark>
        <Placemark id="48790">
            <name>Jalan Soekarno-Hatta</name>
            <styleUrl>#48791</styleUrl>
            <LineString id="48789">
                <coordinates>107.6919976,-6.9369777,0.0 107.6922068,-6.9369654,0.0</coordinates>
            </LineString>
        </Placemark>
        <Placemark id="48794">
            <name>Jalan Rajawali Timur</name>
            <styleUrl>#48795</styleUrl>
            <LineString id="48793">
                <coordinates>107.5758021,-6.913142,0.0 107.5761151,-6.9132715,0.0</coordinates>
            </LineString>
        </Placemark>
        <Placemark id="48798">
            <name>Jalan Jamika</name>
            <styleUrl>#48799</styleUrl>
            <LineString id="48797">
                <coordinates>107.5860408,-6.9219918,0.0 107.5860074,-6.9222428,0.0</coordinates>
            </LineString>
        </Placemark>
        <Placemark id="48802">
            <name>Jalan Jendral Sudirman</name>
            <styleUrl>#48803</styleUrl>
            <LineString id="48801">
                <coordinates>107.5767538,-6.9173844,0.0 107.5767842,-6.91745,0.0 107.5768228,-6.9174843,0.0 107.5769858,-6.9175031,0.0 107.5773205,-6.9175417,0.0 107.5775683,-6.9175702,0.0 107.5780483,-6.9176197,0.0 107.5780889,-6.9176345,0.0 107.5781202,-6.9176523,0.0</coordinates>
            </LineString>
        </Placemark>
        <Placemark id="48806">
            <name>Jalan Jendral Sudirman</name>
            <styleUrl>#48807</styleUrl>
            <LineString id="48805">
                <coordinates>107.5812049,-6.9180481,0.0 107.5805863,-6.9179704,0.0 107.5802279,-6.9179222,0.0 107.5798805,-6.9178766,0.0 107.5797208,-6.9178564,0.0 107.5794411,-6.9178197,0.0 107.579301,-6.9178011,0.0 107.5791821,-6.917785,0.0 107.5789586,-6.917756,0.0 107.578869,-6.9177435,0.0 107.5788207,-6.9177374,0.0 107.5787513,-6.9177277,0.0 107.5784389,-6.9176895,0.0 107.5783437,-6.9176779,0.0 107.5782936,-6.9176722,0.0 107.5781202,-6.9176523,0.0</coordinates>
            </LineString>
        </Placemark>
    </Document>
</kml>
