<?xml version="1.0" encoding="UTF-8"?>
<kml xmlns="http://www.opengis.net/kml/2.2" xmlns:gx="http://www.google.com/kml/ext/2.2">
    <Document id="48810">
        <Style id="48816">
            <IconStyle id="48817">
                <colorMode>normal</colorMode>
                <scale>1</scale>
                <heading>0</heading>
                <Icon id="48818">
                    <href>http://maps.google.com/mapfiles/kml/pushpin/ylw-pushpin.png</href>
                </Icon>
            </IconStyle>
        </Style>
        <Style id="48821">
            <IconStyle id="48822">
                <colorMode>normal</colorMode>
                <scale>1</scale>
                <heading>0</heading>
                <Icon id="48823">
                    <href>http://maps.google.com/mapfiles/kml/pushpin/ylw-pushpin.png</href>
                </Icon>
            </IconStyle>
        </Style>
        <Style id="48826">
            <LineStyle id="48827">
                <color>ffEFAE00</color>
                <colorMode>normal</colorMode>
                <width>4</width>
            </LineStyle>
        </Style>
        <Style id="48830">
            <LineStyle id="48831">
                <color>ffEFAE00</color>
                <colorMode>normal</colorMode>
                <width>4</width>
            </LineStyle>
        </Style>
        <Style id="48834">
            <LineStyle id="48835">
                <color>ffEFAE00</color>
                <colorMode>normal</colorMode>
                <width>4</width>
            </LineStyle>
        </Style>
        <Style id="48838">
            <LineStyle id="48839">
                <color>ffEFAE00</color>
                <colorMode>normal</colorMode>
                <width>4</width>
            </LineStyle>
        </Style>
        <Style id="48842">
            <LineStyle id="48843">
                <color>ffEFAE00</color>
                <colorMode>normal</colorMode>
                <width>4</width>
            </LineStyle>
        </Style>
        <Style id="48846">
            <LineStyle id="48847">
                <color>ffEFAE00</color>
                <colorMode>normal</colorMode>
                <width>4</width>
            </LineStyle>
        </Style>
        <Style id="48850">
            <LineStyle id="48851">
                <color>ffEFAE00</color>
                <colorMode>normal</colorMode>
                <width>4</width>
            </LineStyle>
        </Style>
        <Style id="48854">
            <LineStyle id="48855">
                <color>ffEFAE00</color>
                <colorMode>normal</colorMode>
                <width>4</width>
            </LineStyle>
        </Style>
        <Style id="48858">
            <LineStyle id="48859">
                <color>ffEFAE00</color>
                <colorMode>normal</colorMode>
                <width>4</width>
            </LineStyle>
        </Style>
        <Style id="48862">
            <LineStyle id="48863">
                <color>ffEFAE00</color>
                <colorMode>normal</colorMode>
                <width>4</width>
            </LineStyle>
        </Style>
        <Style id="48866">
            <LineStyle id="48867">
                <color>ffEFAE00</color>
                <colorMode>normal</colorMode>
                <width>4</width>
            </LineStyle>
        </Style>
        <Style id="48870">
            <LineStyle id="48871">
                <color>ffEFAE00</color>
                <colorMode>normal</colorMode>
                <width>4</width>
            </LineStyle>
        </Style>
        <Style id="48874">
            <LineStyle id="48875">
                <color>ffEFAE00</color>
                <colorMode>normal</colorMode>
                <width>4</width>
            </LineStyle>
        </Style>
        <Style id="48878">
            <LineStyle id="48879">
                <color>ffEFAE00</color>
                <colorMode>normal</colorMode>
                <width>4</width>
            </LineStyle>
        </Style>
        <Style id="48882">
            <LineStyle id="48883">
                <color>ffEFAE00</color>
                <colorMode>normal</colorMode>
                <width>4</width>
            </LineStyle>
        </Style>
        <Style id="48886">
            <LineStyle id="48887">
                <color>ffEFAE00</color>
                <colorMode>normal</colorMode>
                <width>4</width>
            </LineStyle>
        </Style>
        <Style id="48890">
            <LineStyle id="48891">
                <color>ffEFAE00</color>
                <colorMode>normal</colorMode>
                <width>4</width>
            </LineStyle>
        </Style>
        <Style id="48894">
            <LineStyle id="48895">
                <color>ffEFAE00</color>
                <colorMode>normal</colorMode>
                <width>4</width>
            </LineStyle>
        </Style>
        <Style id="48898">
            <LineStyle id="48899">
                <color>ffEFAE00</color>
                <colorMode>normal</colorMode>
                <width>4</width>
            </LineStyle>
        </Style>
        <Style id="48902">
            <LineStyle id="48903">
                <color>ffEFAE00</color>
                <colorMode>normal</colorMode>
                <width>4</width>
            </LineStyle>
        </Style>
        <Style id="48906">
            <LineStyle id="48907">
                <color>ffEFAE00</color>
                <colorMode>normal</colorMode>
                <width>4</width>
            </LineStyle>
        </Style>
        <Style id="48910">
            <LineStyle id="48911">
                <color>ffEFAE00</color>
                <colorMode>normal</colorMode>
                <width>4</width>
            </LineStyle>
        </Style>
        <Style id="48914">
            <LineStyle id="48915">
                <color>ffEFAE00</color>
                <colorMode>normal</colorMode>
                <width>4</width>
            </LineStyle>
        </Style>
        <Style id="48918">
            <LineStyle id="48919">
                <color>ffEFAE00</color>
                <colorMode>normal</colorMode>
                <width>4</width>
            </LineStyle>
        </Style>
        <Style id="48922">
            <LineStyle id="48923">
                <color>ffEFAE00</color>
                <colorMode>normal</colorMode>
                <width>4</width>
            </LineStyle>
        </Style>
        <Style id="48926">
            <LineStyle id="48927">
                <color>ffEFAE00</color>
                <colorMode>normal</colorMode>
                <width>4</width>
            </LineStyle>
        </Style>
        <Style id="48930">
            <LineStyle id="48931">
                <color>ffEFAE00</color>
                <colorMode>normal</colorMode>
                <width>4</width>
            </LineStyle>
        </Style>
        <Style id="48934">
            <LineStyle id="48935">
                <color>ffEFAE00</color>
                <colorMode>normal</colorMode>
                <width>4</width>
            </LineStyle>
        </Style>
        <Style id="48938">
            <LineStyle id="48939">
                <color>ffEFAE00</color>
                <colorMode>normal</colorMode>
                <width>4</width>
            </LineStyle>
        </Style>
        <Style id="48942">
            <LineStyle id="48943">
                <color>ffEFAE00</color>
                <colorMode>normal</colorMode>
                <width>4</width>
            </LineStyle>
        </Style>
        <Style id="48946">
            <LineStyle id="48947">
                <color>ffEFAE00</color>
                <colorMode>normal</colorMode>
                <width>4</width>
            </LineStyle>
        </Style>
        <Style id="48950">
            <LineStyle id="48951">
                <color>ffEFAE00</color>
                <colorMode>normal</colorMode>
                <width>4</width>
            </LineStyle>
        </Style>
        <Style id="48954">
            <LineStyle id="48955">
                <color>ffEFAE00</color>
                <colorMode>normal</colorMode>
                <width>4</width>
            </LineStyle>
        </Style>
        <Style id="48958">
            <LineStyle id="48959">
                <color>ffEFAE00</color>
                <colorMode>normal</colorMode>
                <width>4</width>
            </LineStyle>
        </Style>
        <Style id="48962">
            <LineStyle id="48963">
                <color>ffEFAE00</color>
                <colorMode>normal</colorMode>
                <width>4</width>
            </LineStyle>
        </Style>
        <Style id="48966">
            <LineStyle id="48967">
                <color>ffEFAE00</color>
                <colorMode>normal</colorMode>
                <width>4</width>
            </LineStyle>
        </Style>
        <Style id="48970">
            <LineStyle id="48971">
                <color>ffEFAE00</color>
                <colorMode>normal</colorMode>
                <width>4</width>
            </LineStyle>
        </Style>
        <Style id="48974">
            <LineStyle id="48975">
                <color>ffEFAE00</color>
                <colorMode>normal</colorMode>
                <width>4</width>
            </LineStyle>
        </Style>
        <Style id="48978">
            <LineStyle id="48979">
                <color>ffEFAE00</color>
                <colorMode>normal</colorMode>
                <width>4</width>
            </LineStyle>
        </Style>
        <Style id="48982">
            <LineStyle id="48983">
                <color>ffEFAE00</color>
                <colorMode>normal</colorMode>
                <width>4</width>
            </LineStyle>
        </Style>
        <Style id="48986">
            <LineStyle id="48987">
                <color>ffEFAE00</color>
                <colorMode>normal</colorMode>
                <width>4</width>
            </LineStyle>
        </Style>
        <Style id="48990">
            <LineStyle id="48991">
                <color>ffEFAE00</color>
                <colorMode>normal</colorMode>
                <width>4</width>
            </LineStyle>
        </Style>
        <Style id="48994">
            <LineStyle id="48995">
                <color>ffEFAE00</color>
                <colorMode>normal</colorMode>
                <width>4</width>
            </LineStyle>
        </Style>
        <Style id="48998">
            <LineStyle id="48999">
                <color>ffEFAE00</color>
                <colorMode>normal</colorMode>
                <width>4</width>
            </LineStyle>
        </Style>
        <Style id="49002">
            <LineStyle id="49003">
                <color>ffEFAE00</color>
                <colorMode>normal</colorMode>
                <width>4</width>
            </LineStyle>
        </Style>
        <Style id="49006">
            <LineStyle id="49007">
                <color>ffEFAE00</color>
                <colorMode>normal</colorMode>
                <width>4</width>
            </LineStyle>
        </Style>
        <Style id="49010">
            <LineStyle id="49011">
                <color>ffEFAE00</color>
                <colorMode>normal</colorMode>
                <width>4</width>
            </LineStyle>
        </Style>
        <Style id="49014">
            <LineStyle id="49015">
                <color>ffEFAE00</color>
                <colorMode>normal</colorMode>
                <width>4</width>
            </LineStyle>
        </Style>
        <Style id="49018">
            <LineStyle id="49019">
                <color>ffEFAE00</color>
                <colorMode>normal</colorMode>
                <width>4</width>
            </LineStyle>
        </Style>
        <Style id="49022">
            <LineStyle id="49023">
                <color>ffEFAE00</color>
                <colorMode>normal</colorMode>
                <width>4</width>
            </LineStyle>
        </Style>
        <Style id="49026">
            <LineStyle id="49027">
                <color>ffEFAE00</color>
                <colorMode>normal</colorMode>
                <width>4</width>
            </LineStyle>
        </Style>
        <Style id="49030">
            <LineStyle id="49031">
                <color>ffEFAE00</color>
                <colorMode>normal</colorMode>
                <width>4</width>
            </LineStyle>
        </Style>
        <Style id="49034">
            <LineStyle id="49035">
                <color>ffEFAE00</color>
                <colorMode>normal</colorMode>
                <width>4</width>
            </LineStyle>
        </Style>
        <Style id="49038">
            <LineStyle id="49039">
                <color>ffEFAE00</color>
                <colorMode>normal</colorMode>
                <width>4</width>
            </LineStyle>
        </Style>
        <Style id="49042">
            <LineStyle id="49043">
                <color>ffEFAE00</color>
                <colorMode>normal</colorMode>
                <width>4</width>
            </LineStyle>
        </Style>
        <Style id="49046">
            <LineStyle id="49047">
                <color>ffEFAE00</color>
                <colorMode>normal</colorMode>
                <width>4</width>
            </LineStyle>
        </Style>
        <Style id="49050">
            <LineStyle id="49051">
                <color>ffEFAE00</color>
                <colorMode>normal</colorMode>
                <width>4</width>
            </LineStyle>
        </Style>
        <Style id="49054">
            <LineStyle id="49055">
                <color>ffEFAE00</color>
                <colorMode>normal</colorMode>
                <width>4</width>
            </LineStyle>
        </Style>
        <Style id="49058">
            <LineStyle id="49059">
                <color>ffEFAE00</color>
                <colorMode>normal</colorMode>
                <width>4</width>
            </LineStyle>
        </Style>
        <Style id="49062">
            <LineStyle id="49063">
                <color>ffEFAE00</color>
                <colorMode>normal</colorMode>
                <width>4</width>
            </LineStyle>
        </Style>
        <Style id="49066">
            <LineStyle id="49067">
                <color>ffEFAE00</color>
                <colorMode>normal</colorMode>
                <width>4</width>
            </LineStyle>
        </Style>
        <Style id="49070">
            <LineStyle id="49071">
                <color>ffEFAE00</color>
                <colorMode>normal</colorMode>
                <width>4</width>
            </LineStyle>
        </Style>
        <Style id="49074">
            <LineStyle id="49075">
                <color>ffEFAE00</color>
                <colorMode>normal</colorMode>
                <width>4</width>
            </LineStyle>
        </Style>
        <Style id="49078">
            <LineStyle id="49079">
                <color>ffEFAE00</color>
                <colorMode>normal</colorMode>
                <width>4</width>
            </LineStyle>
        </Style>
        <Style id="49082">
            <LineStyle id="49083">
                <color>ffEFAE00</color>
                <colorMode>normal</colorMode>
                <width>4</width>
            </LineStyle>
        </Style>
        <Style id="49086">
            <LineStyle id="49087">
                <color>ffEFAE00</color>
                <colorMode>normal</colorMode>
                <width>4</width>
            </LineStyle>
        </Style>
        <Style id="49090">
            <LineStyle id="49091">
                <color>ffEFAE00</color>
                <colorMode>normal</colorMode>
                <width>4</width>
            </LineStyle>
        </Style>
        <Style id="49094">
            <LineStyle id="49095">
                <color>ffEFAE00</color>
                <colorMode>normal</colorMode>
                <width>4</width>
            </LineStyle>
        </Style>
        <Style id="49098">
            <LineStyle id="49099">
                <color>ffEFAE00</color>
                <colorMode>normal</colorMode>
                <width>4</width>
            </LineStyle>
        </Style>
        <Style id="49102">
            <LineStyle id="49103">
                <color>ffEFAE00</color>
                <colorMode>normal</colorMode>
                <width>4</width>
            </LineStyle>
        </Style>
        <Style id="49106">
            <LineStyle id="49107">
                <color>ffEFAE00</color>
                <colorMode>normal</colorMode>
                <width>4</width>
            </LineStyle>
        </Style>
        <Style id="49110">
            <LineStyle id="49111">
                <color>ffEFAE00</color>
                <colorMode>normal</colorMode>
                <width>4</width>
            </LineStyle>
        </Style>
        <Style id="49114">
            <LineStyle id="49115">
                <color>ffEFAE00</color>
                <colorMode>normal</colorMode>
                <width>4</width>
            </LineStyle>
        </Style>
        <Style id="49118">
            <LineStyle id="49119">
                <color>ffEFAE00</color>
                <colorMode>normal</colorMode>
                <width>4</width>
            </LineStyle>
        </Style>
        <Style id="49122">
            <LineStyle id="49123">
                <color>ffEFAE00</color>
                <colorMode>normal</colorMode>
                <width>4</width>
            </LineStyle>
        </Style>
        <Style id="49126">
            <LineStyle id="49127">
                <color>ffEFAE00</color>
                <colorMode>normal</colorMode>
                <width>4</width>
            </LineStyle>
        </Style>
        <Style id="49130">
            <LineStyle id="49131">
                <color>ffEFAE00</color>
                <colorMode>normal</colorMode>
                <width>4</width>
            </LineStyle>
        </Style>
        <Style id="49134">
            <LineStyle id="49135">
                <color>ffEFAE00</color>
                <colorMode>normal</colorMode>
                <width>4</width>
            </LineStyle>
        </Style>
        <Style id="49138">
            <LineStyle id="49139">
                <color>ffEFAE00</color>
                <colorMode>normal</colorMode>
                <width>4</width>
            </LineStyle>
        </Style>
        <Style id="49142">
            <LineStyle id="49143">
                <color>ffEFAE00</color>
                <colorMode>normal</colorMode>
                <width>4</width>
            </LineStyle>
        </Style>
        <Style id="49146">
            <LineStyle id="49147">
                <color>ffEFAE00</color>
                <colorMode>normal</colorMode>
                <width>4</width>
            </LineStyle>
        </Style>
        <Style id="49150">
            <LineStyle id="49151">
                <color>ffEFAE00</color>
                <colorMode>normal</colorMode>
                <width>4</width>
            </LineStyle>
        </Style>
        <Style id="49154">
            <LineStyle id="49155">
                <color>ffEFAE00</color>
                <colorMode>normal</colorMode>
                <width>4</width>
            </LineStyle>
        </Style>
        <Style id="49158">
            <LineStyle id="49159">
                <color>ffEFAE00</color>
                <colorMode>normal</colorMode>
                <width>4</width>
            </LineStyle>
        </Style>
        <Style id="49162">
            <LineStyle id="49163">
                <color>ffEFAE00</color>
                <colorMode>normal</colorMode>
                <width>4</width>
            </LineStyle>
        </Style>
        <Style id="49166">
            <LineStyle id="49167">
                <color>ffEFAE00</color>
                <colorMode>normal</colorMode>
                <width>4</width>
            </LineStyle>
        </Style>
        <Style id="49170">
            <LineStyle id="49171">
                <color>ffEFAE00</color>
                <colorMode>normal</colorMode>
                <width>4</width>
            </LineStyle>
        </Style>
        <Style id="49174">
            <LineStyle id="49175">
                <color>ffEFAE00</color>
                <colorMode>normal</colorMode>
                <width>4</width>
            </LineStyle>
        </Style>
        <Style id="49178">
            <LineStyle id="49179">
                <color>ffEFAE00</color>
                <colorMode>normal</colorMode>
                <width>4</width>
            </LineStyle>
        </Style>
        <Style id="49182">
            <LineStyle id="49183">
                <color>ffEFAE00</color>
                <colorMode>normal</colorMode>
                <width>4</width>
            </LineStyle>
        </Style>
        <Style id="49186">
            <LineStyle id="49187">
                <color>ffEFAE00</color>
                <colorMode>normal</colorMode>
                <width>4</width>
            </LineStyle>
        </Style>
        <Style id="49190">
            <LineStyle id="49191">
                <color>ffEFAE00</color>
                <colorMode>normal</colorMode>
                <width>4</width>
            </LineStyle>
        </Style>
        <Style id="49194">
            <LineStyle id="49195">
                <color>ffEFAE00</color>
                <colorMode>normal</colorMode>
                <width>4</width>
            </LineStyle>
        </Style>
        <Style id="49198">
            <LineStyle id="49199">
                <color>ffEFAE00</color>
                <colorMode>normal</colorMode>
                <width>4</width>
            </LineStyle>
        </Style>
        <Style id="49202">
            <LineStyle id="49203">
                <color>ffEFAE00</color>
                <colorMode>normal</colorMode>
                <width>4</width>
            </LineStyle>
        </Style>
        <Style id="49206">
            <LineStyle id="49207">
                <color>ffEFAE00</color>
                <colorMode>normal</colorMode>
                <width>4</width>
            </LineStyle>
        </Style>
        <Style id="49210">
            <LineStyle id="49211">
                <color>ffEFAE00</color>
                <colorMode>normal</colorMode>
                <width>4</width>
            </LineStyle>
        </Style>
        <Style id="49214">
            <LineStyle id="49215">
                <color>ffEFAE00</color>
                <colorMode>normal</colorMode>
                <width>4</width>
            </LineStyle>
        </Style>
        <Style id="49218">
            <LineStyle id="49219">
                <color>ffEFAE00</color>
                <colorMode>normal</colorMode>
                <width>4</width>
            </LineStyle>
        </Style>
        <Style id="49222">
            <LineStyle id="49223">
                <color>ffEFAE00</color>
                <colorMode>normal</colorMode>
                <width>4</width>
            </LineStyle>
        </Style>
        <Style id="49226">
            <LineStyle id="49227">
                <color>ffEFAE00</color>
                <colorMode>normal</colorMode>
                <width>4</width>
            </LineStyle>
        </Style>
        <Style id="49230">
            <LineStyle id="49231">
                <color>ffEFAE00</color>
                <colorMode>normal</colorMode>
                <width>4</width>
            </LineStyle>
        </Style>
        <Style id="49234">
            <LineStyle id="49235">
                <color>ffEFAE00</color>
                <colorMode>normal</colorMode>
                <width>4</width>
            </LineStyle>
        </Style>
        <Style id="49238">
            <LineStyle id="49239">
                <color>ffEFAE00</color>
                <colorMode>normal</colorMode>
                <width>4</width>
            </LineStyle>
        </Style>
        <Style id="49242">
            <LineStyle id="49243">
                <color>ffEFAE00</color>
                <colorMode>normal</colorMode>
                <width>4</width>
            </LineStyle>
        </Style>
        <Style id="49246">
            <LineStyle id="49247">
                <color>ffEFAE00</color>
                <colorMode>normal</colorMode>
                <width>4</width>
            </LineStyle>
        </Style>
        <Style id="49250">
            <LineStyle id="49251">
                <color>ffEFAE00</color>
                <colorMode>normal</colorMode>
                <width>4</width>
            </LineStyle>
        </Style>
        <Style id="49254">
            <LineStyle id="49255">
                <color>ffEFAE00</color>
                <colorMode>normal</colorMode>
                <width>4</width>
            </LineStyle>
        </Style>
        <Style id="49258">
            <LineStyle id="49259">
                <color>ffEFAE00</color>
                <colorMode>normal</colorMode>
                <width>4</width>
            </LineStyle>
        </Style>
        <Style id="49262">
            <LineStyle id="49263">
                <color>ffEFAE00</color>
                <colorMode>normal</colorMode>
                <width>4</width>
            </LineStyle>
        </Style>
        <Style id="49266">
            <LineStyle id="49267">
                <color>ffEFAE00</color>
                <colorMode>normal</colorMode>
                <width>4</width>
            </LineStyle>
        </Style>
        <Style id="49270">
            <LineStyle id="49271">
                <color>ffEFAE00</color>
                <colorMode>normal</colorMode>
                <width>4</width>
            </LineStyle>
        </Style>
        <Style id="49274">
            <LineStyle id="49275">
                <color>ffEFAE00</color>
                <colorMode>normal</colorMode>
                <width>4</width>
            </LineStyle>
        </Style>
        <Style id="49278">
            <LineStyle id="49279">
                <color>ffEFAE00</color>
                <colorMode>normal</colorMode>
                <width>4</width>
            </LineStyle>
        </Style>
        <Style id="49282">
            <LineStyle id="49283">
                <color>ffEFAE00</color>
                <colorMode>normal</colorMode>
                <width>4</width>
            </LineStyle>
        </Style>
        <Style id="49286">
            <LineStyle id="49287">
                <color>ffEFAE00</color>
                <colorMode>normal</colorMode>
                <width>4</width>
            </LineStyle>
        </Style>
        <Style id="49290">
            <LineStyle id="49291">
                <color>ffEFAE00</color>
                <colorMode>normal</colorMode>
                <width>4</width>
            </LineStyle>
        </Style>
        <ExtendedData>
            <Data name="route-name">
                <value>28: Ujungberung → Gedebage → Elang</value>
            </Data>
            <Data name="source">
                <value>Transport for Bandung</value>
            </Data>
        </ExtendedData>
        <Placemark id="48815">
            <name>RSUD Ujungberung</name>
            <styleUrl>#48816</styleUrl>
            <Point id="48814">
                <coordinates>107.6992861,-6.9158662,0.0</coordinates>
            </Point>
        </Placemark>
        <Placemark id="48820">
            <name>Terminal Elang Damri</name>
            <styleUrl>#48821</styleUrl>
            <Point id="48819">
                <coordinates>107.5753136,-6.9144895,0.0</coordinates>
            </Point>
        </Placemark>
        <Placemark id="48825">
            <name>Jalan Elang</name>
            <styleUrl>#48826</styleUrl>
            <LineString id="48824">
                <coordinates>107.5749738,-6.9155723,0.0 107.5750195,-6.915401,0.0 107.5751229,-6.9150685,0.0 107.5753136,-6.9144895,0.0</coordinates>
            </LineString>
        </Placemark>
        <Placemark id="48829">
            <name>Jalan Otto Iskandardinata</name>
            <styleUrl>#48830</styleUrl>
            <LineString id="48828">
                <coordinates>107.6030015,-6.937215,0.0 107.6030097,-6.9371213,0.0 107.6030191,-6.9370052,0.0 107.6030234,-6.9369523,0.0 107.6030596,-6.9365059,0.0 107.6030712,-6.9363633,0.0 107.6030839,-6.9362059,0.0 107.6031051,-6.9359458,0.0 107.6031352,-6.9355744,0.0</coordinates>
            </LineString>
        </Placemark>
        <Placemark id="48833">
            <name>Jalan Pasir Salam</name>
            <styleUrl>#48834</styleUrl>
            <LineString id="48832">
                <coordinates>107.6214142,-6.9483639,0.0 107.6214097,-6.9483095,0.0 107.6213904,-6.9481081,0.0 107.6211978,-6.9457709,0.0 107.6211069,-6.9447309,0.0</coordinates>
            </LineString>
        </Placemark>
        <Placemark id="48837">
            <name>Jalan Panjunan</name>
            <styleUrl>#48838</styleUrl>
            <LineString id="48836">
                <coordinates>107.5999286,-6.9301492,0.0 107.5995398,-6.9300939,0.0 107.5986352,-6.9299972,0.0 107.5973451,-6.9298621,0.0</coordinates>
            </LineString>
        </Placemark>
        <Placemark id="48841">
            <name>Jalan Jendral Sudirman</name>
            <styleUrl>#48842</styleUrl>
            <LineString id="48840">
                <coordinates>107.5766836,-6.9174697,0.0 107.5758917,-6.9173786,0.0 107.5756324,-6.9173474,0.0 107.5754176,-6.9173178,0.0 107.5750351,-6.9172721,0.0 107.5748109,-6.9172338,0.0 107.5747214,-6.9172173,0.0 107.5746928,-6.9172104,0.0 107.5745791,-6.9171828,0.0</coordinates>
            </LineString>
        </Placemark>
        <Placemark id="48845">
            <name>Jalan Kopo</name>
            <styleUrl>#48846</styleUrl>
            <LineString id="48844">
                <coordinates>107.5973451,-6.9298621,0.0 107.5975851,-6.9290648,0.0 107.5976634,-6.9287613,0.0 107.5979226,-6.9278179,0.0 107.5979756,-6.9275908,0.0 107.5980791,-6.9272681,0.0 107.5982512,-6.9267282,0.0</coordinates>
            </LineString>
        </Placemark>
        <Placemark id="48849">
            <name>Jalan Astana Anyar</name>
            <styleUrl>#48850</styleUrl>
            <LineString id="48848">
                <coordinates>107.602994,-6.9353532,0.0 107.6029555,-6.9353439,0.0 107.602907,-6.9353108,0.0 107.6028576,-6.9352667,0.0 107.6028098,-6.9351918,0.0 107.6026195,-6.9346109,0.0 107.6025085,-6.9341267,0.0 107.6024738,-6.933942,0.0</coordinates>
            </LineString>
        </Placemark>
        <Placemark id="48853">
            <name>Jalan Jamika</name>
            <styleUrl>#48854</styleUrl>
            <LineString id="48852">
                <coordinates>107.5862673,-6.9201241,0.0 107.5863282,-6.9198089,0.0 107.5864566,-6.9190099,0.0 107.5864674,-6.9188832,0.0 107.5864484,-6.9188153,0.0 107.5864335,-6.9187872,0.0 107.586419,-6.9187619,0.0 107.586377,-6.9187222,0.0</coordinates>
            </LineString>
        </Placemark>
        <Placemark id="48857">
            <name>Jalan Soekarno-Hatta</name>
            <styleUrl>#48858</styleUrl>
            <LineString id="48856">
                <coordinates>107.6330945,-6.9481961,0.0 107.6323136,-6.9484371,0.0 107.632106,-6.9485021,0.0 107.6314597,-6.9487033,0.0 107.6309601,-6.9488589,0.0 107.6307204,-6.9489241,0.0 107.630177,-6.949072,0.0 107.6300682,-6.9490915,0.0 107.629949,-6.9491129,0.0 107.6296209,-6.9491718,0.0 107.6292262,-6.9492482,0.0 107.6291488,-6.9492632,0.0 107.6289847,-6.9492968,0.0 107.6287343,-6.94934,0.0</coordinates>
            </LineString>
        </Placemark>
        <Placemark id="48861">
            <name>Jalan Soekarno-Hatta</name>
            <styleUrl>#48862</styleUrl>
            <LineString id="48860">
                <coordinates>107.6219865,-6.9493019,0.0 107.6215623,-6.9492646,0.0</coordinates>
            </LineString>
        </Placemark>
        <Placemark id="48865">
            <name>Jalan Soekarno-Hatta</name>
            <styleUrl>#48866</styleUrl>
            <LineString id="48864">
                <coordinates>107.6215623,-6.9492646,0.0 107.6214774,-6.9492594,0.0</coordinates>
            </LineString>
        </Placemark>
        <Placemark id="48869">
            <name>Jalan Astana Anyar</name>
            <styleUrl>#48870</styleUrl>
            <LineString id="48868">
                <coordinates>107.6017942,-6.9312076,0.0 107.6017766,-6.9311868,0.0 107.6014884,-6.9308457,0.0 107.6013919,-6.9307438,0.0 107.601334,-6.9306827,0.0 107.6012628,-6.9306121,0.0 107.6012254,-6.9305749,0.0 107.6011214,-6.930478,0.0 107.6008741,-6.9302699,0.0</coordinates>
            </LineString>
        </Placemark>
        <Placemark id="48873">
            <name>Jalan Astana Anyar</name>
            <styleUrl>#48874</styleUrl>
            <LineString id="48872">
                <coordinates>107.6024416,-6.9337622,0.0 107.6024097,-6.9335398,0.0 107.6022953,-6.9329832,0.0 107.6021978,-6.9325846,0.0 107.6021793,-6.9325106,0.0 107.6020798,-6.9321422,0.0 107.6019893,-6.9318736,0.0 107.6018666,-6.9314246,0.0 107.6018436,-6.9313556,0.0 107.6017942,-6.9312076,0.0</coordinates>
            </LineString>
        </Placemark>
        <Placemark id="48877">
            <name>Jalan BKR</name>
            <styleUrl>#48878</styleUrl>
            <LineString id="48876">
                <coordinates>107.6090371,-6.9377023,0.0 107.6089837,-6.9377027,0.0 107.6088735,-6.9376992,0.0 107.6084233,-6.9376849,0.0 107.6081426,-6.937676,0.0 107.6074822,-6.9376551,0.0 107.6067777,-6.9376327,0.0 107.6064422,-6.9376269,0.0</coordinates>
            </LineString>
        </Placemark>
        <Placemark id="48881">
            <name>Jalan Peta</name>
            <styleUrl>#48882</styleUrl>
            <LineString id="48880">
                <coordinates>107.6061651,-6.9376173,0.0 107.6061225,-6.937613,0.0 107.6058589,-6.9375877,0.0</coordinates>
            </LineString>
        </Placemark>
        <Placemark id="48885">
            <name>Jalan Jamika</name>
            <styleUrl>#48886</styleUrl>
            <LineString id="48884">
                <coordinates>107.585479,-6.9264387,0.0 107.5854852,-6.9263643,0.0 107.5855188,-6.9257812,0.0 107.5855719,-6.9251667,0.0 107.5856433,-6.924304,0.0 107.5856731,-6.9239119,0.0 107.58571,-6.9235337,0.0 107.5857642,-6.9231041,0.0 107.5858347,-6.9227005,0.0</coordinates>
            </LineString>
        </Placemark>
        <Placemark id="48889">
            <name>Jalan BKR</name>
            <styleUrl>#48890</styleUrl>
            <LineString id="48888">
                <coordinates>107.612765,-6.9378378,0.0 107.6126835,-6.937834,0.0 107.6122038,-6.9378169,0.0 107.6104681,-6.9377552,0.0 107.6099479,-6.9377367,0.0</coordinates>
            </LineString>
        </Placemark>
        <Placemark id="48893">
            <name>Jalan Soekarno-Hatta</name>
            <styleUrl>#48894</styleUrl>
            <LineString id="48892">
                <coordinates>107.6741648,-6.9384751,0.0 107.674107,-6.9384791,0.0 107.6737845,-6.9385017,0.0 107.6729122,-6.9385626,0.0 107.672835,-6.938568,0.0 107.6727474,-6.9385742,0.0 107.672515,-6.9385833,0.0 107.6716586,-6.9386448,0.0</coordinates>
            </LineString>
        </Placemark>
        <Placemark id="48897">
            <name>Jalan Soekarno-Hatta</name>
            <styleUrl>#48898</styleUrl>
            <LineString id="48896">
                <coordinates>107.6528653,-6.94202,0.0 107.652718,-6.9420676,0.0</coordinates>
            </LineString>
        </Placemark>
        <Placemark id="48901">
            <name>Jalan Soekarno-Hatta</name>
            <styleUrl>#48902</styleUrl>
            <LineString id="48900">
                <coordinates>107.681487,-6.9379454,0.0 107.6796763,-6.9380746,0.0 107.6795217,-6.9380863,0.0 107.6794141,-6.9380944,0.0 107.6788018,-6.9381407,0.0 107.6782503,-6.9381806,0.0 107.6780501,-6.938193,0.0</coordinates>
            </LineString>
        </Placemark>
        <Placemark id="48905">
            <name>Jalan Soekarno-Hatta</name>
            <styleUrl>#48906</styleUrl>
            <LineString id="48904">
                <coordinates>107.6824446,-6.9378809,0.0 107.681487,-6.9379454,0.0</coordinates>
            </LineString>
        </Placemark>
        <Placemark id="48909">
            <name>Jalan Soekarno-Hatta</name>
            <styleUrl>#48910</styleUrl>
            <LineString id="48908">
                <coordinates>107.6871235,-6.937537,0.0 107.686101,-6.9376237,0.0 107.6860211,-6.9376297,0.0 107.6859043,-6.9376385,0.0 107.6852061,-6.9376909,0.0 107.6847875,-6.9377223,0.0</coordinates>
            </LineString>
        </Placemark>
        <Placemark id="48913">
            <name>Jalan Soekarno-Hatta</name>
            <styleUrl>#48914</styleUrl>
            <LineString id="48912">
                <coordinates>107.6922076,-6.9371573,0.0 107.6919297,-6.9372044,0.0 107.6918125,-6.9372117,0.0 107.6916533,-6.9372216,0.0 107.6915611,-6.9372281,0.0 107.6914408,-6.9372366,0.0 107.6909936,-6.9372684,0.0 107.6907689,-6.9372843,0.0 107.6904515,-6.9373068,0.0 107.69007,-6.9373339,0.0 107.6897606,-6.9373558,0.0 107.6895851,-6.9373686,0.0 107.6883969,-6.9374526,0.0 107.6880865,-6.9374746,0.0</coordinates>
            </LineString>
        </Placemark>
        <Placemark id="48917">
            <name>Jalan Soekarno-Hatta</name>
            <styleUrl>#48918</styleUrl>
            <LineString id="48916">
                <coordinates>107.6638999,-6.9392127,0.0 107.6633094,-6.9392635,0.0 107.6632438,-6.9392691,0.0 107.6629584,-6.9393017,0.0 107.6628909,-6.9393103,0.0 107.662636,-6.9393368,0.0 107.6624379,-6.9393635,0.0 107.662399,-6.9393684,0.0 107.6619105,-6.9394464,0.0 107.6617801,-6.9394686,0.0 107.6614189,-6.9395381,0.0 107.6608708,-6.9396579,0.0 107.6607458,-6.9396857,0.0 107.6603815,-6.9397667,0.0 107.6601823,-6.9398122,0.0 107.6600955,-6.939832,0.0 107.6599232,-6.9398697,0.0 107.6598099,-6.939893,0.0 107.6596714,-6.9399267,0.0 107.659479,-6.9399734,0.0 107.6593929,-6.9399935,0.0 107.6591964,-6.9400441,0.0 107.6590642,-6.9400797,0.0 107.6583047,-6.9403106,0.0 107.6581816,-6.9403488,0.0</coordinates>
            </LineString>
        </Placemark>
        <Placemark id="48921">
            <name>Jalan Soekarno-Hatta</name>
            <styleUrl>#48922</styleUrl>
            <LineString id="48920">
                <coordinates>107.6644206,-6.9391582,0.0 107.6638999,-6.9392127,0.0</coordinates>
            </LineString>
        </Placemark>
        <Placemark id="48925">
            <name>Jalan Rumah Sakit</name>
            <styleUrl>#48926</styleUrl>
            <LineString id="48924">
                <coordinates>107.6992861,-6.9158662,0.0 107.6992749,-6.9159358,0.0 107.6992682,-6.9159661,0.0 107.6992037,-6.9162662,0.0 107.6991677,-6.9164339,0.0 107.6990546,-6.9167403,0.0 107.6990476,-6.9168421,0.0 107.6989855,-6.9170446,0.0 107.6988872,-6.9173653,0.0 107.6987998,-6.9176505,0.0 107.6986593,-6.9179951,0.0 107.6985608,-6.9182368,0.0 107.6984811,-6.9184409,0.0 107.6983691,-6.9186772,0.0 107.6982012,-6.9190868,0.0 107.6980602,-6.9194497,0.0 107.6979614,-6.919757,0.0 107.6976627,-6.9208368,0.0 107.6975605,-6.9211546,0.0 107.6974662,-6.9214314,0.0 107.6973544,-6.9217192,0.0 107.6973249,-6.9217951,0.0 107.6973091,-6.9218357,0.0 107.6972209,-6.9220427,0.0 107.696939,-6.9226061,0.0 107.6967262,-6.9229736,0.0 107.6964386,-6.9235041,0.0 107.6963121,-6.9237232,0.0 107.69621,-6.9239046,0.0 107.696096,-6.9241339,0.0 107.6959809,-6.924369,0.0 107.6958313,-6.9247123,0.0 107.6957595,-6.9248797,0.0 107.6956949,-6.925036,0.0 107.695614,-6.9252455,0.0 107.6954953,-6.9255578,0.0 107.6949163,-6.9270848,0.0 107.6945747,-6.9280103,0.0 107.6945233,-6.9281511,0.0 107.6944834,-6.9282603,0.0 107.6943409,-6.9286441,0.0 107.6941072,-6.9292778,0.0 107.693901,-6.9298925,0.0 107.6937517,-6.9303102,0.0 107.6936754,-6.9305209,0.0 107.6936171,-6.9306943,0.0 107.6935622,-6.9308408,0.0 107.6935315,-6.930926,0.0 107.693494,-6.9310431,0.0</coordinates>
            </LineString>
        </Placemark>
        <Placemark id="48929">
            <name>Bunderan Cibeureum</name>
            <styleUrl>#48930</styleUrl>
            <LineString id="48928">
                <coordinates>107.5745791,-6.9171828,0.0 107.5745698,-6.9171316,0.0 107.5745476,-6.9170844,0.0 107.5745269,-6.9170574,0.0 107.5744965,-6.917027,0.0 107.5744371,-6.9169959,0.0</coordinates>
            </LineString>
        </Placemark>
        <Placemark id="48933">
            <name>Jalan Peta</name>
            <styleUrl>#48934</styleUrl>
            <LineString id="48932">
                <coordinates>107.6030728,-6.9373193,0.0 107.6029983,-6.9373153,0.0</coordinates>
            </LineString>
        </Placemark>
        <Placemark id="48937">
            <name>Jalan BKR</name>
            <styleUrl>#48938</styleUrl>
            <LineString id="48936">
                <coordinates>107.6064422,-6.9376269,0.0 107.6063387,-6.9376239,0.0 107.6063086,-6.937624,0.0 107.6062424,-6.9376212,0.0</coordinates>
            </LineString>
        </Placemark>
        <Placemark id="48941">
            <name>Jalan Peta</name>
            <styleUrl>#48942</styleUrl>
            <LineString id="48940">
                <coordinates>107.6044944,-6.937447,0.0 107.604397,-6.9374363,0.0 107.6036899,-6.9373733,0.0 107.6032992,-6.9373408,0.0 107.6031744,-6.9373291,0.0 107.6030728,-6.9373193,0.0</coordinates>
            </LineString>
        </Placemark>
        <Placemark id="48945">
            <name>Jalan Pasir Koja</name>
            <styleUrl>#48946</styleUrl>
            <LineString id="48944">
                <coordinates>107.586442,-6.9264095,0.0 107.5863252,-6.9265108,0.0 107.5858295,-6.9267077,0.0 107.5855884,-6.9268123,0.0</coordinates>
            </LineString>
        </Placemark>
        <Placemark id="48949">
            <name>Soekarno Hatta Frontage Boulevard</name>
            <styleUrl>#48950</styleUrl>
            <LineString id="48948">
                <coordinates>107.6743512,-6.9384618,0.0 107.6741648,-6.9384751,0.0</coordinates>
            </LineString>
        </Placemark>
        <Placemark id="48953">
            <name>Jalan Soekarno-Hatta</name>
            <styleUrl>#48954</styleUrl>
            <LineString id="48952">
                <coordinates>107.6697839,-6.9387813,0.0 107.6697193,-6.9387856,0.0 107.6695923,-6.9387942,0.0</coordinates>
            </LineString>
        </Placemark>
        <Placemark id="48957">
            <name>Jalan Soekarno-Hatta</name>
            <styleUrl>#48958</styleUrl>
            <LineString id="48956">
                <coordinates>107.6661888,-6.9390351,0.0 107.6660894,-6.9390435,0.0 107.6659791,-6.9390528,0.0 107.6657041,-6.9390692,0.0 107.665207,-6.939108,0.0 107.6650224,-6.9391212,0.0 107.664853,-6.9391334,0.0 107.66465,-6.9391438,0.0 107.6644206,-6.9391582,0.0</coordinates>
            </LineString>
        </Placemark>
        <Placemark id="48961">
            <name>Soekarno Hatta Frontage Boulevard</name>
            <styleUrl>#48962</styleUrl>
            <LineString id="48960">
                <coordinates>107.6847875,-6.9377223,0.0 107.684578,-6.9377364,0.0</coordinates>
            </LineString>
        </Placemark>
        <Placemark id="48965">
            <name>Jalan Soekarno-Hatta</name>
            <styleUrl>#48966</styleUrl>
            <LineString id="48964">
                <coordinates>107.684578,-6.9377364,0.0 107.6845514,-6.9377377,0.0 107.6843619,-6.9377506,0.0 107.6824446,-6.9378809,0.0</coordinates>
            </LineString>
        </Placemark>
        <Placemark id="48969">
            <name>Jalan Panjunan</name>
            <styleUrl>#48970</styleUrl>
            <LineString id="48968">
                <coordinates>107.6008741,-6.9302699,0.0 107.6007394,-6.930231,0.0 107.6006099,-6.9302062,0.0</coordinates>
            </LineString>
        </Placemark>
        <Placemark id="48973">
            <name>Jalan Pasirluyu Barat</name>
            <styleUrl>#48974</styleUrl>
            <LineString id="48972">
                <coordinates>107.6160946,-6.9380178,0.0 107.6160922,-6.9380609,0.0 107.6160662,-6.9385192,0.0 107.6160662,-6.9385676,0.0 107.6160568,-6.9390126,0.0 107.6160487,-6.9392991,0.0 107.6160478,-6.9393324,0.0 107.6160438,-6.9394735,0.0 107.616039,-6.9396466,0.0 107.6160256,-6.9401671,0.0 107.616011,-6.9410846,0.0</coordinates>
            </LineString>
        </Placemark>
        <Placemark id="48977">
            <name>Jalan Panjunan</name>
            <styleUrl>#48978</styleUrl>
            <LineString id="48976">
                <coordinates>107.6000694,-6.9301678,0.0 107.5999286,-6.9301492,0.0</coordinates>
            </LineString>
        </Placemark>
        <Placemark id="48981">
            <name>Jalan Panjunan</name>
            <styleUrl>#48982</styleUrl>
            <LineString id="48980">
                <coordinates>107.6006099,-6.9302062,0.0 107.6001299,-6.9301736,0.0 107.6000694,-6.9301678,0.0</coordinates>
            </LineString>
        </Placemark>
        <Placemark id="48985">
            <name>Jalan Pasir Koja</name>
            <styleUrl>#48986</styleUrl>
            <LineString id="48984">
                <coordinates>107.5947205,-6.9263412,0.0 107.5947017,-6.9263393,0.0 107.5940657,-6.9262693,0.0 107.5933578,-6.9261911,0.0 107.5932247,-6.9261803,0.0 107.5930803,-6.9261716,0.0 107.5927416,-6.9261331,0.0 107.5919281,-6.9260427,0.0 107.5917633,-6.9260265,0.0 107.5912685,-6.9259603,0.0 107.5907126,-6.9259066,0.0 107.590187,-6.9258559,0.0 107.5900298,-6.925839,0.0 107.5896497,-6.9258073,0.0 107.5895895,-6.9258023,0.0 107.5893929,-6.9258012,0.0 107.5891087,-6.9257996,0.0</coordinates>
            </LineString>
        </Placemark>
        <Placemark id="48989">
            <name>Route Segment</name>
            <styleUrl>#48990</styleUrl>
            <LineString id="48988">
                <coordinates>107.616143,-6.943933,0.0 107.6159914,-6.9439331,0.0</coordinates>
            </LineString>
        </Placemark>
        <Placemark id="48993">
            <name>Jalan Rumah Sakit</name>
            <styleUrl>#48994</styleUrl>
            <LineString id="48992">
                <coordinates>107.6926627,-6.9361706,0.0 107.6926808,-6.9362758,0.0 107.6926615,-6.9365438,0.0 107.6926594,-6.9365727,0.0</coordinates>
            </LineString>
        </Placemark>
        <Placemark id="48997">
            <name>Route Segment</name>
            <styleUrl>#48998</styleUrl>
            <LineString id="48996">
                <coordinates>107.619664,-6.9491378,0.0 107.6196694,-6.9490241,0.0</coordinates>
            </LineString>
        </Placemark>
        <Placemark id="49001">
            <name>Jalan Pasir Koja</name>
            <styleUrl>#49002</styleUrl>
            <LineString id="49000">
                <coordinates>107.5891087,-6.9257996,0.0 107.5887765,-6.9258124,0.0 107.5882726,-6.9258633,0.0 107.5881603,-6.9258895,0.0 107.5880816,-6.9259042,0.0 107.5876762,-6.9259913,0.0 107.5874403,-6.9260647,0.0 107.5873727,-6.9260863,0.0 107.5866023,-6.9263422,0.0 107.586442,-6.9264095,0.0</coordinates>
            </LineString>
        </Placemark>
        <Placemark id="49005">
            <name>Jalan Jendral Sudirman</name>
            <styleUrl>#49006</styleUrl>
            <LineString id="49004">
                <coordinates>107.586377,-6.9187222,0.0 107.5863067,-6.9187088,0.0 107.5855207,-6.9186023,0.0 107.5853065,-6.918572,0.0 107.5850994,-6.9185436,0.0 107.5850179,-6.9185338,0.0</coordinates>
            </LineString>
        </Placemark>
        <Placemark id="49009">
            <name>Jalan Pasir Koja</name>
            <styleUrl>#49010</styleUrl>
            <LineString id="49008">
                <coordinates>107.5982512,-6.9267282,0.0 107.5981846,-6.9267271,0.0 107.5976669,-6.9266732,0.0 107.5969993,-6.9266036,0.0 107.5967868,-6.92658,0.0 107.5965542,-6.9265542,0.0 107.5964512,-6.9265428,0.0 107.5960199,-6.9264972,0.0 107.5953448,-6.9264031,0.0</coordinates>
            </LineString>
        </Placemark>
        <Placemark id="49013">
            <name>Jalan Pasirluyu Barat</name>
            <styleUrl>#49014</styleUrl>
            <LineString id="49012">
                <coordinates>107.616011,-6.9410846,0.0 107.6160054,-6.9414844,0.0 107.6160002,-6.9418508,0.0 107.6159928,-6.9423798,0.0 107.6159869,-6.9430035,0.0</coordinates>
            </LineString>
        </Placemark>
        <Placemark id="49017">
            <name>Jalan Otto Iskandardinata</name>
            <styleUrl>#49018</styleUrl>
            <LineString id="49016">
                <coordinates>107.6029983,-6.9373153,0.0 107.6030015,-6.937215,0.0</coordinates>
            </LineString>
        </Placemark>
        <Placemark id="49021">
            <name>Jalan Soekarno-Hatta</name>
            <styleUrl>#49022</styleUrl>
            <LineString id="49020">
                <coordinates>107.6926097,-6.9371315,0.0 107.6925369,-6.9371357,0.0 107.6922975,-6.9371525,0.0 107.6922076,-6.9371573,0.0</coordinates>
            </LineString>
        </Placemark>
        <Placemark id="49025">
            <name>Jalan Soekarno-Hatta</name>
            <styleUrl>#49026</styleUrl>
            <LineString id="49024">
                <coordinates>107.6414451,-6.9456922,0.0 107.6413182,-6.9457358,0.0 107.641115,-6.9457846,0.0 107.6408496,-6.9458361,0.0</coordinates>
            </LineString>
        </Placemark>
        <Placemark id="49029">
            <name>Jalan Soekarno-Hatta</name>
            <styleUrl>#49030</styleUrl>
            <LineString id="49028">
                <coordinates>107.6404414,-6.9459162,0.0 107.6401117,-6.9460015,0.0</coordinates>
            </LineString>
        </Placemark>
        <Placemark id="49033">
            <name>Jalan Soekarno-Hatta</name>
            <styleUrl>#49034</styleUrl>
            <LineString id="49032">
                <coordinates>107.63913,-6.9463163,0.0 107.63859,-6.9464895,0.0 107.6384512,-6.946534,0.0 107.6381159,-6.9466415,0.0 107.6380679,-6.9466569,0.0 107.6379765,-6.9466862,0.0</coordinates>
            </LineString>
        </Placemark>
        <Placemark id="49037">
            <name>Jalan Soekarno-Hatta</name>
            <styleUrl>#49038</styleUrl>
            <LineString id="49036">
                <coordinates>107.6379765,-6.9466862,0.0 107.6376369,-6.9467879,0.0 107.6372112,-6.9469155,0.0 107.6370858,-6.946953,0.0 107.6368737,-6.9470165,0.0 107.6367773,-6.9470454,0.0 107.6367146,-6.9470642,0.0 107.6362655,-6.9471987,0.0</coordinates>
            </LineString>
        </Placemark>
        <Placemark id="49041">
            <name>Jalan Soekarno-Hatta</name>
            <styleUrl>#49042</styleUrl>
            <LineString id="49040">
                <coordinates>107.6362655,-6.9471987,0.0 107.63618,-6.9472265,0.0 107.6360405,-6.9472731,0.0 107.6359643,-6.9472968,0.0 107.6356037,-6.9474143,0.0</coordinates>
            </LineString>
        </Placemark>
        <Placemark id="49045">
            <name>Jalan Soekarno-Hatta</name>
            <styleUrl>#49046</styleUrl>
            <LineString id="49044">
                <coordinates>107.6356037,-6.9474143,0.0 107.6355007,-6.9474465,0.0 107.6353065,-6.9475072,0.0 107.6351122,-6.9475678,0.0 107.6345119,-6.9477553,0.0</coordinates>
            </LineString>
        </Placemark>
        <Placemark id="49049">
            <name>Jalan Soekarno-Hatta</name>
            <styleUrl>#49050</styleUrl>
            <LineString id="49048">
                <coordinates>107.633797,-6.9479897,0.0 107.6336031,-6.9480489,0.0 107.6335261,-6.9480768,0.0</coordinates>
            </LineString>
        </Placemark>
        <Placemark id="49053">
            <name>Jalan Soekarno-Hatta</name>
            <styleUrl>#49054</styleUrl>
            <LineString id="49052">
                <coordinates>107.6345119,-6.9477553,0.0 107.6340289,-6.9479138,0.0 107.633797,-6.9479897,0.0</coordinates>
            </LineString>
        </Placemark>
        <Placemark id="49057">
            <name>Jalan Soekarno-Hatta</name>
            <styleUrl>#49058</styleUrl>
            <LineString id="49056">
                <coordinates>107.6334141,-6.9481055,0.0 107.633341,-6.9481255,0.0 107.6330945,-6.9481961,0.0</coordinates>
            </LineString>
        </Placemark>
        <Placemark id="49061">
            <name>Jalan Soekarno-Hatta</name>
            <styleUrl>#49062</styleUrl>
            <LineString id="49060">
                <coordinates>107.6335261,-6.9480768,0.0 107.6334141,-6.9481055,0.0</coordinates>
            </LineString>
        </Placemark>
        <Placemark id="49065">
            <name>Jalan Soekarno-Hatta</name>
            <styleUrl>#49066</styleUrl>
            <LineString id="49064">
                <coordinates>107.652718,-6.9420676,0.0 107.6526919,-6.9420765,0.0 107.6517577,-6.9423758,0.0 107.6516814,-6.9423995,0.0 107.6512581,-6.9425328,0.0 107.6511346,-6.9425676,0.0 107.6509225,-6.942639,0.0 107.6507484,-6.9426922,0.0 107.6506763,-6.9427159,0.0 107.6504686,-6.942788,0.0 107.6503749,-6.9428159,0.0 107.6502455,-6.9428592,0.0 107.6500236,-6.9429302,0.0 107.6497773,-6.9430058,0.0 107.6494863,-6.9431026,0.0 107.6493065,-6.9431604,0.0 107.648989,-6.9432624,0.0 107.6486814,-6.9433594,0.0 107.6484748,-6.9434245,0.0</coordinates>
            </LineString>
        </Placemark>
        <Placemark id="49069">
            <name>Jalan Soekarno-Hatta</name>
            <styleUrl>#49070</styleUrl>
            <LineString id="49068">
                <coordinates>107.6423431,-6.9453982,0.0 107.6420622,-6.9455002,0.0 107.6419711,-6.9455318,0.0 107.6419126,-6.9455527,0.0</coordinates>
            </LineString>
        </Placemark>
        <Placemark id="49073">
            <name>Jalan Soekarno-Hatta</name>
            <styleUrl>#49074</styleUrl>
            <LineString id="49072">
                <coordinates>107.6419126,-6.9455527,0.0 107.6418208,-6.9455841,0.0</coordinates>
            </LineString>
        </Placemark>
        <Placemark id="49077">
            <name>Soekarno Hatta Frontage Boulevard</name>
            <styleUrl>#49078</styleUrl>
            <LineString id="49076">
                <coordinates>107.6758204,-6.9383501,0.0 107.6756654,-6.9383636,0.0 107.6754266,-6.9383807,0.0 107.6744722,-6.9384488,0.0 107.6743512,-6.9384618,0.0</coordinates>
            </LineString>
        </Placemark>
        <Placemark id="49081">
            <name>Jalan Soekarno-Hatta</name>
            <styleUrl>#49082</styleUrl>
            <LineString id="49080">
                <coordinates>107.6239296,-6.9494823,0.0 107.6236959,-6.9494674,0.0 107.6235803,-6.9494601,0.0 107.6233149,-6.9494323,0.0 107.6232386,-6.9494267,0.0 107.6228429,-6.9493842,0.0 107.6224799,-6.9493473,0.0 107.6222456,-6.9493211,0.0 107.6220608,-6.949308,0.0 107.6219865,-6.9493019,0.0</coordinates>
            </LineString>
        </Placemark>
        <Placemark id="49085">
            <name>Jalan Pasir Salam</name>
            <styleUrl>#49086</styleUrl>
            <LineString id="49084">
                <coordinates>107.6161533,-6.9434381,0.0 107.6166291,-6.9435002,0.0 107.6168436,-6.9435312,0.0 107.6170559,-6.9435619,0.0 107.6171261,-6.943572,0.0 107.6173375,-6.9436018,0.0 107.6175414,-6.9436284,0.0 107.6177533,-6.943647,0.0 107.6183083,-6.9436988,0.0 107.6187776,-6.9436987,0.0 107.6189704,-6.9437081,0.0 107.6193253,-6.9437206,0.0 107.6197818,-6.9437096,0.0 107.6198363,-6.9437077,0.0 107.6201767,-6.943697,0.0 107.6204964,-6.9437494,0.0 107.6207292,-6.9437856,0.0 107.6207866,-6.9437929,0.0 107.6208753,-6.9438042,0.0 107.620925,-6.9438188,0.0 107.6209585,-6.9438348,0.0 107.6209813,-6.9438535,0.0 107.6210323,-6.9440038,0.0 107.6210604,-6.9442089,0.0 107.621094,-6.9445524,0.0 107.6211069,-6.9447309,0.0</coordinates>
            </LineString>
        </Placemark>
        <Placemark id="49089">
            <name>Jalan Pasir Koja</name>
            <styleUrl>#49090</styleUrl>
            <LineString id="49088">
                <coordinates>107.594747,-6.9263438,0.0 107.5947205,-6.9263412,0.0</coordinates>
            </LineString>
        </Placemark>
        <Placemark id="49093">
            <name>Jalan Pasir Koja</name>
            <styleUrl>#49094</styleUrl>
            <LineString id="49092">
                <coordinates>107.5953448,-6.9264031,0.0 107.595278,-6.9263964,0.0 107.594747,-6.9263438,0.0</coordinates>
            </LineString>
        </Placemark>
        <Placemark id="49097">
            <name>Jalan BKR</name>
            <styleUrl>#49098</styleUrl>
            <LineString id="49096">
                <coordinates>107.6062424,-6.9376212,0.0 107.6061651,-6.9376173,0.0</coordinates>
            </LineString>
        </Placemark>
        <Placemark id="49101">
            <name>Jalan Pasir Koja</name>
            <styleUrl>#49102</styleUrl>
            <LineString id="49100">
                <coordinates>107.5855884,-6.9268123,0.0 107.5855099,-6.9268473,0.0</coordinates>
            </LineString>
        </Placemark>
        <Placemark id="49105">
            <name>Jalan Peta</name>
            <styleUrl>#49106</styleUrl>
            <LineString id="49104">
                <coordinates>107.5855099,-6.9268473,0.0 107.5854645,-6.9267539,0.0</coordinates>
            </LineString>
        </Placemark>
        <Placemark id="49109">
            <name>Route Segment</name>
            <styleUrl>#49110</styleUrl>
            <LineString id="49108">
                <coordinates>107.6926303,-6.9369434,0.0 107.6926097,-6.9371315,0.0</coordinates>
            </LineString>
        </Placemark>
        <Placemark id="49113">
            <name>Jalan Jamika</name>
            <styleUrl>#49114</styleUrl>
            <LineString id="49112">
                <coordinates>107.5859557,-6.9219839,0.0 107.5859818,-6.9218157,0.0 107.5862673,-6.9201241,0.0</coordinates>
            </LineString>
        </Placemark>
        <Placemark id="49117">
            <name>Jalan Jamika</name>
            <styleUrl>#49118</styleUrl>
            <LineString id="49116">
                <coordinates>107.5858347,-6.9227005,0.0 107.5859169,-6.9222324,0.0</coordinates>
            </LineString>
        </Placemark>
        <Placemark id="49121">
            <name>Jalan Jamika</name>
            <styleUrl>#49122</styleUrl>
            <LineString id="49120">
                <coordinates>107.5859169,-6.9222324,0.0 107.5859557,-6.9219839,0.0</coordinates>
            </LineString>
        </Placemark>
        <Placemark id="49125">
            <name>Jalan BKR</name>
            <styleUrl>#49126</styleUrl>
            <LineString id="49124">
                <coordinates>107.6099479,-6.9377367,0.0 107.6093092,-6.9377139,0.0 107.6092855,-6.9377131,0.0 107.6091524,-6.9377062,0.0</coordinates>
            </LineString>
        </Placemark>
        <Placemark id="49129">
            <name>Jalan Peta</name>
            <styleUrl>#49130</styleUrl>
            <LineString id="49128">
                <coordinates>107.6058589,-6.9375877,0.0 107.6055067,-6.9375626,0.0 107.6047557,-6.937495,0.0 107.6046571,-6.9374801,0.0 107.60458,-6.9374634,0.0 107.6044944,-6.937447,0.0</coordinates>
            </LineString>
        </Placemark>
        <Placemark id="49133">
            <name>Jalan Otto Iskandardinata</name>
            <styleUrl>#49134</styleUrl>
            <LineString id="49132">
                <coordinates>107.6031352,-6.9355744,0.0 107.6031365,-6.9355032,0.0 107.6031065,-6.9354478,0.0 107.6030464,-6.935388,0.0 107.602994,-6.9353532,0.0</coordinates>
            </LineString>
        </Placemark>
        <Placemark id="49137">
            <name>Jalan Soekarno-Hatta</name>
            <styleUrl>#49138</styleUrl>
            <LineString id="49136">
                <coordinates>107.6214774,-6.9492594,0.0 107.6213965,-6.949255,0.0</coordinates>
            </LineString>
        </Placemark>
        <Placemark id="49141">
            <name>Jalan Pasir Salam</name>
            <styleUrl>#49142</styleUrl>
            <LineString id="49140">
                <coordinates>107.6214527,-6.9491566,0.0 107.6214038,-6.9484503,0.0 107.6214142,-6.9483639,0.0</coordinates>
            </LineString>
        </Placemark>
        <Placemark id="49145">
            <name>Jalan Elang</name>
            <styleUrl>#49146</styleUrl>
            <LineString id="49144">
                <coordinates>107.5744371,-6.9169959,0.0 107.5745135,-6.9168299,0.0 107.5747072,-6.9163324,0.0 107.5747945,-6.9161059,0.0 107.5749278,-6.9157275,0.0 107.5749738,-6.9155723,0.0</coordinates>
            </LineString>
        </Placemark>
        <Placemark id="49149">
            <name>Jalan Pasirluyu Timur</name>
            <styleUrl>#49150</styleUrl>
            <LineString id="49148">
                <coordinates>107.6161533,-6.9434381,0.0 107.616143,-6.943933,0.0</coordinates>
            </LineString>
        </Placemark>
        <Placemark id="49153">
            <name>Jalan Soekarno-Hatta</name>
            <styleUrl>#49154</styleUrl>
            <LineString id="49152">
                <coordinates>107.6425818,-6.9453091,0.0 107.6425069,-6.9453371,0.0 107.6424447,-6.9453603,0.0 107.6423431,-6.9453982,0.0</coordinates>
            </LineString>
        </Placemark>
        <Placemark id="49157">
            <name>Jalan Soekarno-Hatta</name>
            <styleUrl>#49158</styleUrl>
            <LineString id="49156">
                <coordinates>107.6273421,-6.9495018,0.0 107.6270133,-6.9495231,0.0 107.6269664,-6.9495257,0.0 107.6267032,-6.9495414,0.0 107.6266189,-6.949547,0.0 107.6264304,-6.9495584,0.0</coordinates>
            </LineString>
        </Placemark>
        <Placemark id="49161">
            <name>Jalan Soekarno-Hatta</name>
            <styleUrl>#49162</styleUrl>
            <LineString id="49160">
                <coordinates>107.6264304,-6.9495584,0.0 107.626314,-6.9495624,0.0 107.626127,-6.9495688,0.0 107.6259917,-6.9495692,0.0</coordinates>
            </LineString>
        </Placemark>
        <Placemark id="49165">
            <name>Jalan Rumah Sakit</name>
            <styleUrl>#49166</styleUrl>
            <LineString id="49164">
                <coordinates>107.6926594,-6.9365727,0.0 107.6926432,-6.9368255,0.0 107.6926303,-6.9369434,0.0</coordinates>
            </LineString>
        </Placemark>
        <Placemark id="49169">
            <name>Jalan BKR</name>
            <styleUrl>#49170</styleUrl>
            <LineString id="49168">
                <coordinates>107.6138239,-6.9378694,0.0 107.6132552,-6.9378454,0.0 107.6128951,-6.9378373,0.0 107.6128117,-6.9378367,0.0 107.612765,-6.9378378,0.0</coordinates>
            </LineString>
        </Placemark>
        <Placemark id="49173">
            <name>Jalan Soekarno-Hatta</name>
            <styleUrl>#49174</styleUrl>
            <LineString id="49172">
                <coordinates>107.6674513,-6.9389439,0.0 107.6670598,-6.9389755,0.0</coordinates>
            </LineString>
        </Placemark>
        <Placemark id="49177">
            <name>Jalan Soekarno-Hatta</name>
            <styleUrl>#49178</styleUrl>
            <LineString id="49176">
                <coordinates>107.6670598,-6.9389755,0.0 107.6669878,-6.9389807,0.0 107.6667412,-6.9389975,0.0 107.6666545,-6.9390034,0.0 107.6661888,-6.9390351,0.0</coordinates>
            </LineString>
        </Placemark>
        <Placemark id="49181">
            <name>Jalan Soekarno-Hatta</name>
            <styleUrl>#49182</styleUrl>
            <LineString id="49180">
                <coordinates>107.6695923,-6.9387942,0.0 107.6695635,-6.9387964,0.0 107.6693301,-6.9388162,0.0 107.6691592,-6.9388254,0.0 107.668446,-6.9388764,0.0 107.6674513,-6.9389439,0.0</coordinates>
            </LineString>
        </Placemark>
        <Placemark id="49185">
            <name>Jalan Soekarno-Hatta</name>
            <styleUrl>#49186</styleUrl>
            <LineString id="49184">
                <coordinates>107.6712568,-6.9386784,0.0 107.6711633,-6.9386849,0.0 107.6710428,-6.9386933,0.0 107.6702958,-6.9387456,0.0 107.6701179,-6.938758,0.0 107.6698405,-6.9387773,0.0 107.6697839,-6.9387813,0.0</coordinates>
            </LineString>
        </Placemark>
        <Placemark id="49189">
            <name>Jalan Soekarno-Hatta</name>
            <styleUrl>#49190</styleUrl>
            <LineString id="49188">
                <coordinates>107.6716586,-6.9386448,0.0 107.6712568,-6.9386784,0.0</coordinates>
            </LineString>
        </Placemark>
        <Placemark id="49193">
            <name>Jalan Soekarno-Hatta</name>
            <styleUrl>#49194</styleUrl>
            <LineString id="49192">
                <coordinates>107.6773321,-6.938247,0.0 107.6768401,-6.9382789,0.0 107.6758204,-6.9383501,0.0</coordinates>
            </LineString>
        </Placemark>
        <Placemark id="49197">
            <name>Soekarno Hatta Frontage Boulevard</name>
            <styleUrl>#49198</styleUrl>
            <LineString id="49196">
                <coordinates>107.6780501,-6.938193,0.0 107.6773321,-6.938247,0.0</coordinates>
            </LineString>
        </Placemark>
        <Placemark id="49201">
            <name>Jalan Soekarno-Hatta</name>
            <styleUrl>#49202</styleUrl>
            <LineString id="49200">
                <coordinates>107.6484748,-6.9434245,0.0 107.6481243,-6.9435349,0.0 107.6478515,-6.9436201,0.0 107.6470185,-6.9438874,0.0 107.6467958,-6.9439589,0.0</coordinates>
            </LineString>
        </Placemark>
        <Placemark id="49205">
            <name>Jalan Soekarno-Hatta</name>
            <styleUrl>#49206</styleUrl>
            <LineString id="49204">
                <coordinates>107.6467958,-6.9439589,0.0 107.6467103,-6.9439855,0.0 107.646481,-6.944058,0.0 107.6462516,-6.9441305,0.0 107.6457814,-6.9442984,0.0 107.6456229,-6.9443522,0.0 107.6443264,-6.944777,0.0 107.6441008,-6.9448492,0.0 107.6430334,-6.9451909,0.0 107.6430108,-6.9451987,0.0 107.6428275,-6.9452621,0.0 107.6427636,-6.9452838,0.0 107.6425818,-6.9453091,0.0</coordinates>
            </LineString>
        </Placemark>
        <Placemark id="49209">
            <name>Jalan Soekarno-Hatta</name>
            <styleUrl>#49210</styleUrl>
            <LineString id="49208">
                <coordinates>107.6880865,-6.9374746,0.0 107.6871235,-6.937537,0.0</coordinates>
            </LineString>
        </Placemark>
        <Placemark id="49213">
            <name>Jalan Soekarno-Hatta</name>
            <styleUrl>#49214</styleUrl>
            <LineString id="49212">
                <coordinates>107.6418208,-6.9455841,0.0 107.6417664,-6.9456007,0.0 107.6414451,-6.9456922,0.0</coordinates>
            </LineString>
        </Placemark>
        <Placemark id="49217">
            <name>Jalan Soekarno-Hatta</name>
            <styleUrl>#49218</styleUrl>
            <LineString id="49216">
                <coordinates>107.6213965,-6.949255,0.0 107.6203693,-6.9491853,0.0 107.6200002,-6.9491604,0.0 107.619664,-6.9491378,0.0</coordinates>
            </LineString>
        </Placemark>
        <Placemark id="49221">
            <name>Jalan Soekarno-Hatta</name>
            <styleUrl>#49222</styleUrl>
            <LineString id="49220">
                <coordinates>107.6196694,-6.9490241,0.0 107.6201873,-6.9490626,0.0 107.6207586,-6.949105,0.0 107.6212731,-6.9491433,0.0 107.6214527,-6.9491566,0.0</coordinates>
            </LineString>
        </Placemark>
        <Placemark id="49225">
            <name>Jalan Pasirluyu Barat</name>
            <styleUrl>#49226</styleUrl>
            <LineString id="49224">
                <coordinates>107.6159869,-6.9430035,0.0 107.6159914,-6.9439331,0.0</coordinates>
            </LineString>
        </Placemark>
        <Placemark id="49229">
            <name>Jalan Rumah Sakit</name>
            <styleUrl>#49230</styleUrl>
            <LineString id="49228">
                <coordinates>107.6934663,-6.9311395,0.0 107.6933814,-6.9314001,0.0 107.6932889,-6.9316551,0.0 107.6932649,-6.9317146,0.0 107.6931715,-6.9319609,0.0 107.6930717,-6.9322299,0.0 107.6930272,-6.9324037,0.0 107.6930017,-6.9325813,0.0 107.6929565,-6.9331527,0.0 107.6929479,-6.9332584,0.0 107.6928642,-6.9342318,0.0 107.692839,-6.9344705,0.0 107.6928067,-6.934786,0.0 107.6927921,-6.9349278,0.0 107.6927778,-6.9350672,0.0 107.6926883,-6.9358839,0.0 107.6926627,-6.9361706,0.0</coordinates>
            </LineString>
        </Placemark>
        <Placemark id="49233">
            <name>Jalan Rumah Sakit</name>
            <styleUrl>#49234</styleUrl>
            <LineString id="49232">
                <coordinates>107.693494,-6.9310431,0.0 107.6934797,-6.9310873,0.0 107.6934663,-6.9311395,0.0</coordinates>
            </LineString>
        </Placemark>
        <Placemark id="49237">
            <name>Jalan BKR</name>
            <styleUrl>#49238</styleUrl>
            <LineString id="49236">
                <coordinates>107.6091524,-6.9377062,0.0 107.6090371,-6.9377023,0.0</coordinates>
            </LineString>
        </Placemark>
        <Placemark id="49241">
            <name>Jalan Soekarno-Hatta</name>
            <styleUrl>#49242</styleUrl>
            <LineString id="49240">
                <coordinates>107.6401117,-6.9460015,0.0 107.6400284,-6.9460282,0.0 107.6398251,-6.9460936,0.0 107.63913,-6.9463163,0.0</coordinates>
            </LineString>
        </Placemark>
        <Placemark id="49245">
            <name>Jalan Soekarno-Hatta</name>
            <styleUrl>#49246</styleUrl>
            <LineString id="49244">
                <coordinates>107.6287343,-6.94934,0.0 107.6284935,-6.9493772,0.0 107.6282584,-6.9494072,0.0 107.6281405,-6.9494245,0.0 107.6277781,-6.9494666,0.0 107.6276794,-6.9494754,0.0 107.6274093,-6.9494954,0.0 107.6273421,-6.9495018,0.0</coordinates>
            </LineString>
        </Placemark>
        <Placemark id="49249">
            <name>Jalan Soekarno-Hatta</name>
            <styleUrl>#49250</styleUrl>
            <LineString id="49248">
                <coordinates>107.6581816,-6.9403488,0.0 107.6580268,-6.9403972,0.0 107.6574144,-6.9405885,0.0 107.6570876,-6.9406892,0.0 107.6569693,-6.9407256,0.0</coordinates>
            </LineString>
        </Placemark>
        <Placemark id="49253">
            <name>Jalan Soekarno-Hatta</name>
            <styleUrl>#49254</styleUrl>
            <LineString id="49252">
                <coordinates>107.6569693,-6.9407256,0.0 107.656476,-6.9408865,0.0 107.6553771,-6.9412355,0.0 107.6552333,-6.9412812,0.0 107.6550225,-6.9413467,0.0 107.6549551,-6.9413695,0.0 107.6545674,-6.9414926,0.0 107.6543541,-6.9415587,0.0 107.6540745,-6.9416413,0.0 107.6538424,-6.9417141,0.0 107.653803,-6.9417283,0.0 107.6533322,-6.9418748,0.0 107.6529256,-6.9420012,0.0 107.6528653,-6.94202,0.0</coordinates>
            </LineString>
        </Placemark>
        <Placemark id="49257">
            <name>Jalan Soekarno-Hatta</name>
            <styleUrl>#49258</styleUrl>
            <LineString id="49256">
                <coordinates>107.6259917,-6.9495692,0.0 107.625861,-6.9495663,0.0 107.6252157,-6.9495503,0.0 107.6251112,-6.9495455,0.0 107.6249117,-6.9495363,0.0 107.6245493,-6.9495197,0.0 107.624446,-6.949515,0.0 107.6242225,-6.9495008,0.0 107.6240557,-6.9494902,0.0 107.6239296,-6.9494823,0.0</coordinates>
            </LineString>
        </Placemark>
        <Placemark id="49261">
            <name>Jalan Jendral Sudirman</name>
            <styleUrl>#49262</styleUrl>
            <LineString id="49260">
                <coordinates>107.5781202,-6.9176523,0.0 107.5780899,-6.9176631,0.0 107.5780671,-6.9176734,0.0 107.5780304,-6.9176867,0.0 107.5779981,-6.9176886,0.0 107.5771136,-6.9176018,0.0 107.5770629,-6.9175968,0.0 107.5768354,-6.9175724,0.0 107.5767383,-6.9175655,0.0</coordinates>
            </LineString>
        </Placemark>
        <Placemark id="49265">
            <name>Jalan Jendral Sudirman</name>
            <styleUrl>#49266</styleUrl>
            <LineString id="49264">
                <coordinates>107.5850179,-6.9185338,0.0 107.584208,-6.9184389,0.0 107.5840139,-6.918418,0.0 107.5839721,-6.918413,0.0 107.583604,-6.9183703,0.0 107.5833368,-6.9183393,0.0 107.5829636,-6.9182959,0.0 107.5823326,-6.9182237,0.0 107.5819763,-6.9181852,0.0 107.5813282,-6.9181174,0.0 107.5812663,-6.9180975,0.0 107.5812049,-6.9180481,0.0</coordinates>
            </LineString>
        </Placemark>
        <Placemark id="49269">
            <name>Jalan Jendral Sudirman</name>
            <styleUrl>#49270</styleUrl>
            <LineString id="49268">
                <coordinates>107.5767383,-6.9175655,0.0 107.5766836,-6.9174697,0.0</coordinates>
            </LineString>
        </Placemark>
        <Placemark id="49273">
            <name>Jalan Jamika</name>
            <styleUrl>#49274</styleUrl>
            <LineString id="49272">
                <coordinates>107.5854645,-6.9267539,0.0 107.585479,-6.9264387,0.0</coordinates>
            </LineString>
        </Placemark>
        <Placemark id="49277">
            <name>Jalan Astana Anyar</name>
            <styleUrl>#49278</styleUrl>
            <LineString id="49276">
                <coordinates>107.6024738,-6.933942,0.0 107.6024577,-6.9338521,0.0 107.6024416,-6.9337622,0.0</coordinates>
            </LineString>
        </Placemark>
        <Placemark id="49281">
            <name>Jalan BKR</name>
            <styleUrl>#49282</styleUrl>
            <LineString id="49280">
                <coordinates>107.6160946,-6.9380178,0.0 107.6138239,-6.9378694,0.0</coordinates>
            </LineString>
        </Placemark>
        <Placemark id="49285">
            <name>Jalan Soekarno-Hatta</name>
            <styleUrl>#49286</styleUrl>
            <LineString id="49284">
                <coordinates>107.6408496,-6.9458361,0.0 107.6407514,-6.9458551,0.0 107.6405106,-6.9459017,0.0 107.6404589,-6.9459124,0.0 107.6404497,-6.9459144,0.0 107.6404414,-6.9459162,0.0</coordinates>
            </LineString>
        </Placemark>
        <Placemark id="49289">
            <name>Jalan Jendral Sudirman</name>
            <styleUrl>#49290</styleUrl>
            <LineString id="49288">
                <coordinates>107.5812049,-6.9180481,0.0 107.5805863,-6.9179704,0.0 107.5802279,-6.9179222,0.0 107.5798805,-6.9178766,0.0 107.5797208,-6.9178564,0.0 107.5794411,-6.9178197,0.0 107.579301,-6.9178011,0.0 107.5791821,-6.917785,0.0 107.5789586,-6.917756,0.0 107.578869,-6.9177435,0.0 107.5788207,-6.9177374,0.0 107.5787513,-6.9177277,0.0 107.5784389,-6.9176895,0.0 107.5783437,-6.9176779,0.0 107.5782936,-6.9176722,0.0 107.5781202,-6.9176523,0.0</coordinates>
            </LineString>
        </Placemark>
    </Document>
</kml>
