<?xml version="1.0" encoding="UTF-8"?>
<kml xmlns="http://www.opengis.net/kml/2.2" xmlns:gx="http://www.google.com/kml/ext/2.2">
    <Document id="49424">
        <Style id="49430">
            <IconStyle id="49431">
                <colorMode>normal</colorMode>
                <scale>1</scale>
                <heading>0</heading>
                <Icon id="49432">
                    <href>http://maps.google.com/mapfiles/kml/pushpin/ylw-pushpin.png</href>
                </Icon>
            </IconStyle>
        </Style>
        <Style id="49435">
            <IconStyle id="49436">
                <colorMode>normal</colorMode>
                <scale>1</scale>
                <heading>0</heading>
                <Icon id="49437">
                    <href>http://maps.google.com/mapfiles/kml/pushpin/ylw-pushpin.png</href>
                </Icon>
            </IconStyle>
        </Style>
        <Style id="49440">
            <LineStyle id="49441">
                <color>ff3641EF</color>
                <colorMode>normal</colorMode>
                <width>4</width>
            </LineStyle>
        </Style>
        <Style id="49444">
            <LineStyle id="49445">
                <color>ff3641EF</color>
                <colorMode>normal</colorMode>
                <width>4</width>
            </LineStyle>
        </Style>
        <Style id="49448">
            <LineStyle id="49449">
                <color>ff3641EF</color>
                <colorMode>normal</colorMode>
                <width>4</width>
            </LineStyle>
        </Style>
        <Style id="49452">
            <LineStyle id="49453">
                <color>ff3641EF</color>
                <colorMode>normal</colorMode>
                <width>4</width>
            </LineStyle>
        </Style>
        <Style id="49456">
            <LineStyle id="49457">
                <color>ff3641EF</color>
                <colorMode>normal</colorMode>
                <width>4</width>
            </LineStyle>
        </Style>
        <Style id="49460">
            <LineStyle id="49461">
                <color>ff3641EF</color>
                <colorMode>normal</colorMode>
                <width>4</width>
            </LineStyle>
        </Style>
        <Style id="49464">
            <LineStyle id="49465">
                <color>ff3641EF</color>
                <colorMode>normal</colorMode>
                <width>4</width>
            </LineStyle>
        </Style>
        <Style id="49468">
            <LineStyle id="49469">
                <color>ff3641EF</color>
                <colorMode>normal</colorMode>
                <width>4</width>
            </LineStyle>
        </Style>
        <Style id="49472">
            <LineStyle id="49473">
                <color>ff3641EF</color>
                <colorMode>normal</colorMode>
                <width>4</width>
            </LineStyle>
        </Style>
        <Style id="49476">
            <LineStyle id="49477">
                <color>ff3641EF</color>
                <colorMode>normal</colorMode>
                <width>4</width>
            </LineStyle>
        </Style>
        <Style id="49480">
            <LineStyle id="49481">
                <color>ff3641EF</color>
                <colorMode>normal</colorMode>
                <width>4</width>
            </LineStyle>
        </Style>
        <Style id="49484">
            <LineStyle id="49485">
                <color>ff3641EF</color>
                <colorMode>normal</colorMode>
                <width>4</width>
            </LineStyle>
        </Style>
        <Style id="49488">
            <LineStyle id="49489">
                <color>ff3641EF</color>
                <colorMode>normal</colorMode>
                <width>4</width>
            </LineStyle>
        </Style>
        <Style id="49492">
            <LineStyle id="49493">
                <color>ff3641EF</color>
                <colorMode>normal</colorMode>
                <width>4</width>
            </LineStyle>
        </Style>
        <Style id="49496">
            <LineStyle id="49497">
                <color>ff3641EF</color>
                <colorMode>normal</colorMode>
                <width>4</width>
            </LineStyle>
        </Style>
        <Style id="49500">
            <LineStyle id="49501">
                <color>ff3641EF</color>
                <colorMode>normal</colorMode>
                <width>4</width>
            </LineStyle>
        </Style>
        <Style id="49504">
            <LineStyle id="49505">
                <color>ff3641EF</color>
                <colorMode>normal</colorMode>
                <width>4</width>
            </LineStyle>
        </Style>
        <Style id="49508">
            <LineStyle id="49509">
                <color>ff3641EF</color>
                <colorMode>normal</colorMode>
                <width>4</width>
            </LineStyle>
        </Style>
        <Style id="49512">
            <LineStyle id="49513">
                <color>ff3641EF</color>
                <colorMode>normal</colorMode>
                <width>4</width>
            </LineStyle>
        </Style>
        <Style id="49516">
            <LineStyle id="49517">
                <color>ff3641EF</color>
                <colorMode>normal</colorMode>
                <width>4</width>
            </LineStyle>
        </Style>
        <Style id="49520">
            <LineStyle id="49521">
                <color>ff3641EF</color>
                <colorMode>normal</colorMode>
                <width>4</width>
            </LineStyle>
        </Style>
        <Style id="49524">
            <LineStyle id="49525">
                <color>ff3641EF</color>
                <colorMode>normal</colorMode>
                <width>4</width>
            </LineStyle>
        </Style>
        <Style id="49528">
            <LineStyle id="49529">
                <color>ff3641EF</color>
                <colorMode>normal</colorMode>
                <width>4</width>
            </LineStyle>
        </Style>
        <Style id="49532">
            <LineStyle id="49533">
                <color>ff3641EF</color>
                <colorMode>normal</colorMode>
                <width>4</width>
            </LineStyle>
        </Style>
        <Style id="49536">
            <LineStyle id="49537">
                <color>ff3641EF</color>
                <colorMode>normal</colorMode>
                <width>4</width>
            </LineStyle>
        </Style>
        <Style id="49540">
            <LineStyle id="49541">
                <color>ff3641EF</color>
                <colorMode>normal</colorMode>
                <width>4</width>
            </LineStyle>
        </Style>
        <Style id="49544">
            <LineStyle id="49545">
                <color>ff3641EF</color>
                <colorMode>normal</colorMode>
                <width>4</width>
            </LineStyle>
        </Style>
        <Style id="49548">
            <LineStyle id="49549">
                <color>ff3641EF</color>
                <colorMode>normal</colorMode>
                <width>4</width>
            </LineStyle>
        </Style>
        <Style id="49552">
            <LineStyle id="49553">
                <color>ff3641EF</color>
                <colorMode>normal</colorMode>
                <width>4</width>
            </LineStyle>
        </Style>
        <Style id="49556">
            <LineStyle id="49557">
                <color>ff3641EF</color>
                <colorMode>normal</colorMode>
                <width>4</width>
            </LineStyle>
        </Style>
        <Style id="49560">
            <LineStyle id="49561">
                <color>ff3641EF</color>
                <colorMode>normal</colorMode>
                <width>4</width>
            </LineStyle>
        </Style>
        <Style id="49564">
            <LineStyle id="49565">
                <color>ff3641EF</color>
                <colorMode>normal</colorMode>
                <width>4</width>
            </LineStyle>
        </Style>
        <Style id="49568">
            <LineStyle id="49569">
                <color>ff3641EF</color>
                <colorMode>normal</colorMode>
                <width>4</width>
            </LineStyle>
        </Style>
        <Style id="49572">
            <LineStyle id="49573">
                <color>ff3641EF</color>
                <colorMode>normal</colorMode>
                <width>4</width>
            </LineStyle>
        </Style>
        <Style id="49576">
            <LineStyle id="49577">
                <color>ff3641EF</color>
                <colorMode>normal</colorMode>
                <width>4</width>
            </LineStyle>
        </Style>
        <Style id="49580">
            <LineStyle id="49581">
                <color>ff3641EF</color>
                <colorMode>normal</colorMode>
                <width>4</width>
            </LineStyle>
        </Style>
        <Style id="49584">
            <LineStyle id="49585">
                <color>ff3641EF</color>
                <colorMode>normal</colorMode>
                <width>4</width>
            </LineStyle>
        </Style>
        <Style id="49588">
            <LineStyle id="49589">
                <color>ff3641EF</color>
                <colorMode>normal</colorMode>
                <width>4</width>
            </LineStyle>
        </Style>
        <Style id="49592">
            <LineStyle id="49593">
                <color>ff3641EF</color>
                <colorMode>normal</colorMode>
                <width>4</width>
            </LineStyle>
        </Style>
        <Style id="49596">
            <LineStyle id="49597">
                <color>ff3641EF</color>
                <colorMode>normal</colorMode>
                <width>4</width>
            </LineStyle>
        </Style>
        <Style id="49600">
            <LineStyle id="49601">
                <color>ff3641EF</color>
                <colorMode>normal</colorMode>
                <width>4</width>
            </LineStyle>
        </Style>
        <Style id="49604">
            <LineStyle id="49605">
                <color>ff3641EF</color>
                <colorMode>normal</colorMode>
                <width>4</width>
            </LineStyle>
        </Style>
        <Style id="49608">
            <LineStyle id="49609">
                <color>ff3641EF</color>
                <colorMode>normal</colorMode>
                <width>4</width>
            </LineStyle>
        </Style>
        <ExtendedData>
            <Data name="route-name">
                <value>29: Soekarno Hatta → Mengger (Kalapa → Mengger)</value>
            </Data>
            <Data name="source">
                <value>Transport for Bandung</value>
            </Data>
        </ExtendedData>
        <Placemark id="49429">
            <name>Stop</name>
            <styleUrl>#49430</styleUrl>
            <Point id="49428">
                <coordinates>107.6213965,-6.949255,0.0</coordinates>
            </Point>
        </Placemark>
        <Placemark id="49434">
            <name>SD Negeri Dayeuhkolot 08, 09, 12</name>
            <styleUrl>#49435</styleUrl>
            <Point id="49433">
                <coordinates>107.6290533,-6.9840869,0.0</coordinates>
            </Point>
        </Placemark>
        <Placemark id="49439">
            <name>Jalan Sukapura</name>
            <styleUrl>#49440</styleUrl>
            <LineString id="49438">
                <coordinates>107.6338821,-6.9723371,0.0 107.6340723,-6.972452,0.0</coordinates>
            </LineString>
        </Placemark>
        <Placemark id="49443">
            <name>Jalan Sukapura</name>
            <styleUrl>#49444</styleUrl>
            <LineString id="49442">
                <coordinates>107.6336598,-6.9705832,0.0 107.6335893,-6.9706971,0.0 107.6335482,-6.9708009,0.0 107.6335324,-6.9708735,0.0 107.6335233,-6.9709152,0.0 107.6335142,-6.9709567,0.0 107.6335032,-6.9710638,0.0 107.6335073,-6.9711809,0.0 107.6335915,-6.9720387,0.0 107.633596,-6.9720728,0.0 107.6335977,-6.9720855,0.0 107.6336,-6.9721028,0.0 107.6336017,-6.9721554,0.0 107.6337301,-6.9722207,0.0 107.6338821,-6.9723371,0.0</coordinates>
            </LineString>
        </Placemark>
        <Placemark id="49447">
            <name>Jalan Sukabirus</name>
            <styleUrl>#49448</styleUrl>
            <LineString id="49446">
                <coordinates>107.6325682,-6.9746225,0.0 107.6325604,-6.9746679,0.0 107.6325552,-6.9747276,0.0 107.6325688,-6.9749214,0.0 107.6326369,-6.9750973,0.0 107.632712,-6.9751905,0.0 107.6328474,-6.9753249,0.0 107.6329708,-6.975446,0.0 107.6330191,-6.9755193,0.0 107.6330312,-6.9755725,0.0 107.6330191,-6.975651,0.0 107.6330057,-6.9757615,0.0 107.6329829,-6.9759266,0.0 107.6329554,-6.976111,0.0 107.6329346,-6.9762101,0.0 107.632885,-6.9764497,0.0 107.632834,-6.9766118,0.0 107.6326464,-6.9769859,0.0 107.6326149,-6.9770884,0.0 107.6325881,-6.9773473,0.0 107.6325679,-6.9775051,0.0 107.6325444,-6.9776641,0.0 107.6325186,-6.9778625,0.0 107.6324706,-6.9780232,0.0 107.6323814,-6.9782136,0.0 107.6323465,-6.9782961,0.0 107.6322976,-6.9783613,0.0 107.6322647,-6.9783733,0.0 107.6322131,-6.9783693,0.0 107.6316497,-6.9783047,0.0 107.6315445,-6.9783081,0.0 107.6314279,-6.9783189,0.0 107.6313964,-6.978339,0.0 107.6313662,-6.9783913,0.0 107.6313015,-6.9787052,0.0 107.6312726,-6.9788409,0.0 107.631218,-6.9790642,0.0 107.6311892,-6.9792366,0.0 107.6311634,-6.9794576,0.0 107.6311603,-6.9795334,0.0 107.631155,-6.979563,0.0 107.6311405,-6.979588,0.0 107.6310953,-6.9796015,0.0 107.6310199,-6.9796063,0.0 107.6305762,-6.9796231,0.0 107.6302542,-6.9796531,0.0 107.6298902,-6.9796491,0.0 107.6291869,-6.9796406,0.0</coordinates>
            </LineString>
        </Placemark>
        <Placemark id="49451">
            <name>Jalan Sukabirus</name>
            <styleUrl>#49452</styleUrl>
            <LineString id="49450">
                <coordinates>107.6291869,-6.9796406,0.0 107.6291572,-6.9796869,0.0 107.6291399,-6.9797441,0.0 107.6291272,-6.9798116,0.0 107.6291262,-6.9798913,0.0 107.6291235,-6.9801478,0.0 107.6291214,-6.9803481,0.0 107.6291227,-6.9804152,0.0 107.6291247,-6.9807976,0.0 107.6291272,-6.9811474,0.0 107.6291191,-6.9815961,0.0 107.6291095,-6.9818535,0.0 107.6290511,-6.9821669,0.0 107.6290402,-6.9822256,0.0 107.6290072,-6.9823793,0.0 107.6289821,-6.9825025,0.0 107.6289158,-6.982865,0.0 107.6289141,-6.9831087,0.0 107.628921,-6.9832013,0.0 107.6289374,-6.983457,0.0 107.6289435,-6.9835356,0.0 107.6289516,-6.9835819,0.0</coordinates>
            </LineString>
        </Placemark>
        <Placemark id="49455">
            <name>Route Segment</name>
            <styleUrl>#49456</styleUrl>
            <LineString id="49454">
                <coordinates>107.6255029,-6.9682603,0.0 107.6253335,-6.9682402,0.0</coordinates>
            </LineString>
        </Placemark>
        <Placemark id="49459">
            <name>Jalan Sukapura</name>
            <styleUrl>#49460</styleUrl>
            <LineString id="49458">
                <coordinates>107.6253335,-6.9682402,0.0 107.6252834,-6.9682434,0.0 107.6252357,-6.9681857,0.0 107.6252191,-6.9681308,0.0 107.6252066,-6.9680895,0.0 107.6251953,-6.9680523,0.0 107.6251904,-6.9680387,0.0 107.6251807,-6.9680271,0.0 107.6251708,-6.9680206,0.0 107.6251548,-6.9680157,0.0 107.6244704,-6.9680218,0.0 107.6244491,-6.9680167,0.0 107.6244264,-6.9680113,0.0 107.6243992,-6.9679893,0.0 107.6243553,-6.9678695,0.0 107.6242831,-6.9675209,0.0 107.6242436,-6.9673604,0.0 107.62421,-6.9671847,0.0 107.6240451,-6.9671587,0.0 107.6239009,-6.9671441,0.0 107.6238379,-6.9671447,0.0 107.6237762,-6.9671521,0.0 107.6236211,-6.9671904,0.0 107.6235214,-6.967214,0.0 107.6233933,-6.9672279,0.0 107.6231586,-6.967219,0.0 107.6231331,-6.967218,0.0 107.6229623,-6.9672141,0.0 107.6227873,-6.9672093,0.0 107.6227508,-6.9671901,0.0 107.6227218,-6.9671641,0.0</coordinates>
            </LineString>
        </Placemark>
        <Placemark id="49463">
            <name>Jalan Menger Hilir</name>
            <styleUrl>#49464</styleUrl>
            <LineString id="49462">
                <coordinates>107.6228857,-6.9646975,0.0 107.6228765,-6.9645803,0.0 107.6228501,-6.9644394,0.0 107.6227735,-6.9642205,0.0 107.622633,-6.9637896,0.0 107.6225982,-6.9636549,0.0 107.6225989,-6.9635448,0.0 107.6226217,-6.9634214,0.0 107.622672,-6.9632776,0.0 107.6229498,-6.9626352,0.0</coordinates>
            </LineString>
        </Placemark>
        <Placemark id="49467">
            <name>Route Segment</name>
            <styleUrl>#49468</styleUrl>
            <LineString id="49466">
                <coordinates>107.6335153,-6.968904,0.0 107.6334783,-6.9689128,0.0 107.6334338,-6.9689321,0.0 107.6332957,-6.9690151,0.0 107.6332641,-6.9690287,0.0 107.6332381,-6.9690335,0.0 107.6331237,-6.9690294,0.0 107.6328877,-6.9690265,0.0 107.632717,-6.9690245,0.0 107.6315839,-6.9691178,0.0 107.6312832,-6.9691368,0.0 107.6305913,-6.9691879,0.0 107.6294563,-6.9693053,0.0 107.6293874,-6.9693073,0.0 107.6293418,-6.9692973,0.0 107.6293176,-6.969284,0.0 107.6292875,-6.9692706,0.0 107.6292578,-6.9692255,0.0 107.6292244,-6.969133,0.0 107.6291714,-6.9689069,0.0 107.6291457,-6.9688631,0.0 107.629123,-6.9688235,0.0 107.6290954,-6.9687893,0.0 107.6290702,-6.9687136,0.0 107.6289517,-6.9683846,0.0 107.6289465,-6.96837,0.0 107.6289341,-6.9683632,0.0 107.6289203,-6.9683593,0.0 107.6288939,-6.9683588,0.0 107.6288533,-6.9683646,0.0 107.6287625,-6.9683989,0.0 107.6286391,-6.9684265,0.0 107.6284639,-6.9684427,0.0 107.6274944,-6.9684644,0.0 107.6270605,-6.96849,0.0 107.626418,-6.9685242,0.0 107.6261941,-6.9685209,0.0 107.6259357,-6.9685197,0.0 107.6259035,-6.9685145,0.0 107.6258814,-6.9685084,0.0 107.625857,-6.9684965,0.0 107.625758,-6.96841,0.0 107.6257119,-6.9683815,0.0 107.6256178,-6.9683169,0.0 107.6255578,-6.9682863,0.0 107.6255029,-6.9682603,0.0</coordinates>
            </LineString>
        </Placemark>
        <Placemark id="49471">
            <name>Jalan Soekarno-Hatta</name>
            <styleUrl>#49472</styleUrl>
            <LineString id="49470">
                <coordinates>107.6219865,-6.9493019,0.0 107.6215623,-6.9492646,0.0</coordinates>
            </LineString>
        </Placemark>
        <Placemark id="49475">
            <name>Jalan Soekarno-Hatta</name>
            <styleUrl>#49476</styleUrl>
            <LineString id="49474">
                <coordinates>107.6215623,-6.9492646,0.0 107.6214774,-6.9492594,0.0</coordinates>
            </LineString>
        </Placemark>
        <Placemark id="49479">
            <name>Jalan Soekarno-Hatta</name>
            <styleUrl>#49480</styleUrl>
            <LineString id="49478">
                <coordinates>107.621611,-6.9491677,0.0 107.6219888,-6.9491964,0.0</coordinates>
            </LineString>
        </Placemark>
        <Placemark id="49483">
            <name>Jalan Soekarno-Hatta</name>
            <styleUrl>#49484</styleUrl>
            <LineString id="49482">
                <coordinates>107.6219888,-6.9491964,0.0 107.6225159,-6.949235,0.0 107.6230228,-6.9492832,0.0 107.6232787,-6.9493075,0.0 107.6236074,-6.9493402,0.0 107.6244902,-6.949411,0.0 107.6248137,-6.9494301,0.0 107.6249026,-6.9494354,0.0</coordinates>
            </LineString>
        </Placemark>
        <Placemark id="49487">
            <name>Jalan Soekarno-Hatta</name>
            <styleUrl>#49488</styleUrl>
            <LineString id="49486">
                <coordinates>107.6215191,-6.9491613,0.0 107.6215656,-6.9491645,0.0 107.621611,-6.9491677,0.0</coordinates>
            </LineString>
        </Placemark>
        <Placemark id="49491">
            <name>Jalan Sukabirus</name>
            <styleUrl>#49492</styleUrl>
            <LineString id="49490">
                <coordinates>107.6339247,-6.9727711,0.0 107.6335575,-6.9731238,0.0 107.633459,-6.9732176,0.0 107.6333872,-6.9732868,0.0 107.6332545,-6.9734034,0.0 107.6329668,-6.9736736,0.0 107.6328515,-6.9737881,0.0 107.632769,-6.9738839,0.0 107.6327113,-6.9739671,0.0 107.6326771,-6.974032,0.0 107.6326369,-6.9741788,0.0 107.6325879,-6.9745069,0.0 107.6325682,-6.9746225,0.0</coordinates>
            </LineString>
        </Placemark>
        <Placemark id="49495">
            <name>Jalan Sukabirus</name>
            <styleUrl>#49496</styleUrl>
            <LineString id="49494">
                <coordinates>107.6289516,-6.9835819,0.0 107.6289752,-6.9837176,0.0</coordinates>
            </LineString>
        </Placemark>
        <Placemark id="49499">
            <name>Jalan Sukaati</name>
            <styleUrl>#49500</styleUrl>
            <LineString id="49498">
                <coordinates>107.6222091,-6.954289,0.0 107.6221272,-6.9539556,0.0 107.6220381,-6.9536076,0.0 107.6220321,-6.9535932,0.0 107.6220206,-6.9535892,0.0</coordinates>
            </LineString>
        </Placemark>
        <Placemark id="49503">
            <name>Jalan Sukaati</name>
            <styleUrl>#49504</styleUrl>
            <LineString id="49502">
                <coordinates>107.622397,-6.955895,0.0 107.6223888,-6.9559496,0.0 107.6223758,-6.9560272,0.0 107.6223697,-6.9562592,0.0 107.6223731,-6.9562754,0.0 107.6223808,-6.956288,0.0 107.6224446,-6.9564041,0.0 107.6226498,-6.9565605,0.0 107.6226765,-6.9565922,0.0 107.6227044,-6.9566418,0.0 107.6227235,-6.9566867,0.0 107.6227409,-6.9567292,0.0 107.6227342,-6.9568558,0.0 107.6227284,-6.9569409,0.0 107.6226842,-6.9573235,0.0 107.6226569,-6.9576203,0.0 107.6226483,-6.9576838,0.0 107.6226477,-6.9577411,0.0 107.6226564,-6.9578249,0.0 107.6226826,-6.95793,0.0 107.6227281,-6.9580143,0.0 107.6228422,-6.9581401,0.0 107.6228629,-6.958171,0.0 107.6228782,-6.9582233,0.0 107.6229189,-6.9583782,0.0 107.6229895,-6.958689,0.0 107.623059,-6.9589775,0.0 107.6230909,-6.9592307,0.0 107.6230943,-6.959344,0.0 107.623095,-6.9594649,0.0</coordinates>
            </LineString>
        </Placemark>
        <Placemark id="49507">
            <name>Jalan Sukaati</name>
            <styleUrl>#49508</styleUrl>
            <LineString id="49506">
                <coordinates>107.6216217,-6.9511554,0.0 107.6216425,-6.9513884,0.0 107.6216412,-6.951421,0.0 107.6216405,-6.9514436,0.0 107.6216345,-6.9514782,0.0 107.6216329,-6.9514838,0.0 107.6216291,-6.9514969,0.0 107.6216197,-6.9515295,0.0 107.6215902,-6.9516413,0.0 107.6215739,-6.9517604,0.0 107.621564,-6.951843,0.0 107.6215693,-6.9520021,0.0 107.6215728,-6.9520553,0.0 107.6215902,-6.9522989,0.0 107.6215962,-6.9523569,0.0 107.6216278,-6.9526653,0.0 107.6216346,-6.9527312,0.0 107.6216425,-6.9528002,0.0 107.6216438,-6.9528208,0.0 107.6216438,-6.9530826,0.0 107.6216438,-6.9533613,0.0 107.6216753,-6.9535465,0.0</coordinates>
            </LineString>
        </Placemark>
        <Placemark id="49511">
            <name>Jalan Sukaati</name>
            <styleUrl>#49512</styleUrl>
            <LineString id="49510">
                <coordinates>107.6216043,-6.950967,0.0 107.6215811,-6.950655,0.0 107.6215719,-6.9505311,0.0 107.6215425,-6.9501356,0.0 107.6215332,-6.9500099,0.0 107.6215227,-6.9498691,0.0 107.6215107,-6.9497078,0.0 107.6214982,-6.9495389,0.0 107.6214774,-6.9492594,0.0</coordinates>
            </LineString>
        </Placemark>
        <Placemark id="49515">
            <name>Jalan Sukaati</name>
            <styleUrl>#49516</styleUrl>
            <LineString id="49514">
                <coordinates>107.6216217,-6.9511554,0.0 107.6216043,-6.950967,0.0</coordinates>
            </LineString>
        </Placemark>
        <Placemark id="49519">
            <name>Jalan Sukapura</name>
            <styleUrl>#49520</styleUrl>
            <LineString id="49518">
                <coordinates>107.6337071,-6.9704954,0.0 107.6336598,-6.9705832,0.0</coordinates>
            </LineString>
        </Placemark>
        <Placemark id="49523">
            <name>Jalan Sukapura</name>
            <styleUrl>#49524</styleUrl>
            <LineString id="49522">
                <coordinates>107.6344088,-6.9689185,0.0 107.6342706,-6.9693997,0.0 107.6341992,-6.9695973,0.0 107.6341054,-6.9697992,0.0 107.6340117,-6.9699726,0.0 107.6339343,-6.9701056,0.0 107.6337071,-6.9704954,0.0</coordinates>
            </LineString>
        </Placemark>
        <Placemark id="49527">
            <name>Route Segment</name>
            <styleUrl>#49528</styleUrl>
            <LineString id="49526">
                <coordinates>107.619664,-6.9491378,0.0 107.6196694,-6.9490241,0.0</coordinates>
            </LineString>
        </Placemark>
        <Placemark id="49531">
            <name>Jalan Soekarno-Hatta</name>
            <styleUrl>#49532</styleUrl>
            <LineString id="49530">
                <coordinates>107.6249026,-6.9494354,0.0 107.625063,-6.9494435,0.0 107.6251736,-6.9494469,0.0 107.6254122,-6.949452,0.0 107.6255564,-6.949455,0.0 107.6257226,-6.9494585,0.0 107.6258124,-6.9494604,0.0 107.6258467,-6.9494612,0.0 107.6258629,-6.9494614,0.0 107.6259741,-6.9494625,0.0</coordinates>
            </LineString>
        </Placemark>
        <Placemark id="49535">
            <name>Jalan Sukaati</name>
            <styleUrl>#49536</styleUrl>
            <LineString id="49534">
                <coordinates>107.6216753,-6.9535465,0.0 107.6220206,-6.9535892,0.0</coordinates>
            </LineString>
        </Placemark>
        <Placemark id="49539">
            <name>Jalan Sukaati</name>
            <styleUrl>#49540</styleUrl>
            <LineString id="49538">
                <coordinates>107.6222091,-6.954289,0.0 107.6222422,-6.9543881,0.0 107.6222847,-6.9545267,0.0 107.6223242,-6.9546442,0.0 107.6223463,-6.9547267,0.0 107.6223758,-6.954837,0.0 107.6223966,-6.9549306,0.0 107.6224153,-6.9550148,0.0 107.62242,-6.9551305,0.0 107.6224213,-6.9551625,0.0 107.6224213,-6.955225,0.0 107.6224156,-6.9552962,0.0 107.6224106,-6.9553275,0.0 107.6224043,-6.9554087,0.0 107.6224044,-6.9554467,0.0 107.6224091,-6.9554847,0.0 107.6224181,-6.9555175,0.0 107.6224223,-6.9555498,0.0 107.6224156,-6.955653,0.0 107.6224015,-6.9558653,0.0 107.622397,-6.955895,0.0</coordinates>
            </LineString>
        </Placemark>
        <Placemark id="49543">
            <name>Jalan Soekarno-Hatta</name>
            <styleUrl>#49544</styleUrl>
            <LineString id="49542">
                <coordinates>107.6239296,-6.9494823,0.0 107.6236959,-6.9494674,0.0 107.6235803,-6.9494601,0.0 107.6233149,-6.9494323,0.0 107.6232386,-6.9494267,0.0 107.6228429,-6.9493842,0.0 107.6224799,-6.9493473,0.0 107.6222456,-6.9493211,0.0 107.6220608,-6.949308,0.0 107.6219865,-6.9493019,0.0</coordinates>
            </LineString>
        </Placemark>
        <Placemark id="49547">
            <name>Route Segment</name>
            <styleUrl>#49548</styleUrl>
            <LineString id="49546">
                <coordinates>107.6335944,-6.9688948,0.0 107.6335153,-6.968904,0.0</coordinates>
            </LineString>
        </Placemark>
        <Placemark id="49551">
            <name>Route Segment</name>
            <styleUrl>#49552</styleUrl>
            <LineString id="49550">
                <coordinates>107.6344088,-6.9689185,0.0 107.6340851,-6.9688973,0.0 107.6336777,-6.9688885,0.0 107.6336293,-6.9688914,0.0 107.6335944,-6.9688948,0.0</coordinates>
            </LineString>
        </Placemark>
        <Placemark id="49555">
            <name>Jalan Soekarno-Hatta</name>
            <styleUrl>#49556</styleUrl>
            <LineString id="49554">
                <coordinates>107.6214527,-6.9491566,0.0 107.6215191,-6.9491613,0.0</coordinates>
            </LineString>
        </Placemark>
        <Placemark id="49559">
            <name>Jalan Soekarno-Hatta</name>
            <styleUrl>#49560</styleUrl>
            <LineString id="49558">
                <coordinates>107.6213965,-6.949255,0.0 107.6203693,-6.9491853,0.0 107.6200002,-6.9491604,0.0 107.619664,-6.9491378,0.0</coordinates>
            </LineString>
        </Placemark>
        <Placemark id="49563">
            <name>Jalan Soekarno-Hatta</name>
            <styleUrl>#49564</styleUrl>
            <LineString id="49562">
                <coordinates>107.6196694,-6.9490241,0.0 107.6201873,-6.9490626,0.0 107.6207586,-6.949105,0.0 107.6212731,-6.9491433,0.0 107.6214527,-6.9491566,0.0</coordinates>
            </LineString>
        </Placemark>
        <Placemark id="49567">
            <name>Jalan Menger Tengah</name>
            <styleUrl>#49568</styleUrl>
            <LineString id="49566">
                <coordinates>107.6230762,-6.961156,0.0 107.6230753,-6.9612015,0.0 107.6230735,-6.9612408,0.0 107.623013,-6.9614967,0.0 107.6230003,-6.9616451,0.0</coordinates>
            </LineString>
        </Placemark>
        <Placemark id="49571">
            <name>Jalan Waas</name>
            <styleUrl>#49572</styleUrl>
            <LineString id="49570">
                <coordinates>107.6259917,-6.9495692,0.0 107.6259741,-6.9494625,0.0</coordinates>
            </LineString>
        </Placemark>
        <Placemark id="49575">
            <name>Jalan Soekarno-Hatta</name>
            <styleUrl>#49576</styleUrl>
            <LineString id="49574">
                <coordinates>107.6259917,-6.9495692,0.0 107.625861,-6.9495663,0.0 107.6252157,-6.9495503,0.0 107.6251112,-6.9495455,0.0 107.6249117,-6.9495363,0.0 107.6245493,-6.9495197,0.0 107.624446,-6.949515,0.0 107.6242225,-6.9495008,0.0 107.6240557,-6.9494902,0.0 107.6239296,-6.9494823,0.0</coordinates>
            </LineString>
        </Placemark>
        <Placemark id="49579">
            <name>Jalan Sukabirus</name>
            <styleUrl>#49580</styleUrl>
            <LineString id="49578">
                <coordinates>107.6340966,-6.9726393,0.0 107.6340514,-6.9726785,0.0 107.6340088,-6.9727112,0.0 107.6339247,-6.9727711,0.0</coordinates>
            </LineString>
        </Placemark>
        <Placemark id="49583">
            <name>Jalan Menger Tengah</name>
            <styleUrl>#49584</styleUrl>
            <LineString id="49582">
                <coordinates>107.623095,-6.9594649,0.0 107.6230712,-6.9596284,0.0 107.6230319,-6.9598338,0.0 107.6230293,-6.9598849,0.0 107.6230051,-6.9601519,0.0 107.623003,-6.9602481,0.0 107.6230028,-6.9602786,0.0 107.6230314,-6.9606267,0.0 107.62305,-6.9607632,0.0 107.6230765,-6.9609811,0.0 107.6230762,-6.961156,0.0</coordinates>
            </LineString>
        </Placemark>
        <Placemark id="49587">
            <name>Jalan Menger Tengah</name>
            <styleUrl>#49588</styleUrl>
            <LineString id="49586">
                <coordinates>107.6229498,-6.9626352,0.0 107.623003,-6.9624884,0.0 107.6230096,-6.9623889,0.0 107.6230086,-6.9618576,0.0 107.6230003,-6.9616451,0.0</coordinates>
            </LineString>
        </Placemark>
        <Placemark id="49591">
            <name>Jalan Menger Hilir</name>
            <styleUrl>#49592</styleUrl>
            <LineString id="49590">
                <coordinates>107.6227218,-6.9671641,0.0 107.6227034,-6.9671278,0.0 107.6227041,-6.9670905,0.0 107.6227446,-6.9666989,0.0 107.6227486,-6.9666456,0.0 107.6227533,-6.9665826,0.0 107.622788,-6.9661876,0.0 107.6227989,-6.9660526,0.0 107.622814,-6.9658663,0.0 107.6228074,-6.9654267,0.0 107.6228789,-6.9648142,0.0 107.6228857,-6.9646975,0.0</coordinates>
            </LineString>
        </Placemark>
        <Placemark id="49595">
            <name>Jalan Sukabirus</name>
            <styleUrl>#49596</styleUrl>
            <LineString id="49594">
                <coordinates>107.6289752,-6.9837176,0.0 107.6290341,-6.9839847,0.0 107.6290395,-6.9840136,0.0 107.6290533,-6.9840869,0.0</coordinates>
            </LineString>
        </Placemark>
        <Placemark id="49599">
            <name>Route Segment</name>
            <styleUrl>#49600</styleUrl>
            <LineString id="49598">
                <coordinates>107.6340723,-6.972452,0.0 107.6341085,-6.9724489,0.0 107.6341432,-6.9724594,0.0 107.6341716,-6.9724818,0.0 107.6341896,-6.9725131,0.0</coordinates>
            </LineString>
        </Placemark>
        <Placemark id="49603">
            <name>Route Segment</name>
            <styleUrl>#49604</styleUrl>
            <LineString id="49602">
                <coordinates>107.6341896,-6.9725131,0.0 107.6341947,-6.9725448,0.0 107.6341889,-6.9725764,0.0 107.6341729,-6.9726043,0.0</coordinates>
            </LineString>
        </Placemark>
        <Placemark id="49607">
            <name>Route Segment</name>
            <styleUrl>#49608</styleUrl>
            <LineString id="49606">
                <coordinates>107.6341729,-6.9726043,0.0 107.6341388,-6.9726305,0.0 107.6340966,-6.9726393,0.0</coordinates>
            </LineString>
        </Placemark>
    </Document>
</kml>
