<?xml version="1.0" encoding="UTF-8"?>
<kml xmlns="http://www.opengis.net/kml/2.2" xmlns:gx="http://www.google.com/kml/ext/2.2">
    <Document id="50042">
        <Style id="50048">
            <IconStyle id="50049">
                <colorMode>normal</colorMode>
                <scale>1</scale>
                <heading>0</heading>
                <Icon id="50050">
                    <href>http://maps.google.com/mapfiles/kml/pushpin/ylw-pushpin.png</href>
                </Icon>
            </IconStyle>
        </Style>
        <Style id="50053">
            <IconStyle id="50054">
                <colorMode>normal</colorMode>
                <scale>1</scale>
                <heading>0</heading>
                <Icon id="50055">
                    <href>http://maps.google.com/mapfiles/kml/pushpin/ylw-pushpin.png</href>
                </Icon>
            </IconStyle>
        </Style>
        <Style id="50058">
            <LineStyle id="50059">
                <color>ff2D1EBE</color>
                <colorMode>normal</colorMode>
                <width>4</width>
            </LineStyle>
        </Style>
        <Style id="50062">
            <LineStyle id="50063">
                <color>ff2D1EBE</color>
                <colorMode>normal</colorMode>
                <width>4</width>
            </LineStyle>
        </Style>
        <Style id="50066">
            <LineStyle id="50067">
                <color>ff2D1EBE</color>
                <colorMode>normal</colorMode>
                <width>4</width>
            </LineStyle>
        </Style>
        <Style id="50070">
            <LineStyle id="50071">
                <color>ff2D1EBE</color>
                <colorMode>normal</colorMode>
                <width>4</width>
            </LineStyle>
        </Style>
        <Style id="50074">
            <LineStyle id="50075">
                <color>ff2D1EBE</color>
                <colorMode>normal</colorMode>
                <width>4</width>
            </LineStyle>
        </Style>
        <Style id="50078">
            <LineStyle id="50079">
                <color>ff2D1EBE</color>
                <colorMode>normal</colorMode>
                <width>4</width>
            </LineStyle>
        </Style>
        <Style id="50082">
            <LineStyle id="50083">
                <color>ff2D1EBE</color>
                <colorMode>normal</colorMode>
                <width>4</width>
            </LineStyle>
        </Style>
        <Style id="50086">
            <LineStyle id="50087">
                <color>ff2D1EBE</color>
                <colorMode>normal</colorMode>
                <width>4</width>
            </LineStyle>
        </Style>
        <Style id="50090">
            <LineStyle id="50091">
                <color>ff2D1EBE</color>
                <colorMode>normal</colorMode>
                <width>4</width>
            </LineStyle>
        </Style>
        <Style id="50094">
            <LineStyle id="50095">
                <color>ff2D1EBE</color>
                <colorMode>normal</colorMode>
                <width>4</width>
            </LineStyle>
        </Style>
        <Style id="50098">
            <LineStyle id="50099">
                <color>ff2D1EBE</color>
                <colorMode>normal</colorMode>
                <width>4</width>
            </LineStyle>
        </Style>
        <Style id="50102">
            <LineStyle id="50103">
                <color>ff2D1EBE</color>
                <colorMode>normal</colorMode>
                <width>4</width>
            </LineStyle>
        </Style>
        <Style id="50106">
            <LineStyle id="50107">
                <color>ff2D1EBE</color>
                <colorMode>normal</colorMode>
                <width>4</width>
            </LineStyle>
        </Style>
        <Style id="50110">
            <LineStyle id="50111">
                <color>ff2D1EBE</color>
                <colorMode>normal</colorMode>
                <width>4</width>
            </LineStyle>
        </Style>
        <Style id="50114">
            <LineStyle id="50115">
                <color>ff2D1EBE</color>
                <colorMode>normal</colorMode>
                <width>4</width>
            </LineStyle>
        </Style>
        <Style id="50118">
            <LineStyle id="50119">
                <color>ff2D1EBE</color>
                <colorMode>normal</colorMode>
                <width>4</width>
            </LineStyle>
        </Style>
        <Style id="50122">
            <LineStyle id="50123">
                <color>ff2D1EBE</color>
                <colorMode>normal</colorMode>
                <width>4</width>
            </LineStyle>
        </Style>
        <Style id="50126">
            <LineStyle id="50127">
                <color>ff2D1EBE</color>
                <colorMode>normal</colorMode>
                <width>4</width>
            </LineStyle>
        </Style>
        <Style id="50130">
            <LineStyle id="50131">
                <color>ff2D1EBE</color>
                <colorMode>normal</colorMode>
                <width>4</width>
            </LineStyle>
        </Style>
        <Style id="50134">
            <LineStyle id="50135">
                <color>ff2D1EBE</color>
                <colorMode>normal</colorMode>
                <width>4</width>
            </LineStyle>
        </Style>
        <Style id="50138">
            <LineStyle id="50139">
                <color>ff2D1EBE</color>
                <colorMode>normal</colorMode>
                <width>4</width>
            </LineStyle>
        </Style>
        <Style id="50142">
            <LineStyle id="50143">
                <color>ff2D1EBE</color>
                <colorMode>normal</colorMode>
                <width>4</width>
            </LineStyle>
        </Style>
        <Style id="50146">
            <LineStyle id="50147">
                <color>ff2D1EBE</color>
                <colorMode>normal</colorMode>
                <width>4</width>
            </LineStyle>
        </Style>
        <Style id="50150">
            <LineStyle id="50151">
                <color>ff2D1EBE</color>
                <colorMode>normal</colorMode>
                <width>4</width>
            </LineStyle>
        </Style>
        <Style id="50154">
            <LineStyle id="50155">
                <color>ff2D1EBE</color>
                <colorMode>normal</colorMode>
                <width>4</width>
            </LineStyle>
        </Style>
        <Style id="50158">
            <LineStyle id="50159">
                <color>ff2D1EBE</color>
                <colorMode>normal</colorMode>
                <width>4</width>
            </LineStyle>
        </Style>
        <Style id="50162">
            <LineStyle id="50163">
                <color>ff2D1EBE</color>
                <colorMode>normal</colorMode>
                <width>4</width>
            </LineStyle>
        </Style>
        <Style id="50166">
            <LineStyle id="50167">
                <color>ff2D1EBE</color>
                <colorMode>normal</colorMode>
                <width>4</width>
            </LineStyle>
        </Style>
        <Style id="50170">
            <LineStyle id="50171">
                <color>ff2D1EBE</color>
                <colorMode>normal</colorMode>
                <width>4</width>
            </LineStyle>
        </Style>
        <Style id="50174">
            <LineStyle id="50175">
                <color>ff2D1EBE</color>
                <colorMode>normal</colorMode>
                <width>4</width>
            </LineStyle>
        </Style>
        <Style id="50178">
            <LineStyle id="50179">
                <color>ff2D1EBE</color>
                <colorMode>normal</colorMode>
                <width>4</width>
            </LineStyle>
        </Style>
        <Style id="50182">
            <LineStyle id="50183">
                <color>ff2D1EBE</color>
                <colorMode>normal</colorMode>
                <width>4</width>
            </LineStyle>
        </Style>
        <Style id="50186">
            <LineStyle id="50187">
                <color>ff2D1EBE</color>
                <colorMode>normal</colorMode>
                <width>4</width>
            </LineStyle>
        </Style>
        <Style id="50190">
            <LineStyle id="50191">
                <color>ff2D1EBE</color>
                <colorMode>normal</colorMode>
                <width>4</width>
            </LineStyle>
        </Style>
        <Style id="50194">
            <LineStyle id="50195">
                <color>ff2D1EBE</color>
                <colorMode>normal</colorMode>
                <width>4</width>
            </LineStyle>
        </Style>
        <Style id="50198">
            <LineStyle id="50199">
                <color>ff2D1EBE</color>
                <colorMode>normal</colorMode>
                <width>4</width>
            </LineStyle>
        </Style>
        <Style id="50202">
            <LineStyle id="50203">
                <color>ff2D1EBE</color>
                <colorMode>normal</colorMode>
                <width>4</width>
            </LineStyle>
        </Style>
        <Style id="50206">
            <LineStyle id="50207">
                <color>ff2D1EBE</color>
                <colorMode>normal</colorMode>
                <width>4</width>
            </LineStyle>
        </Style>
        <Style id="50210">
            <LineStyle id="50211">
                <color>ff2D1EBE</color>
                <colorMode>normal</colorMode>
                <width>4</width>
            </LineStyle>
        </Style>
        <Style id="50214">
            <LineStyle id="50215">
                <color>ff2D1EBE</color>
                <colorMode>normal</colorMode>
                <width>4</width>
            </LineStyle>
        </Style>
        <Style id="50218">
            <LineStyle id="50219">
                <color>ff2D1EBE</color>
                <colorMode>normal</colorMode>
                <width>4</width>
            </LineStyle>
        </Style>
        <Style id="50222">
            <LineStyle id="50223">
                <color>ff2D1EBE</color>
                <colorMode>normal</colorMode>
                <width>4</width>
            </LineStyle>
        </Style>
        <Style id="50226">
            <LineStyle id="50227">
                <color>ff2D1EBE</color>
                <colorMode>normal</colorMode>
                <width>4</width>
            </LineStyle>
        </Style>
        <Style id="50230">
            <LineStyle id="50231">
                <color>ff2D1EBE</color>
                <colorMode>normal</colorMode>
                <width>4</width>
            </LineStyle>
        </Style>
        <Style id="50234">
            <LineStyle id="50235">
                <color>ff2D1EBE</color>
                <colorMode>normal</colorMode>
                <width>4</width>
            </LineStyle>
        </Style>
        <Style id="50238">
            <LineStyle id="50239">
                <color>ff2D1EBE</color>
                <colorMode>normal</colorMode>
                <width>4</width>
            </LineStyle>
        </Style>
        <Style id="50242">
            <LineStyle id="50243">
                <color>ff2D1EBE</color>
                <colorMode>normal</colorMode>
                <width>4</width>
            </LineStyle>
        </Style>
        <Style id="50246">
            <LineStyle id="50247">
                <color>ff2D1EBE</color>
                <colorMode>normal</colorMode>
                <width>4</width>
            </LineStyle>
        </Style>
        <Style id="50250">
            <LineStyle id="50251">
                <color>ff2D1EBE</color>
                <colorMode>normal</colorMode>
                <width>4</width>
            </LineStyle>
        </Style>
        <Style id="50254">
            <LineStyle id="50255">
                <color>ff2D1EBE</color>
                <colorMode>normal</colorMode>
                <width>4</width>
            </LineStyle>
        </Style>
        <Style id="50258">
            <LineStyle id="50259">
                <color>ff2D1EBE</color>
                <colorMode>normal</colorMode>
                <width>4</width>
            </LineStyle>
        </Style>
        <Style id="50262">
            <LineStyle id="50263">
                <color>ff2D1EBE</color>
                <colorMode>normal</colorMode>
                <width>4</width>
            </LineStyle>
        </Style>
        <Style id="50266">
            <LineStyle id="50267">
                <color>ff2D1EBE</color>
                <colorMode>normal</colorMode>
                <width>4</width>
            </LineStyle>
        </Style>
        <Style id="50270">
            <LineStyle id="50271">
                <color>ff2D1EBE</color>
                <colorMode>normal</colorMode>
                <width>4</width>
            </LineStyle>
        </Style>
        <Style id="50274">
            <LineStyle id="50275">
                <color>ff2D1EBE</color>
                <colorMode>normal</colorMode>
                <width>4</width>
            </LineStyle>
        </Style>
        <Style id="50278">
            <LineStyle id="50279">
                <color>ff2D1EBE</color>
                <colorMode>normal</colorMode>
                <width>4</width>
            </LineStyle>
        </Style>
        <Style id="50282">
            <LineStyle id="50283">
                <color>ff2D1EBE</color>
                <colorMode>normal</colorMode>
                <width>4</width>
            </LineStyle>
        </Style>
        <Style id="50286">
            <LineStyle id="50287">
                <color>ff2D1EBE</color>
                <colorMode>normal</colorMode>
                <width>4</width>
            </LineStyle>
        </Style>
        <Style id="50290">
            <LineStyle id="50291">
                <color>ff2D1EBE</color>
                <colorMode>normal</colorMode>
                <width>4</width>
            </LineStyle>
        </Style>
        <Style id="50294">
            <LineStyle id="50295">
                <color>ff2D1EBE</color>
                <colorMode>normal</colorMode>
                <width>4</width>
            </LineStyle>
        </Style>
        <Style id="50298">
            <LineStyle id="50299">
                <color>ff2D1EBE</color>
                <colorMode>normal</colorMode>
                <width>4</width>
            </LineStyle>
        </Style>
        <Style id="50302">
            <LineStyle id="50303">
                <color>ff2D1EBE</color>
                <colorMode>normal</colorMode>
                <width>4</width>
            </LineStyle>
        </Style>
        <Style id="50306">
            <LineStyle id="50307">
                <color>ff2D1EBE</color>
                <colorMode>normal</colorMode>
                <width>4</width>
            </LineStyle>
        </Style>
        <Style id="50310">
            <LineStyle id="50311">
                <color>ff2D1EBE</color>
                <colorMode>normal</colorMode>
                <width>4</width>
            </LineStyle>
        </Style>
        <Style id="50314">
            <LineStyle id="50315">
                <color>ff2D1EBE</color>
                <colorMode>normal</colorMode>
                <width>4</width>
            </LineStyle>
        </Style>
        <Style id="50318">
            <LineStyle id="50319">
                <color>ff2D1EBE</color>
                <colorMode>normal</colorMode>
                <width>4</width>
            </LineStyle>
        </Style>
        <Style id="50322">
            <LineStyle id="50323">
                <color>ff2D1EBE</color>
                <colorMode>normal</colorMode>
                <width>4</width>
            </LineStyle>
        </Style>
        <Style id="50326">
            <LineStyle id="50327">
                <color>ff2D1EBE</color>
                <colorMode>normal</colorMode>
                <width>4</width>
            </LineStyle>
        </Style>
        <Style id="50330">
            <LineStyle id="50331">
                <color>ff2D1EBE</color>
                <colorMode>normal</colorMode>
                <width>4</width>
            </LineStyle>
        </Style>
        <Style id="50334">
            <LineStyle id="50335">
                <color>ff2D1EBE</color>
                <colorMode>normal</colorMode>
                <width>4</width>
            </LineStyle>
        </Style>
        <Style id="50338">
            <LineStyle id="50339">
                <color>ff2D1EBE</color>
                <colorMode>normal</colorMode>
                <width>4</width>
            </LineStyle>
        </Style>
        <Style id="50342">
            <LineStyle id="50343">
                <color>ff2D1EBE</color>
                <colorMode>normal</colorMode>
                <width>4</width>
            </LineStyle>
        </Style>
        <Style id="50346">
            <LineStyle id="50347">
                <color>ff2D1EBE</color>
                <colorMode>normal</colorMode>
                <width>4</width>
            </LineStyle>
        </Style>
        <Style id="50350">
            <LineStyle id="50351">
                <color>ff2D1EBE</color>
                <colorMode>normal</colorMode>
                <width>4</width>
            </LineStyle>
        </Style>
        <Style id="50354">
            <LineStyle id="50355">
                <color>ff2D1EBE</color>
                <colorMode>normal</colorMode>
                <width>4</width>
            </LineStyle>
        </Style>
        <Style id="50358">
            <LineStyle id="50359">
                <color>ff2D1EBE</color>
                <colorMode>normal</colorMode>
                <width>4</width>
            </LineStyle>
        </Style>
        <Style id="50362">
            <LineStyle id="50363">
                <color>ff2D1EBE</color>
                <colorMode>normal</colorMode>
                <width>4</width>
            </LineStyle>
        </Style>
        <Style id="50366">
            <LineStyle id="50367">
                <color>ff2D1EBE</color>
                <colorMode>normal</colorMode>
                <width>4</width>
            </LineStyle>
        </Style>
        <Style id="50370">
            <LineStyle id="50371">
                <color>ff2D1EBE</color>
                <colorMode>normal</colorMode>
                <width>4</width>
            </LineStyle>
        </Style>
        <Style id="50374">
            <LineStyle id="50375">
                <color>ff2D1EBE</color>
                <colorMode>normal</colorMode>
                <width>4</width>
            </LineStyle>
        </Style>
        <Style id="50378">
            <LineStyle id="50379">
                <color>ff2D1EBE</color>
                <colorMode>normal</colorMode>
                <width>4</width>
            </LineStyle>
        </Style>
        <Style id="50382">
            <LineStyle id="50383">
                <color>ff2D1EBE</color>
                <colorMode>normal</colorMode>
                <width>4</width>
            </LineStyle>
        </Style>
        <Style id="50386">
            <LineStyle id="50387">
                <color>ff2D1EBE</color>
                <colorMode>normal</colorMode>
                <width>4</width>
            </LineStyle>
        </Style>
        <Style id="50390">
            <LineStyle id="50391">
                <color>ff2D1EBE</color>
                <colorMode>normal</colorMode>
                <width>4</width>
            </LineStyle>
        </Style>
        <Style id="50394">
            <LineStyle id="50395">
                <color>ff2D1EBE</color>
                <colorMode>normal</colorMode>
                <width>4</width>
            </LineStyle>
        </Style>
        <Style id="50398">
            <LineStyle id="50399">
                <color>ff2D1EBE</color>
                <colorMode>normal</colorMode>
                <width>4</width>
            </LineStyle>
        </Style>
        <Style id="50402">
            <LineStyle id="50403">
                <color>ff2D1EBE</color>
                <colorMode>normal</colorMode>
                <width>4</width>
            </LineStyle>
        </Style>
        <Style id="50406">
            <LineStyle id="50407">
                <color>ff2D1EBE</color>
                <colorMode>normal</colorMode>
                <width>4</width>
            </LineStyle>
        </Style>
        <ExtendedData>
            <Data name="route-name">
                <value>30: Kalapa → Cicadas</value>
            </Data>
            <Data name="source">
                <value>Transport for Bandung</value>
            </Data>
        </ExtendedData>
        <Placemark id="50047">
            <name>Terminal Abdul Muis/Kebon Kalapa</name>
            <styleUrl>#50048</styleUrl>
            <Point id="50046">
                <coordinates>107.6058322,-6.9276428,0.0</coordinates>
            </Point>
        </Placemark>
        <Placemark id="50052">
            <name>BTM</name>
            <styleUrl>#50053</styleUrl>
            <Point id="50051">
                <coordinates>107.6435055,-6.9113592,0.0</coordinates>
            </Point>
        </Placemark>
        <Placemark id="50057">
            <name>Jalan H. Ibrahim Adjie</name>
            <styleUrl>#50058</styleUrl>
            <LineString id="50056">
                <coordinates>107.6430381,-6.9088519,0.0 107.6430734,-6.9088371,0.0 107.6430931,-6.9088341,0.0 107.6431223,-6.9088325,0.0 107.6431581,-6.9088428,0.0 107.6431794,-6.9088613,0.0 107.6431982,-6.9088983,0.0 107.6432051,-6.9089444,0.0 107.6432227,-6.9090441,0.0 107.6432642,-6.9093078,0.0 107.6432776,-6.9093765,0.0 107.6433224,-6.9094595,0.0</coordinates>
            </LineString>
        </Placemark>
        <Placemark id="50061">
            <name>Jalan Burangrang</name>
            <styleUrl>#50062</styleUrl>
            <LineString id="50060">
                <coordinates>107.6197363,-6.9253887,0.0 107.6196639,-6.9257467,0.0 107.6195875,-6.9261945,0.0 107.6195149,-6.926592,0.0 107.619482,-6.9268276,0.0 107.6194677,-6.9271239,0.0 107.6194626,-6.9274906,0.0</coordinates>
            </LineString>
        </Placemark>
        <Placemark id="50065">
            <name>Jalan Lengkong Besar</name>
            <styleUrl>#50066</styleUrl>
            <LineString id="50064">
                <coordinates>107.612647,-6.9262231,0.0 107.6128857,-6.926502,0.0 107.6130005,-6.9266412,0.0 107.6130714,-6.926733,0.0 107.6131037,-6.9268116,0.0 107.6131248,-6.9268697,0.0 107.6131331,-6.9269146,0.0 107.6131443,-6.9269688,0.0</coordinates>
            </LineString>
        </Placemark>
        <Placemark id="50069">
            <name>Jalan Jenderal Gatot Subroto</name>
            <styleUrl>#50070</styleUrl>
            <LineString id="50068">
                <coordinates>107.636589,-6.9279454,0.0 107.6366637,-6.9279864,0.0 107.6366923,-6.9280016,0.0 107.6368005,-6.9280587,0.0 107.6370469,-6.9281952,0.0 107.6373057,-6.9283272,0.0 107.6374286,-6.9283966,0.0 107.6377538,-6.928582,0.0 107.6380006,-6.92873,0.0 107.6380529,-6.9287646,0.0 107.6381119,-6.9288006,0.0 107.6381689,-6.9288432,0.0 107.6382687,-6.9289281,0.0 107.6384491,-6.9290817,0.0 107.6386831,-6.9293013,0.0 107.6389116,-6.9295348,0.0 107.6391119,-6.9297496,0.0</coordinates>
            </LineString>
        </Placemark>
        <Placemark id="50073">
            <name>Jalan Dalem Kaum</name>
            <styleUrl>#50074</styleUrl>
            <LineString id="50072">
                <coordinates>107.6085038,-6.9226424,0.0 107.6087199,-6.9226665,0.0</coordinates>
            </LineString>
        </Placemark>
        <Placemark id="50077">
            <name>Jalan Dalem Kaum</name>
            <styleUrl>#50078</styleUrl>
            <LineString id="50076">
                <coordinates>107.6087199,-6.9226665,0.0 107.6098141,-6.9227936,0.0 107.6103819,-6.9228595,0.0 107.610457,-6.9228683,0.0 107.6104966,-6.9228729,0.0 107.6107335,-6.9229004,0.0 107.6109162,-6.9229216,0.0 107.6113765,-6.922975,0.0 107.6118585,-6.9230332,0.0</coordinates>
            </LineString>
        </Placemark>
        <Placemark id="50081">
            <name>Jalan Jenderal Gatot Subroto</name>
            <styleUrl>#50082</styleUrl>
            <LineString id="50080">
                <coordinates>107.6284645,-6.9246942,0.0 107.6285558,-6.9247163,0.0 107.6291126,-6.924851,0.0 107.629371,-6.9249179,0.0 107.6299576,-6.925063,0.0 107.6300507,-6.9250863,0.0 107.6304453,-6.9251819,0.0 107.6313583,-6.9254032,0.0 107.6315463,-6.9254494,0.0 107.6318661,-6.9255282,0.0 107.6323215,-6.9256449,0.0 107.6324003,-6.9256695,0.0 107.6324746,-6.9257013,0.0 107.6325537,-6.9257386,0.0 107.6326259,-6.9257745,0.0 107.6327213,-6.9258218,0.0 107.6333989,-6.9261932,0.0 107.633424,-6.926207,0.0</coordinates>
            </LineString>
        </Placemark>
        <Placemark id="50085">
            <name>Jalan Cikawao</name>
            <styleUrl>#50086</styleUrl>
            <LineString id="50084">
                <coordinates>107.6131443,-6.9269688,0.0 107.6132071,-6.9270879,0.0 107.6132753,-6.9272001,0.0 107.6132822,-6.927209,0.0 107.6133419,-6.9272867,0.0 107.6134072,-6.9273393,0.0</coordinates>
            </LineString>
        </Placemark>
        <Placemark id="50089">
            <name>Jalan Jenderal Gatot Subroto</name>
            <styleUrl>#50090</styleUrl>
            <LineString id="50088">
                <coordinates>107.6269132,-6.924352,0.0 107.6268157,-6.924329,0.0 107.6267109,-6.9243051,0.0 107.6262875,-6.9242019,0.0 107.6254429,-6.9239962,0.0 107.6253214,-6.9239682,0.0 107.6252875,-6.9239597,0.0 107.6250865,-6.9239093,0.0</coordinates>
            </LineString>
        </Placemark>
        <Placemark id="50093">
            <name>Jalan Cikawao</name>
            <styleUrl>#50094</styleUrl>
            <LineString id="50092">
                <coordinates>107.6157613,-6.9283977,0.0 107.6151581,-6.9281304,0.0 107.6147806,-6.9279607,0.0 107.614603,-6.9278809,0.0 107.6144924,-6.927831,0.0 107.6138049,-6.9275287,0.0 107.6137563,-6.9275081,0.0 107.6134072,-6.9273393,0.0</coordinates>
            </LineString>
        </Placemark>
        <Placemark id="50097">
            <name>Jalan Dewi Sartika</name>
            <styleUrl>#50098</styleUrl>
            <LineString id="50096">
                <coordinates>107.6059454,-6.9273849,0.0 107.6059791,-6.9270185,0.0 107.6059757,-6.9268782,0.0 107.6059805,-6.9267319,0.0 107.6059951,-6.9265345,0.0 107.6060102,-6.926383,0.0 107.6060764,-6.9256868,0.0</coordinates>
            </LineString>
        </Placemark>
        <Placemark id="50101">
            <name>Jalan Dewi Sartika</name>
            <styleUrl>#50102</styleUrl>
            <LineString id="50100">
                <coordinates>107.6060764,-6.9256868,0.0 107.6061378,-6.9250253,0.0 107.6061983,-6.9243822,0.0 107.6062071,-6.924326,0.0 107.6062157,-6.9242858,0.0 107.6062271,-6.9242427,0.0 107.6062411,-6.9241764,0.0 107.6062448,-6.9241528,0.0 107.6062731,-6.9238523,0.0 107.6063064,-6.9235364,0.0</coordinates>
            </LineString>
        </Placemark>
        <Placemark id="50105">
            <name>Jalan Jenderal Ahmad Yani</name>
            <styleUrl>#50106</styleUrl>
            <LineString id="50104">
                <coordinates>107.6374263,-6.9118346,0.0 107.6376746,-6.9117059,0.0 107.6380463,-6.9115125,0.0 107.6381052,-6.9114812,0.0 107.6384087,-6.9113142,0.0 107.6385292,-6.9112521,0.0 107.6386772,-6.911175,0.0 107.6388085,-6.9111044,0.0 107.6393511,-6.9108148,0.0 107.6394945,-6.9107372,0.0 107.6395509,-6.9107061,0.0 107.6397159,-6.9106143,0.0 107.6397829,-6.9105782,0.0 107.6399162,-6.9105033,0.0 107.6402409,-6.9103278,0.0 107.64053,-6.9101769,0.0 107.6407412,-6.9100688,0.0 107.641164,-6.9098457,0.0 107.641445,-6.9096983,0.0 107.6415409,-6.9096449,0.0 107.6416706,-6.9095775,0.0 107.6417659,-6.9095225,0.0 107.6418156,-6.9094919,0.0 107.641865,-6.9094557,0.0</coordinates>
            </LineString>
        </Placemark>
        <Placemark id="50109">
            <name>Jalan Jenderal Ahmad Yani</name>
            <styleUrl>#50110</styleUrl>
            <LineString id="50108">
                <coordinates>107.641865,-6.9094557,0.0 107.641886,-6.9094523,0.0 107.6419246,-6.9094416,0.0 107.6420289,-6.9093976,0.0 107.6421602,-6.9093246,0.0 107.6427522,-6.9090058,0.0 107.6430381,-6.9088519,0.0</coordinates>
            </LineString>
        </Placemark>
        <Placemark id="50113">
            <name>Jalan Dewi Sartika</name>
            <styleUrl>#50114</styleUrl>
            <LineString id="50112">
                <coordinates>107.6063064,-6.9235364,0.0 107.6063176,-6.9234981,0.0 107.6063289,-6.9234418,0.0 107.6063543,-6.9231005,0.0 107.6063668,-6.9228999,0.0 107.6063912,-6.9225658,0.0 107.606396,-6.9224934,0.0 107.6064134,-6.9224385,0.0 107.6064448,-6.9224162,0.0</coordinates>
            </LineString>
        </Placemark>
        <Placemark id="50117">
            <name>Jalan Dalem Kaum</name>
            <styleUrl>#50118</styleUrl>
            <LineString id="50116">
                <coordinates>107.6065203,-6.9224203,0.0 107.607062,-6.9224762,0.0 107.6073353,-6.9225078,0.0 107.6074316,-6.9225178,0.0 107.6075166,-6.9225267,0.0</coordinates>
            </LineString>
        </Placemark>
        <Placemark id="50121">
            <name>Jalan Dalem Kaum</name>
            <styleUrl>#50122</styleUrl>
            <LineString id="50120">
                <coordinates>107.6075166,-6.9225267,0.0 107.6076772,-6.9225455,0.0 107.6077318,-6.9225519,0.0 107.6084422,-6.9226352,0.0 107.6085038,-6.9226424,0.0</coordinates>
            </LineString>
        </Placemark>
        <Placemark id="50125">
            <name>Jalan Jenderal Gatot Subroto</name>
            <styleUrl>#50126</styleUrl>
            <LineString id="50124">
                <coordinates>107.623622,-6.9235764,0.0 107.6233453,-6.9234601,0.0 107.623188,-6.9233901,0.0 107.6228133,-6.9232202,0.0 107.6226726,-6.9231584,0.0 107.6225264,-6.923098,0.0 107.622352,-6.9230532,0.0 107.6221612,-6.9230203,0.0 107.6220913,-6.9230082,0.0 107.6219829,-6.9229895,0.0 107.6215111,-6.9229149,0.0 107.6214244,-6.9229018,0.0 107.6214029,-6.9228986,0.0 107.6212055,-6.9228689,0.0 107.6211252,-6.9228568,0.0 107.6207357,-6.9227936,0.0 107.6200822,-6.9226889,0.0</coordinates>
            </LineString>
        </Placemark>
        <Placemark id="50129">
            <name>Jalan Jakarta</name>
            <styleUrl>#50130</styleUrl>
            <LineString id="50128">
                <coordinates>107.6374221,-6.9145133,0.0 107.6374071,-6.9145151,0.0 107.6373588,-6.9145209,0.0</coordinates>
            </LineString>
        </Placemark>
        <Placemark id="50133">
            <name>Jalan Jakarta</name>
            <styleUrl>#50134</styleUrl>
            <LineString id="50132">
                <coordinates>107.6375505,-6.9144979,0.0 107.6374221,-6.9145133,0.0</coordinates>
            </LineString>
        </Placemark>
        <Placemark id="50137">
            <name>Route Segment</name>
            <styleUrl>#50138</styleUrl>
            <LineString id="50136">
                <coordinates>107.6437064,-6.9141291,0.0 107.64364,-6.9139376,0.0 107.6436192,-6.9139023,0.0 107.6436004,-6.9138803,0.0 107.6435804,-6.9138673,0.0 107.6435595,-6.9138537,0.0 107.6434317,-6.9138202,0.0</coordinates>
            </LineString>
        </Placemark>
        <Placemark id="50141">
            <name>Jalan H. Ibrahim Adjie</name>
            <styleUrl>#50142</styleUrl>
            <LineString id="50140">
                <coordinates>107.6444657,-6.9265517,0.0 107.6444244,-6.9252812,0.0 107.6444061,-6.9246399,0.0 107.6443982,-6.9245298,0.0 107.6443956,-6.9244413,0.0 107.6443928,-6.9243799,0.0 107.6443899,-6.9243186,0.0 107.644388,-6.924264,0.0 107.6443857,-6.9242173,0.0 107.6443827,-6.9241638,0.0 107.6443757,-6.9240244,0.0 107.6443679,-6.9238694,0.0 107.6443617,-6.9237462,0.0 107.6443436,-6.9232255,0.0 107.6443266,-6.9228161,0.0 107.6443166,-6.9225944,0.0 107.6442979,-6.9222722,0.0 107.6442877,-6.9220961,0.0 107.6442701,-6.9217938,0.0</coordinates>
            </LineString>
        </Placemark>
        <Placemark id="50145">
            <name>Jalan Cikawao</name>
            <styleUrl>#50146</styleUrl>
            <LineString id="50144">
                <coordinates>107.6157613,-6.9283977,0.0 107.6157999,-6.9283989,0.0 107.6158546,-6.9284142,0.0 107.6160481,-6.9285111,0.0 107.6164635,-6.9287163,0.0</coordinates>
            </LineString>
        </Placemark>
        <Placemark id="50149">
            <name>Jalan Jakarta</name>
            <styleUrl>#50150</styleUrl>
            <LineString id="50148">
                <coordinates>107.6417884,-6.9139622,0.0 107.641697,-6.9139738,0.0 107.6414919,-6.9139937,0.0 107.641334,-6.9140119,0.0 107.6412274,-6.9140241,0.0 107.6410877,-6.9140393,0.0 107.6409956,-6.9140515,0.0 107.6405312,-6.9141105,0.0 107.6404431,-6.9141209,0.0 107.6403048,-6.9141385,0.0 107.6402144,-6.914148,0.0 107.6399554,-6.914178,0.0 107.6398939,-6.914186,0.0 107.6397497,-6.9142026,0.0 107.6394855,-6.9142369,0.0 107.6393217,-6.9142593,0.0 107.6391686,-6.914281,0.0 107.6390956,-6.9142912,0.0 107.6389363,-6.9143117,0.0 107.6388474,-6.9143228,0.0 107.6386441,-6.9143525,0.0 107.6385822,-6.9143614,0.0 107.6385215,-6.9143724,0.0 107.6384678,-6.9143807,0.0 107.6381956,-6.9144188,0.0 107.6379503,-6.9144499,0.0 107.6378321,-6.9144641,0.0 107.6377113,-6.9144786,0.0 107.6376149,-6.9144902,0.0 107.6375655,-6.9144961,0.0 107.6375505,-6.9144979,0.0</coordinates>
            </LineString>
        </Placemark>
        <Placemark id="50153">
            <name>Jalan Jakarta</name>
            <styleUrl>#50154</styleUrl>
            <LineString id="50152">
                <coordinates>107.6373588,-6.9145209,0.0 107.6371438,-6.9145467,0.0 107.6369043,-6.9145755,0.0 107.6368147,-6.9145887,0.0 107.636513,-6.914633,0.0 107.6362469,-6.9146627,0.0 107.6362076,-6.9146671,0.0 107.6361335,-6.9146647,0.0 107.6360082,-6.9146453,0.0 107.6357903,-6.914575,0.0</coordinates>
            </LineString>
        </Placemark>
        <Placemark id="50157">
            <name>Jalan Jenderal Gatot Subroto</name>
            <styleUrl>#50158</styleUrl>
            <LineString id="50156">
                <coordinates>107.6428873,-6.9316588,0.0 107.6431304,-6.9317573,0.0</coordinates>
            </LineString>
        </Placemark>
        <Placemark id="50161">
            <name>Jalan H. Ibrahim Adjie</name>
            <styleUrl>#50162</styleUrl>
            <LineString id="50160">
                <coordinates>107.6433703,-6.9099716,0.0 107.6434142,-6.9104391,0.0 107.6434287,-6.9105814,0.0 107.6434818,-6.9111241,0.0 107.6434906,-6.9112086,0.0 107.6435055,-6.9113592,0.0</coordinates>
            </LineString>
        </Placemark>
        <Placemark id="50165">
            <name>Jalan Lengkong Besar</name>
            <styleUrl>#50166</styleUrl>
            <LineString id="50164">
                <coordinates>107.6118585,-6.9230332,0.0 107.6118166,-6.9234656,0.0 107.6117934,-6.9237378,0.0 107.611746,-6.9242192,0.0 107.6117142,-6.9246889,0.0 107.6117081,-6.9247371,0.0 107.6117028,-6.9248556,0.0 107.6117078,-6.9249159,0.0 107.6117224,-6.9249903,0.0 107.6117513,-6.925068,0.0 107.6117998,-6.9251562,0.0 107.6118687,-6.9252698,0.0 107.6119571,-6.9254045,0.0 107.6120282,-6.9254956,0.0 107.6120768,-6.9255532,0.0 107.6121706,-6.9256697,0.0 107.6126055,-6.9261738,0.0 107.6126274,-6.9261996,0.0 107.612647,-6.9262231,0.0</coordinates>
            </LineString>
        </Placemark>
        <Placemark id="50169">
            <name>Jalan Sadakeling</name>
            <styleUrl>#50170</styleUrl>
            <LineString id="50168">
                <coordinates>107.6189294,-6.9281126,0.0 107.6188734,-6.9281252,0.0 107.6186304,-6.9281843,0.0 107.6185619,-6.928201,0.0 107.6183605,-6.928268,0.0 107.6180821,-6.9283765,0.0 107.6176336,-6.9285877,0.0 107.6175084,-6.9286661,0.0 107.6173911,-6.9287632,0.0 107.6173256,-6.928839,0.0 107.6172517,-6.928943,0.0 107.6171713,-6.9290845,0.0</coordinates>
            </LineString>
        </Placemark>
        <Placemark id="50173">
            <name>Jalan Sadakeling</name>
            <styleUrl>#50174</styleUrl>
            <LineString id="50172">
                <coordinates>107.6164635,-6.9287163,0.0 107.6169027,-6.9289448,0.0 107.6171713,-6.9290845,0.0</coordinates>
            </LineString>
        </Placemark>
        <Placemark id="50177">
            <name>Jalan Jakarta</name>
            <styleUrl>#50178</styleUrl>
            <LineString id="50176">
                <coordinates>107.6422876,-6.9139498,0.0 107.6421252,-6.9139589,0.0 107.6417884,-6.9139622,0.0</coordinates>
            </LineString>
        </Placemark>
        <Placemark id="50181">
            <name>Jalan Jenderal Gatot Subroto</name>
            <styleUrl>#50182</styleUrl>
            <LineString id="50180">
                <coordinates>107.6421162,-6.9313798,0.0 107.6421546,-6.9313862,0.0 107.6424299,-6.9314861,0.0 107.6428336,-6.9316382,0.0 107.6428873,-6.9316588,0.0</coordinates>
            </LineString>
        </Placemark>
        <Placemark id="50185">
            <name>Jalan Jenderal Gatot Subroto</name>
            <styleUrl>#50186</styleUrl>
            <LineString id="50184">
                <coordinates>107.6404257,-6.9307319,0.0 107.6405374,-6.9307832,0.0</coordinates>
            </LineString>
        </Placemark>
        <Placemark id="50189">
            <name>Jalan Burangrang</name>
            <styleUrl>#50190</styleUrl>
            <LineString id="50188">
                <coordinates>107.6199067,-6.9233134,0.0 107.6198421,-6.9231148,0.0 107.6198143,-6.9230334,0.0</coordinates>
            </LineString>
        </Placemark>
        <Placemark id="50193">
            <name>Jalan Burangrang</name>
            <styleUrl>#50194</styleUrl>
            <LineString id="50192">
                <coordinates>107.6199401,-6.9241475,0.0 107.6199209,-6.9240721,0.0 107.6199239,-6.9240263,0.0 107.6199445,-6.9238678,0.0 107.6199558,-6.9237164,0.0 107.619957,-6.9236696,0.0 107.6199571,-6.9236436,0.0 107.6199556,-6.9235942,0.0 107.6199499,-6.9235271,0.0 107.6199373,-6.9234277,0.0 107.6199067,-6.9233134,0.0</coordinates>
            </LineString>
        </Placemark>
        <Placemark id="50197">
            <name>Jalan Burangrang</name>
            <styleUrl>#50198</styleUrl>
            <LineString id="50196">
                <coordinates>107.6198143,-6.9230334,0.0 107.619804,-6.9229755,0.0 107.6197647,-6.9228982,0.0 107.6196396,-6.9226966,0.0 107.619593,-6.9226234,0.0</coordinates>
            </LineString>
        </Placemark>
        <Placemark id="50201">
            <name>Jalan Burangrang</name>
            <styleUrl>#50202</styleUrl>
            <LineString id="50200">
                <coordinates>107.6194441,-6.9279633,0.0 107.6194323,-6.927579,0.0 107.6194626,-6.9274906,0.0</coordinates>
            </LineString>
        </Placemark>
        <Placemark id="50205">
            <name>Jalan Sadakeling</name>
            <styleUrl>#50206</styleUrl>
            <LineString id="50204">
                <coordinates>107.6189294,-6.9281126,0.0 107.6189991,-6.9280574,0.0 107.6190743,-6.9280311,0.0 107.6192084,-6.9280005,0.0 107.6194441,-6.9279633,0.0</coordinates>
            </LineString>
        </Placemark>
        <Placemark id="50209">
            <name>Jalan Jenderal Gatot Subroto</name>
            <styleUrl>#50210</styleUrl>
            <LineString id="50208">
                <coordinates>107.623622,-6.9235764,0.0 107.6237708,-6.9235618,0.0 107.6238642,-6.9235794,0.0 107.6242815,-6.9236784,0.0</coordinates>
            </LineString>
        </Placemark>
        <Placemark id="50213">
            <name>Jalan Jenderal Gatot Subroto</name>
            <styleUrl>#50214</styleUrl>
            <LineString id="50212">
                <coordinates>107.6335757,-6.9262906,0.0 107.6340089,-6.9265293,0.0</coordinates>
            </LineString>
        </Placemark>
        <Placemark id="50217">
            <name>Jalan Jenderal Gatot Subroto</name>
            <styleUrl>#50218</styleUrl>
            <LineString id="50216">
                <coordinates>107.6405374,-6.9307832,0.0 107.6405609,-6.9307935,0.0 107.6410724,-6.9309989,0.0</coordinates>
            </LineString>
        </Placemark>
        <Placemark id="50221">
            <name>Jalan Jenderal Gatot Subroto</name>
            <styleUrl>#50222</styleUrl>
            <LineString id="50220">
                <coordinates>107.6200822,-6.9226889,0.0 107.6197318,-6.9226423,0.0 107.619593,-6.9226234,0.0</coordinates>
            </LineString>
        </Placemark>
        <Placemark id="50225">
            <name>Jalan H. Ibrahim Adjie</name>
            <styleUrl>#50226</styleUrl>
            <LineString id="50224">
                <coordinates>107.6441408,-6.9193272,0.0 107.6441381,-6.9192711,0.0 107.644128,-6.9190672,0.0 107.6440855,-6.9185996,0.0 107.6440727,-6.9184616,0.0 107.6440177,-6.9178882,0.0 107.6438994,-6.916833,0.0 107.6438819,-6.9165842,0.0 107.6438696,-6.9164357,0.0 107.6438628,-6.916367,0.0 107.6438444,-6.9161586,0.0 107.6438277,-6.9159687,0.0 107.6438209,-6.9158898,0.0 107.6437252,-6.9148646,0.0 107.6437224,-6.9148349,0.0 107.6437294,-6.9147964,0.0 107.6437472,-6.9147194,0.0 107.643757,-6.9146763,0.0</coordinates>
            </LineString>
        </Placemark>
        <Placemark id="50229">
            <name>Jalan Jenderal Gatot Subroto</name>
            <styleUrl>#50230</styleUrl>
            <LineString id="50228">
                <coordinates>107.6393128,-6.9299564,0.0 107.6396736,-6.9302614,0.0 107.6398164,-6.9303695,0.0 107.6399577,-6.9304643,0.0 107.6399986,-6.9304871,0.0 107.6402197,-6.9306103,0.0 107.6403778,-6.9307025,0.0 107.6404257,-6.9307319,0.0</coordinates>
            </LineString>
        </Placemark>
        <Placemark id="50233">
            <name>Jalan H. Ibrahim Adjie</name>
            <styleUrl>#50234</styleUrl>
            <LineString id="50232">
                <coordinates>107.6431304,-6.9317573,0.0 107.6431586,-6.9317203,0.0 107.6435367,-6.9312959,0.0 107.6437964,-6.9309966,0.0 107.6438483,-6.9308789,0.0 107.643882,-6.9307183,0.0 107.6439463,-6.9299218,0.0</coordinates>
            </LineString>
        </Placemark>
        <Placemark id="50237">
            <name>Jalan H. Ibrahim Adjie</name>
            <styleUrl>#50238</styleUrl>
            <LineString id="50236">
                <coordinates>107.6439463,-6.9299218,0.0 107.6439317,-6.9298097,0.0 107.6439344,-6.929653,0.0 107.6439464,-6.9294702,0.0 107.6439645,-6.9293351,0.0 107.6439922,-6.9291998,0.0 107.6440965,-6.9289532,0.0 107.6441455,-6.9288288,0.0 107.64417,-6.9287415,0.0 107.6442064,-6.9286091,0.0 107.6442254,-6.9284438,0.0 107.6442374,-6.9283107,0.0 107.6442459,-6.9279591,0.0 107.6442567,-6.9277157,0.0 107.6442828,-6.9275461,0.0 107.6443294,-6.9273645,0.0 107.644384,-6.9272085,0.0 107.6444091,-6.9271102,0.0 107.6444251,-6.9270482,0.0 107.6444287,-6.9270343,0.0</coordinates>
            </LineString>
        </Placemark>
        <Placemark id="50241">
            <name>Jalan Jakarta</name>
            <styleUrl>#50242</styleUrl>
            <LineString id="50240">
                <coordinates>107.6429791,-6.9138756,0.0 107.6422876,-6.9139498,0.0</coordinates>
            </LineString>
        </Placemark>
        <Placemark id="50245">
            <name>Jalan Jakarta</name>
            <styleUrl>#50246</styleUrl>
            <LineString id="50244">
                <coordinates>107.6357903,-6.914575,0.0 107.6357504,-6.9145377,0.0 107.635709,-6.9145032,0.0 107.6356388,-6.914464,0.0 107.6354226,-6.9143895,0.0 107.6351462,-6.9142943,0.0 107.6349763,-6.9142205,0.0 107.6348957,-6.9141769,0.0 107.6347808,-6.9140829,0.0 107.6347255,-6.9139977,0.0 107.6344587,-6.9135034,0.0 107.6344341,-6.9134578,0.0</coordinates>
            </LineString>
        </Placemark>
        <Placemark id="50249">
            <name>Jalan Jenderal Ahmad Yani</name>
            <styleUrl>#50250</styleUrl>
            <LineString id="50248">
                <coordinates>107.6344341,-6.9134578,0.0 107.6345164,-6.913412,0.0 107.6346004,-6.9133622,0.0</coordinates>
            </LineString>
        </Placemark>
        <Placemark id="50253">
            <name>Jalan Jenderal Gatot Subroto</name>
            <styleUrl>#50254</styleUrl>
            <LineString id="50252">
                <coordinates>107.6276565,-6.9244917,0.0 107.6278126,-6.924531,0.0</coordinates>
            </LineString>
        </Placemark>
        <Placemark id="50257">
            <name>Jalan Jenderal Gatot Subroto</name>
            <styleUrl>#50258</styleUrl>
            <LineString id="50256">
                <coordinates>107.6274045,-6.9244339,0.0 107.6275749,-6.9244728,0.0 107.6275953,-6.9244775,0.0 107.6276565,-6.9244917,0.0</coordinates>
            </LineString>
        </Placemark>
        <Placemark id="50261">
            <name>Jalan Jenderal Gatot Subroto</name>
            <styleUrl>#50262</styleUrl>
            <LineString id="50260">
                <coordinates>107.627246,-6.9244355,0.0 107.6273202,-6.9244245,0.0 107.6273722,-6.9244262,0.0 107.6274045,-6.9244339,0.0</coordinates>
            </LineString>
        </Placemark>
        <Placemark id="50265">
            <name>Jalan Jenderal Gatot Subroto</name>
            <styleUrl>#50266</styleUrl>
            <LineString id="50264">
                <coordinates>107.6278126,-6.924531,0.0 107.6278569,-6.9245418,0.0 107.6280091,-6.9245808,0.0</coordinates>
            </LineString>
        </Placemark>
        <Placemark id="50269">
            <name>Jalan Jenderal Gatot Subroto</name>
            <styleUrl>#50270</styleUrl>
            <LineString id="50268">
                <coordinates>107.6280091,-6.9245808,0.0 107.6284645,-6.9246942,0.0</coordinates>
            </LineString>
        </Placemark>
        <Placemark id="50273">
            <name>Jalan H. Ibrahim Adjie</name>
            <styleUrl>#50274</styleUrl>
            <LineString id="50272">
                <coordinates>107.643757,-6.9146763,0.0 107.6437064,-6.9141291,0.0</coordinates>
            </LineString>
        </Placemark>
        <Placemark id="50277">
            <name>Jalan H. Ibrahim Adjie</name>
            <styleUrl>#50278</styleUrl>
            <LineString id="50276">
                <coordinates>107.6433224,-6.9094595,0.0 107.6433364,-6.9096111,0.0 107.6433703,-6.9099716,0.0</coordinates>
            </LineString>
        </Placemark>
        <Placemark id="50281">
            <name>Jalan Jenderal Gatot Subroto</name>
            <styleUrl>#50282</styleUrl>
            <LineString id="50280">
                <coordinates>107.6242815,-6.9236784,0.0 107.624396,-6.9237055,0.0</coordinates>
            </LineString>
        </Placemark>
        <Placemark id="50285">
            <name>Jalan Jenderal Gatot Subroto</name>
            <styleUrl>#50286</styleUrl>
            <LineString id="50284">
                <coordinates>107.624396,-6.9237055,0.0 107.6249805,-6.9238441,0.0 107.6250865,-6.9239093,0.0</coordinates>
            </LineString>
        </Placemark>
        <Placemark id="50289">
            <name>Jalan Jenderal Gatot Subroto</name>
            <styleUrl>#50290</styleUrl>
            <LineString id="50288">
                <coordinates>107.627246,-6.9244355,0.0 107.626966,-6.9243644,0.0 107.6269132,-6.924352,0.0</coordinates>
            </LineString>
        </Placemark>
        <Placemark id="50293">
            <name>Jalan Jenderal Gatot Subroto</name>
            <styleUrl>#50294</styleUrl>
            <LineString id="50292">
                <coordinates>107.633424,-6.926207,0.0 107.6335757,-6.9262906,0.0</coordinates>
            </LineString>
        </Placemark>
        <Placemark id="50297">
            <name>Jalan Jenderal Gatot Subroto</name>
            <styleUrl>#50298</styleUrl>
            <LineString id="50296">
                <coordinates>107.6392228,-6.9298629,0.0 107.6393128,-6.9299564,0.0</coordinates>
            </LineString>
        </Placemark>
        <Placemark id="50301">
            <name>Jalan Jenderal Gatot Subroto</name>
            <styleUrl>#50302</styleUrl>
            <LineString id="50300">
                <coordinates>107.6391119,-6.9297496,0.0 107.6392228,-6.9298629,0.0</coordinates>
            </LineString>
        </Placemark>
        <Placemark id="50305">
            <name>Jalan Jenderal Gatot Subroto</name>
            <styleUrl>#50306</styleUrl>
            <LineString id="50304">
                <coordinates>107.6414267,-6.9311304,0.0 107.6414678,-6.9311453,0.0 107.641579,-6.9311846,0.0 107.6418972,-6.9313006,0.0 107.6419659,-6.9313255,0.0 107.6421162,-6.9313798,0.0</coordinates>
            </LineString>
        </Placemark>
        <Placemark id="50309">
            <name>Jalan Jenderal Gatot Subroto</name>
            <styleUrl>#50310</styleUrl>
            <LineString id="50308">
                <coordinates>107.6410724,-6.9309989,0.0 107.6410984,-6.9309977,0.0 107.6412733,-6.9310615,0.0 107.6414123,-6.9311195,0.0 107.6414267,-6.9311304,0.0</coordinates>
            </LineString>
        </Placemark>
        <Placemark id="50313">
            <name>Jalan H. Ibrahim Adjie</name>
            <styleUrl>#50314</styleUrl>
            <LineString id="50312">
                <coordinates>107.6444287,-6.9270343,0.0 107.6444385,-6.9269855,0.0 107.6444491,-6.9269381,0.0</coordinates>
            </LineString>
        </Placemark>
        <Placemark id="50317">
            <name>Jalan H. Ibrahim Adjie</name>
            <styleUrl>#50318</styleUrl>
            <LineString id="50316">
                <coordinates>107.6441491,-6.9195253,0.0 107.6441456,-6.9194414,0.0 107.6441408,-6.9193272,0.0</coordinates>
            </LineString>
        </Placemark>
        <Placemark id="50321">
            <name>Jalan Dalem Kaum</name>
            <styleUrl>#50322</styleUrl>
            <LineString id="50320">
                <coordinates>107.6064448,-6.9224162,0.0 107.6064668,-6.9224144,0.0 107.6065203,-6.9224203,0.0</coordinates>
            </LineString>
        </Placemark>
        <Placemark id="50325">
            <name>Jalan Burangrang</name>
            <styleUrl>#50326</styleUrl>
            <LineString id="50324">
                <coordinates>107.6199401,-6.9241475,0.0 107.6199287,-6.9242036,0.0</coordinates>
            </LineString>
        </Placemark>
        <Placemark id="50329">
            <name>Jalan H. Ibrahim Adjie</name>
            <styleUrl>#50330</styleUrl>
            <LineString id="50328">
                <coordinates>107.6442126,-6.9206082,0.0 107.6441491,-6.9195253,0.0</coordinates>
            </LineString>
        </Placemark>
        <Placemark id="50333">
            <name>Jalan H. Ibrahim Adjie</name>
            <styleUrl>#50334</styleUrl>
            <LineString id="50332">
                <coordinates>107.6442701,-6.9217938,0.0 107.6442126,-6.9206082,0.0</coordinates>
            </LineString>
        </Placemark>
        <Placemark id="50337">
            <name>Jalan H. Ibrahim Adjie</name>
            <styleUrl>#50338</styleUrl>
            <LineString id="50336">
                <coordinates>107.6444491,-6.9269381,0.0 107.6444587,-6.9268515,0.0 107.6444641,-6.9267038,0.0 107.6444657,-6.9265517,0.0</coordinates>
            </LineString>
        </Placemark>
        <Placemark id="50341">
            <name>Jalan Dewi Sartika</name>
            <styleUrl>#50342</styleUrl>
            <LineString id="50340">
                <coordinates>107.6058386,-6.9275637,0.0 107.6058453,-6.9274973,0.0</coordinates>
            </LineString>
        </Placemark>
        <Placemark id="50345">
            <name>Jalan Dewi Sartika</name>
            <styleUrl>#50346</styleUrl>
            <LineString id="50344">
                <coordinates>107.6058453,-6.9274973,0.0 107.6058559,-6.9274746,0.0 107.605878,-6.9274596,0.0 107.6059082,-6.9274425,0.0 107.6059305,-6.9274223,0.0 107.6059373,-6.9274102,0.0 107.6059454,-6.9273849,0.0</coordinates>
            </LineString>
        </Placemark>
        <Placemark id="50349">
            <name>Jalan Jakarta</name>
            <styleUrl>#50350</styleUrl>
            <LineString id="50348">
                <coordinates>107.6434317,-6.9138202,0.0 107.6429791,-6.9138756,0.0</coordinates>
            </LineString>
        </Placemark>
        <Placemark id="50353">
            <name>Jalan Dewi Sartika</name>
            <styleUrl>#50354</styleUrl>
            <LineString id="50352">
                <coordinates>107.6058322,-6.9276428,0.0 107.6058386,-6.9275637,0.0</coordinates>
            </LineString>
        </Placemark>
        <Placemark id="50357">
            <name>Jalan Jenderal Gatot Subroto</name>
            <styleUrl>#50358</styleUrl>
            <LineString id="50356">
                <coordinates>107.6340089,-6.9265293,0.0 107.6342187,-6.9266405,0.0 107.6347544,-6.9269243,0.0</coordinates>
            </LineString>
        </Placemark>
        <Placemark id="50361">
            <name>Jalan Jenderal Gatot Subroto</name>
            <styleUrl>#50362</styleUrl>
            <LineString id="50360">
                <coordinates>107.6347544,-6.9269243,0.0 107.634993,-6.9270488,0.0</coordinates>
            </LineString>
        </Placemark>
        <Placemark id="50365">
            <name>Jalan Jenderal Gatot Subroto</name>
            <styleUrl>#50366</styleUrl>
            <LineString id="50364">
                <coordinates>107.634993,-6.9270488,0.0 107.6350472,-6.9270783,0.0 107.6352307,-6.927178,0.0</coordinates>
            </LineString>
        </Placemark>
        <Placemark id="50369">
            <name>Jalan Jenderal Gatot Subroto</name>
            <styleUrl>#50370</styleUrl>
            <LineString id="50368">
                <coordinates>107.6352307,-6.927178,0.0 107.6354306,-6.9272867,0.0</coordinates>
            </LineString>
        </Placemark>
        <Placemark id="50373">
            <name>Jalan Jenderal Gatot Subroto</name>
            <styleUrl>#50374</styleUrl>
            <LineString id="50372">
                <coordinates>107.6354306,-6.9272867,0.0 107.63561,-6.9273802,0.0</coordinates>
            </LineString>
        </Placemark>
        <Placemark id="50377">
            <name>Jalan Jenderal Gatot Subroto</name>
            <styleUrl>#50378</styleUrl>
            <LineString id="50376">
                <coordinates>107.63561,-6.9273802,0.0 107.6356496,-6.9274015,0.0 107.6357849,-6.927476,0.0</coordinates>
            </LineString>
        </Placemark>
        <Placemark id="50381">
            <name>Jalan Jenderal Gatot Subroto</name>
            <styleUrl>#50382</styleUrl>
            <LineString id="50380">
                <coordinates>107.6357849,-6.927476,0.0 107.6362458,-6.9277178,0.0</coordinates>
            </LineString>
        </Placemark>
        <Placemark id="50385">
            <name>Jalan Jenderal Gatot Subroto</name>
            <styleUrl>#50386</styleUrl>
            <LineString id="50384">
                <coordinates>107.6362458,-6.9277178,0.0 107.6364437,-6.927832,0.0</coordinates>
            </LineString>
        </Placemark>
        <Placemark id="50389">
            <name>Jalan Jenderal Gatot Subroto</name>
            <styleUrl>#50390</styleUrl>
            <LineString id="50388">
                <coordinates>107.6364437,-6.927832,0.0 107.636514,-6.9278775,0.0 107.636589,-6.9279454,0.0</coordinates>
            </LineString>
        </Placemark>
        <Placemark id="50393">
            <name>Jalan Burangrang</name>
            <styleUrl>#50394</styleUrl>
            <LineString id="50392">
                <coordinates>107.6198534,-6.9247649,0.0 107.6197363,-6.9253887,0.0</coordinates>
            </LineString>
        </Placemark>
        <Placemark id="50397">
            <name>Jalan Burangrang</name>
            <styleUrl>#50398</styleUrl>
            <LineString id="50396">
                <coordinates>107.6199287,-6.9242036,0.0 107.619917,-6.924315,0.0 107.6198941,-6.9245143,0.0 107.6198534,-6.9247649,0.0</coordinates>
            </LineString>
        </Placemark>
        <Placemark id="50401">
            <name>Jalan Jenderal Ahmad Yani</name>
            <styleUrl>#50402</styleUrl>
            <LineString id="50400">
                <coordinates>107.6373187,-6.9118909,0.0 107.6374263,-6.9118346,0.0</coordinates>
            </LineString>
        </Placemark>
        <Placemark id="50405">
            <name>Jalan Jenderal Ahmad Yani</name>
            <styleUrl>#50406</styleUrl>
            <LineString id="50404">
                <coordinates>107.6346004,-6.9133622,0.0 107.6348701,-6.9132101,0.0 107.6350944,-6.9130848,0.0 107.6360221,-6.9125878,0.0 107.6362555,-6.9124665,0.0 107.6363636,-6.912405,0.0 107.6365694,-6.9123013,0.0 107.6367997,-6.9121741,0.0 107.6368611,-6.91214,0.0 107.6370716,-6.9120251,0.0 107.6372585,-6.9119218,0.0 107.6373187,-6.9118909,0.0</coordinates>
            </LineString>
        </Placemark>
    </Document>
</kml>
