<?xml version="1.0" encoding="UTF-8"?>
<kml xmlns="http://www.opengis.net/kml/2.2" xmlns:gx="http://www.google.com/kml/ext/2.2">
    <Document id="50580">
        <Style id="50586">
            <IconStyle id="50587">
                <colorMode>normal</colorMode>
                <scale>1</scale>
                <heading>0</heading>
                <Icon id="50588">
                    <href>http://maps.google.com/mapfiles/kml/pushpin/ylw-pushpin.png</href>
                </Icon>
            </IconStyle>
        </Style>
        <Style id="50591">
            <IconStyle id="50592">
                <colorMode>normal</colorMode>
                <scale>1</scale>
                <heading>0</heading>
                <Icon id="50593">
                    <href>http://maps.google.com/mapfiles/kml/pushpin/ylw-pushpin.png</href>
                </Icon>
            </IconStyle>
        </Style>
        <Style id="50596">
            <IconStyle id="50597">
                <colorMode>normal</colorMode>
                <scale>1</scale>
                <heading>0</heading>
                <Icon id="50598">
                    <href>http://maps.google.com/mapfiles/kml/pushpin/ylw-pushpin.png</href>
                </Icon>
            </IconStyle>
        </Style>
        <Style id="50601">
            <LineStyle id="50602">
                <color>ff2D1EBE</color>
                <colorMode>normal</colorMode>
                <width>4</width>
            </LineStyle>
        </Style>
        <Style id="50605">
            <LineStyle id="50606">
                <color>ff2D1EBE</color>
                <colorMode>normal</colorMode>
                <width>4</width>
            </LineStyle>
        </Style>
        <Style id="50609">
            <LineStyle id="50610">
                <color>ff2D1EBE</color>
                <colorMode>normal</colorMode>
                <width>4</width>
            </LineStyle>
        </Style>
        <Style id="50613">
            <LineStyle id="50614">
                <color>ff2D1EBE</color>
                <colorMode>normal</colorMode>
                <width>4</width>
            </LineStyle>
        </Style>
        <Style id="50617">
            <LineStyle id="50618">
                <color>ff2D1EBE</color>
                <colorMode>normal</colorMode>
                <width>4</width>
            </LineStyle>
        </Style>
        <Style id="50621">
            <LineStyle id="50622">
                <color>ff2D1EBE</color>
                <colorMode>normal</colorMode>
                <width>4</width>
            </LineStyle>
        </Style>
        <Style id="50625">
            <LineStyle id="50626">
                <color>ff2D1EBE</color>
                <colorMode>normal</colorMode>
                <width>4</width>
            </LineStyle>
        </Style>
        <Style id="50629">
            <LineStyle id="50630">
                <color>ff2D1EBE</color>
                <colorMode>normal</colorMode>
                <width>4</width>
            </LineStyle>
        </Style>
        <Style id="50633">
            <LineStyle id="50634">
                <color>ff2D1EBE</color>
                <colorMode>normal</colorMode>
                <width>4</width>
            </LineStyle>
        </Style>
        <Style id="50637">
            <LineStyle id="50638">
                <color>ff2D1EBE</color>
                <colorMode>normal</colorMode>
                <width>4</width>
            </LineStyle>
        </Style>
        <Style id="50641">
            <LineStyle id="50642">
                <color>ff2D1EBE</color>
                <colorMode>normal</colorMode>
                <width>4</width>
            </LineStyle>
        </Style>
        <Style id="50645">
            <LineStyle id="50646">
                <color>ff2D1EBE</color>
                <colorMode>normal</colorMode>
                <width>4</width>
            </LineStyle>
        </Style>
        <Style id="50649">
            <LineStyle id="50650">
                <color>ff2D1EBE</color>
                <colorMode>normal</colorMode>
                <width>4</width>
            </LineStyle>
        </Style>
        <Style id="50653">
            <LineStyle id="50654">
                <color>ff2D1EBE</color>
                <colorMode>normal</colorMode>
                <width>4</width>
            </LineStyle>
        </Style>
        <Style id="50657">
            <LineStyle id="50658">
                <color>ff2D1EBE</color>
                <colorMode>normal</colorMode>
                <width>4</width>
            </LineStyle>
        </Style>
        <Style id="50661">
            <LineStyle id="50662">
                <color>ff2D1EBE</color>
                <colorMode>normal</colorMode>
                <width>4</width>
            </LineStyle>
        </Style>
        <Style id="50665">
            <LineStyle id="50666">
                <color>ff2D1EBE</color>
                <colorMode>normal</colorMode>
                <width>4</width>
            </LineStyle>
        </Style>
        <Style id="50669">
            <LineStyle id="50670">
                <color>ff2D1EBE</color>
                <colorMode>normal</colorMode>
                <width>4</width>
            </LineStyle>
        </Style>
        <Style id="50673">
            <LineStyle id="50674">
                <color>ff2D1EBE</color>
                <colorMode>normal</colorMode>
                <width>4</width>
            </LineStyle>
        </Style>
        <Style id="50677">
            <LineStyle id="50678">
                <color>ff2D1EBE</color>
                <colorMode>normal</colorMode>
                <width>4</width>
            </LineStyle>
        </Style>
        <Style id="50681">
            <LineStyle id="50682">
                <color>ff2D1EBE</color>
                <colorMode>normal</colorMode>
                <width>4</width>
            </LineStyle>
        </Style>
        <Style id="50685">
            <LineStyle id="50686">
                <color>ff2D1EBE</color>
                <colorMode>normal</colorMode>
                <width>4</width>
            </LineStyle>
        </Style>
        <Style id="50689">
            <LineStyle id="50690">
                <color>ff2D1EBE</color>
                <colorMode>normal</colorMode>
                <width>4</width>
            </LineStyle>
        </Style>
        <Style id="50693">
            <LineStyle id="50694">
                <color>ff2D1EBE</color>
                <colorMode>normal</colorMode>
                <width>4</width>
            </LineStyle>
        </Style>
        <Style id="50697">
            <LineStyle id="50698">
                <color>ff2D1EBE</color>
                <colorMode>normal</colorMode>
                <width>4</width>
            </LineStyle>
        </Style>
        <Style id="50701">
            <LineStyle id="50702">
                <color>ff2D1EBE</color>
                <colorMode>normal</colorMode>
                <width>4</width>
            </LineStyle>
        </Style>
        <Style id="50705">
            <LineStyle id="50706">
                <color>ff2D1EBE</color>
                <colorMode>normal</colorMode>
                <width>4</width>
            </LineStyle>
        </Style>
        <Style id="50709">
            <LineStyle id="50710">
                <color>ff2D1EBE</color>
                <colorMode>normal</colorMode>
                <width>4</width>
            </LineStyle>
        </Style>
        <Style id="50713">
            <LineStyle id="50714">
                <color>ff2D1EBE</color>
                <colorMode>normal</colorMode>
                <width>4</width>
            </LineStyle>
        </Style>
        <Style id="50717">
            <LineStyle id="50718">
                <color>ff2D1EBE</color>
                <colorMode>normal</colorMode>
                <width>4</width>
            </LineStyle>
        </Style>
        <Style id="50721">
            <LineStyle id="50722">
                <color>ff2D1EBE</color>
                <colorMode>normal</colorMode>
                <width>4</width>
            </LineStyle>
        </Style>
        <Style id="50725">
            <LineStyle id="50726">
                <color>ff2D1EBE</color>
                <colorMode>normal</colorMode>
                <width>4</width>
            </LineStyle>
        </Style>
        <Style id="50729">
            <LineStyle id="50730">
                <color>ff2D1EBE</color>
                <colorMode>normal</colorMode>
                <width>4</width>
            </LineStyle>
        </Style>
        <Style id="50733">
            <LineStyle id="50734">
                <color>ff2D1EBE</color>
                <colorMode>normal</colorMode>
                <width>4</width>
            </LineStyle>
        </Style>
        <Style id="50737">
            <LineStyle id="50738">
                <color>ff2D1EBE</color>
                <colorMode>normal</colorMode>
                <width>4</width>
            </LineStyle>
        </Style>
        <Style id="50741">
            <LineStyle id="50742">
                <color>ff2D1EBE</color>
                <colorMode>normal</colorMode>
                <width>4</width>
            </LineStyle>
        </Style>
        <Style id="50745">
            <LineStyle id="50746">
                <color>ff2D1EBE</color>
                <colorMode>normal</colorMode>
                <width>4</width>
            </LineStyle>
        </Style>
        <Style id="50749">
            <LineStyle id="50750">
                <color>ff2D1EBE</color>
                <colorMode>normal</colorMode>
                <width>4</width>
            </LineStyle>
        </Style>
        <Style id="50753">
            <LineStyle id="50754">
                <color>ff2D1EBE</color>
                <colorMode>normal</colorMode>
                <width>4</width>
            </LineStyle>
        </Style>
        <Style id="50757">
            <LineStyle id="50758">
                <color>ff2D1EBE</color>
                <colorMode>normal</colorMode>
                <width>4</width>
            </LineStyle>
        </Style>
        <Style id="50761">
            <LineStyle id="50762">
                <color>ff2D1EBE</color>
                <colorMode>normal</colorMode>
                <width>4</width>
            </LineStyle>
        </Style>
        <Style id="50765">
            <LineStyle id="50766">
                <color>ff2D1EBE</color>
                <colorMode>normal</colorMode>
                <width>4</width>
            </LineStyle>
        </Style>
        <Style id="50769">
            <LineStyle id="50770">
                <color>ff2D1EBE</color>
                <colorMode>normal</colorMode>
                <width>4</width>
            </LineStyle>
        </Style>
        <Style id="50773">
            <LineStyle id="50774">
                <color>ff2D1EBE</color>
                <colorMode>normal</colorMode>
                <width>4</width>
            </LineStyle>
        </Style>
        <Style id="50777">
            <LineStyle id="50778">
                <color>ff2D1EBE</color>
                <colorMode>normal</colorMode>
                <width>4</width>
            </LineStyle>
        </Style>
        <Style id="50781">
            <LineStyle id="50782">
                <color>ff2D1EBE</color>
                <colorMode>normal</colorMode>
                <width>4</width>
            </LineStyle>
        </Style>
        <Style id="50785">
            <LineStyle id="50786">
                <color>ff2D1EBE</color>
                <colorMode>normal</colorMode>
                <width>4</width>
            </LineStyle>
        </Style>
        <Style id="50789">
            <LineStyle id="50790">
                <color>ff2D1EBE</color>
                <colorMode>normal</colorMode>
                <width>4</width>
            </LineStyle>
        </Style>
        <Style id="50793">
            <LineStyle id="50794">
                <color>ff2D1EBE</color>
                <colorMode>normal</colorMode>
                <width>4</width>
            </LineStyle>
        </Style>
        <Style id="50797">
            <LineStyle id="50798">
                <color>ff2D1EBE</color>
                <colorMode>normal</colorMode>
                <width>4</width>
            </LineStyle>
        </Style>
        <Style id="50801">
            <LineStyle id="50802">
                <color>ff2D1EBE</color>
                <colorMode>normal</colorMode>
                <width>4</width>
            </LineStyle>
        </Style>
        <Style id="50805">
            <LineStyle id="50806">
                <color>ff2D1EBE</color>
                <colorMode>normal</colorMode>
                <width>4</width>
            </LineStyle>
        </Style>
        <Style id="50809">
            <LineStyle id="50810">
                <color>ff2D1EBE</color>
                <colorMode>normal</colorMode>
                <width>4</width>
            </LineStyle>
        </Style>
        <Style id="50813">
            <LineStyle id="50814">
                <color>ff2D1EBE</color>
                <colorMode>normal</colorMode>
                <width>4</width>
            </LineStyle>
        </Style>
        <Style id="50817">
            <LineStyle id="50818">
                <color>ff2D1EBE</color>
                <colorMode>normal</colorMode>
                <width>4</width>
            </LineStyle>
        </Style>
        <Style id="50821">
            <LineStyle id="50822">
                <color>ff2D1EBE</color>
                <colorMode>normal</colorMode>
                <width>4</width>
            </LineStyle>
        </Style>
        <Style id="50825">
            <LineStyle id="50826">
                <color>ff2D1EBE</color>
                <colorMode>normal</colorMode>
                <width>4</width>
            </LineStyle>
        </Style>
        <Style id="50829">
            <LineStyle id="50830">
                <color>ff2D1EBE</color>
                <colorMode>normal</colorMode>
                <width>4</width>
            </LineStyle>
        </Style>
        <Style id="50833">
            <LineStyle id="50834">
                <color>ff2D1EBE</color>
                <colorMode>normal</colorMode>
                <width>4</width>
            </LineStyle>
        </Style>
        <Style id="50837">
            <LineStyle id="50838">
                <color>ff2D1EBE</color>
                <colorMode>normal</colorMode>
                <width>4</width>
            </LineStyle>
        </Style>
        <Style id="50841">
            <LineStyle id="50842">
                <color>ff2D1EBE</color>
                <colorMode>normal</colorMode>
                <width>4</width>
            </LineStyle>
        </Style>
        <Style id="50845">
            <LineStyle id="50846">
                <color>ff2D1EBE</color>
                <colorMode>normal</colorMode>
                <width>4</width>
            </LineStyle>
        </Style>
        <Style id="50849">
            <LineStyle id="50850">
                <color>ff2D1EBE</color>
                <colorMode>normal</colorMode>
                <width>4</width>
            </LineStyle>
        </Style>
        <Style id="50853">
            <LineStyle id="50854">
                <color>ff2D1EBE</color>
                <colorMode>normal</colorMode>
                <width>4</width>
            </LineStyle>
        </Style>
        <Style id="50857">
            <LineStyle id="50858">
                <color>ff2D1EBE</color>
                <colorMode>normal</colorMode>
                <width>4</width>
            </LineStyle>
        </Style>
        <Style id="50861">
            <LineStyle id="50862">
                <color>ff2D1EBE</color>
                <colorMode>normal</colorMode>
                <width>4</width>
            </LineStyle>
        </Style>
        <Style id="50865">
            <LineStyle id="50866">
                <color>ff2D1EBE</color>
                <colorMode>normal</colorMode>
                <width>4</width>
            </LineStyle>
        </Style>
        <Style id="50869">
            <LineStyle id="50870">
                <color>ff2D1EBE</color>
                <colorMode>normal</colorMode>
                <width>4</width>
            </LineStyle>
        </Style>
        <Style id="50873">
            <LineStyle id="50874">
                <color>ff2D1EBE</color>
                <colorMode>normal</colorMode>
                <width>4</width>
            </LineStyle>
        </Style>
        <Style id="50877">
            <LineStyle id="50878">
                <color>ff2D1EBE</color>
                <colorMode>normal</colorMode>
                <width>4</width>
            </LineStyle>
        </Style>
        <Style id="50881">
            <LineStyle id="50882">
                <color>ff2D1EBE</color>
                <colorMode>normal</colorMode>
                <width>4</width>
            </LineStyle>
        </Style>
        <Style id="50885">
            <LineStyle id="50886">
                <color>ff2D1EBE</color>
                <colorMode>normal</colorMode>
                <width>4</width>
            </LineStyle>
        </Style>
        <Style id="50889">
            <LineStyle id="50890">
                <color>ff2D1EBE</color>
                <colorMode>normal</colorMode>
                <width>4</width>
            </LineStyle>
        </Style>
        <Style id="50893">
            <LineStyle id="50894">
                <color>ff2D1EBE</color>
                <colorMode>normal</colorMode>
                <width>4</width>
            </LineStyle>
        </Style>
        <Style id="50897">
            <LineStyle id="50898">
                <color>ff2D1EBE</color>
                <colorMode>normal</colorMode>
                <width>4</width>
            </LineStyle>
        </Style>
        <Style id="50901">
            <LineStyle id="50902">
                <color>ff2D1EBE</color>
                <colorMode>normal</colorMode>
                <width>4</width>
            </LineStyle>
        </Style>
        <Style id="50905">
            <LineStyle id="50906">
                <color>ff2D1EBE</color>
                <colorMode>normal</colorMode>
                <width>4</width>
            </LineStyle>
        </Style>
        <Style id="50909">
            <LineStyle id="50910">
                <color>ff2D1EBE</color>
                <colorMode>normal</colorMode>
                <width>4</width>
            </LineStyle>
        </Style>
        <Style id="50913">
            <LineStyle id="50914">
                <color>ff2D1EBE</color>
                <colorMode>normal</colorMode>
                <width>4</width>
            </LineStyle>
        </Style>
        <ExtendedData>
            <Data name="route-name">
                <value>30: Kalapa → Elang</value>
            </Data>
            <Data name="source">
                <value>Transport for Bandung</value>
            </Data>
        </ExtendedData>
        <Placemark id="50585">
            <name>Terminal Abdul Muis/Kebon Kalapa</name>
            <styleUrl>#50586</styleUrl>
            <Point id="50584">
                <coordinates>107.6058322,-6.9276428,0.0</coordinates>
            </Point>
        </Placemark>
        <Placemark id="50590">
            <name>Plaza Telkom Rajawali</name>
            <styleUrl>#50591</styleUrl>
            <Point id="50589">
                <coordinates>107.5753653,-6.9129722,0.0</coordinates>
            </Point>
        </Placemark>
        <Placemark id="50595">
            <name>Pangkalan Angkot Rajawali</name>
            <styleUrl>#50596</styleUrl>
            <Point id="50594">
                <coordinates>107.5761151,-6.9132715,0.0</coordinates>
            </Point>
        </Placemark>
        <Placemark id="50600">
            <name>Jalan Kebon Kawung</name>
            <styleUrl>#50601</styleUrl>
            <LineString id="50599">
                <coordinates>107.5982527,-6.912368,0.0 107.5981735,-6.9123668,0.0 107.5980964,-6.9123486,0.0 107.5980334,-6.9123085,0.0 107.5979805,-6.912262,0.0</coordinates>
            </LineString>
        </Placemark>
        <Placemark id="50604">
            <name>Jalan Kebon Kawung</name>
            <styleUrl>#50605</styleUrl>
            <LineString id="50603">
                <coordinates>107.6019305,-6.9125353,0.0 107.601745,-6.9125245,0.0</coordinates>
            </LineString>
        </Placemark>
        <Placemark id="50608">
            <name>Jalan Aruna</name>
            <styleUrl>#50609</styleUrl>
            <LineString id="50607">
                <coordinates>107.5894511,-6.9112342,0.0 107.5891899,-6.9105353,0.0 107.5885406,-6.9088993,0.0 107.5884207,-6.9086068,0.0 107.5883107,-6.9083352,0.0 107.5883022,-6.9083129,0.0 107.5882157,-6.908086,0.0 107.5879895,-6.9075052,0.0 107.587786,-6.907013,0.0</coordinates>
            </LineString>
        </Placemark>
        <Placemark id="50612">
            <name>Jalan Kasuari</name>
            <styleUrl>#50613</styleUrl>
            <LineString id="50611">
                <coordinates>107.5736296,-6.9102877,0.0 107.5734028,-6.9108464,0.0 107.5733675,-6.9109378,0.0 107.5732814,-6.9111572,0.0 107.5731904,-6.9113903,0.0 107.5730746,-6.9116873,0.0 107.5729803,-6.9118971,0.0 107.5729282,-6.9120185,0.0</coordinates>
            </LineString>
        </Placemark>
        <Placemark id="50616">
            <name>Jalan Dadali</name>
            <styleUrl>#50617</styleUrl>
            <LineString id="50615">
                <coordinates>107.5780214,-6.9117553,0.0 107.5779154,-6.9117422,0.0 107.577837,-6.9117255,0.0 107.5777312,-6.9116993,0.0 107.5776467,-6.9116756,0.0 107.5775814,-6.9116547,0.0 107.5774624,-6.9116163,0.0 107.5773293,-6.9115732,0.0 107.5773024,-6.9115645,0.0 107.5770389,-6.9114581,0.0 107.5766452,-6.9112801,0.0 107.5766052,-6.9112656,0.0 107.5765085,-6.9112305,0.0 107.57614,-6.9110817,0.0 107.5752686,-6.910731,0.0 107.5751299,-6.910674,0.0 107.5741958,-6.9102903,0.0 107.5737288,-6.9101067,0.0</coordinates>
            </LineString>
        </Placemark>
        <Placemark id="50620">
            <name>Jalan Stasiun Timur</name>
            <styleUrl>#50621</styleUrl>
            <LineString id="50619">
                <coordinates>107.6045889,-6.9148224,0.0 107.6045944,-6.9147921,0.0 107.6046031,-6.9147807,0.0 107.6046151,-6.914765,0.0 107.6046317,-6.9147543,0.0 107.6046427,-6.9147472,0.0 107.6046716,-6.9147379,0.0 107.6047205,-6.914736,0.0 107.6053917,-6.9148138,0.0 107.6063544,-6.9149336,0.0 107.6064066,-6.9149399,0.0</coordinates>
            </LineString>
        </Placemark>
        <Placemark id="50624">
            <name>Jalan Otto Iskandardinata</name>
            <styleUrl>#50625</styleUrl>
            <LineString id="50623">
                <coordinates>107.604546,-6.9153572,0.0 107.6045814,-6.9149387,0.0 107.6045889,-6.9148224,0.0</coordinates>
            </LineString>
        </Placemark>
        <Placemark id="50628">
            <name>Jalan Banceuy</name>
            <styleUrl>#50629</styleUrl>
            <LineString id="50627">
                <coordinates>107.6064585,-6.9210512,0.0 107.6064774,-6.9208936,0.0 107.6064789,-6.9208813,0.0 107.6065186,-6.9205454,0.0 107.6065406,-6.9203592,0.0 107.6065698,-6.92013,0.0 107.6065812,-6.9200148,0.0 107.6066381,-6.9195407,0.0 107.6066715,-6.9190952,0.0 107.6066765,-6.9189704,0.0</coordinates>
            </LineString>
        </Placemark>
        <Placemark id="50632">
            <name>Jalan Alun-alun Timur</name>
            <styleUrl>#50633</styleUrl>
            <LineString id="50631">
                <coordinates>107.6075166,-6.9225267,0.0 107.6075532,-6.9224801,0.0 107.6075645,-6.9224452,0.0 107.6076223,-6.9218665,0.0 107.6076488,-6.9214983,0.0 107.6076487,-6.9214444,0.0 107.6076364,-6.9214042,0.0 107.607634,-6.9213964,0.0 107.6076058,-6.9213365,0.0 107.6075741,-6.9213048,0.0 107.607526,-6.921273,0.0</coordinates>
            </LineString>
        </Placemark>
        <Placemark id="50636">
            <name>Jalan Pajajaran</name>
            <styleUrl>#50637</styleUrl>
            <LineString id="50635">
                <coordinates>107.5975328,-6.9064531,0.0 107.5972812,-6.9064634,0.0 107.5971648,-6.9064676,0.0 107.5970224,-6.9064779,0.0 107.5968205,-6.9064928,0.0</coordinates>
            </LineString>
        </Placemark>
        <Placemark id="50640">
            <name>Jalan HOS. Cokroaminoto</name>
            <styleUrl>#50641</styleUrl>
            <LineString id="50639">
                <coordinates>107.5976288,-6.9073749,0.0 107.5975909,-6.9072507,0.0 107.597581,-6.9071682,0.0 107.5975322,-6.9065723,0.0 107.5975328,-6.9064531,0.0</coordinates>
            </LineString>
        </Placemark>
        <Placemark id="50644">
            <name>Jalan Kebon Kawung</name>
            <styleUrl>#50645</styleUrl>
            <LineString id="50643">
                <coordinates>107.6041426,-6.9127091,0.0 107.603885,-6.9126611,0.0</coordinates>
            </LineString>
        </Placemark>
        <Placemark id="50648">
            <name>Jalan HOS. Cokroaminoto</name>
            <styleUrl>#50649</styleUrl>
            <LineString id="50647">
                <coordinates>107.5979469,-6.9117824,0.0 107.5979313,-6.9116207,0.0</coordinates>
            </LineString>
        </Placemark>
        <Placemark id="50652">
            <name>Jalan Garuda</name>
            <styleUrl>#50653</styleUrl>
            <LineString id="50651">
                <coordinates>107.5783486,-6.9103499,0.0 107.5782065,-6.910981,0.0 107.5781807,-6.9110965,0.0 107.5780214,-6.9117553,0.0</coordinates>
            </LineString>
        </Placemark>
        <Placemark id="50656">
            <name>Jalan Dewi Sartika</name>
            <styleUrl>#50657</styleUrl>
            <LineString id="50655">
                <coordinates>107.6059454,-6.9273849,0.0 107.6059791,-6.9270185,0.0 107.6059757,-6.9268782,0.0 107.6059805,-6.9267319,0.0 107.6059951,-6.9265345,0.0 107.6060102,-6.926383,0.0 107.6060764,-6.9256868,0.0</coordinates>
            </LineString>
        </Placemark>
        <Placemark id="50660">
            <name>Jalan Garuda</name>
            <styleUrl>#50661</styleUrl>
            <LineString id="50659">
                <coordinates>107.5790983,-6.9081626,0.0 107.5790187,-6.908286,0.0 107.5789712,-6.9083703,0.0 107.5789311,-6.9084452,0.0 107.578906,-6.908499,0.0 107.5788645,-6.9086014,0.0 107.5788205,-6.9087197,0.0 107.57878,-6.9088565,0.0 107.5787249,-6.9090819,0.0 107.57866,-6.9093468,0.0 107.5786212,-6.9095084,0.0 107.5785977,-6.9096065,0.0 107.5785672,-6.9097317,0.0 107.5785295,-6.9098609,0.0 107.5784607,-6.9100841,0.0 107.5783486,-6.9103499,0.0</coordinates>
            </LineString>
        </Placemark>
        <Placemark id="50664">
            <name>Jalan Dewi Sartika</name>
            <styleUrl>#50665</styleUrl>
            <LineString id="50663">
                <coordinates>107.6060764,-6.9256868,0.0 107.6061378,-6.9250253,0.0 107.6061983,-6.9243822,0.0 107.6062071,-6.924326,0.0 107.6062157,-6.9242858,0.0 107.6062271,-6.9242427,0.0 107.6062411,-6.9241764,0.0 107.6062448,-6.9241528,0.0 107.6062731,-6.9238523,0.0 107.6063064,-6.9235364,0.0</coordinates>
            </LineString>
        </Placemark>
        <Placemark id="50668">
            <name>Jalan Perintis Kemerdekaan</name>
            <styleUrl>#50669</styleUrl>
            <LineString id="50667">
                <coordinates>107.6070945,-6.9151362,0.0 107.6071194,-6.9149776,0.0 107.6071865,-6.9145473,0.0 107.6071931,-6.9145156,0.0</coordinates>
            </LineString>
        </Placemark>
        <Placemark id="50672">
            <name>Jalan Ciroyom</name>
            <styleUrl>#50673</styleUrl>
            <LineString id="50671">
                <coordinates>107.5834264,-6.911033,0.0 107.5832037,-6.9108829,0.0 107.5831698,-6.9108601,0.0 107.5826513,-6.9105104,0.0 107.5821809,-6.9101938,0.0 107.5816797,-6.9098712,0.0 107.5815439,-6.9097842,0.0 107.5813924,-6.9096894,0.0 107.5811508,-6.9095295,0.0 107.5810967,-6.9094937,0.0 107.5810602,-6.9094696,0.0 107.5799006,-6.9086849,0.0 107.5794756,-6.9083983,0.0 107.5794427,-6.9083767,0.0 107.5792165,-6.9082306,0.0 107.5791712,-6.9082041,0.0 107.5791303,-6.9081795,0.0 107.5791236,-6.908176,0.0 107.5790983,-6.9081626,0.0</coordinates>
            </LineString>
        </Placemark>
        <Placemark id="50676">
            <name>Jalan Ciroyom</name>
            <styleUrl>#50677</styleUrl>
            <LineString id="50675">
                <coordinates>107.5858255,-6.912692,0.0 107.5857994,-6.912677,0.0 107.5857541,-6.912651,0.0 107.5857253,-6.9126318,0.0 107.584839,-6.912027,0.0 107.5845003,-6.911786,0.0 107.5839364,-6.9113821,0.0 107.5838485,-6.9113187,0.0 107.5834264,-6.911033,0.0</coordinates>
            </LineString>
        </Placemark>
        <Placemark id="50680">
            <name>Jalan Dewi Sartika</name>
            <styleUrl>#50681</styleUrl>
            <LineString id="50679">
                <coordinates>107.6063064,-6.9235364,0.0 107.6063176,-6.9234981,0.0 107.6063289,-6.9234418,0.0 107.6063543,-6.9231005,0.0 107.6063668,-6.9228999,0.0 107.6063912,-6.9225658,0.0 107.606396,-6.9224934,0.0 107.6064134,-6.9224385,0.0 107.6064448,-6.9224162,0.0</coordinates>
            </LineString>
        </Placemark>
        <Placemark id="50684">
            <name>Jalan Dalem Kaum</name>
            <styleUrl>#50685</styleUrl>
            <LineString id="50683">
                <coordinates>107.6065203,-6.9224203,0.0 107.607062,-6.9224762,0.0 107.6073353,-6.9225078,0.0 107.6074316,-6.9225178,0.0 107.6075166,-6.9225267,0.0</coordinates>
            </LineString>
        </Placemark>
        <Placemark id="50688">
            <name>Jalan Asia Afrika</name>
            <styleUrl>#50689</styleUrl>
            <LineString id="50687">
                <coordinates>107.607195,-6.9211421,0.0 107.6071709,-6.9211388,0.0 107.6071309,-6.9211347,0.0</coordinates>
            </LineString>
        </Placemark>
        <Placemark id="50692">
            <name>Jalan Banceuy</name>
            <styleUrl>#50693</styleUrl>
            <LineString id="50691">
                <coordinates>107.6066765,-6.9189704,0.0 107.6066529,-6.9187736,0.0 107.6066404,-6.9187122,0.0 107.6065971,-6.9184998,0.0 107.6065387,-6.9182135,0.0 107.6064269,-6.9177836,0.0 107.6063839,-6.9176215,0.0 107.6063193,-6.9173781,0.0 107.6061407,-6.9166856,0.0 107.6061393,-6.916603,0.0 107.6061807,-6.9164983,0.0 107.6064568,-6.916225,0.0 107.6064947,-6.9161623,0.0 107.6065161,-6.9160865,0.0 107.6065461,-6.9155971,0.0 107.6065499,-6.9154703,0.0</coordinates>
            </LineString>
        </Placemark>
        <Placemark id="50696">
            <name>Jalan HOS. Cokroaminoto</name>
            <styleUrl>#50697</styleUrl>
            <LineString id="50695">
                <coordinates>107.5979313,-6.9116207,0.0 107.5979188,-6.9114098,0.0 107.5978086,-6.909947,0.0 107.5978015,-6.9098566,0.0 107.5977774,-6.9094546,0.0 107.5977427,-6.9089045,0.0 107.5976909,-6.9082042,0.0 107.5976849,-6.9081059,0.0 107.5976772,-6.9080121,0.0 107.5976288,-6.9073749,0.0</coordinates>
            </LineString>
        </Placemark>
        <Placemark id="50700">
            <name>Jalan HOS. Cokroaminoto</name>
            <styleUrl>#50701</styleUrl>
            <LineString id="50699">
                <coordinates>107.5979805,-6.912262,0.0 107.5979469,-6.9117824,0.0</coordinates>
            </LineString>
        </Placemark>
        <Placemark id="50704">
            <name>Jalan Rajawali Barat</name>
            <styleUrl>#50705</styleUrl>
            <LineString id="50703">
                <coordinates>107.575721,-6.9131092,0.0 107.5758021,-6.913142,0.0</coordinates>
            </LineString>
        </Placemark>
        <Placemark id="50708">
            <name>Jalan Kebon Jukut</name>
            <styleUrl>#50709</styleUrl>
            <LineString id="50707">
                <coordinates>107.6046031,-6.9144539,0.0 107.6046132,-6.9144687,0.0 107.6046449,-6.9144848,0.0 107.606675,-6.9147337,0.0 107.606787,-6.9147395,0.0 107.6068501,-6.9147298,0.0 107.6069016,-6.9147011,0.0 107.6069388,-6.9146561,0.0 107.606975,-6.9145811,0.0</coordinates>
            </LineString>
        </Placemark>
        <Placemark id="50712">
            <name>Jalan Suniaraja</name>
            <styleUrl>#50713</styleUrl>
            <LineString id="50711">
                <coordinates>107.6059861,-6.9155367,0.0 107.6057907,-6.9155809,0.0 107.6055816,-6.9156321,0.0 107.6054049,-6.9156698,0.0 107.605226,-6.9157035,0.0 107.6046673,-6.9158052,0.0 107.6045054,-6.9158364,0.0</coordinates>
            </LineString>
        </Placemark>
        <Placemark id="50716">
            <name>Jalan Pajajaran</name>
            <styleUrl>#50717</styleUrl>
            <LineString id="50715">
                <coordinates>107.5959262,-6.9065893,0.0 107.5952568,-6.9066609,0.0 107.595037,-6.9066943,0.0 107.5945793,-6.9067595,0.0 107.5945435,-6.9067649,0.0 107.5942472,-6.906822,0.0 107.5941987,-6.9068309,0.0 107.594084,-6.9068527,0.0 107.5937537,-6.9069123,0.0 107.5936226,-6.9069359,0.0 107.5930436,-6.9070358,0.0</coordinates>
            </LineString>
        </Placemark>
        <Placemark id="50720">
            <name>Jalan Pajajaran</name>
            <styleUrl>#50721</styleUrl>
            <LineString id="50719">
                <coordinates>107.5920701,-6.9071489,0.0 107.5918373,-6.9071242,0.0 107.5916612,-6.9071113,0.0 107.5915994,-6.9071068,0.0 107.5913085,-6.9070897,0.0 107.5911224,-6.9070825,0.0</coordinates>
            </LineString>
        </Placemark>
        <Placemark id="50724">
            <name>Jalan Pajajaran</name>
            <styleUrl>#50725</styleUrl>
            <LineString id="50723">
                <coordinates>107.5906383,-6.9070791,0.0 107.5904897,-6.9070683,0.0 107.5902528,-6.9070511,0.0 107.5892287,-6.9069531,0.0 107.5890575,-6.9069317,0.0 107.5889568,-6.9069197,0.0 107.5888977,-6.9069111,0.0 107.5887781,-6.9068994,0.0 107.5886037,-6.906884,0.0 107.5883918,-6.9068594,0.0 107.588209,-6.9068423,0.0</coordinates>
            </LineString>
        </Placemark>
        <Placemark id="50728">
            <name>Jalan Suniaraja</name>
            <styleUrl>#50729</styleUrl>
            <LineString id="50727">
                <coordinates>107.6065499,-6.9154703,0.0 107.6064784,-6.9154686,0.0 107.6063683,-6.9154661,0.0 107.6059861,-6.9155367,0.0</coordinates>
            </LineString>
        </Placemark>
        <Placemark id="50732">
            <name>Jalan Aceh</name>
            <styleUrl>#50733</styleUrl>
            <LineString id="50731">
                <coordinates>107.6041426,-6.9127091,0.0 107.604692,-6.9127619,0.0</coordinates>
            </LineString>
        </Placemark>
        <Placemark id="50736">
            <name>Jalan Pajajaran</name>
            <styleUrl>#50737</styleUrl>
            <LineString id="50735">
                <coordinates>107.5968205,-6.9064928,0.0 107.5966166,-6.906518,0.0 107.5964032,-6.9065473,0.0 107.5961119,-6.9066005,0.0 107.5960526,-6.9066041,0.0 107.5959951,-6.9065992,0.0 107.5959262,-6.9065893,0.0</coordinates>
            </LineString>
        </Placemark>
        <Placemark id="50740">
            <name>Jalan Stasiun Timur</name>
            <styleUrl>#50741</styleUrl>
            <LineString id="50739">
                <coordinates>107.606909,-6.9153005,0.0 107.6070035,-6.9152646,0.0 107.6070659,-6.9152151,0.0 107.6070945,-6.9151362,0.0</coordinates>
            </LineString>
        </Placemark>
        <Placemark id="50744">
            <name>Jalan Aruna</name>
            <styleUrl>#50745</styleUrl>
            <LineString id="50743">
                <coordinates>107.5877897,-6.9068561,0.0 107.587786,-6.907013,0.0</coordinates>
            </LineString>
        </Placemark>
        <Placemark id="50748">
            <name>Jalan Pajajaran</name>
            <styleUrl>#50749</styleUrl>
            <LineString id="50747">
                <coordinates>107.5906641,-6.907081,0.0 107.5906383,-6.9070791,0.0</coordinates>
            </LineString>
        </Placemark>
        <Placemark id="50752">
            <name>Jalan Pajajaran</name>
            <styleUrl>#50753</styleUrl>
            <LineString id="50751">
                <coordinates>107.5911224,-6.9070825,0.0 107.5910022,-6.9071149,0.0 107.5906641,-6.907081,0.0</coordinates>
            </LineString>
        </Placemark>
        <Placemark id="50756">
            <name>Jalan Otto Iskandardinata</name>
            <styleUrl>#50757</styleUrl>
            <LineString id="50755">
                <coordinates>107.6045054,-6.9158364,0.0 107.6045124,-6.9157548,0.0 107.6045273,-6.915589,0.0 107.604546,-6.9153572,0.0</coordinates>
            </LineString>
        </Placemark>
        <Placemark id="50760">
            <name>Jalan Stasiun Timur</name>
            <styleUrl>#50761</styleUrl>
            <LineString id="50759">
                <coordinates>107.6064066,-6.9149399,0.0 107.6065239,-6.9149519,0.0 107.6066003,-6.9149924,0.0 107.6066521,-6.9150384,0.0 107.6067855,-6.9152656,0.0 107.6068306,-6.9152963,0.0 107.606909,-6.9153005,0.0</coordinates>
            </LineString>
        </Placemark>
        <Placemark id="50764">
            <name>Jalan Asia Afrika</name>
            <styleUrl>#50765</styleUrl>
            <LineString id="50763">
                <coordinates>107.6069008,-6.9211076,0.0 107.6066769,-6.9210774,0.0 107.6064585,-6.9210512,0.0</coordinates>
            </LineString>
        </Placemark>
        <Placemark id="50768">
            <name>Jalan Kebon Kawung</name>
            <styleUrl>#50769</styleUrl>
            <LineString id="50767">
                <coordinates>107.603885,-6.9126611,0.0 107.6038515,-6.9126567,0.0 107.6036069,-6.9126444,0.0 107.6032433,-6.9126176,0.0 107.6029824,-6.9125986,0.0 107.6029303,-6.9125954,0.0 107.6027169,-6.9125813,0.0 107.6024779,-6.9125651,0.0 107.6023535,-6.9125612,0.0 107.6022742,-6.9125566,0.0 107.6020122,-6.91254,0.0</coordinates>
            </LineString>
        </Placemark>
        <Placemark id="50772">
            <name>Jalan Kebon Kawung</name>
            <styleUrl>#50773</styleUrl>
            <LineString id="50771">
                <coordinates>107.6020122,-6.91254,0.0 107.6019305,-6.9125353,0.0</coordinates>
            </LineString>
        </Placemark>
        <Placemark id="50776">
            <name>Jalan Pajajaran</name>
            <styleUrl>#50777</styleUrl>
            <LineString id="50775">
                <coordinates>107.5930436,-6.9070358,0.0 107.592893,-6.9070548,0.0 107.5928538,-6.9070598,0.0 107.5926825,-6.9070846,0.0 107.5925401,-6.9070991,0.0 107.5923942,-6.9071118,0.0 107.592239,-6.9071272,0.0 107.5920701,-6.9071489,0.0</coordinates>
            </LineString>
        </Placemark>
        <Placemark id="50780">
            <name>Jalan Arjuna</name>
            <styleUrl>#50781</styleUrl>
            <LineString id="50779">
                <coordinates>107.5894771,-6.9112533,0.0 107.5894865,-6.9112733,0.0 107.5894871,-6.9112953,0.0 107.5894789,-6.9113158,0.0 107.5894633,-6.9113314,0.0</coordinates>
            </LineString>
        </Placemark>
        <Placemark id="50784">
            <name>Jalan Arjuna</name>
            <styleUrl>#50785</styleUrl>
            <LineString id="50783">
                <coordinates>107.5894511,-6.9112342,0.0 107.5894655,-6.9112418,0.0 107.5894771,-6.9112533,0.0</coordinates>
            </LineString>
        </Placemark>
        <Placemark id="50788">
            <name>Jalan Dalem Kaum</name>
            <styleUrl>#50789</styleUrl>
            <LineString id="50787">
                <coordinates>107.6064448,-6.9224162,0.0 107.6064668,-6.9224144,0.0 107.6065203,-6.9224203,0.0</coordinates>
            </LineString>
        </Placemark>
        <Placemark id="50792">
            <name>Jalan Layang Ciroyom</name>
            <styleUrl>#50793</styleUrl>
            <LineString id="50791">
                <coordinates>107.5869574,-6.9132909,0.0 107.587254,-6.913434,0.0</coordinates>
            </LineString>
        </Placemark>
        <Placemark id="50796">
            <name>Jalan Layang Ciroyom</name>
            <styleUrl>#50797</styleUrl>
            <LineString id="50795">
                <coordinates>107.5893166,-6.9121005,0.0 107.5893455,-6.911919,0.0</coordinates>
            </LineString>
        </Placemark>
        <Placemark id="50800">
            <name>Jalan Layang Ciroyom</name>
            <styleUrl>#50801</styleUrl>
            <LineString id="50799">
                <coordinates>107.587254,-6.913434,0.0 107.588191,-6.9137939,0.0 107.588437,-6.9138722,0.0 107.5885401,-6.9138874,0.0 107.5886196,-6.9138868,0.0 107.588728,-6.9138625,0.0 107.5888188,-6.9138239,0.0 107.588893,-6.9137668,0.0 107.5889601,-6.9136911,0.0 107.5890025,-6.9136299,0.0 107.5890418,-6.9135555,0.0 107.5890796,-6.9134472,0.0 107.5890983,-6.9133449,0.0 107.5891155,-6.9132456,0.0 107.5893166,-6.9121005,0.0</coordinates>
            </LineString>
        </Placemark>
        <Placemark id="50804">
            <name>Jalan Rajawali Barat</name>
            <styleUrl>#50805</styleUrl>
            <LineString id="50803">
                <coordinates>107.5729282,-6.9120185,0.0 107.5729439,-6.9120247,0.0 107.573014,-6.9120524,0.0 107.5733246,-6.9121739,0.0 107.5735241,-6.9122519,0.0 107.5736798,-6.9123128,0.0 107.5737227,-6.9123296,0.0 107.5741069,-6.9124804,0.0 107.5746597,-6.9126961,0.0 107.5747971,-6.9127499,0.0 107.5748397,-6.9127665,0.0 107.575213,-6.9129126,0.0 107.5753191,-6.9129541,0.0 107.5753653,-6.9129722,0.0</coordinates>
            </LineString>
        </Placemark>
        <Placemark id="50808">
            <name>Jalan Pajajaran</name>
            <styleUrl>#50809</styleUrl>
            <LineString id="50807">
                <coordinates>107.588209,-6.9068423,0.0 107.5881464,-6.9068364,0.0 107.5880555,-6.9068315,0.0 107.5879978,-6.9068303,0.0 107.5879768,-6.9068298,0.0 107.5879555,-6.9068304,0.0 107.5879312,-6.9068311,0.0 107.5878886,-6.9068344,0.0 107.5878356,-6.9068448,0.0 107.5877897,-6.9068561,0.0</coordinates>
            </LineString>
        </Placemark>
        <Placemark id="50812">
            <name>Jalan Kebon Jukut</name>
            <styleUrl>#50813</styleUrl>
            <LineString id="50811">
                <coordinates>107.6071931,-6.9145156,0.0 107.6071796,-6.9144917,0.0 107.6071622,-6.9144726,0.0 107.6071398,-6.9144595,0.0 107.6071185,-6.9144541,0.0 107.6070966,-6.9144542,0.0 107.6070754,-6.9144598,0.0 107.6070563,-6.9144706,0.0 107.606975,-6.9145811,0.0</coordinates>
            </LineString>
        </Placemark>
        <Placemark id="50816">
            <name>Jalan Layang Ciroyom</name>
            <styleUrl>#50817</styleUrl>
            <LineString id="50815">
                <coordinates>107.5869574,-6.9132909,0.0 107.5867121,-6.9132166,0.0</coordinates>
            </LineString>
        </Placemark>
        <Placemark id="50820">
            <name>Jalan Layang Ciroyom</name>
            <styleUrl>#50821</styleUrl>
            <LineString id="50819">
                <coordinates>107.5894064,-6.9117422,0.0 107.5893455,-6.911919,0.0</coordinates>
            </LineString>
        </Placemark>
        <Placemark id="50824">
            <name>Jalan Arjuna</name>
            <styleUrl>#50825</styleUrl>
            <LineString id="50823">
                <coordinates>107.5894633,-6.9113314,0.0 107.5894584,-6.9114138,0.0 107.5894414,-6.9115309,0.0 107.5894278,-6.9116169,0.0 107.5894064,-6.9117422,0.0</coordinates>
            </LineString>
        </Placemark>
        <Placemark id="50828">
            <name>Jalan Dewi Sartika</name>
            <styleUrl>#50829</styleUrl>
            <LineString id="50827">
                <coordinates>107.6058386,-6.9275637,0.0 107.6058453,-6.9274973,0.0</coordinates>
            </LineString>
        </Placemark>
        <Placemark id="50832">
            <name>Jalan Dewi Sartika</name>
            <styleUrl>#50833</styleUrl>
            <LineString id="50831">
                <coordinates>107.6058453,-6.9274973,0.0 107.6058559,-6.9274746,0.0 107.605878,-6.9274596,0.0 107.6059082,-6.9274425,0.0 107.6059305,-6.9274223,0.0 107.6059373,-6.9274102,0.0 107.6059454,-6.9273849,0.0</coordinates>
            </LineString>
        </Placemark>
        <Placemark id="50836">
            <name>Jalan Asia Afrika</name>
            <styleUrl>#50837</styleUrl>
            <LineString id="50835">
                <coordinates>107.6071309,-6.9211347,0.0 107.6069871,-6.9211172,0.0 107.6069008,-6.9211076,0.0</coordinates>
            </LineString>
        </Placemark>
        <Placemark id="50840">
            <name>Jalan Otto Iskandardinata</name>
            <styleUrl>#50841</styleUrl>
            <LineString id="50839">
                <coordinates>107.604692,-6.9127619,0.0 107.6046613,-6.913176,0.0 107.6046522,-6.9133158,0.0 107.6046393,-6.9134886,0.0 107.6046306,-6.9136374,0.0 107.6046271,-6.9136785,0.0 107.604621,-6.9137727,0.0 107.6046177,-6.9138395,0.0 107.6046089,-6.913972,0.0 107.6045855,-6.9143581,0.0 107.6045878,-6.9143974,0.0 107.6045929,-6.9144391,0.0 107.6046031,-6.9144539,0.0</coordinates>
            </LineString>
        </Placemark>
        <Placemark id="50844">
            <name>Jalan Ciroyom</name>
            <styleUrl>#50845</styleUrl>
            <LineString id="50843">
                <coordinates>107.5860843,-6.9128486,0.0 107.5860324,-6.912814,0.0 107.5858255,-6.912692,0.0</coordinates>
            </LineString>
        </Placemark>
        <Placemark id="50848">
            <name>Jalan Asia Afrika</name>
            <styleUrl>#50849</styleUrl>
            <LineString id="50847">
                <coordinates>107.607526,-6.921273,0.0 107.6074906,-6.9212574,0.0 107.6073101,-6.9212316,0.0 107.6072565,-6.9212135,0.0 107.607195,-6.9211421,0.0</coordinates>
            </LineString>
        </Placemark>
        <Placemark id="50852">
            <name>Jalan Rajawali Barat</name>
            <styleUrl>#50853</styleUrl>
            <LineString id="50851">
                <coordinates>107.5753653,-6.9129722,0.0 107.5754115,-6.9129902,0.0 107.5755013,-6.9130253,0.0 107.575721,-6.9131092,0.0</coordinates>
            </LineString>
        </Placemark>
        <Placemark id="50856">
            <name>Jalan Dewi Sartika</name>
            <styleUrl>#50857</styleUrl>
            <LineString id="50855">
                <coordinates>107.6058322,-6.9276428,0.0 107.6058386,-6.9275637,0.0</coordinates>
            </LineString>
        </Placemark>
        <Placemark id="50860">
            <name>Jalan Ciroyom</name>
            <styleUrl>#50861</styleUrl>
            <LineString id="50859">
                <coordinates>107.5867121,-6.9132166,0.0 107.586425,-6.9130541,0.0</coordinates>
            </LineString>
        </Placemark>
        <Placemark id="50864">
            <name>Jalan Ciroyom</name>
            <styleUrl>#50865</styleUrl>
            <LineString id="50863">
                <coordinates>107.586425,-6.9130541,0.0 107.5860843,-6.9128486,0.0</coordinates>
            </LineString>
        </Placemark>
        <Placemark id="50868">
            <name>Jalan Kebon Kawung</name>
            <styleUrl>#50869</styleUrl>
            <LineString id="50867">
                <coordinates>107.6006435,-6.9124749,0.0 107.6002224,-6.9124495,0.0</coordinates>
            </LineString>
        </Placemark>
        <Placemark id="50872">
            <name>Jalan Kebon Kawung</name>
            <styleUrl>#50873</styleUrl>
            <LineString id="50871">
                <coordinates>107.6002224,-6.9124495,0.0 107.6000202,-6.912439,0.0</coordinates>
            </LineString>
        </Placemark>
        <Placemark id="50876">
            <name>Jalan Kebon Kawung</name>
            <styleUrl>#50877</styleUrl>
            <LineString id="50875">
                <coordinates>107.6000202,-6.912439,0.0 107.5993874,-6.9123994,0.0</coordinates>
            </LineString>
        </Placemark>
        <Placemark id="50880">
            <name>Jalan Kebon Kawung</name>
            <styleUrl>#50881</styleUrl>
            <LineString id="50879">
                <coordinates>107.5993874,-6.9123994,0.0 107.5990408,-6.912374,0.0 107.5990132,-6.912372,0.0</coordinates>
            </LineString>
        </Placemark>
        <Placemark id="50884">
            <name>Jalan Kebon Kawung</name>
            <styleUrl>#50885</styleUrl>
            <LineString id="50883">
                <coordinates>107.5990132,-6.912372,0.0 107.5982527,-6.912368,0.0</coordinates>
            </LineString>
        </Placemark>
        <Placemark id="50888">
            <name>Jalan Kebon Kawung</name>
            <styleUrl>#50889</styleUrl>
            <LineString id="50887">
                <coordinates>107.601745,-6.9125245,0.0 107.601624,-6.9125174,0.0</coordinates>
            </LineString>
        </Placemark>
        <Placemark id="50892">
            <name>Jalan Kebon Kawung</name>
            <styleUrl>#50893</styleUrl>
            <LineString id="50891">
                <coordinates>107.601624,-6.9125174,0.0 107.6015636,-6.9125139,0.0</coordinates>
            </LineString>
        </Placemark>
        <Placemark id="50896">
            <name>Jalan Kebon Kawung</name>
            <styleUrl>#50897</styleUrl>
            <LineString id="50895">
                <coordinates>107.6015636,-6.9125139,0.0 107.6010547,-6.9124917,0.0</coordinates>
            </LineString>
        </Placemark>
        <Placemark id="50900">
            <name>Jalan Kebon Kawung</name>
            <styleUrl>#50901</styleUrl>
            <LineString id="50899">
                <coordinates>107.6010547,-6.9124917,0.0 107.6009674,-6.9124878,0.0</coordinates>
            </LineString>
        </Placemark>
        <Placemark id="50904">
            <name>Jalan Kebon Kawung</name>
            <styleUrl>#50905</styleUrl>
            <LineString id="50903">
                <coordinates>107.6009674,-6.9124878,0.0 107.6007223,-6.9124771,0.0 107.6006435,-6.9124749,0.0</coordinates>
            </LineString>
        </Placemark>
        <Placemark id="50908">
            <name>Jalan Rajawali Timur</name>
            <styleUrl>#50909</styleUrl>
            <LineString id="50907">
                <coordinates>107.5758021,-6.913142,0.0 107.5761151,-6.9132715,0.0</coordinates>
            </LineString>
        </Placemark>
        <Placemark id="50912">
            <name>Jalan Kasuari</name>
            <styleUrl>#50913</styleUrl>
            <LineString id="50911">
                <coordinates>107.5737288,-6.9101067,0.0 107.5736786,-6.9102292,0.0 107.5736541,-6.9102661,0.0 107.5736296,-6.9102877,0.0</coordinates>
            </LineString>
        </Placemark>
    </Document>
</kml>
