<?xml version="1.0" encoding="UTF-8"?>
<kml xmlns="http://www.opengis.net/kml/2.2" xmlns:gx="http://www.google.com/kml/ext/2.2">
    <Document id="51435">
        <Style id="51441">
            <IconStyle id="51442">
                <colorMode>normal</colorMode>
                <scale>1</scale>
                <heading>0</heading>
                <Icon id="51443">
                    <href>http://maps.google.com/mapfiles/kml/pushpin/ylw-pushpin.png</href>
                </Icon>
            </IconStyle>
        </Style>
        <Style id="51446">
            <IconStyle id="51447">
                <colorMode>normal</colorMode>
                <scale>1</scale>
                <heading>0</heading>
                <Icon id="51448">
                    <href>http://maps.google.com/mapfiles/kml/pushpin/ylw-pushpin.png</href>
                </Icon>
            </IconStyle>
        </Style>
        <Style id="51451">
            <LineStyle id="51452">
                <color>ff9BB5C2</color>
                <colorMode>normal</colorMode>
                <width>4</width>
            </LineStyle>
        </Style>
        <Style id="51455">
            <LineStyle id="51456">
                <color>ff9BB5C2</color>
                <colorMode>normal</colorMode>
                <width>4</width>
            </LineStyle>
        </Style>
        <Style id="51459">
            <LineStyle id="51460">
                <color>ff9BB5C2</color>
                <colorMode>normal</colorMode>
                <width>4</width>
            </LineStyle>
        </Style>
        <Style id="51463">
            <LineStyle id="51464">
                <color>ff9BB5C2</color>
                <colorMode>normal</colorMode>
                <width>4</width>
            </LineStyle>
        </Style>
        <Style id="51467">
            <LineStyle id="51468">
                <color>ff9BB5C2</color>
                <colorMode>normal</colorMode>
                <width>4</width>
            </LineStyle>
        </Style>
        <Style id="51471">
            <LineStyle id="51472">
                <color>ff9BB5C2</color>
                <colorMode>normal</colorMode>
                <width>4</width>
            </LineStyle>
        </Style>
        <Style id="51475">
            <LineStyle id="51476">
                <color>ff9BB5C2</color>
                <colorMode>normal</colorMode>
                <width>4</width>
            </LineStyle>
        </Style>
        <Style id="51479">
            <LineStyle id="51480">
                <color>ff9BB5C2</color>
                <colorMode>normal</colorMode>
                <width>4</width>
            </LineStyle>
        </Style>
        <Style id="51483">
            <LineStyle id="51484">
                <color>ff9BB5C2</color>
                <colorMode>normal</colorMode>
                <width>4</width>
            </LineStyle>
        </Style>
        <Style id="51487">
            <LineStyle id="51488">
                <color>ff9BB5C2</color>
                <colorMode>normal</colorMode>
                <width>4</width>
            </LineStyle>
        </Style>
        <Style id="51491">
            <LineStyle id="51492">
                <color>ff9BB5C2</color>
                <colorMode>normal</colorMode>
                <width>4</width>
            </LineStyle>
        </Style>
        <Style id="51495">
            <LineStyle id="51496">
                <color>ff9BB5C2</color>
                <colorMode>normal</colorMode>
                <width>4</width>
            </LineStyle>
        </Style>
        <Style id="51499">
            <LineStyle id="51500">
                <color>ff9BB5C2</color>
                <colorMode>normal</colorMode>
                <width>4</width>
            </LineStyle>
        </Style>
        <Style id="51503">
            <LineStyle id="51504">
                <color>ff9BB5C2</color>
                <colorMode>normal</colorMode>
                <width>4</width>
            </LineStyle>
        </Style>
        <Style id="51507">
            <LineStyle id="51508">
                <color>ff9BB5C2</color>
                <colorMode>normal</colorMode>
                <width>4</width>
            </LineStyle>
        </Style>
        <Style id="51511">
            <LineStyle id="51512">
                <color>ff9BB5C2</color>
                <colorMode>normal</colorMode>
                <width>4</width>
            </LineStyle>
        </Style>
        <Style id="51515">
            <LineStyle id="51516">
                <color>ff9BB5C2</color>
                <colorMode>normal</colorMode>
                <width>4</width>
            </LineStyle>
        </Style>
        <Style id="51519">
            <LineStyle id="51520">
                <color>ff9BB5C2</color>
                <colorMode>normal</colorMode>
                <width>4</width>
            </LineStyle>
        </Style>
        <Style id="51523">
            <LineStyle id="51524">
                <color>ff9BB5C2</color>
                <colorMode>normal</colorMode>
                <width>4</width>
            </LineStyle>
        </Style>
        <Style id="51527">
            <LineStyle id="51528">
                <color>ff9BB5C2</color>
                <colorMode>normal</colorMode>
                <width>4</width>
            </LineStyle>
        </Style>
        <Style id="51531">
            <LineStyle id="51532">
                <color>ff9BB5C2</color>
                <colorMode>normal</colorMode>
                <width>4</width>
            </LineStyle>
        </Style>
        <Style id="51535">
            <LineStyle id="51536">
                <color>ff9BB5C2</color>
                <colorMode>normal</colorMode>
                <width>4</width>
            </LineStyle>
        </Style>
        <Style id="51539">
            <LineStyle id="51540">
                <color>ff9BB5C2</color>
                <colorMode>normal</colorMode>
                <width>4</width>
            </LineStyle>
        </Style>
        <Style id="51543">
            <LineStyle id="51544">
                <color>ff9BB5C2</color>
                <colorMode>normal</colorMode>
                <width>4</width>
            </LineStyle>
        </Style>
        <Style id="51547">
            <LineStyle id="51548">
                <color>ff9BB5C2</color>
                <colorMode>normal</colorMode>
                <width>4</width>
            </LineStyle>
        </Style>
        <Style id="51551">
            <LineStyle id="51552">
                <color>ff9BB5C2</color>
                <colorMode>normal</colorMode>
                <width>4</width>
            </LineStyle>
        </Style>
        <Style id="51555">
            <LineStyle id="51556">
                <color>ff9BB5C2</color>
                <colorMode>normal</colorMode>
                <width>4</width>
            </LineStyle>
        </Style>
        <Style id="51559">
            <LineStyle id="51560">
                <color>ff9BB5C2</color>
                <colorMode>normal</colorMode>
                <width>4</width>
            </LineStyle>
        </Style>
        <Style id="51563">
            <LineStyle id="51564">
                <color>ff9BB5C2</color>
                <colorMode>normal</colorMode>
                <width>4</width>
            </LineStyle>
        </Style>
        <Style id="51567">
            <LineStyle id="51568">
                <color>ff9BB5C2</color>
                <colorMode>normal</colorMode>
                <width>4</width>
            </LineStyle>
        </Style>
        <Style id="51571">
            <LineStyle id="51572">
                <color>ff9BB5C2</color>
                <colorMode>normal</colorMode>
                <width>4</width>
            </LineStyle>
        </Style>
        <Style id="51575">
            <LineStyle id="51576">
                <color>ff9BB5C2</color>
                <colorMode>normal</colorMode>
                <width>4</width>
            </LineStyle>
        </Style>
        <Style id="51579">
            <LineStyle id="51580">
                <color>ff9BB5C2</color>
                <colorMode>normal</colorMode>
                <width>4</width>
            </LineStyle>
        </Style>
        <Style id="51583">
            <LineStyle id="51584">
                <color>ff9BB5C2</color>
                <colorMode>normal</colorMode>
                <width>4</width>
            </LineStyle>
        </Style>
        <Style id="51587">
            <LineStyle id="51588">
                <color>ff9BB5C2</color>
                <colorMode>normal</colorMode>
                <width>4</width>
            </LineStyle>
        </Style>
        <Style id="51591">
            <LineStyle id="51592">
                <color>ff9BB5C2</color>
                <colorMode>normal</colorMode>
                <width>4</width>
            </LineStyle>
        </Style>
        <Style id="51595">
            <LineStyle id="51596">
                <color>ff9BB5C2</color>
                <colorMode>normal</colorMode>
                <width>4</width>
            </LineStyle>
        </Style>
        <Style id="51599">
            <LineStyle id="51600">
                <color>ff9BB5C2</color>
                <colorMode>normal</colorMode>
                <width>4</width>
            </LineStyle>
        </Style>
        <Style id="51603">
            <LineStyle id="51604">
                <color>ff9BB5C2</color>
                <colorMode>normal</colorMode>
                <width>4</width>
            </LineStyle>
        </Style>
        <Style id="51607">
            <LineStyle id="51608">
                <color>ff9BB5C2</color>
                <colorMode>normal</colorMode>
                <width>4</width>
            </LineStyle>
        </Style>
        <Style id="51611">
            <LineStyle id="51612">
                <color>ff9BB5C2</color>
                <colorMode>normal</colorMode>
                <width>4</width>
            </LineStyle>
        </Style>
        <Style id="51615">
            <LineStyle id="51616">
                <color>ff9BB5C2</color>
                <colorMode>normal</colorMode>
                <width>4</width>
            </LineStyle>
        </Style>
        <Style id="51619">
            <LineStyle id="51620">
                <color>ff9BB5C2</color>
                <colorMode>normal</colorMode>
                <width>4</width>
            </LineStyle>
        </Style>
        <Style id="51623">
            <LineStyle id="51624">
                <color>ff9BB5C2</color>
                <colorMode>normal</colorMode>
                <width>4</width>
            </LineStyle>
        </Style>
        <Style id="51627">
            <LineStyle id="51628">
                <color>ff9BB5C2</color>
                <colorMode>normal</colorMode>
                <width>4</width>
            </LineStyle>
        </Style>
        <Style id="51631">
            <LineStyle id="51632">
                <color>ff9BB5C2</color>
                <colorMode>normal</colorMode>
                <width>4</width>
            </LineStyle>
        </Style>
        <Style id="51635">
            <LineStyle id="51636">
                <color>ff9BB5C2</color>
                <colorMode>normal</colorMode>
                <width>4</width>
            </LineStyle>
        </Style>
        <Style id="51639">
            <LineStyle id="51640">
                <color>ff9BB5C2</color>
                <colorMode>normal</colorMode>
                <width>4</width>
            </LineStyle>
        </Style>
        <Style id="51643">
            <LineStyle id="51644">
                <color>ff9BB5C2</color>
                <colorMode>normal</colorMode>
                <width>4</width>
            </LineStyle>
        </Style>
        <Style id="51647">
            <LineStyle id="51648">
                <color>ff9BB5C2</color>
                <colorMode>normal</colorMode>
                <width>4</width>
            </LineStyle>
        </Style>
        <Style id="51651">
            <LineStyle id="51652">
                <color>ff9BB5C2</color>
                <colorMode>normal</colorMode>
                <width>4</width>
            </LineStyle>
        </Style>
        <Style id="51655">
            <LineStyle id="51656">
                <color>ff9BB5C2</color>
                <colorMode>normal</colorMode>
                <width>4</width>
            </LineStyle>
        </Style>
        <Style id="51659">
            <LineStyle id="51660">
                <color>ff9BB5C2</color>
                <colorMode>normal</colorMode>
                <width>4</width>
            </LineStyle>
        </Style>
        <Style id="51663">
            <LineStyle id="51664">
                <color>ff9BB5C2</color>
                <colorMode>normal</colorMode>
                <width>4</width>
            </LineStyle>
        </Style>
        <Style id="51667">
            <LineStyle id="51668">
                <color>ff9BB5C2</color>
                <colorMode>normal</colorMode>
                <width>4</width>
            </LineStyle>
        </Style>
        <Style id="51671">
            <LineStyle id="51672">
                <color>ff9BB5C2</color>
                <colorMode>normal</colorMode>
                <width>4</width>
            </LineStyle>
        </Style>
        <Style id="51675">
            <LineStyle id="51676">
                <color>ff9BB5C2</color>
                <colorMode>normal</colorMode>
                <width>4</width>
            </LineStyle>
        </Style>
        <Style id="51679">
            <LineStyle id="51680">
                <color>ff9BB5C2</color>
                <colorMode>normal</colorMode>
                <width>4</width>
            </LineStyle>
        </Style>
        <Style id="51683">
            <LineStyle id="51684">
                <color>ff9BB5C2</color>
                <colorMode>normal</colorMode>
                <width>4</width>
            </LineStyle>
        </Style>
        <Style id="51687">
            <LineStyle id="51688">
                <color>ff9BB5C2</color>
                <colorMode>normal</colorMode>
                <width>4</width>
            </LineStyle>
        </Style>
        <Style id="51691">
            <LineStyle id="51692">
                <color>ff9BB5C2</color>
                <colorMode>normal</colorMode>
                <width>4</width>
            </LineStyle>
        </Style>
        <Style id="51695">
            <LineStyle id="51696">
                <color>ff9BB5C2</color>
                <colorMode>normal</colorMode>
                <width>4</width>
            </LineStyle>
        </Style>
        <Style id="51699">
            <LineStyle id="51700">
                <color>ff9BB5C2</color>
                <colorMode>normal</colorMode>
                <width>4</width>
            </LineStyle>
        </Style>
        <Style id="51703">
            <LineStyle id="51704">
                <color>ff9BB5C2</color>
                <colorMode>normal</colorMode>
                <width>4</width>
            </LineStyle>
        </Style>
        <Style id="51707">
            <LineStyle id="51708">
                <color>ff9BB5C2</color>
                <colorMode>normal</colorMode>
                <width>4</width>
            </LineStyle>
        </Style>
        <Style id="51711">
            <LineStyle id="51712">
                <color>ff9BB5C2</color>
                <colorMode>normal</colorMode>
                <width>4</width>
            </LineStyle>
        </Style>
        <Style id="51715">
            <LineStyle id="51716">
                <color>ff9BB5C2</color>
                <colorMode>normal</colorMode>
                <width>4</width>
            </LineStyle>
        </Style>
        <Style id="51719">
            <LineStyle id="51720">
                <color>ff9BB5C2</color>
                <colorMode>normal</colorMode>
                <width>4</width>
            </LineStyle>
        </Style>
        <Style id="51723">
            <LineStyle id="51724">
                <color>ff9BB5C2</color>
                <colorMode>normal</colorMode>
                <width>4</width>
            </LineStyle>
        </Style>
        <Style id="51727">
            <LineStyle id="51728">
                <color>ff9BB5C2</color>
                <colorMode>normal</colorMode>
                <width>4</width>
            </LineStyle>
        </Style>
        <Style id="51731">
            <LineStyle id="51732">
                <color>ff9BB5C2</color>
                <colorMode>normal</colorMode>
                <width>4</width>
            </LineStyle>
        </Style>
        <Style id="51735">
            <LineStyle id="51736">
                <color>ff9BB5C2</color>
                <colorMode>normal</colorMode>
                <width>4</width>
            </LineStyle>
        </Style>
        <Style id="51739">
            <LineStyle id="51740">
                <color>ff9BB5C2</color>
                <colorMode>normal</colorMode>
                <width>4</width>
            </LineStyle>
        </Style>
        <Style id="51743">
            <LineStyle id="51744">
                <color>ff9BB5C2</color>
                <colorMode>normal</colorMode>
                <width>4</width>
            </LineStyle>
        </Style>
        <Style id="51747">
            <LineStyle id="51748">
                <color>ff9BB5C2</color>
                <colorMode>normal</colorMode>
                <width>4</width>
            </LineStyle>
        </Style>
        <Style id="51751">
            <LineStyle id="51752">
                <color>ff9BB5C2</color>
                <colorMode>normal</colorMode>
                <width>4</width>
            </LineStyle>
        </Style>
        <Style id="51755">
            <LineStyle id="51756">
                <color>ff9BB5C2</color>
                <colorMode>normal</colorMode>
                <width>4</width>
            </LineStyle>
        </Style>
        <Style id="51759">
            <LineStyle id="51760">
                <color>ff9BB5C2</color>
                <colorMode>normal</colorMode>
                <width>4</width>
            </LineStyle>
        </Style>
        <Style id="51763">
            <LineStyle id="51764">
                <color>ff9BB5C2</color>
                <colorMode>normal</colorMode>
                <width>4</width>
            </LineStyle>
        </Style>
        <Style id="51767">
            <LineStyle id="51768">
                <color>ff9BB5C2</color>
                <colorMode>normal</colorMode>
                <width>4</width>
            </LineStyle>
        </Style>
        <Style id="51771">
            <LineStyle id="51772">
                <color>ff9BB5C2</color>
                <colorMode>normal</colorMode>
                <width>4</width>
            </LineStyle>
        </Style>
        <Style id="51775">
            <LineStyle id="51776">
                <color>ff9BB5C2</color>
                <colorMode>normal</colorMode>
                <width>4</width>
            </LineStyle>
        </Style>
        <Style id="51779">
            <LineStyle id="51780">
                <color>ff9BB5C2</color>
                <colorMode>normal</colorMode>
                <width>4</width>
            </LineStyle>
        </Style>
        <Style id="51783">
            <LineStyle id="51784">
                <color>ff9BB5C2</color>
                <colorMode>normal</colorMode>
                <width>4</width>
            </LineStyle>
        </Style>
        <Style id="51787">
            <LineStyle id="51788">
                <color>ff9BB5C2</color>
                <colorMode>normal</colorMode>
                <width>4</width>
            </LineStyle>
        </Style>
        <Style id="51791">
            <LineStyle id="51792">
                <color>ff9BB5C2</color>
                <colorMode>normal</colorMode>
                <width>4</width>
            </LineStyle>
        </Style>
        <Style id="51795">
            <LineStyle id="51796">
                <color>ff9BB5C2</color>
                <colorMode>normal</colorMode>
                <width>4</width>
            </LineStyle>
        </Style>
        <Style id="51799">
            <LineStyle id="51800">
                <color>ff9BB5C2</color>
                <colorMode>normal</colorMode>
                <width>4</width>
            </LineStyle>
        </Style>
        <Style id="51803">
            <LineStyle id="51804">
                <color>ff9BB5C2</color>
                <colorMode>normal</colorMode>
                <width>4</width>
            </LineStyle>
        </Style>
        <Style id="51807">
            <LineStyle id="51808">
                <color>ff9BB5C2</color>
                <colorMode>normal</colorMode>
                <width>4</width>
            </LineStyle>
        </Style>
        <Style id="51811">
            <LineStyle id="51812">
                <color>ff9BB5C2</color>
                <colorMode>normal</colorMode>
                <width>4</width>
            </LineStyle>
        </Style>
        <Style id="51815">
            <LineStyle id="51816">
                <color>ff9BB5C2</color>
                <colorMode>normal</colorMode>
                <width>4</width>
            </LineStyle>
        </Style>
        <Style id="51819">
            <LineStyle id="51820">
                <color>ff9BB5C2</color>
                <colorMode>normal</colorMode>
                <width>4</width>
            </LineStyle>
        </Style>
        <Style id="51823">
            <LineStyle id="51824">
                <color>ff9BB5C2</color>
                <colorMode>normal</colorMode>
                <width>4</width>
            </LineStyle>
        </Style>
        <Style id="51827">
            <LineStyle id="51828">
                <color>ff9BB5C2</color>
                <colorMode>normal</colorMode>
                <width>4</width>
            </LineStyle>
        </Style>
        <Style id="51831">
            <LineStyle id="51832">
                <color>ff9BB5C2</color>
                <colorMode>normal</colorMode>
                <width>4</width>
            </LineStyle>
        </Style>
        <Style id="51835">
            <LineStyle id="51836">
                <color>ff9BB5C2</color>
                <colorMode>normal</colorMode>
                <width>4</width>
            </LineStyle>
        </Style>
        <Style id="51839">
            <LineStyle id="51840">
                <color>ff9BB5C2</color>
                <colorMode>normal</colorMode>
                <width>4</width>
            </LineStyle>
        </Style>
        <Style id="51843">
            <LineStyle id="51844">
                <color>ff9BB5C2</color>
                <colorMode>normal</colorMode>
                <width>4</width>
            </LineStyle>
        </Style>
        <Style id="51847">
            <LineStyle id="51848">
                <color>ff9BB5C2</color>
                <colorMode>normal</colorMode>
                <width>4</width>
            </LineStyle>
        </Style>
        <Style id="51851">
            <LineStyle id="51852">
                <color>ff9BB5C2</color>
                <colorMode>normal</colorMode>
                <width>4</width>
            </LineStyle>
        </Style>
        <Style id="51855">
            <LineStyle id="51856">
                <color>ff9BB5C2</color>
                <colorMode>normal</colorMode>
                <width>4</width>
            </LineStyle>
        </Style>
        <Style id="51859">
            <LineStyle id="51860">
                <color>ff9BB5C2</color>
                <colorMode>normal</colorMode>
                <width>4</width>
            </LineStyle>
        </Style>
        <Style id="51863">
            <LineStyle id="51864">
                <color>ff9BB5C2</color>
                <colorMode>normal</colorMode>
                <width>4</width>
            </LineStyle>
        </Style>
        <Style id="51867">
            <LineStyle id="51868">
                <color>ff9BB5C2</color>
                <colorMode>normal</colorMode>
                <width>4</width>
            </LineStyle>
        </Style>
        <Style id="51871">
            <LineStyle id="51872">
                <color>ff9BB5C2</color>
                <colorMode>normal</colorMode>
                <width>4</width>
            </LineStyle>
        </Style>
        <Style id="51875">
            <LineStyle id="51876">
                <color>ff9BB5C2</color>
                <colorMode>normal</colorMode>
                <width>4</width>
            </LineStyle>
        </Style>
        <Style id="51879">
            <LineStyle id="51880">
                <color>ff9BB5C2</color>
                <colorMode>normal</colorMode>
                <width>4</width>
            </LineStyle>
        </Style>
        <Style id="51883">
            <LineStyle id="51884">
                <color>ff9BB5C2</color>
                <colorMode>normal</colorMode>
                <width>4</width>
            </LineStyle>
        </Style>
        <Style id="51887">
            <LineStyle id="51888">
                <color>ff9BB5C2</color>
                <colorMode>normal</colorMode>
                <width>4</width>
            </LineStyle>
        </Style>
        <Style id="51891">
            <LineStyle id="51892">
                <color>ff9BB5C2</color>
                <colorMode>normal</colorMode>
                <width>4</width>
            </LineStyle>
        </Style>
        <Style id="51895">
            <LineStyle id="51896">
                <color>ff9BB5C2</color>
                <colorMode>normal</colorMode>
                <width>4</width>
            </LineStyle>
        </Style>
        <Style id="51899">
            <LineStyle id="51900">
                <color>ff9BB5C2</color>
                <colorMode>normal</colorMode>
                <width>4</width>
            </LineStyle>
        </Style>
        <Style id="51903">
            <LineStyle id="51904">
                <color>ff9BB5C2</color>
                <colorMode>normal</colorMode>
                <width>4</width>
            </LineStyle>
        </Style>
        <Style id="51907">
            <LineStyle id="51908">
                <color>ff9BB5C2</color>
                <colorMode>normal</colorMode>
                <width>4</width>
            </LineStyle>
        </Style>
        <Style id="51911">
            <LineStyle id="51912">
                <color>ff9BB5C2</color>
                <colorMode>normal</colorMode>
                <width>4</width>
            </LineStyle>
        </Style>
        <Style id="51915">
            <LineStyle id="51916">
                <color>ff9BB5C2</color>
                <colorMode>normal</colorMode>
                <width>4</width>
            </LineStyle>
        </Style>
        <Style id="51919">
            <LineStyle id="51920">
                <color>ff9BB5C2</color>
                <colorMode>normal</colorMode>
                <width>4</width>
            </LineStyle>
        </Style>
        <Style id="51923">
            <LineStyle id="51924">
                <color>ff9BB5C2</color>
                <colorMode>normal</colorMode>
                <width>4</width>
            </LineStyle>
        </Style>
        <Style id="51927">
            <LineStyle id="51928">
                <color>ff9BB5C2</color>
                <colorMode>normal</colorMode>
                <width>4</width>
            </LineStyle>
        </Style>
        <Style id="51931">
            <LineStyle id="51932">
                <color>ff9BB5C2</color>
                <colorMode>normal</colorMode>
                <width>4</width>
            </LineStyle>
        </Style>
        <Style id="51935">
            <LineStyle id="51936">
                <color>ff9BB5C2</color>
                <colorMode>normal</colorMode>
                <width>4</width>
            </LineStyle>
        </Style>
        <Style id="51939">
            <LineStyle id="51940">
                <color>ff9BB5C2</color>
                <colorMode>normal</colorMode>
                <width>4</width>
            </LineStyle>
        </Style>
        <Style id="51943">
            <LineStyle id="51944">
                <color>ff9BB5C2</color>
                <colorMode>normal</colorMode>
                <width>4</width>
            </LineStyle>
        </Style>
        <Style id="51947">
            <LineStyle id="51948">
                <color>ff9BB5C2</color>
                <colorMode>normal</colorMode>
                <width>4</width>
            </LineStyle>
        </Style>
        <ExtendedData>
            <Data name="route-name">
                <value>31: Ciroyom → Antapani</value>
            </Data>
            <Data name="source">
                <value>Transport for Bandung</value>
            </Data>
        </ExtendedData>
        <Placemark id="51440">
            <name>Husein Pajajaran</name>
            <styleUrl>#51441</styleUrl>
            <Point id="51439">
                <coordinates>107.588209,-6.9068423,0.0</coordinates>
            </Point>
        </Placemark>
        <Placemark id="51445">
            <name>Terminal Antapani</name>
            <styleUrl>#51446</styleUrl>
            <Point id="51444">
                <coordinates>107.6659285,-6.915304,0.0</coordinates>
            </Point>
        </Placemark>
        <Placemark id="51450">
            <name>Jalan L.L. RE. Martadinata</name>
            <styleUrl>#51451</styleUrl>
            <LineString id="51449">
                <coordinates>107.6079412,-6.9065104,0.0 107.6081981,-6.9065975,0.0 107.6083321,-6.9066257,0.0 107.6092299,-6.9067838,0.0 107.6093359,-6.9068089,0.0</coordinates>
            </LineString>
        </Placemark>
        <Placemark id="51454">
            <name>Jalan Purnawarman</name>
            <styleUrl>#51455</styleUrl>
            <LineString id="51453">
                <coordinates>107.6093744,-6.9081456,0.0 107.6093775,-6.9084083,0.0 107.6093813,-6.9085187,0.0 107.6093815,-6.908544,0.0 107.6093824,-6.9086525,0.0 107.6093841,-6.9088591,0.0 107.6093842,-6.9088763,0.0 107.6093811,-6.9088995,0.0 107.6093747,-6.9089464,0.0 107.6093527,-6.9090316,0.0 107.6092981,-6.9091183,0.0 107.6092179,-6.9091598,0.0 107.6091211,-6.9091702,0.0 107.6090771,-6.9091668,0.0 107.608636,-6.9091325,0.0 107.6085607,-6.9091266,0.0</coordinates>
            </LineString>
        </Placemark>
        <Placemark id="51458">
            <name>Jalan Pajajaran</name>
            <styleUrl>#51459</styleUrl>
            <LineString id="51457">
                <coordinates>107.5976387,-6.9064293,0.0 107.5977572,-6.906505,0.0 107.5978766,-6.9065641,0.0</coordinates>
            </LineString>
        </Placemark>
        <Placemark id="51462">
            <name>Jalan H. Ibrahim Adjie</name>
            <styleUrl>#51463</styleUrl>
            <LineString id="51461">
                <coordinates>107.6430381,-6.9088519,0.0 107.6430734,-6.9088371,0.0 107.6430931,-6.9088341,0.0 107.6431223,-6.9088325,0.0 107.6431581,-6.9088428,0.0 107.6431794,-6.9088613,0.0 107.6431982,-6.9088983,0.0 107.6432051,-6.9089444,0.0 107.6432227,-6.9090441,0.0 107.6432642,-6.9093078,0.0 107.6432776,-6.9093765,0.0 107.6433224,-6.9094595,0.0</coordinates>
            </LineString>
        </Placemark>
        <Placemark id="51466">
            <name>Jalan Cihampelas</name>
            <styleUrl>#51467</styleUrl>
            <LineString id="51465">
                <coordinates>107.6044282,-6.9071102,0.0 107.6044133,-6.9065285,0.0 107.6044055,-6.9062288,0.0 107.6044014,-6.9058496,0.0 107.6043978,-6.9056926,0.0 107.6043877,-6.9049197,0.0 107.6043867,-6.9048271,0.0</coordinates>
            </LineString>
        </Placemark>
        <Placemark id="51470">
            <name>Jalan Terusan Jakarta</name>
            <styleUrl>#51471</styleUrl>
            <LineString id="51469">
                <coordinates>107.6439909,-6.9135964,0.0 107.6451746,-6.9134376,0.0</coordinates>
            </LineString>
        </Placemark>
        <Placemark id="51474">
            <name>Jalan Purnawarman</name>
            <styleUrl>#51475</styleUrl>
            <LineString id="51473">
                <coordinates>107.6085607,-6.9091266,0.0 107.6085033,-6.9091626,0.0 107.6084529,-6.9092079,0.0 107.6084111,-6.909261,0.0 107.6083958,-6.9093101,0.0 107.6083912,-6.9093671,0.0</coordinates>
            </LineString>
        </Placemark>
        <Placemark id="51478">
            <name>Jalan Bangka</name>
            <styleUrl>#51479</styleUrl>
            <LineString id="51477">
                <coordinates>107.6183415,-6.911498,0.0 107.6184125,-6.9117345,0.0 107.6185017,-6.911999,0.0 107.6186497,-6.9124658,0.0 107.6187336,-6.9127767,0.0 107.6187655,-6.9128924,0.0 107.6187806,-6.9130123,0.0 107.6188063,-6.9134962,0.0 107.6188506,-6.915098,0.0</coordinates>
            </LineString>
        </Placemark>
        <Placemark id="51482">
            <name>Jalan Gudang Utara</name>
            <styleUrl>#51483</styleUrl>
            <LineString id="51481">
                <coordinates>107.6188506,-6.915098,0.0 107.618959,-6.9151242,0.0 107.6190377,-6.9151433,0.0 107.6191903,-6.9151802,0.0</coordinates>
            </LineString>
        </Placemark>
        <Placemark id="51486">
            <name>Jalan Kalimantan</name>
            <styleUrl>#51487</styleUrl>
            <LineString id="51485">
                <coordinates>107.6139066,-6.9105285,0.0 107.6140031,-6.9107992,0.0 107.6143276,-6.9117506,0.0 107.6144234,-6.9120239,0.0 107.6144696,-6.9121614,0.0</coordinates>
            </LineString>
        </Placemark>
        <Placemark id="51490">
            <name>Jalan Belitung</name>
            <styleUrl>#51491</styleUrl>
            <LineString id="51489">
                <coordinates>107.6144696,-6.9121614,0.0 107.6145774,-6.9121243,0.0 107.6148569,-6.9120259,0.0 107.6150207,-6.9119682,0.0 107.6153366,-6.9118538,0.0 107.6155622,-6.911775,0.0 107.615611,-6.9117587,0.0 107.6157377,-6.9117106,0.0 107.615884,-6.9116657,0.0 107.6160223,-6.9116314,0.0 107.6161546,-6.9116221,0.0</coordinates>
            </LineString>
        </Placemark>
        <Placemark id="51494">
            <name>Jalan Jenderal Ahmad Yani</name>
            <styleUrl>#51495</styleUrl>
            <LineString id="51493">
                <coordinates>107.6299627,-6.9157488,0.0 107.6300393,-6.9157014,0.0</coordinates>
            </LineString>
        </Placemark>
        <Placemark id="51498">
            <name>Jalan Wastukancana</name>
            <styleUrl>#51499</styleUrl>
            <LineString id="51497">
                <coordinates>107.6088855,-6.9102984,0.0 107.6088445,-6.9102299,0.0 107.6087639,-6.910086,0.0 107.608484,-6.9095465,0.0 107.6083912,-6.9093671,0.0</coordinates>
            </LineString>
        </Placemark>
        <Placemark id="51502">
            <name>Jalan Subang</name>
            <styleUrl>#51503</styleUrl>
            <LineString id="51501">
                <coordinates>107.6551641,-6.9124405,0.0 107.6551627,-6.912521,0.0</coordinates>
            </LineString>
        </Placemark>
        <Placemark id="51506">
            <name>Jalan Jenderal Ahmad Yani</name>
            <styleUrl>#51507</styleUrl>
            <LineString id="51505">
                <coordinates>107.6343755,-6.9133841,0.0 107.6344369,-6.9133475,0.0 107.6344903,-6.913351,0.0 107.6345359,-6.9133508,0.0 107.6346004,-6.9133622,0.0</coordinates>
            </LineString>
        </Placemark>
        <Placemark id="51510">
            <name>Jalan Jenderal Ahmad Yani</name>
            <styleUrl>#51511</styleUrl>
            <LineString id="51509">
                <coordinates>107.6296368,-6.9159071,0.0 107.6298809,-6.9157977,0.0 107.6299627,-6.9157488,0.0</coordinates>
            </LineString>
        </Placemark>
        <Placemark id="51514">
            <name>Jalan Jenderal Ahmad Yani</name>
            <styleUrl>#51515</styleUrl>
            <LineString id="51513">
                <coordinates>107.6342542,-6.9134469,0.0 107.6342922,-6.9134291,0.0 107.6343755,-6.9133841,0.0</coordinates>
            </LineString>
        </Placemark>
        <Placemark id="51518">
            <name>Jalan Cihampelas</name>
            <styleUrl>#51519</styleUrl>
            <LineString id="51517">
                <coordinates>107.6043867,-6.9048271,0.0 107.6044248,-6.9047189,0.0 107.6044209,-6.9045972,0.0</coordinates>
            </LineString>
        </Placemark>
        <Placemark id="51522">
            <name>Jalan Cihampelas</name>
            <styleUrl>#51523</styleUrl>
            <LineString id="51521">
                <coordinates>107.6044209,-6.9045972,0.0 107.6044173,-6.9045205,0.0 107.6044157,-6.9044676,0.0</coordinates>
            </LineString>
        </Placemark>
        <Placemark id="51526">
            <name>Jalan Wastukancana</name>
            <styleUrl>#51527</styleUrl>
            <LineString id="51525">
                <coordinates>107.6075644,-6.9054686,0.0 107.607609,-6.9055867,0.0 107.6076511,-6.9057161,0.0 107.6076853,-6.905845,0.0</coordinates>
            </LineString>
        </Placemark>
        <Placemark id="51530">
            <name>Jalan Terusan Jakarta</name>
            <styleUrl>#51531</styleUrl>
            <LineString id="51529">
                <coordinates>107.6451746,-6.9134376,0.0 107.6452794,-6.913432,0.0</coordinates>
            </LineString>
        </Placemark>
        <Placemark id="51534">
            <name>Jalan Terusan Jakarta</name>
            <styleUrl>#51535</styleUrl>
            <LineString id="51533">
                <coordinates>107.6453263,-6.9134331,0.0 107.6453419,-6.9134297,0.0 107.6454463,-6.9134142,0.0 107.6455398,-6.9134024,0.0 107.645674,-6.9133848,0.0 107.6457263,-6.9133788,0.0 107.6464113,-6.9132922,0.0 107.6470918,-6.913204,0.0 107.6471658,-6.9131951,0.0 107.64746,-6.9131596,0.0 107.6475747,-6.9131451,0.0</coordinates>
            </LineString>
        </Placemark>
        <Placemark id="51538">
            <name>Jalan Aceh</name>
            <styleUrl>#51539</styleUrl>
            <LineString id="51537">
                <coordinates>107.610654,-6.909795,0.0 107.610777,-6.9097754,0.0 107.6108205,-6.9097714,0.0 107.6109188,-6.9097687,0.0 107.6111566,-6.9097687,0.0 107.6116178,-6.90977,0.0 107.6117465,-6.9097693,0.0 107.6121344,-6.9097777,0.0</coordinates>
            </LineString>
        </Placemark>
        <Placemark id="51542">
            <name>Jalan Belitung</name>
            <styleUrl>#51543</styleUrl>
            <LineString id="51541">
                <coordinates>107.6161546,-6.9116221,0.0 107.6168641,-6.9115844,0.0 107.6170959,-6.9115688,0.0 107.617317,-6.9115453,0.0 107.6175732,-6.9115105,0.0</coordinates>
            </LineString>
        </Placemark>
        <Placemark id="51546">
            <name>Jalan Aceh</name>
            <styleUrl>#51547</styleUrl>
            <LineString id="51545">
                <coordinates>107.6126151,-6.9098105,0.0 107.6127279,-6.909855,0.0 107.6131518,-6.9100607,0.0 107.6137485,-6.9103432,0.0 107.6137788,-6.9103556,0.0</coordinates>
            </LineString>
        </Placemark>
        <Placemark id="51550">
            <name>Jalan Belitung</name>
            <styleUrl>#51551</styleUrl>
            <LineString id="51549">
                <coordinates>107.6175732,-6.9115105,0.0 107.617735,-6.9114851,0.0 107.6179079,-6.9114701,0.0 107.6180518,-6.9114643,0.0 107.6182447,-6.9114798,0.0 107.6183415,-6.911498,0.0</coordinates>
            </LineString>
        </Placemark>
        <Placemark id="51554">
            <name>Jalan Pajajaran</name>
            <styleUrl>#51555</styleUrl>
            <LineString id="51553">
                <coordinates>107.5962889,-6.9064673,0.0 107.5965716,-6.9064194,0.0 107.5967306,-6.9063983,0.0 107.5968629,-6.9063832,0.0 107.597019,-6.9063754,0.0 107.5972896,-6.9063654,0.0 107.5974482,-6.9063626,0.0 107.5975495,-6.9063779,0.0</coordinates>
            </LineString>
        </Placemark>
        <Placemark id="51558">
            <name>Jalan Pajajaran</name>
            <styleUrl>#51559</styleUrl>
            <LineString id="51557">
                <coordinates>107.5978766,-6.9065641,0.0 107.5979786,-6.9065883,0.0 107.5982101,-6.9066424,0.0 107.5983334,-6.9066643,0.0 107.5987941,-6.906746,0.0</coordinates>
            </LineString>
        </Placemark>
        <Placemark id="51562">
            <name>Jalan Wastukancana</name>
            <styleUrl>#51563</styleUrl>
            <LineString id="51561">
                <coordinates>107.6077246,-6.9060495,0.0 107.6077494,-6.9061802,0.0 107.6077784,-6.906285,0.0 107.6078246,-6.906372,0.0 107.607872,-6.9064327,0.0 107.6079412,-6.9065104,0.0</coordinates>
            </LineString>
        </Placemark>
        <Placemark id="51566">
            <name>Jalan Aceh</name>
            <styleUrl>#51567</styleUrl>
            <LineString id="51565">
                <coordinates>107.6092148,-6.9103044,0.0 107.6097114,-6.9101169,0.0 107.6103674,-6.9098792,0.0 107.610426,-6.9098591,0.0 107.6105905,-6.9098058,0.0</coordinates>
            </LineString>
        </Placemark>
        <Placemark id="51570">
            <name>Jalan Jenderal Ahmad Yani</name>
            <styleUrl>#51571</styleUrl>
            <LineString id="51569">
                <coordinates>107.6374263,-6.9118346,0.0 107.6376746,-6.9117059,0.0 107.6380463,-6.9115125,0.0 107.6381052,-6.9114812,0.0 107.6384087,-6.9113142,0.0 107.6385292,-6.9112521,0.0 107.6386772,-6.911175,0.0 107.6388085,-6.9111044,0.0 107.6393511,-6.9108148,0.0 107.6394945,-6.9107372,0.0 107.6395509,-6.9107061,0.0 107.6397159,-6.9106143,0.0 107.6397829,-6.9105782,0.0 107.6399162,-6.9105033,0.0 107.6402409,-6.9103278,0.0 107.64053,-6.9101769,0.0 107.6407412,-6.9100688,0.0 107.641164,-6.9098457,0.0 107.641445,-6.9096983,0.0 107.6415409,-6.9096449,0.0 107.6416706,-6.9095775,0.0 107.6417659,-6.9095225,0.0 107.6418156,-6.9094919,0.0 107.641865,-6.9094557,0.0</coordinates>
            </LineString>
        </Placemark>
        <Placemark id="51574">
            <name>Jalan H. Ibrahim Adjie</name>
            <styleUrl>#51575</styleUrl>
            <LineString id="51573">
                <coordinates>107.6435055,-6.9113592,0.0 107.6435255,-6.9115834,0.0 107.6435572,-6.9119253,0.0 107.6435846,-6.9122429,0.0 107.6436146,-6.9125869,0.0 107.6436356,-6.9128822,0.0 107.6436422,-6.9130175,0.0</coordinates>
            </LineString>
        </Placemark>
        <Placemark id="51578">
            <name>Jalan Jenderal Ahmad Yani</name>
            <styleUrl>#51579</styleUrl>
            <LineString id="51577">
                <coordinates>107.641865,-6.9094557,0.0 107.641886,-6.9094523,0.0 107.6419246,-6.9094416,0.0 107.6420289,-6.9093976,0.0 107.6421602,-6.9093246,0.0 107.6427522,-6.9090058,0.0 107.6430381,-6.9088519,0.0</coordinates>
            </LineString>
        </Placemark>
        <Placemark id="51582">
            <name>Jalan Pajajaran</name>
            <styleUrl>#51583</styleUrl>
            <LineString id="51581">
                <coordinates>107.601582,-6.9069752,0.0 107.6018374,-6.9069939,0.0 107.6022676,-6.9070278,0.0 107.6024088,-6.9070386,0.0 107.6028154,-6.9070698,0.0 107.6030906,-6.9070909,0.0 107.6042719,-6.9071615,0.0 107.6043341,-6.9071602,0.0 107.6043882,-6.9071529,0.0</coordinates>
            </LineString>
        </Placemark>
        <Placemark id="51586">
            <name>Route Segment</name>
            <styleUrl>#51587</styleUrl>
            <LineString id="51585">
                <coordinates>107.6437162,-6.9134484,0.0 107.6437754,-6.9135366,0.0 107.6438425,-6.9135721,0.0 107.6438887,-6.9135941,0.0 107.6439909,-6.9135964,0.0</coordinates>
            </LineString>
        </Placemark>
        <Placemark id="51590">
            <name>Jalan Terusan Jakarta</name>
            <styleUrl>#51591</styleUrl>
            <LineString id="51589">
                <coordinates>107.6475747,-6.9131451,0.0 107.6476921,-6.9131308,0.0</coordinates>
            </LineString>
        </Placemark>
        <Placemark id="51594">
            <name>Jalan Purwakarta</name>
            <styleUrl>#51595</styleUrl>
            <LineString id="51593">
                <coordinates>107.6591355,-6.9174008,0.0 107.6591977,-6.9174025,0.0</coordinates>
            </LineString>
        </Placemark>
        <Placemark id="51598">
            <name>Jalan Purwakarta</name>
            <styleUrl>#51599</styleUrl>
            <LineString id="51597">
                <coordinates>107.6591977,-6.9174025,0.0 107.6592266,-6.9174037,0.0 107.6599721,-6.9174367,0.0 107.6603586,-6.9174516,0.0 107.6603956,-6.917453,0.0 107.6604897,-6.9174583,0.0 107.6606673,-6.9174703,0.0 107.6607151,-6.9174748,0.0 107.6609947,-6.9174917,0.0 107.6611066,-6.9175005,0.0 107.661177,-6.9175124,0.0 107.6612216,-6.9175017,0.0 107.6612744,-6.9174841,0.0 107.6614652,-6.9173398,0.0 107.6615039,-6.9173068,0.0 107.6616718,-6.9171787,0.0 107.6619867,-6.916927,0.0</coordinates>
            </LineString>
        </Placemark>
        <Placemark id="51602">
            <name>Jalan Cibatu</name>
            <styleUrl>#51603</styleUrl>
            <LineString id="51601">
                <coordinates>107.6636353,-6.9172206,0.0 107.6636633,-6.9172021,0.0 107.6638688,-6.9170395,0.0 107.664087,-6.9168901,0.0 107.6645052,-6.9165695,0.0 107.6645923,-6.9165043,0.0 107.6647108,-6.9164166,0.0 107.6647953,-6.9163528,0.0 107.6653484,-6.9159206,0.0 107.6654081,-6.9158727,0.0 107.6654561,-6.9158164,0.0</coordinates>
            </LineString>
        </Placemark>
        <Placemark id="51606">
            <name>Jalan Cibatu</name>
            <styleUrl>#51607</styleUrl>
            <LineString id="51605">
                <coordinates>107.6636353,-6.9172206,0.0 107.6634793,-6.9173422,0.0</coordinates>
            </LineString>
        </Placemark>
        <Placemark id="51610">
            <name>Jalan Cibatu</name>
            <styleUrl>#51611</styleUrl>
            <LineString id="51609">
                <coordinates>107.6634642,-6.9173545,0.0 107.6627276,-6.9178987,0.0</coordinates>
            </LineString>
        </Placemark>
        <Placemark id="51614">
            <name>Jalan Wastukancana</name>
            <styleUrl>#51615</styleUrl>
            <LineString id="51613">
                <coordinates>107.604907,-6.904268,0.0 107.6050035,-6.9041885,0.0 107.6051531,-6.9040927,0.0 107.605225,-6.9040549,0.0 107.6052645,-6.9040341,0.0 107.605369,-6.9039986,0.0 107.6054495,-6.9039862,0.0 107.6055461,-6.9039795,0.0 107.6056396,-6.9039773,0.0 107.6058035,-6.9039995,0.0 107.6059967,-6.9040381,0.0 107.6061616,-6.9040807,0.0 107.606306,-6.9041384,0.0 107.6063615,-6.9041606,0.0 107.6065841,-6.9042698,0.0</coordinates>
            </LineString>
        </Placemark>
        <Placemark id="51618">
            <name>Jalan Jenderal Ahmad Yani</name>
            <styleUrl>#51619</styleUrl>
            <LineString id="51617">
                <coordinates>107.6311335,-6.9151604,0.0 107.6313219,-6.9150573,0.0 107.631392,-6.915019,0.0 107.6314854,-6.9149679,0.0 107.6316428,-6.9148818,0.0 107.6320747,-6.9146547,0.0 107.6322869,-6.9145432,0.0 107.6325601,-6.9143996,0.0 107.6327618,-6.9142935,0.0 107.6327884,-6.9142791,0.0 107.6328365,-6.9142566,0.0 107.6329881,-6.9141745,0.0 107.6332108,-6.9140574,0.0 107.6333413,-6.9139888,0.0</coordinates>
            </LineString>
        </Placemark>
        <Placemark id="51622">
            <name>Jalan Jenderal Ahmad Yani</name>
            <styleUrl>#51623</styleUrl>
            <LineString id="51621">
                <coordinates>107.6290208,-6.9162728,0.0 107.6289251,-6.9163216,0.0 107.6287077,-6.9164366,0.0 107.6286077,-6.9164897,0.0 107.6284319,-6.9165831,0.0 107.6281138,-6.9167518,0.0 107.6274434,-6.9171135,0.0</coordinates>
            </LineString>
        </Placemark>
        <Placemark id="51626">
            <name>Jalan Terusan Jakarta</name>
            <styleUrl>#51627</styleUrl>
            <LineString id="51625">
                <coordinates>107.651187,-6.9126895,0.0 107.6516305,-6.9126382,0.0 107.6518945,-6.9125989,0.0</coordinates>
            </LineString>
        </Placemark>
        <Placemark id="51630">
            <name>Jalan Kuningan</name>
            <styleUrl>#51631</styleUrl>
            <LineString id="51629">
                <coordinates>107.6619867,-6.916927,0.0 107.6623671,-6.9174298,0.0 107.6624718,-6.9175748,0.0 107.6625408,-6.9176667,0.0 107.6626119,-6.9177626,0.0 107.6626746,-6.9178348,0.0 107.6626991,-6.9178691,0.0 107.6627276,-6.9178987,0.0</coordinates>
            </LineString>
        </Placemark>
        <Placemark id="51634">
            <name>Jalan Subang</name>
            <styleUrl>#51635</styleUrl>
            <LineString id="51633">
                <coordinates>107.6551627,-6.912521,0.0 107.6551351,-6.912935,0.0 107.6550806,-6.9138293,0.0 107.655052,-6.9143921,0.0 107.6550155,-6.9147421,0.0 107.655,-6.9148126,0.0 107.6549919,-6.9148374,0.0</coordinates>
            </LineString>
        </Placemark>
        <Placemark id="51638">
            <name>Jalan Purwakarta</name>
            <styleUrl>#51639</styleUrl>
            <LineString id="51637">
                <coordinates>107.6591355,-6.9174008,0.0 107.6590955,-6.9174004,0.0 107.6585042,-6.9173735,0.0 107.6584676,-6.9173721,0.0 107.657555,-6.9173304,0.0 107.6570184,-6.9173067,0.0 107.6563666,-6.9172779,0.0 107.6562732,-6.9172738,0.0 107.6560398,-6.9172635,0.0 107.6559513,-6.9172249,0.0 107.655734,-6.9170923,0.0 107.6555204,-6.9169619,0.0</coordinates>
            </LineString>
        </Placemark>
        <Placemark id="51642">
            <name>Jalan H. Ibrahim Adjie</name>
            <styleUrl>#51643</styleUrl>
            <LineString id="51641">
                <coordinates>107.6433703,-6.9099716,0.0 107.6434142,-6.9104391,0.0 107.6434287,-6.9105814,0.0 107.6434818,-6.9111241,0.0 107.6434906,-6.9112086,0.0 107.6435055,-6.9113592,0.0</coordinates>
            </LineString>
        </Placemark>
        <Placemark id="51646">
            <name>Jalan Terusan Jakarta</name>
            <styleUrl>#51647</styleUrl>
            <LineString id="51645">
                <coordinates>107.6518945,-6.9125989,0.0 107.6520413,-6.9125783,0.0</coordinates>
            </LineString>
        </Placemark>
        <Placemark id="51650">
            <name>Jalan Terusan Jakarta</name>
            <styleUrl>#51651</styleUrl>
            <LineString id="51649">
                <coordinates>107.6520413,-6.9125783,0.0 107.6527713,-6.9124901,0.0 107.6532925,-6.9124272,0.0 107.6535159,-6.9124038,0.0 107.6538136,-6.9123839,0.0 107.6540959,-6.9123753,0.0 107.6551641,-6.9124405,0.0</coordinates>
            </LineString>
        </Placemark>
        <Placemark id="51654">
            <name>Jalan Pajajaran</name>
            <styleUrl>#51655</styleUrl>
            <LineString id="51653">
                <coordinates>107.588219,-6.9067739,0.0 107.5883657,-6.9067835,0.0 107.5886607,-6.9068062,0.0 107.5888263,-6.9068235,0.0 107.5889202,-6.9068354,0.0 107.5889933,-6.9068461,0.0 107.5891215,-6.9068588,0.0 107.5898536,-6.90694,0.0 107.5902634,-6.9069819,0.0 107.5905238,-6.9070045,0.0 107.5906468,-6.9070144,0.0</coordinates>
            </LineString>
        </Placemark>
        <Placemark id="51658">
            <name>Jalan Pajajaran</name>
            <styleUrl>#51659</styleUrl>
            <LineString id="51657">
                <coordinates>107.5876614,-6.906814,0.0 107.5877282,-6.9067939,0.0 107.5877685,-6.9067842,0.0</coordinates>
            </LineString>
        </Placemark>
        <Placemark id="51662">
            <name>Jalan Kalimantan</name>
            <styleUrl>#51663</styleUrl>
            <LineString id="51661">
                <coordinates>107.6137788,-6.9103556,0.0 107.613845,-6.9104133,0.0 107.6139066,-6.9105285,0.0</coordinates>
            </LineString>
        </Placemark>
        <Placemark id="51666">
            <name>Jalan Pajajaran</name>
            <styleUrl>#51667</styleUrl>
            <LineString id="51665">
                <coordinates>107.5959262,-6.9065893,0.0 107.5952568,-6.9066609,0.0 107.595037,-6.9066943,0.0 107.5945793,-6.9067595,0.0 107.5945435,-6.9067649,0.0 107.5942472,-6.906822,0.0 107.5941987,-6.9068309,0.0 107.594084,-6.9068527,0.0 107.5937537,-6.9069123,0.0 107.5936226,-6.9069359,0.0 107.5930436,-6.9070358,0.0</coordinates>
            </LineString>
        </Placemark>
        <Placemark id="51670">
            <name>Jalan Pajajaran</name>
            <styleUrl>#51671</styleUrl>
            <LineString id="51669">
                <coordinates>107.5920701,-6.9071489,0.0 107.5918373,-6.9071242,0.0 107.5916612,-6.9071113,0.0 107.5915994,-6.9071068,0.0 107.5913085,-6.9070897,0.0 107.5911224,-6.9070825,0.0</coordinates>
            </LineString>
        </Placemark>
        <Placemark id="51674">
            <name>Jalan Pajajaran</name>
            <styleUrl>#51675</styleUrl>
            <LineString id="51673">
                <coordinates>107.5876926,-6.9068803,0.0 107.5876614,-6.906814,0.0</coordinates>
            </LineString>
        </Placemark>
        <Placemark id="51678">
            <name>Jalan Pajajaran</name>
            <styleUrl>#51679</styleUrl>
            <LineString id="51677">
                <coordinates>107.5877524,-6.9068648,0.0 107.5876926,-6.9068803,0.0</coordinates>
            </LineString>
        </Placemark>
        <Placemark id="51682">
            <name>Jalan Jenderal Ahmad Yani</name>
            <styleUrl>#51683</styleUrl>
            <LineString id="51681">
                <coordinates>107.6303085,-6.9155587,0.0 107.6310417,-6.9151604,0.0 107.6311335,-6.9151604,0.0</coordinates>
            </LineString>
        </Placemark>
        <Placemark id="51686">
            <name>Jalan Jenderal Ahmad Yani</name>
            <styleUrl>#51687</styleUrl>
            <LineString id="51685">
                <coordinates>107.6290208,-6.9162728,0.0 107.6290835,-6.9162058,0.0 107.6296368,-6.9159071,0.0</coordinates>
            </LineString>
        </Placemark>
        <Placemark id="51690">
            <name>Jalan Jenderal Ahmad Yani</name>
            <styleUrl>#51691</styleUrl>
            <LineString id="51689">
                <coordinates>107.6273307,-6.9171455,0.0 107.6273756,-6.9171259,0.0 107.6274434,-6.9171135,0.0</coordinates>
            </LineString>
        </Placemark>
        <Placemark id="51694">
            <name>Jalan H. Ibrahim Adjie</name>
            <styleUrl>#51695</styleUrl>
            <LineString id="51693">
                <coordinates>107.6436422,-6.9130175,0.0 107.6436753,-6.9130915,0.0 107.6437162,-6.9134484,0.0</coordinates>
            </LineString>
        </Placemark>
        <Placemark id="51698">
            <name>Jalan Subang</name>
            <styleUrl>#51699</styleUrl>
            <LineString id="51697">
                <coordinates>107.6549689,-6.9148878,0.0 107.6548107,-6.9151758,0.0 107.6546119,-6.9154864,0.0 107.654416,-6.9158215,0.0 107.6542065,-6.9161598,0.0</coordinates>
            </LineString>
        </Placemark>
        <Placemark id="51702">
            <name>Jalan Subang</name>
            <styleUrl>#51703</styleUrl>
            <LineString id="51701">
                <coordinates>107.6549919,-6.9148374,0.0 107.6549689,-6.9148878,0.0</coordinates>
            </LineString>
        </Placemark>
        <Placemark id="51706">
            <name>Route Segment</name>
            <styleUrl>#51707</styleUrl>
            <LineString id="51705">
                <coordinates>107.6655035,-6.9157094,0.0 107.6656803,-6.9157443,0.0 107.6657142,-6.915739,0.0 107.665738,-6.9157296,0.0 107.6657622,-6.9157097,0.0 107.6658617,-6.9154713,0.0</coordinates>
            </LineString>
        </Placemark>
        <Placemark id="51710">
            <name>Jalan Cibatu</name>
            <styleUrl>#51711</styleUrl>
            <LineString id="51709">
                <coordinates>107.6634642,-6.9173545,0.0 107.6634793,-6.9173422,0.0</coordinates>
            </LineString>
        </Placemark>
        <Placemark id="51714">
            <name>Jalan Purwakarta</name>
            <styleUrl>#51715</styleUrl>
            <LineString id="51713">
                <coordinates>107.6542065,-6.9161598,0.0 107.6546575,-6.9164351,0.0 107.6548801,-6.9165709,0.0 107.6550268,-6.9166605,0.0 107.6555204,-6.9169619,0.0</coordinates>
            </LineString>
        </Placemark>
        <Placemark id="51718">
            <name>Jalan Jenderal Ahmad Yani</name>
            <styleUrl>#51719</styleUrl>
            <LineString id="51717">
                <coordinates>107.6337931,-6.9136907,0.0 107.6341252,-6.9135115,0.0 107.6341698,-6.91349,0.0 107.6342542,-6.9134469,0.0</coordinates>
            </LineString>
        </Placemark>
        <Placemark id="51722">
            <name>Jalan Pajajaran</name>
            <styleUrl>#51723</styleUrl>
            <LineString id="51721">
                <coordinates>107.5959262,-6.9065893,0.0 107.5960029,-6.9065331,0.0 107.5960368,-6.9065206,0.0 107.596056,-6.9065146,0.0 107.596066,-6.9065114,0.0 107.5962889,-6.9064673,0.0</coordinates>
            </LineString>
        </Placemark>
        <Placemark id="51726">
            <name>Jalan Terusan Jakarta</name>
            <styleUrl>#51727</styleUrl>
            <LineString id="51725">
                <coordinates>107.6476921,-6.9131308,0.0 107.6477293,-6.9131261,0.0 107.6486808,-6.913006,0.0 107.6487403,-6.9129985,0.0 107.6491094,-6.9129518,0.0 107.6492213,-6.9129363,0.0 107.6494016,-6.9129145,0.0 107.6495005,-6.9129025,0.0 107.6496503,-6.9128835,0.0 107.6497399,-6.9128722,0.0 107.6499216,-6.9128493,0.0 107.6502276,-6.9128106,0.0 107.6504914,-6.9127773,0.0 107.6507427,-6.9127456,0.0 107.651187,-6.9126895,0.0</coordinates>
            </LineString>
        </Placemark>
        <Placemark id="51730">
            <name>Jalan Pajajaran</name>
            <styleUrl>#51731</styleUrl>
            <LineString id="51729">
                <coordinates>107.5987941,-6.906746,0.0 107.5992067,-6.9068065,0.0 107.599567,-6.9068341,0.0</coordinates>
            </LineString>
        </Placemark>
        <Placemark id="51734">
            <name>Jalan Aceh</name>
            <styleUrl>#51735</styleUrl>
            <LineString id="51733">
                <coordinates>107.6088855,-6.9102984,0.0 107.6089872,-6.9102881,0.0 107.6090327,-6.910287,0.0 107.6091344,-6.9102886,0.0 107.6092148,-6.9103044,0.0</coordinates>
            </LineString>
        </Placemark>
        <Placemark id="51738">
            <name>Jalan Pajajaran</name>
            <styleUrl>#51739</styleUrl>
            <LineString id="51737">
                <coordinates>107.6043882,-6.9071529,0.0 107.604396,-6.9071341,0.0 107.6044099,-6.9071192,0.0 107.6044282,-6.9071102,0.0</coordinates>
            </LineString>
        </Placemark>
        <Placemark id="51742">
            <name>Jalan Pajajaran</name>
            <styleUrl>#51743</styleUrl>
            <LineString id="51741">
                <coordinates>107.5877897,-6.9068561,0.0 107.5877524,-6.9068648,0.0</coordinates>
            </LineString>
        </Placemark>
        <Placemark id="51746">
            <name>Jalan Pajajaran</name>
            <styleUrl>#51747</styleUrl>
            <LineString id="51745">
                <coordinates>107.5906651,-6.9070158,0.0 107.5909034,-6.907037,0.0 107.5909941,-6.907047,0.0 107.5911224,-6.9070825,0.0</coordinates>
            </LineString>
        </Placemark>
        <Placemark id="51750">
            <name>Jalan Pajajaran</name>
            <styleUrl>#51751</styleUrl>
            <LineString id="51749">
                <coordinates>107.5906468,-6.9070144,0.0 107.5906651,-6.9070158,0.0</coordinates>
            </LineString>
        </Placemark>
        <Placemark id="51754">
            <name>Jalan Wastukancana</name>
            <styleUrl>#51755</styleUrl>
            <LineString id="51753">
                <coordinates>107.607556,-6.9054463,0.0 107.6075644,-6.9054686,0.0</coordinates>
            </LineString>
        </Placemark>
        <Placemark id="51758">
            <name>Jalan Aceh</name>
            <styleUrl>#51759</styleUrl>
            <LineString id="51757">
                <coordinates>107.6105905,-6.9098058,0.0 107.610654,-6.909795,0.0</coordinates>
            </LineString>
        </Placemark>
        <Placemark id="51762">
            <name>Jalan Terusan Jakarta</name>
            <styleUrl>#51763</styleUrl>
            <LineString id="51761">
                <coordinates>107.6452794,-6.913432,0.0 107.6453263,-6.9134331,0.0</coordinates>
            </LineString>
        </Placemark>
        <Placemark id="51766">
            <name>Jalan Jenderal Ahmad Yani</name>
            <styleUrl>#51767</styleUrl>
            <LineString id="51765">
                <coordinates>107.6333413,-6.9139888,0.0 107.6333677,-6.9139334,0.0 107.6333958,-6.9139024,0.0 107.6334392,-6.9138763,0.0 107.6337931,-6.9136907,0.0</coordinates>
            </LineString>
        </Placemark>
        <Placemark id="51770">
            <name>Jalan Aceh</name>
            <styleUrl>#51771</styleUrl>
            <LineString id="51769">
                <coordinates>107.6121344,-6.9097777,0.0 107.6122207,-6.9097673,0.0 107.6122697,-6.9097633,0.0 107.6123913,-6.909767,0.0</coordinates>
            </LineString>
        </Placemark>
        <Placemark id="51774">
            <name>Jalan H. Ibrahim Adjie</name>
            <styleUrl>#51775</styleUrl>
            <LineString id="51773">
                <coordinates>107.6433224,-6.9094595,0.0 107.6433364,-6.9096111,0.0 107.6433703,-6.9099716,0.0</coordinates>
            </LineString>
        </Placemark>
        <Placemark id="51778">
            <name>Jalan Wastukancana</name>
            <styleUrl>#51779</styleUrl>
            <LineString id="51777">
                <coordinates>107.6047378,-6.9043028,0.0 107.604907,-6.904268,0.0</coordinates>
            </LineString>
        </Placemark>
        <Placemark id="51782">
            <name>Jalan Wastukancana</name>
            <styleUrl>#51783</styleUrl>
            <LineString id="51781">
                <coordinates>107.6044854,-6.9043711,0.0 107.6045924,-6.9043527,0.0 107.6046179,-6.9043488,0.0 107.6047378,-6.9043028,0.0</coordinates>
            </LineString>
        </Placemark>
        <Placemark id="51786">
            <name>Jalan Wastukancana</name>
            <styleUrl>#51787</styleUrl>
            <LineString id="51785">
                <coordinates>107.6044157,-6.9044676,0.0 107.6044268,-6.9044278,0.0 107.6044511,-6.9043943,0.0 107.6044854,-6.9043711,0.0</coordinates>
            </LineString>
        </Placemark>
        <Placemark id="51790">
            <name>Jalan Wastukancana</name>
            <styleUrl>#51791</styleUrl>
            <LineString id="51789">
                <coordinates>107.6074587,-6.9052269,0.0 107.607556,-6.9054463,0.0</coordinates>
            </LineString>
        </Placemark>
        <Placemark id="51794">
            <name>Jalan Jenderal Ahmad Yani</name>
            <styleUrl>#51795</styleUrl>
            <LineString id="51793">
                <coordinates>107.6300393,-6.9157014,0.0 107.630088,-6.9156756,0.0 107.6303085,-6.9155587,0.0</coordinates>
            </LineString>
        </Placemark>
        <Placemark id="51798">
            <name>Jalan Aceh</name>
            <styleUrl>#51799</styleUrl>
            <LineString id="51797">
                <coordinates>107.6123913,-6.909767,0.0 107.612472,-6.9097787,0.0 107.6126151,-6.9098105,0.0</coordinates>
            </LineString>
        </Placemark>
        <Placemark id="51802">
            <name>Jalan Pajajaran</name>
            <styleUrl>#51803</styleUrl>
            <LineString id="51801">
                <coordinates>107.5930436,-6.9070358,0.0 107.592893,-6.9070548,0.0 107.5928538,-6.9070598,0.0 107.5926825,-6.9070846,0.0 107.5925401,-6.9070991,0.0 107.5923942,-6.9071118,0.0 107.592239,-6.9071272,0.0 107.5920701,-6.9071489,0.0</coordinates>
            </LineString>
        </Placemark>
        <Placemark id="51806">
            <name>Jalan Wastukancana</name>
            <styleUrl>#51807</styleUrl>
            <LineString id="51805">
                <coordinates>107.6076853,-6.905845,0.0 107.6077246,-6.9060495,0.0</coordinates>
            </LineString>
        </Placemark>
        <Placemark id="51810">
            <name>Jalan Pajajaran</name>
            <styleUrl>#51811</styleUrl>
            <LineString id="51809">
                <coordinates>107.5877685,-6.9067842,0.0 107.5878368,-6.9067717,0.0 107.5878467,-6.9067699,0.0 107.5879251,-6.9067629,0.0 107.5879557,-6.9067619,0.0 107.5880056,-6.9067602,0.0 107.5881625,-6.9067702,0.0 107.588219,-6.9067739,0.0</coordinates>
            </LineString>
        </Placemark>
        <Placemark id="51814">
            <name>Jalan Pajajaran</name>
            <styleUrl>#51815</styleUrl>
            <LineString id="51813">
                <coordinates>107.588209,-6.9068423,0.0 107.5881464,-6.9068364,0.0 107.5880555,-6.9068315,0.0 107.5879978,-6.9068303,0.0 107.5879768,-6.9068298,0.0 107.5879555,-6.9068304,0.0 107.5879312,-6.9068311,0.0 107.5878886,-6.9068344,0.0 107.5878356,-6.9068448,0.0 107.5877897,-6.9068561,0.0</coordinates>
            </LineString>
        </Placemark>
        <Placemark id="51818">
            <name>Jalan Pajajaran</name>
            <styleUrl>#51819</styleUrl>
            <LineString id="51817">
                <coordinates>107.5975495,-6.9063779,0.0 107.5975809,-6.9063901,0.0 107.5976087,-6.9064051,0.0 107.5976387,-6.9064293,0.0</coordinates>
            </LineString>
        </Placemark>
        <Placemark id="51822">
            <name>Jalan Wastukancana</name>
            <styleUrl>#51823</styleUrl>
            <LineString id="51821">
                <coordinates>107.6070138,-6.9046,0.0 107.6071411,-6.9047305,0.0</coordinates>
            </LineString>
        </Placemark>
        <Placemark id="51826">
            <name>Jalan Wastukancana</name>
            <styleUrl>#51827</styleUrl>
            <LineString id="51825">
                <coordinates>107.6071411,-6.9047305,0.0 107.607265,-6.9048943,0.0 107.607283,-6.9049195,0.0 107.6074067,-6.905129,0.0 107.6074587,-6.9052269,0.0</coordinates>
            </LineString>
        </Placemark>
        <Placemark id="51830">
            <name>Jalan Wastukancana</name>
            <styleUrl>#51831</styleUrl>
            <LineString id="51829">
                <coordinates>107.6069187,-6.9045127,0.0 107.6070138,-6.9046,0.0</coordinates>
            </LineString>
        </Placemark>
        <Placemark id="51834">
            <name>Jalan Wastukancana</name>
            <styleUrl>#51835</styleUrl>
            <LineString id="51833">
                <coordinates>107.6065841,-6.9042698,0.0 107.6067222,-6.904359,0.0 107.6068568,-6.9044553,0.0 107.6069187,-6.9045127,0.0</coordinates>
            </LineString>
        </Placemark>
        <Placemark id="51838">
            <name>Jalan Cibatu</name>
            <styleUrl>#51839</styleUrl>
            <LineString id="51837">
                <coordinates>107.6654561,-6.9158164,0.0 107.6654841,-6.9157646,0.0 107.6655035,-6.9157094,0.0</coordinates>
            </LineString>
        </Placemark>
        <Placemark id="51842">
            <name>Route Segment</name>
            <styleUrl>#51843</styleUrl>
            <LineString id="51841">
                <coordinates>107.6658617,-6.9154713,0.0 107.6659285,-6.915304,0.0</coordinates>
            </LineString>
        </Placemark>
        <Placemark id="51846">
            <name>Jalan Purnawarman</name>
            <styleUrl>#51847</styleUrl>
            <LineString id="51845">
                <coordinates>107.6093359,-6.9068089,0.0 107.6093419,-6.9069882,0.0 107.6093518,-6.9074781,0.0 107.6093559,-6.9075881,0.0 107.609369,-6.9079424,0.0 107.6093694,-6.90798,0.0 107.6093716,-6.9080529,0.0 107.6093728,-6.9080931,0.0 107.6093744,-6.9081456,0.0</coordinates>
            </LineString>
        </Placemark>
        <Placemark id="51850">
            <name>Jalan Gudang Utara</name>
            <styleUrl>#51851</styleUrl>
            <LineString id="51849">
                <coordinates>107.6191903,-6.9151802,0.0 107.6193043,-6.9152077,0.0 107.6193915,-6.9152288,0.0 107.6194468,-6.9152422,0.0 107.6196923,-6.9153016,0.0</coordinates>
            </LineString>
        </Placemark>
        <Placemark id="51854">
            <name>Jalan Gudang Utara</name>
            <styleUrl>#51855</styleUrl>
            <LineString id="51853">
                <coordinates>107.6196923,-6.9153016,0.0 107.6210127,-6.9156209,0.0</coordinates>
            </LineString>
        </Placemark>
        <Placemark id="51858">
            <name>Jalan Gudang Utara</name>
            <styleUrl>#51859</styleUrl>
            <LineString id="51857">
                <coordinates>107.6210127,-6.9156209,0.0 107.6212044,-6.9156673,0.0</coordinates>
            </LineString>
        </Placemark>
        <Placemark id="51862">
            <name>Jalan Gudang Utara</name>
            <styleUrl>#51863</styleUrl>
            <LineString id="51861">
                <coordinates>107.6212044,-6.9156673,0.0 107.621498,-6.9157384,0.0</coordinates>
            </LineString>
        </Placemark>
        <Placemark id="51866">
            <name>Jalan Gudang Utara</name>
            <styleUrl>#51867</styleUrl>
            <LineString id="51865">
                <coordinates>107.621498,-6.9157384,0.0 107.6221708,-6.9159011,0.0</coordinates>
            </LineString>
        </Placemark>
        <Placemark id="51870">
            <name>Jalan Gudang Utara</name>
            <styleUrl>#51871</styleUrl>
            <LineString id="51869">
                <coordinates>107.6221708,-6.9159011,0.0 107.6222472,-6.9159196,0.0</coordinates>
            </LineString>
        </Placemark>
        <Placemark id="51874">
            <name>Jalan Gudang Utara</name>
            <styleUrl>#51875</styleUrl>
            <LineString id="51873">
                <coordinates>107.6222472,-6.9159196,0.0 107.6225707,-6.9159978,0.0</coordinates>
            </LineString>
        </Placemark>
        <Placemark id="51878">
            <name>Jalan Gudang Utara</name>
            <styleUrl>#51879</styleUrl>
            <LineString id="51877">
                <coordinates>107.6225707,-6.9159978,0.0 107.6226711,-6.9160221,0.0</coordinates>
            </LineString>
        </Placemark>
        <Placemark id="51882">
            <name>Jalan Gudang Utara</name>
            <styleUrl>#51883</styleUrl>
            <LineString id="51881">
                <coordinates>107.6226711,-6.9160221,0.0 107.6229727,-6.916095,0.0</coordinates>
            </LineString>
        </Placemark>
        <Placemark id="51886">
            <name>Jalan Gudang Utara</name>
            <styleUrl>#51887</styleUrl>
            <LineString id="51885">
                <coordinates>107.6229727,-6.916095,0.0 107.6234972,-6.9162219,0.0</coordinates>
            </LineString>
        </Placemark>
        <Placemark id="51890">
            <name>Jalan Gudang Utara</name>
            <styleUrl>#51891</styleUrl>
            <LineString id="51889">
                <coordinates>107.6234972,-6.9162219,0.0 107.6238525,-6.9163079,0.0</coordinates>
            </LineString>
        </Placemark>
        <Placemark id="51894">
            <name>Jalan Gudang Utara</name>
            <styleUrl>#51895</styleUrl>
            <LineString id="51893">
                <coordinates>107.6238525,-6.9163079,0.0 107.6244453,-6.9164512,0.0</coordinates>
            </LineString>
        </Placemark>
        <Placemark id="51898">
            <name>Jalan Gudang Utara</name>
            <styleUrl>#51899</styleUrl>
            <LineString id="51897">
                <coordinates>107.6244453,-6.9164512,0.0 107.6255424,-6.9167166,0.0</coordinates>
            </LineString>
        </Placemark>
        <Placemark id="51902">
            <name>Jalan Gudang Utara</name>
            <styleUrl>#51903</styleUrl>
            <LineString id="51901">
                <coordinates>107.6255424,-6.9167166,0.0 107.6259467,-6.9168185,0.0</coordinates>
            </LineString>
        </Placemark>
        <Placemark id="51906">
            <name>Jalan Gudang Utara</name>
            <styleUrl>#51907</styleUrl>
            <LineString id="51905">
                <coordinates>107.6259467,-6.9168185,0.0 107.6262609,-6.9168904,0.0</coordinates>
            </LineString>
        </Placemark>
        <Placemark id="51910">
            <name>Jalan Gudang Utara</name>
            <styleUrl>#51911</styleUrl>
            <LineString id="51909">
                <coordinates>107.6262609,-6.9168904,0.0 107.6266404,-6.9169823,0.0</coordinates>
            </LineString>
        </Placemark>
        <Placemark id="51914">
            <name>Jalan Gudang Utara</name>
            <styleUrl>#51915</styleUrl>
            <LineString id="51913">
                <coordinates>107.6266404,-6.9169823,0.0 107.6270406,-6.917079,0.0</coordinates>
            </LineString>
        </Placemark>
        <Placemark id="51918">
            <name>Jalan Gudang Utara</name>
            <styleUrl>#51919</styleUrl>
            <LineString id="51917">
                <coordinates>107.6270406,-6.917079,0.0 107.6273307,-6.9171455,0.0</coordinates>
            </LineString>
        </Placemark>
        <Placemark id="51922">
            <name>Jalan Pajajaran</name>
            <styleUrl>#51923</styleUrl>
            <LineString id="51921">
                <coordinates>107.599567,-6.9068341,0.0 107.5998642,-6.9068525,0.0</coordinates>
            </LineString>
        </Placemark>
        <Placemark id="51926">
            <name>Jalan Pajajaran</name>
            <styleUrl>#51927</styleUrl>
            <LineString id="51925">
                <coordinates>107.5998642,-6.9068525,0.0 107.6000477,-6.9068645,0.0 107.6001281,-6.9068699,0.0 107.6004436,-6.9068911,0.0 107.6006155,-6.9069026,0.0</coordinates>
            </LineString>
        </Placemark>
        <Placemark id="51930">
            <name>Jalan Pajajaran</name>
            <styleUrl>#51931</styleUrl>
            <LineString id="51929">
                <coordinates>107.6006155,-6.9069026,0.0 107.6008643,-6.9069205,0.0</coordinates>
            </LineString>
        </Placemark>
        <Placemark id="51934">
            <name>Jalan Pajajaran</name>
            <styleUrl>#51935</styleUrl>
            <LineString id="51933">
                <coordinates>107.6008643,-6.9069205,0.0 107.6009527,-6.906927,0.0 107.6011922,-6.9069453,0.0</coordinates>
            </LineString>
        </Placemark>
        <Placemark id="51938">
            <name>Jalan Pajajaran</name>
            <styleUrl>#51939</styleUrl>
            <LineString id="51937">
                <coordinates>107.6011922,-6.9069453,0.0 107.6012851,-6.9069524,0.0 107.601582,-6.9069752,0.0</coordinates>
            </LineString>
        </Placemark>
        <Placemark id="51942">
            <name>Jalan Jenderal Ahmad Yani</name>
            <styleUrl>#51943</styleUrl>
            <LineString id="51941">
                <coordinates>107.6373187,-6.9118909,0.0 107.6374263,-6.9118346,0.0</coordinates>
            </LineString>
        </Placemark>
        <Placemark id="51946">
            <name>Jalan Jenderal Ahmad Yani</name>
            <styleUrl>#51947</styleUrl>
            <LineString id="51945">
                <coordinates>107.6346004,-6.9133622,0.0 107.6348701,-6.9132101,0.0 107.6350944,-6.9130848,0.0 107.6360221,-6.9125878,0.0 107.6362555,-6.9124665,0.0 107.6363636,-6.912405,0.0 107.6365694,-6.9123013,0.0 107.6367997,-6.9121741,0.0 107.6368611,-6.91214,0.0 107.6370716,-6.9120251,0.0 107.6372585,-6.9119218,0.0 107.6373187,-6.9118909,0.0</coordinates>
            </LineString>
        </Placemark>
    </Document>
</kml>
