<?xml version="1.0" encoding="UTF-8"?>
<kml xmlns="http://www.opengis.net/kml/2.2" xmlns:gx="http://www.google.com/kml/ext/2.2">
    <Document id="50916">
        <Style id="50922">
            <IconStyle id="50923">
                <colorMode>normal</colorMode>
                <scale>1</scale>
                <heading>0</heading>
                <Icon id="50924">
                    <href>http://maps.google.com/mapfiles/kml/pushpin/ylw-pushpin.png</href>
                </Icon>
            </IconStyle>
        </Style>
        <Style id="50927">
            <IconStyle id="50928">
                <colorMode>normal</colorMode>
                <scale>1</scale>
                <heading>0</heading>
                <Icon id="50929">
                    <href>http://maps.google.com/mapfiles/kml/pushpin/ylw-pushpin.png</href>
                </Icon>
            </IconStyle>
        </Style>
        <Style id="50932">
            <LineStyle id="50933">
                <color>ff9BB5C2</color>
                <colorMode>normal</colorMode>
                <width>4</width>
            </LineStyle>
        </Style>
        <Style id="50936">
            <LineStyle id="50937">
                <color>ff9BB5C2</color>
                <colorMode>normal</colorMode>
                <width>4</width>
            </LineStyle>
        </Style>
        <Style id="50940">
            <LineStyle id="50941">
                <color>ff9BB5C2</color>
                <colorMode>normal</colorMode>
                <width>4</width>
            </LineStyle>
        </Style>
        <Style id="50944">
            <LineStyle id="50945">
                <color>ff9BB5C2</color>
                <colorMode>normal</colorMode>
                <width>4</width>
            </LineStyle>
        </Style>
        <Style id="50948">
            <LineStyle id="50949">
                <color>ff9BB5C2</color>
                <colorMode>normal</colorMode>
                <width>4</width>
            </LineStyle>
        </Style>
        <Style id="50952">
            <LineStyle id="50953">
                <color>ff9BB5C2</color>
                <colorMode>normal</colorMode>
                <width>4</width>
            </LineStyle>
        </Style>
        <Style id="50956">
            <LineStyle id="50957">
                <color>ff9BB5C2</color>
                <colorMode>normal</colorMode>
                <width>4</width>
            </LineStyle>
        </Style>
        <Style id="50960">
            <LineStyle id="50961">
                <color>ff9BB5C2</color>
                <colorMode>normal</colorMode>
                <width>4</width>
            </LineStyle>
        </Style>
        <Style id="50964">
            <LineStyle id="50965">
                <color>ff9BB5C2</color>
                <colorMode>normal</colorMode>
                <width>4</width>
            </LineStyle>
        </Style>
        <Style id="50968">
            <LineStyle id="50969">
                <color>ff9BB5C2</color>
                <colorMode>normal</colorMode>
                <width>4</width>
            </LineStyle>
        </Style>
        <Style id="50972">
            <LineStyle id="50973">
                <color>ff9BB5C2</color>
                <colorMode>normal</colorMode>
                <width>4</width>
            </LineStyle>
        </Style>
        <Style id="50976">
            <LineStyle id="50977">
                <color>ff9BB5C2</color>
                <colorMode>normal</colorMode>
                <width>4</width>
            </LineStyle>
        </Style>
        <Style id="50980">
            <LineStyle id="50981">
                <color>ff9BB5C2</color>
                <colorMode>normal</colorMode>
                <width>4</width>
            </LineStyle>
        </Style>
        <Style id="50984">
            <LineStyle id="50985">
                <color>ff9BB5C2</color>
                <colorMode>normal</colorMode>
                <width>4</width>
            </LineStyle>
        </Style>
        <Style id="50988">
            <LineStyle id="50989">
                <color>ff9BB5C2</color>
                <colorMode>normal</colorMode>
                <width>4</width>
            </LineStyle>
        </Style>
        <Style id="50992">
            <LineStyle id="50993">
                <color>ff9BB5C2</color>
                <colorMode>normal</colorMode>
                <width>4</width>
            </LineStyle>
        </Style>
        <Style id="50996">
            <LineStyle id="50997">
                <color>ff9BB5C2</color>
                <colorMode>normal</colorMode>
                <width>4</width>
            </LineStyle>
        </Style>
        <Style id="51000">
            <LineStyle id="51001">
                <color>ff9BB5C2</color>
                <colorMode>normal</colorMode>
                <width>4</width>
            </LineStyle>
        </Style>
        <Style id="51004">
            <LineStyle id="51005">
                <color>ff9BB5C2</color>
                <colorMode>normal</colorMode>
                <width>4</width>
            </LineStyle>
        </Style>
        <Style id="51008">
            <LineStyle id="51009">
                <color>ff9BB5C2</color>
                <colorMode>normal</colorMode>
                <width>4</width>
            </LineStyle>
        </Style>
        <Style id="51012">
            <LineStyle id="51013">
                <color>ff9BB5C2</color>
                <colorMode>normal</colorMode>
                <width>4</width>
            </LineStyle>
        </Style>
        <Style id="51016">
            <LineStyle id="51017">
                <color>ff9BB5C2</color>
                <colorMode>normal</colorMode>
                <width>4</width>
            </LineStyle>
        </Style>
        <Style id="51020">
            <LineStyle id="51021">
                <color>ff9BB5C2</color>
                <colorMode>normal</colorMode>
                <width>4</width>
            </LineStyle>
        </Style>
        <Style id="51024">
            <LineStyle id="51025">
                <color>ff9BB5C2</color>
                <colorMode>normal</colorMode>
                <width>4</width>
            </LineStyle>
        </Style>
        <Style id="51028">
            <LineStyle id="51029">
                <color>ff9BB5C2</color>
                <colorMode>normal</colorMode>
                <width>4</width>
            </LineStyle>
        </Style>
        <Style id="51032">
            <LineStyle id="51033">
                <color>ff9BB5C2</color>
                <colorMode>normal</colorMode>
                <width>4</width>
            </LineStyle>
        </Style>
        <Style id="51036">
            <LineStyle id="51037">
                <color>ff9BB5C2</color>
                <colorMode>normal</colorMode>
                <width>4</width>
            </LineStyle>
        </Style>
        <Style id="51040">
            <LineStyle id="51041">
                <color>ff9BB5C2</color>
                <colorMode>normal</colorMode>
                <width>4</width>
            </LineStyle>
        </Style>
        <Style id="51044">
            <LineStyle id="51045">
                <color>ff9BB5C2</color>
                <colorMode>normal</colorMode>
                <width>4</width>
            </LineStyle>
        </Style>
        <Style id="51048">
            <LineStyle id="51049">
                <color>ff9BB5C2</color>
                <colorMode>normal</colorMode>
                <width>4</width>
            </LineStyle>
        </Style>
        <Style id="51052">
            <LineStyle id="51053">
                <color>ff9BB5C2</color>
                <colorMode>normal</colorMode>
                <width>4</width>
            </LineStyle>
        </Style>
        <Style id="51056">
            <LineStyle id="51057">
                <color>ff9BB5C2</color>
                <colorMode>normal</colorMode>
                <width>4</width>
            </LineStyle>
        </Style>
        <Style id="51060">
            <LineStyle id="51061">
                <color>ff9BB5C2</color>
                <colorMode>normal</colorMode>
                <width>4</width>
            </LineStyle>
        </Style>
        <Style id="51064">
            <LineStyle id="51065">
                <color>ff9BB5C2</color>
                <colorMode>normal</colorMode>
                <width>4</width>
            </LineStyle>
        </Style>
        <Style id="51068">
            <LineStyle id="51069">
                <color>ff9BB5C2</color>
                <colorMode>normal</colorMode>
                <width>4</width>
            </LineStyle>
        </Style>
        <Style id="51072">
            <LineStyle id="51073">
                <color>ff9BB5C2</color>
                <colorMode>normal</colorMode>
                <width>4</width>
            </LineStyle>
        </Style>
        <Style id="51076">
            <LineStyle id="51077">
                <color>ff9BB5C2</color>
                <colorMode>normal</colorMode>
                <width>4</width>
            </LineStyle>
        </Style>
        <Style id="51080">
            <LineStyle id="51081">
                <color>ff9BB5C2</color>
                <colorMode>normal</colorMode>
                <width>4</width>
            </LineStyle>
        </Style>
        <Style id="51084">
            <LineStyle id="51085">
                <color>ff9BB5C2</color>
                <colorMode>normal</colorMode>
                <width>4</width>
            </LineStyle>
        </Style>
        <Style id="51088">
            <LineStyle id="51089">
                <color>ff9BB5C2</color>
                <colorMode>normal</colorMode>
                <width>4</width>
            </LineStyle>
        </Style>
        <Style id="51092">
            <LineStyle id="51093">
                <color>ff9BB5C2</color>
                <colorMode>normal</colorMode>
                <width>4</width>
            </LineStyle>
        </Style>
        <Style id="51096">
            <LineStyle id="51097">
                <color>ff9BB5C2</color>
                <colorMode>normal</colorMode>
                <width>4</width>
            </LineStyle>
        </Style>
        <Style id="51100">
            <LineStyle id="51101">
                <color>ff9BB5C2</color>
                <colorMode>normal</colorMode>
                <width>4</width>
            </LineStyle>
        </Style>
        <Style id="51104">
            <LineStyle id="51105">
                <color>ff9BB5C2</color>
                <colorMode>normal</colorMode>
                <width>4</width>
            </LineStyle>
        </Style>
        <Style id="51108">
            <LineStyle id="51109">
                <color>ff9BB5C2</color>
                <colorMode>normal</colorMode>
                <width>4</width>
            </LineStyle>
        </Style>
        <Style id="51112">
            <LineStyle id="51113">
                <color>ff9BB5C2</color>
                <colorMode>normal</colorMode>
                <width>4</width>
            </LineStyle>
        </Style>
        <Style id="51116">
            <LineStyle id="51117">
                <color>ff9BB5C2</color>
                <colorMode>normal</colorMode>
                <width>4</width>
            </LineStyle>
        </Style>
        <Style id="51120">
            <LineStyle id="51121">
                <color>ff9BB5C2</color>
                <colorMode>normal</colorMode>
                <width>4</width>
            </LineStyle>
        </Style>
        <Style id="51124">
            <LineStyle id="51125">
                <color>ff9BB5C2</color>
                <colorMode>normal</colorMode>
                <width>4</width>
            </LineStyle>
        </Style>
        <Style id="51128">
            <LineStyle id="51129">
                <color>ff9BB5C2</color>
                <colorMode>normal</colorMode>
                <width>4</width>
            </LineStyle>
        </Style>
        <Style id="51132">
            <LineStyle id="51133">
                <color>ff9BB5C2</color>
                <colorMode>normal</colorMode>
                <width>4</width>
            </LineStyle>
        </Style>
        <Style id="51136">
            <LineStyle id="51137">
                <color>ff9BB5C2</color>
                <colorMode>normal</colorMode>
                <width>4</width>
            </LineStyle>
        </Style>
        <Style id="51140">
            <LineStyle id="51141">
                <color>ff9BB5C2</color>
                <colorMode>normal</colorMode>
                <width>4</width>
            </LineStyle>
        </Style>
        <Style id="51144">
            <LineStyle id="51145">
                <color>ff9BB5C2</color>
                <colorMode>normal</colorMode>
                <width>4</width>
            </LineStyle>
        </Style>
        <Style id="51148">
            <LineStyle id="51149">
                <color>ff9BB5C2</color>
                <colorMode>normal</colorMode>
                <width>4</width>
            </LineStyle>
        </Style>
        <Style id="51152">
            <LineStyle id="51153">
                <color>ff9BB5C2</color>
                <colorMode>normal</colorMode>
                <width>4</width>
            </LineStyle>
        </Style>
        <Style id="51156">
            <LineStyle id="51157">
                <color>ff9BB5C2</color>
                <colorMode>normal</colorMode>
                <width>4</width>
            </LineStyle>
        </Style>
        <Style id="51160">
            <LineStyle id="51161">
                <color>ff9BB5C2</color>
                <colorMode>normal</colorMode>
                <width>4</width>
            </LineStyle>
        </Style>
        <Style id="51164">
            <LineStyle id="51165">
                <color>ff9BB5C2</color>
                <colorMode>normal</colorMode>
                <width>4</width>
            </LineStyle>
        </Style>
        <Style id="51168">
            <LineStyle id="51169">
                <color>ff9BB5C2</color>
                <colorMode>normal</colorMode>
                <width>4</width>
            </LineStyle>
        </Style>
        <Style id="51172">
            <LineStyle id="51173">
                <color>ff9BB5C2</color>
                <colorMode>normal</colorMode>
                <width>4</width>
            </LineStyle>
        </Style>
        <Style id="51176">
            <LineStyle id="51177">
                <color>ff9BB5C2</color>
                <colorMode>normal</colorMode>
                <width>4</width>
            </LineStyle>
        </Style>
        <Style id="51180">
            <LineStyle id="51181">
                <color>ff9BB5C2</color>
                <colorMode>normal</colorMode>
                <width>4</width>
            </LineStyle>
        </Style>
        <Style id="51184">
            <LineStyle id="51185">
                <color>ff9BB5C2</color>
                <colorMode>normal</colorMode>
                <width>4</width>
            </LineStyle>
        </Style>
        <Style id="51188">
            <LineStyle id="51189">
                <color>ff9BB5C2</color>
                <colorMode>normal</colorMode>
                <width>4</width>
            </LineStyle>
        </Style>
        <Style id="51192">
            <LineStyle id="51193">
                <color>ff9BB5C2</color>
                <colorMode>normal</colorMode>
                <width>4</width>
            </LineStyle>
        </Style>
        <Style id="51196">
            <LineStyle id="51197">
                <color>ff9BB5C2</color>
                <colorMode>normal</colorMode>
                <width>4</width>
            </LineStyle>
        </Style>
        <Style id="51200">
            <LineStyle id="51201">
                <color>ff9BB5C2</color>
                <colorMode>normal</colorMode>
                <width>4</width>
            </LineStyle>
        </Style>
        <Style id="51204">
            <LineStyle id="51205">
                <color>ff9BB5C2</color>
                <colorMode>normal</colorMode>
                <width>4</width>
            </LineStyle>
        </Style>
        <Style id="51208">
            <LineStyle id="51209">
                <color>ff9BB5C2</color>
                <colorMode>normal</colorMode>
                <width>4</width>
            </LineStyle>
        </Style>
        <Style id="51212">
            <LineStyle id="51213">
                <color>ff9BB5C2</color>
                <colorMode>normal</colorMode>
                <width>4</width>
            </LineStyle>
        </Style>
        <Style id="51216">
            <LineStyle id="51217">
                <color>ff9BB5C2</color>
                <colorMode>normal</colorMode>
                <width>4</width>
            </LineStyle>
        </Style>
        <Style id="51220">
            <LineStyle id="51221">
                <color>ff9BB5C2</color>
                <colorMode>normal</colorMode>
                <width>4</width>
            </LineStyle>
        </Style>
        <Style id="51224">
            <LineStyle id="51225">
                <color>ff9BB5C2</color>
                <colorMode>normal</colorMode>
                <width>4</width>
            </LineStyle>
        </Style>
        <Style id="51228">
            <LineStyle id="51229">
                <color>ff9BB5C2</color>
                <colorMode>normal</colorMode>
                <width>4</width>
            </LineStyle>
        </Style>
        <Style id="51232">
            <LineStyle id="51233">
                <color>ff9BB5C2</color>
                <colorMode>normal</colorMode>
                <width>4</width>
            </LineStyle>
        </Style>
        <Style id="51236">
            <LineStyle id="51237">
                <color>ff9BB5C2</color>
                <colorMode>normal</colorMode>
                <width>4</width>
            </LineStyle>
        </Style>
        <Style id="51240">
            <LineStyle id="51241">
                <color>ff9BB5C2</color>
                <colorMode>normal</colorMode>
                <width>4</width>
            </LineStyle>
        </Style>
        <Style id="51244">
            <LineStyle id="51245">
                <color>ff9BB5C2</color>
                <colorMode>normal</colorMode>
                <width>4</width>
            </LineStyle>
        </Style>
        <Style id="51248">
            <LineStyle id="51249">
                <color>ff9BB5C2</color>
                <colorMode>normal</colorMode>
                <width>4</width>
            </LineStyle>
        </Style>
        <Style id="51252">
            <LineStyle id="51253">
                <color>ff9BB5C2</color>
                <colorMode>normal</colorMode>
                <width>4</width>
            </LineStyle>
        </Style>
        <Style id="51256">
            <LineStyle id="51257">
                <color>ff9BB5C2</color>
                <colorMode>normal</colorMode>
                <width>4</width>
            </LineStyle>
        </Style>
        <Style id="51260">
            <LineStyle id="51261">
                <color>ff9BB5C2</color>
                <colorMode>normal</colorMode>
                <width>4</width>
            </LineStyle>
        </Style>
        <Style id="51264">
            <LineStyle id="51265">
                <color>ff9BB5C2</color>
                <colorMode>normal</colorMode>
                <width>4</width>
            </LineStyle>
        </Style>
        <Style id="51268">
            <LineStyle id="51269">
                <color>ff9BB5C2</color>
                <colorMode>normal</colorMode>
                <width>4</width>
            </LineStyle>
        </Style>
        <Style id="51272">
            <LineStyle id="51273">
                <color>ff9BB5C2</color>
                <colorMode>normal</colorMode>
                <width>4</width>
            </LineStyle>
        </Style>
        <Style id="51276">
            <LineStyle id="51277">
                <color>ff9BB5C2</color>
                <colorMode>normal</colorMode>
                <width>4</width>
            </LineStyle>
        </Style>
        <Style id="51280">
            <LineStyle id="51281">
                <color>ff9BB5C2</color>
                <colorMode>normal</colorMode>
                <width>4</width>
            </LineStyle>
        </Style>
        <Style id="51284">
            <LineStyle id="51285">
                <color>ff9BB5C2</color>
                <colorMode>normal</colorMode>
                <width>4</width>
            </LineStyle>
        </Style>
        <Style id="51288">
            <LineStyle id="51289">
                <color>ff9BB5C2</color>
                <colorMode>normal</colorMode>
                <width>4</width>
            </LineStyle>
        </Style>
        <Style id="51292">
            <LineStyle id="51293">
                <color>ff9BB5C2</color>
                <colorMode>normal</colorMode>
                <width>4</width>
            </LineStyle>
        </Style>
        <Style id="51296">
            <LineStyle id="51297">
                <color>ff9BB5C2</color>
                <colorMode>normal</colorMode>
                <width>4</width>
            </LineStyle>
        </Style>
        <Style id="51300">
            <LineStyle id="51301">
                <color>ff9BB5C2</color>
                <colorMode>normal</colorMode>
                <width>4</width>
            </LineStyle>
        </Style>
        <Style id="51304">
            <LineStyle id="51305">
                <color>ff9BB5C2</color>
                <colorMode>normal</colorMode>
                <width>4</width>
            </LineStyle>
        </Style>
        <Style id="51308">
            <LineStyle id="51309">
                <color>ff9BB5C2</color>
                <colorMode>normal</colorMode>
                <width>4</width>
            </LineStyle>
        </Style>
        <Style id="51312">
            <LineStyle id="51313">
                <color>ff9BB5C2</color>
                <colorMode>normal</colorMode>
                <width>4</width>
            </LineStyle>
        </Style>
        <Style id="51316">
            <LineStyle id="51317">
                <color>ff9BB5C2</color>
                <colorMode>normal</colorMode>
                <width>4</width>
            </LineStyle>
        </Style>
        <Style id="51320">
            <LineStyle id="51321">
                <color>ff9BB5C2</color>
                <colorMode>normal</colorMode>
                <width>4</width>
            </LineStyle>
        </Style>
        <Style id="51324">
            <LineStyle id="51325">
                <color>ff9BB5C2</color>
                <colorMode>normal</colorMode>
                <width>4</width>
            </LineStyle>
        </Style>
        <Style id="51328">
            <LineStyle id="51329">
                <color>ff9BB5C2</color>
                <colorMode>normal</colorMode>
                <width>4</width>
            </LineStyle>
        </Style>
        <Style id="51332">
            <LineStyle id="51333">
                <color>ff9BB5C2</color>
                <colorMode>normal</colorMode>
                <width>4</width>
            </LineStyle>
        </Style>
        <Style id="51336">
            <LineStyle id="51337">
                <color>ff9BB5C2</color>
                <colorMode>normal</colorMode>
                <width>4</width>
            </LineStyle>
        </Style>
        <Style id="51340">
            <LineStyle id="51341">
                <color>ff9BB5C2</color>
                <colorMode>normal</colorMode>
                <width>4</width>
            </LineStyle>
        </Style>
        <Style id="51344">
            <LineStyle id="51345">
                <color>ff9BB5C2</color>
                <colorMode>normal</colorMode>
                <width>4</width>
            </LineStyle>
        </Style>
        <Style id="51348">
            <LineStyle id="51349">
                <color>ff9BB5C2</color>
                <colorMode>normal</colorMode>
                <width>4</width>
            </LineStyle>
        </Style>
        <Style id="51352">
            <LineStyle id="51353">
                <color>ff9BB5C2</color>
                <colorMode>normal</colorMode>
                <width>4</width>
            </LineStyle>
        </Style>
        <Style id="51356">
            <LineStyle id="51357">
                <color>ff9BB5C2</color>
                <colorMode>normal</colorMode>
                <width>4</width>
            </LineStyle>
        </Style>
        <Style id="51360">
            <LineStyle id="51361">
                <color>ff9BB5C2</color>
                <colorMode>normal</colorMode>
                <width>4</width>
            </LineStyle>
        </Style>
        <Style id="51364">
            <LineStyle id="51365">
                <color>ff9BB5C2</color>
                <colorMode>normal</colorMode>
                <width>4</width>
            </LineStyle>
        </Style>
        <Style id="51368">
            <LineStyle id="51369">
                <color>ff9BB5C2</color>
                <colorMode>normal</colorMode>
                <width>4</width>
            </LineStyle>
        </Style>
        <Style id="51372">
            <LineStyle id="51373">
                <color>ff9BB5C2</color>
                <colorMode>normal</colorMode>
                <width>4</width>
            </LineStyle>
        </Style>
        <Style id="51376">
            <LineStyle id="51377">
                <color>ff9BB5C2</color>
                <colorMode>normal</colorMode>
                <width>4</width>
            </LineStyle>
        </Style>
        <Style id="51380">
            <LineStyle id="51381">
                <color>ff9BB5C2</color>
                <colorMode>normal</colorMode>
                <width>4</width>
            </LineStyle>
        </Style>
        <Style id="51384">
            <LineStyle id="51385">
                <color>ff9BB5C2</color>
                <colorMode>normal</colorMode>
                <width>4</width>
            </LineStyle>
        </Style>
        <Style id="51388">
            <LineStyle id="51389">
                <color>ff9BB5C2</color>
                <colorMode>normal</colorMode>
                <width>4</width>
            </LineStyle>
        </Style>
        <Style id="51392">
            <LineStyle id="51393">
                <color>ff9BB5C2</color>
                <colorMode>normal</colorMode>
                <width>4</width>
            </LineStyle>
        </Style>
        <Style id="51396">
            <LineStyle id="51397">
                <color>ff9BB5C2</color>
                <colorMode>normal</colorMode>
                <width>4</width>
            </LineStyle>
        </Style>
        <Style id="51400">
            <LineStyle id="51401">
                <color>ff9BB5C2</color>
                <colorMode>normal</colorMode>
                <width>4</width>
            </LineStyle>
        </Style>
        <Style id="51404">
            <LineStyle id="51405">
                <color>ff9BB5C2</color>
                <colorMode>normal</colorMode>
                <width>4</width>
            </LineStyle>
        </Style>
        <Style id="51408">
            <LineStyle id="51409">
                <color>ff9BB5C2</color>
                <colorMode>normal</colorMode>
                <width>4</width>
            </LineStyle>
        </Style>
        <Style id="51412">
            <LineStyle id="51413">
                <color>ff9BB5C2</color>
                <colorMode>normal</colorMode>
                <width>4</width>
            </LineStyle>
        </Style>
        <Style id="51416">
            <LineStyle id="51417">
                <color>ff9BB5C2</color>
                <colorMode>normal</colorMode>
                <width>4</width>
            </LineStyle>
        </Style>
        <Style id="51420">
            <LineStyle id="51421">
                <color>ff9BB5C2</color>
                <colorMode>normal</colorMode>
                <width>4</width>
            </LineStyle>
        </Style>
        <Style id="51424">
            <LineStyle id="51425">
                <color>ff9BB5C2</color>
                <colorMode>normal</colorMode>
                <width>4</width>
            </LineStyle>
        </Style>
        <Style id="51428">
            <LineStyle id="51429">
                <color>ff9BB5C2</color>
                <colorMode>normal</colorMode>
                <width>4</width>
            </LineStyle>
        </Style>
        <Style id="51432">
            <LineStyle id="51433">
                <color>ff9BB5C2</color>
                <colorMode>normal</colorMode>
                <width>4</width>
            </LineStyle>
        </Style>
        <ExtendedData>
            <Data name="route-name">
                <value>31: Antapani → Ciroyom</value>
            </Data>
            <Data name="source">
                <value>Transport for Bandung</value>
            </Data>
        </ExtendedData>
        <Placemark id="50921">
            <name>Terminal Antapani</name>
            <styleUrl>#50922</styleUrl>
            <Point id="50920">
                <coordinates>107.6659285,-6.915304,0.0</coordinates>
            </Point>
        </Placemark>
        <Placemark id="50926">
            <name>Husein Pajajaran</name>
            <styleUrl>#50927</styleUrl>
            <Point id="50925">
                <coordinates>107.588209,-6.9068423,0.0</coordinates>
            </Point>
        </Placemark>
        <Placemark id="50931">
            <name>Jalan Cicendo</name>
            <styleUrl>#50932</styleUrl>
            <LineString id="50930">
                <coordinates>107.6044417,-6.9072201,0.0 107.6044521,-6.9072879,0.0 107.604458,-6.9073889,0.0 107.6044748,-6.9078654,0.0 107.6044776,-6.9079587,0.0 107.6044909,-6.9084617,0.0 107.6044917,-6.9087943,0.0 107.6044683,-6.9089756,0.0 107.6044333,-6.9091247,0.0 107.6043797,-6.9092856,0.0 107.6043042,-6.9094657,0.0 107.6042851,-6.9095101,0.0 107.6042598,-6.9095715,0.0 107.6042199,-6.9096823,0.0 107.6041664,-6.9098645,0.0 107.60413,-6.9100304,0.0 107.6041131,-6.910177,0.0 107.604095,-6.9104032,0.0 107.6040795,-6.910612,0.0 107.6040749,-6.9106747,0.0 107.6040736,-6.9106984,0.0 107.6040635,-6.9108642,0.0 107.6040608,-6.9109088,0.0 107.6039986,-6.911908,0.0 107.6039597,-6.9124977,0.0 107.6039561,-6.9125447,0.0</coordinates>
            </LineString>
        </Placemark>
        <Placemark id="50935">
            <name>Jalan Pajajaran</name>
            <styleUrl>#50936</styleUrl>
            <LineString id="50934">
                <coordinates>107.6073865,-6.9076628,0.0 107.6073442,-6.9076324,0.0 107.6072754,-6.9075859,0.0 107.6071035,-6.9074752,0.0 107.6070242,-6.9074318,0.0 107.6068765,-6.907351,0.0 107.6066403,-6.907244,0.0 107.6065225,-6.9072053,0.0 107.6064209,-6.9071852,0.0 107.6062761,-6.9071663,0.0 107.6061572,-6.9071583,0.0 107.6058415,-6.9071486,0.0 107.6055894,-6.9071347,0.0</coordinates>
            </LineString>
        </Placemark>
        <Placemark id="50939">
            <name>Jalan Kebon Kawung</name>
            <styleUrl>#50940</styleUrl>
            <LineString id="50938">
                <coordinates>107.5982527,-6.912368,0.0 107.5981735,-6.9123668,0.0 107.5980964,-6.9123486,0.0 107.5980334,-6.9123085,0.0 107.5979805,-6.912262,0.0</coordinates>
            </LineString>
        </Placemark>
        <Placemark id="50943">
            <name>Jalan Kebon Kawung</name>
            <styleUrl>#50944</styleUrl>
            <LineString id="50942">
                <coordinates>107.6019305,-6.9125353,0.0 107.601745,-6.9125245,0.0</coordinates>
            </LineString>
        </Placemark>
        <Placemark id="50947">
            <name>Jalan Perintis Kemerdekaan</name>
            <styleUrl>#50948</styleUrl>
            <LineString id="50946">
                <coordinates>107.6103525,-6.9136021,0.0 107.6100125,-6.9139146,0.0 107.6099856,-6.9139284,0.0 107.6099474,-6.9139366,0.0 107.6099053,-6.913944,0.0 107.6098104,-6.9139382,0.0 107.6097898,-6.9139349,0.0 107.6097692,-6.9139315,0.0 107.6096401,-6.9139177,0.0 107.6091737,-6.9138665,0.0 107.609095,-6.9138574,0.0</coordinates>
            </LineString>
        </Placemark>
        <Placemark id="50951">
            <name>Jalan Pajajaran</name>
            <styleUrl>#50952</styleUrl>
            <LineString id="50950">
                <coordinates>107.6055894,-6.9071347,0.0 107.6053829,-6.907135,0.0</coordinates>
            </LineString>
        </Placemark>
        <Placemark id="50955">
            <name>Jalan Bangka</name>
            <styleUrl>#50956</styleUrl>
            <LineString id="50954">
                <coordinates>107.6183415,-6.911498,0.0 107.6184125,-6.9117345,0.0 107.6185017,-6.911999,0.0 107.6186497,-6.9124658,0.0 107.6187336,-6.9127767,0.0 107.6187655,-6.9128924,0.0 107.6187806,-6.9130123,0.0 107.6188063,-6.9134962,0.0 107.6188506,-6.915098,0.0</coordinates>
            </LineString>
        </Placemark>
        <Placemark id="50959">
            <name>Jalan Gudang Utara</name>
            <styleUrl>#50960</styleUrl>
            <LineString id="50958">
                <coordinates>107.6188506,-6.915098,0.0 107.618959,-6.9151242,0.0 107.6190377,-6.9151433,0.0 107.6191903,-6.9151802,0.0</coordinates>
            </LineString>
        </Placemark>
        <Placemark id="50963">
            <name>Jalan Belitung</name>
            <styleUrl>#50964</styleUrl>
            <LineString id="50962">
                <coordinates>107.6144696,-6.9121614,0.0 107.6143524,-6.9122063,0.0 107.614276,-6.9122351,0.0 107.6142314,-6.9122519,0.0 107.6140321,-6.912327,0.0 107.6138475,-6.9123969,0.0 107.6138154,-6.9124084,0.0 107.6137534,-6.9124309,0.0 107.6134164,-6.912564,0.0 107.6132624,-6.9126239,0.0</coordinates>
            </LineString>
        </Placemark>
        <Placemark id="50967">
            <name>Jalan Pajajaran</name>
            <styleUrl>#50968</styleUrl>
            <LineString id="50966">
                <coordinates>107.5975328,-6.9064531,0.0 107.5972812,-6.9064634,0.0 107.5971648,-6.9064676,0.0 107.5970224,-6.9064779,0.0 107.5968205,-6.9064928,0.0</coordinates>
            </LineString>
        </Placemark>
        <Placemark id="50971">
            <name>Jalan HOS. Cokroaminoto</name>
            <styleUrl>#50972</styleUrl>
            <LineString id="50970">
                <coordinates>107.5976288,-6.9073749,0.0 107.5975909,-6.9072507,0.0 107.597581,-6.9071682,0.0 107.5975322,-6.9065723,0.0 107.5975328,-6.9064531,0.0</coordinates>
            </LineString>
        </Placemark>
        <Placemark id="50975">
            <name>Jalan Belitung</name>
            <styleUrl>#50976</styleUrl>
            <LineString id="50974">
                <coordinates>107.6144696,-6.9121614,0.0 107.6145774,-6.9121243,0.0 107.6148569,-6.9120259,0.0 107.6150207,-6.9119682,0.0 107.6153366,-6.9118538,0.0 107.6155622,-6.911775,0.0 107.615611,-6.9117587,0.0 107.6157377,-6.9117106,0.0 107.615884,-6.9116657,0.0 107.6160223,-6.9116314,0.0 107.6161546,-6.9116221,0.0</coordinates>
            </LineString>
        </Placemark>
        <Placemark id="50979">
            <name>Jalan Wastukancana</name>
            <styleUrl>#50980</styleUrl>
            <LineString id="50978">
                <coordinates>107.6088855,-6.9102984,0.0 107.6088445,-6.9102299,0.0 107.6087639,-6.910086,0.0 107.608484,-6.9095465,0.0 107.6083912,-6.9093671,0.0</coordinates>
            </LineString>
        </Placemark>
        <Placemark id="50983">
            <name>Jalan Sukabumi</name>
            <styleUrl>#50984</styleUrl>
            <LineString id="50982">
                <coordinates>107.6348552,-6.9143329,0.0 107.6348313,-6.9143399,0.0 107.6347873,-6.9143636,0.0 107.6347627,-6.9143996,0.0 107.6347483,-6.9144516,0.0 107.6347173,-6.914512,0.0</coordinates>
            </LineString>
        </Placemark>
        <Placemark id="50987">
            <name>Jalan HOS. Cokroaminoto</name>
            <styleUrl>#50988</styleUrl>
            <LineString id="50986">
                <coordinates>107.5979469,-6.9117824,0.0 107.5979313,-6.9116207,0.0</coordinates>
            </LineString>
        </Placemark>
        <Placemark id="50991">
            <name>Jalan Wastukancana</name>
            <styleUrl>#50992</styleUrl>
            <LineString id="50990">
                <coordinates>107.6083912,-6.9093671,0.0 107.6082885,-6.9092058,0.0 107.6082341,-6.9091403,0.0 107.608135,-6.9090242,0.0</coordinates>
            </LineString>
        </Placemark>
        <Placemark id="50995">
            <name>Jalan Sukabumi</name>
            <styleUrl>#50996</styleUrl>
            <LineString id="50994">
                <coordinates>107.634419,-6.9161223,0.0 107.6344004,-6.9162388,0.0 107.6343511,-6.9164827,0.0 107.6342682,-6.916856,0.0 107.634252,-6.9169288,0.0 107.6342422,-6.9169744,0.0 107.6342207,-6.9170356,0.0 107.6341961,-6.9170831,0.0</coordinates>
            </LineString>
        </Placemark>
        <Placemark id="50999">
            <name>Jalan Merdeka</name>
            <styleUrl>#51000</styleUrl>
            <LineString id="50998">
                <coordinates>107.6106164,-6.9099691,0.0 107.6106159,-6.9099991,0.0 107.6106153,-6.9100253,0.0 107.6106014,-6.9104158,0.0 107.6105812,-6.9108691,0.0 107.6105492,-6.9114267,0.0 107.6105236,-6.9118509,0.0 107.610489,-6.9122567,0.0 107.6104606,-6.9125904,0.0 107.6104461,-6.9127255,0.0 107.6104424,-6.9127679,0.0 107.6103525,-6.9136021,0.0</coordinates>
            </LineString>
        </Placemark>
        <Placemark id="51003">
            <name>Jalan Aceh</name>
            <styleUrl>#51004</styleUrl>
            <LineString id="51002">
                <coordinates>107.610654,-6.909795,0.0 107.610777,-6.9097754,0.0 107.6108205,-6.9097714,0.0 107.6109188,-6.9097687,0.0 107.6111566,-6.9097687,0.0 107.6116178,-6.90977,0.0 107.6117465,-6.9097693,0.0 107.6121344,-6.9097777,0.0</coordinates>
            </LineString>
        </Placemark>
        <Placemark id="51007">
            <name>Jalan Sumatra</name>
            <styleUrl>#51008</styleUrl>
            <LineString id="51006">
                <coordinates>107.6130444,-6.9126174,0.0 107.6130208,-6.9125339,0.0 107.6129967,-6.9124653,0.0 107.6129571,-6.912356,0.0 107.6128973,-6.9122028,0.0 107.6128197,-6.9120187,0.0 107.612748,-6.9118421,0.0 107.6126673,-6.9116438,0.0 107.6126418,-6.9115626,0.0 107.6125842,-6.9113906,0.0 107.6125692,-6.9113098,0.0 107.6125469,-6.9111891,0.0 107.6125064,-6.9107865,0.0 107.6124686,-6.9102774,0.0 107.6124452,-6.9100873,0.0 107.6124394,-6.910028,0.0</coordinates>
            </LineString>
        </Placemark>
        <Placemark id="51011">
            <name>Jalan Belitung</name>
            <styleUrl>#51012</styleUrl>
            <LineString id="51010">
                <coordinates>107.6161546,-6.9116221,0.0 107.6168641,-6.9115844,0.0 107.6170959,-6.9115688,0.0 107.617317,-6.9115453,0.0 107.6175732,-6.9115105,0.0</coordinates>
            </LineString>
        </Placemark>
        <Placemark id="51015">
            <name>Jalan Belitung</name>
            <styleUrl>#51016</styleUrl>
            <LineString id="51014">
                <coordinates>107.6175732,-6.9115105,0.0 107.617735,-6.9114851,0.0 107.6179079,-6.9114701,0.0 107.6180518,-6.9114643,0.0 107.6182447,-6.9114798,0.0 107.6183415,-6.911498,0.0</coordinates>
            </LineString>
        </Placemark>
        <Placemark id="51019">
            <name>Jalan Laswi</name>
            <styleUrl>#51020</styleUrl>
            <LineString id="51018">
                <coordinates>107.6313458,-6.9186198,0.0 107.6312891,-6.9184991,0.0 107.6312618,-6.9184409,0.0 107.6312506,-6.9184177,0.0 107.6307984,-6.9174779,0.0 107.6307188,-6.9173125,0.0</coordinates>
            </LineString>
        </Placemark>
        <Placemark id="51023">
            <name>Jalan Wastukancana</name>
            <styleUrl>#51024</styleUrl>
            <LineString id="51022">
                <coordinates>107.608135,-6.9090242,0.0 107.6079856,-6.9088682,0.0 107.6079388,-6.9087953,0.0 107.6078779,-6.9086773,0.0 107.6078276,-6.9085634,0.0 107.6077911,-6.9084463,0.0 107.6076596,-6.9080052,0.0</coordinates>
            </LineString>
        </Placemark>
        <Placemark id="51027">
            <name>Jalan Wastukancana</name>
            <styleUrl>#51028</styleUrl>
            <LineString id="51026">
                <coordinates>107.6090309,-6.9137833,0.0 107.6090355,-6.9136767,0.0 107.609036,-6.9135295,0.0 107.6090452,-6.9130028,0.0 107.6090502,-6.9127472,0.0 107.6090523,-6.9126675,0.0 107.6090858,-6.9111585,0.0 107.6090891,-6.9110401,0.0 107.6090928,-6.9109499,0.0 107.6090952,-6.910906,0.0 107.6090943,-6.9108169,0.0 107.6090871,-6.9107051,0.0 107.6090715,-6.9106208,0.0 107.609044,-6.9105515,0.0</coordinates>
            </LineString>
        </Placemark>
        <Placemark id="51031">
            <name>Jalan Terusan Jakarta</name>
            <styleUrl>#51032</styleUrl>
            <LineString id="51030">
                <coordinates>107.6453416,-6.9135173,0.0 107.6453033,-6.9135399,0.0</coordinates>
            </LineString>
        </Placemark>
        <Placemark id="51035">
            <name>Jalan Terusan Jakarta</name>
            <styleUrl>#51036</styleUrl>
            <LineString id="51034">
                <coordinates>107.6474297,-6.913244,0.0 107.6474111,-6.9132465,0.0 107.6471064,-6.9132911,0.0 107.6457985,-6.9134589,0.0 107.6453416,-6.9135173,0.0</coordinates>
            </LineString>
        </Placemark>
        <Placemark id="51039">
            <name>Jalan Terusan Jakarta</name>
            <styleUrl>#51040</styleUrl>
            <LineString id="51038">
                <coordinates>107.6512126,-6.9127667,0.0 107.6503632,-6.912873,0.0 107.6497949,-6.912944,0.0 107.6494126,-6.9129917,0.0 107.6492727,-6.9130091,0.0 107.6491215,-6.9130283,0.0 107.6488638,-6.9130605,0.0 107.6477309,-6.9132022,0.0 107.6476418,-6.9132133,0.0 107.6475828,-6.9132227,0.0</coordinates>
            </LineString>
        </Placemark>
        <Placemark id="51043">
            <name>Jalan Terusan Jakarta</name>
            <styleUrl>#51044</styleUrl>
            <LineString id="51042">
                <coordinates>107.6439222,-6.9137511,0.0 107.6438747,-6.9137574,0.0</coordinates>
            </LineString>
        </Placemark>
        <Placemark id="51047">
            <name>Jalan Terusan Jakarta</name>
            <styleUrl>#51048</styleUrl>
            <LineString id="51046">
                <coordinates>107.6551627,-6.912521,0.0 107.6541857,-6.9124638,0.0 107.6541033,-6.9124625,0.0 107.653817,-6.9124678,0.0 107.6535357,-6.9124879,0.0 107.6535199,-6.9124899,0.0 107.6529787,-6.9125497,0.0 107.6520929,-6.9126555,0.0 107.6520306,-6.9126628,0.0</coordinates>
            </LineString>
        </Placemark>
        <Placemark id="51051">
            <name>Jalan Purwakarta</name>
            <styleUrl>#51052</styleUrl>
            <LineString id="51050">
                <coordinates>107.6591355,-6.9174008,0.0 107.6591977,-6.9174025,0.0</coordinates>
            </LineString>
        </Placemark>
        <Placemark id="51055">
            <name>Jalan Purwakarta</name>
            <styleUrl>#51056</styleUrl>
            <LineString id="51054">
                <coordinates>107.6591977,-6.9174025,0.0 107.6592266,-6.9174037,0.0 107.6599721,-6.9174367,0.0 107.6603586,-6.9174516,0.0 107.6603956,-6.917453,0.0 107.6604897,-6.9174583,0.0 107.6606673,-6.9174703,0.0 107.6607151,-6.9174748,0.0 107.6609947,-6.9174917,0.0 107.6611066,-6.9175005,0.0 107.661177,-6.9175124,0.0 107.6612216,-6.9175017,0.0 107.6612744,-6.9174841,0.0 107.6614652,-6.9173398,0.0 107.6615039,-6.9173068,0.0 107.6616718,-6.9171787,0.0 107.6619867,-6.916927,0.0</coordinates>
            </LineString>
        </Placemark>
        <Placemark id="51059">
            <name>Jalan Cibatu</name>
            <styleUrl>#51060</styleUrl>
            <LineString id="51058">
                <coordinates>107.6636353,-6.9172206,0.0 107.6636633,-6.9172021,0.0 107.6638688,-6.9170395,0.0 107.664087,-6.9168901,0.0 107.6645052,-6.9165695,0.0 107.6645923,-6.9165043,0.0 107.6647108,-6.9164166,0.0 107.6647953,-6.9163528,0.0 107.6653484,-6.9159206,0.0 107.6654081,-6.9158727,0.0 107.6654561,-6.9158164,0.0</coordinates>
            </LineString>
        </Placemark>
        <Placemark id="51063">
            <name>Jalan Cibatu</name>
            <styleUrl>#51064</styleUrl>
            <LineString id="51062">
                <coordinates>107.6636353,-6.9172206,0.0 107.6634793,-6.9173422,0.0</coordinates>
            </LineString>
        </Placemark>
        <Placemark id="51067">
            <name>Jalan Cibatu</name>
            <styleUrl>#51068</styleUrl>
            <LineString id="51066">
                <coordinates>107.6634642,-6.9173545,0.0 107.6627276,-6.9178987,0.0</coordinates>
            </LineString>
        </Placemark>
        <Placemark id="51071">
            <name>Jalan Jakarta</name>
            <styleUrl>#51072</styleUrl>
            <LineString id="51070">
                <coordinates>107.6374221,-6.9145133,0.0 107.6374071,-6.9145151,0.0 107.6373588,-6.9145209,0.0</coordinates>
            </LineString>
        </Placemark>
        <Placemark id="51075">
            <name>Jalan Jakarta</name>
            <styleUrl>#51076</styleUrl>
            <LineString id="51074">
                <coordinates>107.6375505,-6.9144979,0.0 107.6374221,-6.9145133,0.0</coordinates>
            </LineString>
        </Placemark>
        <Placemark id="51079">
            <name>Route Segment</name>
            <styleUrl>#51080</styleUrl>
            <LineString id="51078">
                <coordinates>107.6300893,-6.9160089,0.0 107.6300221,-6.9159647,0.0 107.6299556,-6.9159377,0.0 107.6299427,-6.9159345,0.0 107.6298859,-6.9159206,0.0 107.6298144,-6.9159137,0.0</coordinates>
            </LineString>
        </Placemark>
        <Placemark id="51083">
            <name>Jalan Jakarta</name>
            <styleUrl>#51084</styleUrl>
            <LineString id="51082">
                <coordinates>107.6417884,-6.9139622,0.0 107.641697,-6.9139738,0.0 107.6414919,-6.9139937,0.0 107.641334,-6.9140119,0.0 107.6412274,-6.9140241,0.0 107.6410877,-6.9140393,0.0 107.6409956,-6.9140515,0.0 107.6405312,-6.9141105,0.0 107.6404431,-6.9141209,0.0 107.6403048,-6.9141385,0.0 107.6402144,-6.914148,0.0 107.6399554,-6.914178,0.0 107.6398939,-6.914186,0.0 107.6397497,-6.9142026,0.0 107.6394855,-6.9142369,0.0 107.6393217,-6.9142593,0.0 107.6391686,-6.914281,0.0 107.6390956,-6.9142912,0.0 107.6389363,-6.9143117,0.0 107.6388474,-6.9143228,0.0 107.6386441,-6.9143525,0.0 107.6385822,-6.9143614,0.0 107.6385215,-6.9143724,0.0 107.6384678,-6.9143807,0.0 107.6381956,-6.9144188,0.0 107.6379503,-6.9144499,0.0 107.6378321,-6.9144641,0.0 107.6377113,-6.9144786,0.0 107.6376149,-6.9144902,0.0 107.6375655,-6.9144961,0.0 107.6375505,-6.9144979,0.0</coordinates>
            </LineString>
        </Placemark>
        <Placemark id="51087">
            <name>Jalan Jakarta</name>
            <styleUrl>#51088</styleUrl>
            <LineString id="51086">
                <coordinates>107.6373588,-6.9145209,0.0 107.6371438,-6.9145467,0.0 107.6369043,-6.9145755,0.0 107.6368147,-6.9145887,0.0 107.636513,-6.914633,0.0 107.6362469,-6.9146627,0.0 107.6362076,-6.9146671,0.0 107.6361335,-6.9146647,0.0 107.6360082,-6.9146453,0.0 107.6357903,-6.914575,0.0</coordinates>
            </LineString>
        </Placemark>
        <Placemark id="51091">
            <name>Jalan Jenderal Ahmad Yani</name>
            <styleUrl>#51092</styleUrl>
            <LineString id="51090">
                <coordinates>107.6290208,-6.9162728,0.0 107.6289251,-6.9163216,0.0 107.6287077,-6.9164366,0.0 107.6286077,-6.9164897,0.0 107.6284319,-6.9165831,0.0 107.6281138,-6.9167518,0.0 107.6274434,-6.9171135,0.0</coordinates>
            </LineString>
        </Placemark>
        <Placemark id="51095">
            <name>Jalan HOS. Cokroaminoto</name>
            <styleUrl>#51096</styleUrl>
            <LineString id="51094">
                <coordinates>107.5979313,-6.9116207,0.0 107.5979188,-6.9114098,0.0 107.5978086,-6.909947,0.0 107.5978015,-6.9098566,0.0 107.5977774,-6.9094546,0.0 107.5977427,-6.9089045,0.0 107.5976909,-6.9082042,0.0 107.5976849,-6.9081059,0.0 107.5976772,-6.9080121,0.0 107.5976288,-6.9073749,0.0</coordinates>
            </LineString>
        </Placemark>
        <Placemark id="51099">
            <name>Jalan HOS. Cokroaminoto</name>
            <styleUrl>#51100</styleUrl>
            <LineString id="51098">
                <coordinates>107.5979805,-6.912262,0.0 107.5979469,-6.9117824,0.0</coordinates>
            </LineString>
        </Placemark>
        <Placemark id="51103">
            <name>Jalan Cibatu</name>
            <styleUrl>#51104</styleUrl>
            <LineString id="51102">
                <coordinates>107.6655035,-6.9157094,0.0 107.6655828,-6.9153647,0.0 107.6656787,-6.9149413,0.0</coordinates>
            </LineString>
        </Placemark>
        <Placemark id="51107">
            <name>Jalan Kuningan</name>
            <styleUrl>#51108</styleUrl>
            <LineString id="51106">
                <coordinates>107.6619867,-6.916927,0.0 107.6623671,-6.9174298,0.0 107.6624718,-6.9175748,0.0 107.6625408,-6.9176667,0.0 107.6626119,-6.9177626,0.0 107.6626746,-6.9178348,0.0 107.6626991,-6.9178691,0.0 107.6627276,-6.9178987,0.0</coordinates>
            </LineString>
        </Placemark>
        <Placemark id="51111">
            <name>Jalan Subang</name>
            <styleUrl>#51112</styleUrl>
            <LineString id="51110">
                <coordinates>107.6551627,-6.912521,0.0 107.6551351,-6.912935,0.0 107.6550806,-6.9138293,0.0 107.655052,-6.9143921,0.0 107.6550155,-6.9147421,0.0 107.655,-6.9148126,0.0 107.6549919,-6.9148374,0.0</coordinates>
            </LineString>
        </Placemark>
        <Placemark id="51115">
            <name>Jalan Purwakarta</name>
            <styleUrl>#51116</styleUrl>
            <LineString id="51114">
                <coordinates>107.6591355,-6.9174008,0.0 107.6590955,-6.9174004,0.0 107.6585042,-6.9173735,0.0 107.6584676,-6.9173721,0.0 107.657555,-6.9173304,0.0 107.6570184,-6.9173067,0.0 107.6563666,-6.9172779,0.0 107.6562732,-6.9172738,0.0 107.6560398,-6.9172635,0.0 107.6559513,-6.9172249,0.0 107.655734,-6.9170923,0.0 107.6555204,-6.9169619,0.0</coordinates>
            </LineString>
        </Placemark>
        <Placemark id="51119">
            <name>Jalan Terusan Jakarta</name>
            <styleUrl>#51120</styleUrl>
            <LineString id="51118">
                <coordinates>107.6437464,-6.9137765,0.0 107.6436788,-6.9137868,0.0</coordinates>
            </LineString>
        </Placemark>
        <Placemark id="51123">
            <name>Jalan Pajajaran</name>
            <styleUrl>#51124</styleUrl>
            <LineString id="51122">
                <coordinates>107.6076596,-6.9080052,0.0 107.607602,-6.9079117,0.0 107.607563,-6.9078579,0.0 107.607537,-6.907823,0.0 107.607465,-6.9077399,0.0 107.6073865,-6.9076628,0.0</coordinates>
            </LineString>
        </Placemark>
        <Placemark id="51127">
            <name>Jalan Terusan Jakarta</name>
            <styleUrl>#51128</styleUrl>
            <LineString id="51126">
                <coordinates>107.6520306,-6.9126628,0.0 107.6518998,-6.9126808,0.0</coordinates>
            </LineString>
        </Placemark>
        <Placemark id="51131">
            <name>Jalan Pajajaran</name>
            <styleUrl>#51132</styleUrl>
            <LineString id="51130">
                <coordinates>107.6053829,-6.907135,0.0 107.6051824,-6.9071438,0.0 107.6051387,-6.9071446,0.0 107.6045501,-6.9071569,0.0 107.6045,-6.907158,0.0</coordinates>
            </LineString>
        </Placemark>
        <Placemark id="51135">
            <name>Jalan Pajajaran</name>
            <styleUrl>#51136</styleUrl>
            <LineString id="51134">
                <coordinates>107.5959262,-6.9065893,0.0 107.5952568,-6.9066609,0.0 107.595037,-6.9066943,0.0 107.5945793,-6.9067595,0.0 107.5945435,-6.9067649,0.0 107.5942472,-6.906822,0.0 107.5941987,-6.9068309,0.0 107.594084,-6.9068527,0.0 107.5937537,-6.9069123,0.0 107.5936226,-6.9069359,0.0 107.5930436,-6.9070358,0.0</coordinates>
            </LineString>
        </Placemark>
        <Placemark id="51139">
            <name>Jalan Pajajaran</name>
            <styleUrl>#51140</styleUrl>
            <LineString id="51138">
                <coordinates>107.5920701,-6.9071489,0.0 107.5918373,-6.9071242,0.0 107.5916612,-6.9071113,0.0 107.5915994,-6.9071068,0.0 107.5913085,-6.9070897,0.0 107.5911224,-6.9070825,0.0</coordinates>
            </LineString>
        </Placemark>
        <Placemark id="51143">
            <name>Jalan Pajajaran</name>
            <styleUrl>#51144</styleUrl>
            <LineString id="51142">
                <coordinates>107.5906383,-6.9070791,0.0 107.5904897,-6.9070683,0.0 107.5902528,-6.9070511,0.0 107.5892287,-6.9069531,0.0 107.5890575,-6.9069317,0.0 107.5889568,-6.9069197,0.0 107.5888977,-6.9069111,0.0 107.5887781,-6.9068994,0.0 107.5886037,-6.906884,0.0 107.5883918,-6.9068594,0.0 107.588209,-6.9068423,0.0</coordinates>
            </LineString>
        </Placemark>
        <Placemark id="51147">
            <name>Jalan Jenderal Ahmad Yani</name>
            <styleUrl>#51148</styleUrl>
            <LineString id="51146">
                <coordinates>107.6298144,-6.9159137,0.0 107.6295503,-6.9160568,0.0 107.629412,-6.9161317,0.0 107.6291688,-6.9162635,0.0 107.6290984,-6.9162777,0.0 107.6290208,-6.9162728,0.0</coordinates>
            </LineString>
        </Placemark>
        <Placemark id="51151">
            <name>Jalan Terusan Jakarta</name>
            <styleUrl>#51152</styleUrl>
            <LineString id="51150">
                <coordinates>107.6451943,-6.9135557,0.0 107.6451485,-6.9135638,0.0 107.6439222,-6.9137511,0.0</coordinates>
            </LineString>
        </Placemark>
        <Placemark id="51155">
            <name>Jalan Jakarta</name>
            <styleUrl>#51156</styleUrl>
            <LineString id="51154">
                <coordinates>107.6422876,-6.9139498,0.0 107.6421252,-6.9139589,0.0 107.6417884,-6.9139622,0.0</coordinates>
            </LineString>
        </Placemark>
        <Placemark id="51159">
            <name>Jalan Subang</name>
            <styleUrl>#51160</styleUrl>
            <LineString id="51158">
                <coordinates>107.6549689,-6.9148878,0.0 107.6548107,-6.9151758,0.0 107.6546119,-6.9154864,0.0 107.654416,-6.9158215,0.0 107.6542065,-6.9161598,0.0</coordinates>
            </LineString>
        </Placemark>
        <Placemark id="51163">
            <name>Jalan Subang</name>
            <styleUrl>#51164</styleUrl>
            <LineString id="51162">
                <coordinates>107.6549919,-6.9148374,0.0 107.6549689,-6.9148878,0.0</coordinates>
            </LineString>
        </Placemark>
        <Placemark id="51167">
            <name>Jalan Cibatu</name>
            <styleUrl>#51168</styleUrl>
            <LineString id="51166">
                <coordinates>107.6634642,-6.9173545,0.0 107.6634793,-6.9173422,0.0</coordinates>
            </LineString>
        </Placemark>
        <Placemark id="51171">
            <name>Jalan Purwakarta</name>
            <styleUrl>#51172</styleUrl>
            <LineString id="51170">
                <coordinates>107.6542065,-6.9161598,0.0 107.6546575,-6.9164351,0.0 107.6548801,-6.9165709,0.0 107.6550268,-6.9166605,0.0 107.6555204,-6.9169619,0.0</coordinates>
            </LineString>
        </Placemark>
        <Placemark id="51175">
            <name>Jalan Cicendo</name>
            <styleUrl>#51176</styleUrl>
            <LineString id="51174">
                <coordinates>107.6039561,-6.9125447,0.0 107.603934,-6.912602,0.0 107.6039133,-6.9126367,0.0 107.603885,-6.9126611,0.0</coordinates>
            </LineString>
        </Placemark>
        <Placemark id="51179">
            <name>Jalan Pajajaran</name>
            <styleUrl>#51180</styleUrl>
            <LineString id="51178">
                <coordinates>107.5968205,-6.9064928,0.0 107.5966166,-6.906518,0.0 107.5964032,-6.9065473,0.0 107.5961119,-6.9066005,0.0 107.5960526,-6.9066041,0.0 107.5959951,-6.9065992,0.0 107.5959262,-6.9065893,0.0</coordinates>
            </LineString>
        </Placemark>
        <Placemark id="51183">
            <name>Route Segment</name>
            <styleUrl>#51184</styleUrl>
            <LineString id="51182">
                <coordinates>107.6659285,-6.915304,0.0 107.6659888,-6.9151531,0.0 107.666023,-6.9150753,0.0 107.6660397,-6.9150232,0.0</coordinates>
            </LineString>
        </Placemark>
        <Placemark id="51187">
            <name>Jalan Gudang Utara</name>
            <styleUrl>#51188</styleUrl>
            <LineString id="51186">
                <coordinates>107.6273307,-6.9171455,0.0 107.6273466,-6.9171703,0.0 107.6273636,-6.9171968,0.0</coordinates>
            </LineString>
        </Placemark>
        <Placemark id="51191">
            <name>Jalan Terusan Jakarta</name>
            <styleUrl>#51192</styleUrl>
            <LineString id="51190">
                <coordinates>107.6475828,-6.9132227,0.0 107.6474297,-6.913244,0.0</coordinates>
            </LineString>
        </Placemark>
        <Placemark id="51195">
            <name>Jalan Terusan Jakarta</name>
            <styleUrl>#51196</styleUrl>
            <LineString id="51194">
                <coordinates>107.6453033,-6.9135399,0.0 107.6451943,-6.9135557,0.0</coordinates>
            </LineString>
        </Placemark>
        <Placemark id="51199">
            <name>Jalan Jakarta</name>
            <styleUrl>#51200</styleUrl>
            <LineString id="51198">
                <coordinates>107.6429791,-6.9138756,0.0 107.6422876,-6.9139498,0.0</coordinates>
            </LineString>
        </Placemark>
        <Placemark id="51203">
            <name>Jalan Jakarta</name>
            <styleUrl>#51204</styleUrl>
            <LineString id="51202">
                <coordinates>107.6436788,-6.9137868,0.0 107.643606,-6.9137967,0.0 107.6435259,-6.9138067,0.0 107.6434317,-6.9138202,0.0</coordinates>
            </LineString>
        </Placemark>
        <Placemark id="51207">
            <name>Jalan Terusan Jakarta</name>
            <styleUrl>#51208</styleUrl>
            <LineString id="51206">
                <coordinates>107.6438747,-6.9137574,0.0 107.6437931,-6.9137693,0.0 107.6437464,-6.9137765,0.0</coordinates>
            </LineString>
        </Placemark>
        <Placemark id="51211">
            <name>Jalan Laswi</name>
            <styleUrl>#51212</styleUrl>
            <LineString id="51210">
                <coordinates>107.6307188,-6.9173125,0.0 107.6306282,-6.9171247,0.0 107.6301434,-6.916119,0.0 107.6300893,-6.9160089,0.0</coordinates>
            </LineString>
        </Placemark>
        <Placemark id="51215">
            <name>Jalan Jakarta</name>
            <styleUrl>#51216</styleUrl>
            <LineString id="51214">
                <coordinates>107.6357903,-6.914575,0.0 107.6357337,-6.9145811,0.0 107.6356898,-6.9145768,0.0 107.6356137,-6.9145582,0.0 107.6354322,-6.914512,0.0 107.6352266,-6.9144508,0.0 107.6348552,-6.9143329,0.0</coordinates>
            </LineString>
        </Placemark>
        <Placemark id="51219">
            <name>Jalan Perintis Kemerdekaan</name>
            <styleUrl>#51220</styleUrl>
            <LineString id="51218">
                <coordinates>107.609095,-6.9138574,0.0 107.6090912,-6.913831,0.0 107.6090777,-6.9138078,0.0 107.6090567,-6.9137911,0.0 107.6090309,-6.9137833,0.0</coordinates>
            </LineString>
        </Placemark>
        <Placemark id="51223">
            <name>Jalan Pajajaran</name>
            <styleUrl>#51224</styleUrl>
            <LineString id="51222">
                <coordinates>107.6045,-6.907158,0.0 107.6044996,-6.907174,0.0 107.6044946,-6.9071893,0.0 107.6044854,-6.9072025,0.0 107.6044728,-6.9072125,0.0 107.6044578,-6.9072185,0.0 107.6044417,-6.9072201,0.0</coordinates>
            </LineString>
        </Placemark>
        <Placemark id="51227">
            <name>Jalan Sukabumi</name>
            <styleUrl>#51228</styleUrl>
            <LineString id="51226">
                <coordinates>107.6347173,-6.914512,0.0 107.634483,-6.9157469,0.0 107.6344729,-6.9158077,0.0 107.634447,-6.9159625,0.0</coordinates>
            </LineString>
        </Placemark>
        <Placemark id="51231">
            <name>Jalan Pajajaran</name>
            <styleUrl>#51232</styleUrl>
            <LineString id="51230">
                <coordinates>107.5906641,-6.907081,0.0 107.5906383,-6.9070791,0.0</coordinates>
            </LineString>
        </Placemark>
        <Placemark id="51235">
            <name>Jalan Pajajaran</name>
            <styleUrl>#51236</styleUrl>
            <LineString id="51234">
                <coordinates>107.5911224,-6.9070825,0.0 107.5910022,-6.9071149,0.0 107.5906641,-6.907081,0.0</coordinates>
            </LineString>
        </Placemark>
        <Placemark id="51239">
            <name>Jalan Sukabumi</name>
            <styleUrl>#51240</styleUrl>
            <LineString id="51238">
                <coordinates>107.6339445,-6.9173179,0.0 107.6337948,-6.9174252,0.0</coordinates>
            </LineString>
        </Placemark>
        <Placemark id="51243">
            <name>Jalan Sukabumi</name>
            <styleUrl>#51244</styleUrl>
            <LineString id="51242">
                <coordinates>107.634447,-6.9159625,0.0 107.634419,-6.9161223,0.0</coordinates>
            </LineString>
        </Placemark>
        <Placemark id="51247">
            <name>Jalan Wastukancana</name>
            <styleUrl>#51248</styleUrl>
            <LineString id="51246">
                <coordinates>107.609044,-6.9105515,0.0 107.6088855,-6.9102984,0.0</coordinates>
            </LineString>
        </Placemark>
        <Placemark id="51251">
            <name>Jalan Merdeka</name>
            <styleUrl>#51252</styleUrl>
            <LineString id="51250">
                <coordinates>107.610654,-6.909795,0.0 107.6106452,-6.9098761,0.0 107.6106164,-6.9099691,0.0</coordinates>
            </LineString>
        </Placemark>
        <Placemark id="51255">
            <name>Jalan Belitung</name>
            <styleUrl>#51256</styleUrl>
            <LineString id="51254">
                <coordinates>107.6132624,-6.9126239,0.0 107.6131903,-6.912646,0.0 107.613115,-6.9126437,0.0 107.6130444,-6.9126174,0.0</coordinates>
            </LineString>
        </Placemark>
        <Placemark id="51259">
            <name>Jalan Sumatra</name>
            <styleUrl>#51260</styleUrl>
            <LineString id="51258">
                <coordinates>107.6124394,-6.910028,0.0 107.612417,-6.9099758,0.0 107.6124105,-6.9099613,0.0 107.6123879,-6.909913,0.0 107.6123659,-6.9098744,0.0 107.6123326,-6.9098375,0.0 107.61229,-6.909804,0.0 107.6121344,-6.9097777,0.0</coordinates>
            </LineString>
        </Placemark>
        <Placemark id="51263">
            <name>Jalan Sukabumi</name>
            <styleUrl>#51264</styleUrl>
            <LineString id="51262">
                <coordinates>107.6341961,-6.9170831,0.0 107.6340932,-6.917204,0.0 107.6339445,-6.9173179,0.0</coordinates>
            </LineString>
        </Placemark>
        <Placemark id="51267">
            <name>Jalan Kebon Kawung</name>
            <styleUrl>#51268</styleUrl>
            <LineString id="51266">
                <coordinates>107.603885,-6.9126611,0.0 107.6038515,-6.9126567,0.0 107.6036069,-6.9126444,0.0 107.6032433,-6.9126176,0.0 107.6029824,-6.9125986,0.0 107.6029303,-6.9125954,0.0 107.6027169,-6.9125813,0.0 107.6024779,-6.9125651,0.0 107.6023535,-6.9125612,0.0 107.6022742,-6.9125566,0.0 107.6020122,-6.91254,0.0</coordinates>
            </LineString>
        </Placemark>
        <Placemark id="51271">
            <name>Jalan Kebon Kawung</name>
            <styleUrl>#51272</styleUrl>
            <LineString id="51270">
                <coordinates>107.6020122,-6.91254,0.0 107.6019305,-6.9125353,0.0</coordinates>
            </LineString>
        </Placemark>
        <Placemark id="51275">
            <name>Jalan Pajajaran</name>
            <styleUrl>#51276</styleUrl>
            <LineString id="51274">
                <coordinates>107.5930436,-6.9070358,0.0 107.592893,-6.9070548,0.0 107.5928538,-6.9070598,0.0 107.5926825,-6.9070846,0.0 107.5925401,-6.9070991,0.0 107.5923942,-6.9071118,0.0 107.592239,-6.9071272,0.0 107.5920701,-6.9071489,0.0</coordinates>
            </LineString>
        </Placemark>
        <Placemark id="51279">
            <name>Jalan Laswi</name>
            <styleUrl>#51280</styleUrl>
            <LineString id="51278">
                <coordinates>107.6313572,-6.9186866,0.0 107.6313458,-6.9186198,0.0</coordinates>
            </LineString>
        </Placemark>
        <Placemark id="51283">
            <name>Jalan Sukabumi</name>
            <styleUrl>#51284</styleUrl>
            <LineString id="51282">
                <coordinates>107.6314582,-6.9186505,0.0 107.6313572,-6.9186866,0.0</coordinates>
            </LineString>
        </Placemark>
        <Placemark id="51287">
            <name>Jalan Sukabumi</name>
            <styleUrl>#51288</styleUrl>
            <LineString id="51286">
                <coordinates>107.6320827,-6.9183023,0.0 107.6320334,-6.9183683,0.0 107.6315787,-6.9185925,0.0 107.6314582,-6.9186505,0.0</coordinates>
            </LineString>
        </Placemark>
        <Placemark id="51291">
            <name>Jalan Sukabumi</name>
            <styleUrl>#51292</styleUrl>
            <LineString id="51290">
                <coordinates>107.6337948,-6.9174252,0.0 107.6337656,-6.9174454,0.0 107.6330451,-6.9178143,0.0 107.6324739,-6.9181019,0.0</coordinates>
            </LineString>
        </Placemark>
        <Placemark id="51295">
            <name>Jalan Cibatu</name>
            <styleUrl>#51296</styleUrl>
            <LineString id="51294">
                <coordinates>107.6654561,-6.9158164,0.0 107.6654841,-6.9157646,0.0 107.6655035,-6.9157094,0.0</coordinates>
            </LineString>
        </Placemark>
        <Placemark id="51299">
            <name>Jalan Terusan Jakarta</name>
            <styleUrl>#51300</styleUrl>
            <LineString id="51298">
                <coordinates>107.6660397,-6.9150232,0.0 107.6658787,-6.9149864,0.0</coordinates>
            </LineString>
        </Placemark>
        <Placemark id="51303">
            <name>Jalan Terusan Jakarta</name>
            <styleUrl>#51304</styleUrl>
            <LineString id="51302">
                <coordinates>107.6658787,-6.9149864,0.0 107.6656787,-6.9149413,0.0</coordinates>
            </LineString>
        </Placemark>
        <Placemark id="51307">
            <name>Jalan Jenderal Ahmad Yani</name>
            <styleUrl>#51308</styleUrl>
            <LineString id="51306">
                <coordinates>107.6274434,-6.9171135,0.0 107.6274142,-6.9171591,0.0 107.6273636,-6.9171968,0.0</coordinates>
            </LineString>
        </Placemark>
        <Placemark id="51311">
            <name>Jalan Jakarta</name>
            <styleUrl>#51312</styleUrl>
            <LineString id="51310">
                <coordinates>107.6434317,-6.9138202,0.0 107.6429791,-6.9138756,0.0</coordinates>
            </LineString>
        </Placemark>
        <Placemark id="51315">
            <name>Jalan Gudang Utara</name>
            <styleUrl>#51316</styleUrl>
            <LineString id="51314">
                <coordinates>107.6191903,-6.9151802,0.0 107.6193043,-6.9152077,0.0 107.6193915,-6.9152288,0.0 107.6194468,-6.9152422,0.0 107.6196923,-6.9153016,0.0</coordinates>
            </LineString>
        </Placemark>
        <Placemark id="51319">
            <name>Jalan Gudang Utara</name>
            <styleUrl>#51320</styleUrl>
            <LineString id="51318">
                <coordinates>107.6196923,-6.9153016,0.0 107.6210127,-6.9156209,0.0</coordinates>
            </LineString>
        </Placemark>
        <Placemark id="51323">
            <name>Jalan Gudang Utara</name>
            <styleUrl>#51324</styleUrl>
            <LineString id="51322">
                <coordinates>107.6210127,-6.9156209,0.0 107.6212044,-6.9156673,0.0</coordinates>
            </LineString>
        </Placemark>
        <Placemark id="51327">
            <name>Jalan Gudang Utara</name>
            <styleUrl>#51328</styleUrl>
            <LineString id="51326">
                <coordinates>107.6212044,-6.9156673,0.0 107.621498,-6.9157384,0.0</coordinates>
            </LineString>
        </Placemark>
        <Placemark id="51331">
            <name>Jalan Gudang Utara</name>
            <styleUrl>#51332</styleUrl>
            <LineString id="51330">
                <coordinates>107.621498,-6.9157384,0.0 107.6221708,-6.9159011,0.0</coordinates>
            </LineString>
        </Placemark>
        <Placemark id="51335">
            <name>Jalan Gudang Utara</name>
            <styleUrl>#51336</styleUrl>
            <LineString id="51334">
                <coordinates>107.6221708,-6.9159011,0.0 107.6222472,-6.9159196,0.0</coordinates>
            </LineString>
        </Placemark>
        <Placemark id="51339">
            <name>Jalan Gudang Utara</name>
            <styleUrl>#51340</styleUrl>
            <LineString id="51338">
                <coordinates>107.6222472,-6.9159196,0.0 107.6225707,-6.9159978,0.0</coordinates>
            </LineString>
        </Placemark>
        <Placemark id="51343">
            <name>Jalan Gudang Utara</name>
            <styleUrl>#51344</styleUrl>
            <LineString id="51342">
                <coordinates>107.6225707,-6.9159978,0.0 107.6226711,-6.9160221,0.0</coordinates>
            </LineString>
        </Placemark>
        <Placemark id="51347">
            <name>Jalan Gudang Utara</name>
            <styleUrl>#51348</styleUrl>
            <LineString id="51346">
                <coordinates>107.6226711,-6.9160221,0.0 107.6229727,-6.916095,0.0</coordinates>
            </LineString>
        </Placemark>
        <Placemark id="51351">
            <name>Jalan Gudang Utara</name>
            <styleUrl>#51352</styleUrl>
            <LineString id="51350">
                <coordinates>107.6229727,-6.916095,0.0 107.6234972,-6.9162219,0.0</coordinates>
            </LineString>
        </Placemark>
        <Placemark id="51355">
            <name>Jalan Gudang Utara</name>
            <styleUrl>#51356</styleUrl>
            <LineString id="51354">
                <coordinates>107.6234972,-6.9162219,0.0 107.6238525,-6.9163079,0.0</coordinates>
            </LineString>
        </Placemark>
        <Placemark id="51359">
            <name>Jalan Gudang Utara</name>
            <styleUrl>#51360</styleUrl>
            <LineString id="51358">
                <coordinates>107.6238525,-6.9163079,0.0 107.6244453,-6.9164512,0.0</coordinates>
            </LineString>
        </Placemark>
        <Placemark id="51363">
            <name>Jalan Gudang Utara</name>
            <styleUrl>#51364</styleUrl>
            <LineString id="51362">
                <coordinates>107.6244453,-6.9164512,0.0 107.6255424,-6.9167166,0.0</coordinates>
            </LineString>
        </Placemark>
        <Placemark id="51367">
            <name>Jalan Gudang Utara</name>
            <styleUrl>#51368</styleUrl>
            <LineString id="51366">
                <coordinates>107.6255424,-6.9167166,0.0 107.6259467,-6.9168185,0.0</coordinates>
            </LineString>
        </Placemark>
        <Placemark id="51371">
            <name>Jalan Gudang Utara</name>
            <styleUrl>#51372</styleUrl>
            <LineString id="51370">
                <coordinates>107.6259467,-6.9168185,0.0 107.6262609,-6.9168904,0.0</coordinates>
            </LineString>
        </Placemark>
        <Placemark id="51375">
            <name>Jalan Gudang Utara</name>
            <styleUrl>#51376</styleUrl>
            <LineString id="51374">
                <coordinates>107.6262609,-6.9168904,0.0 107.6266404,-6.9169823,0.0</coordinates>
            </LineString>
        </Placemark>
        <Placemark id="51379">
            <name>Jalan Gudang Utara</name>
            <styleUrl>#51380</styleUrl>
            <LineString id="51378">
                <coordinates>107.6266404,-6.9169823,0.0 107.6270406,-6.917079,0.0</coordinates>
            </LineString>
        </Placemark>
        <Placemark id="51383">
            <name>Jalan Gudang Utara</name>
            <styleUrl>#51384</styleUrl>
            <LineString id="51382">
                <coordinates>107.6270406,-6.917079,0.0 107.6273307,-6.9171455,0.0</coordinates>
            </LineString>
        </Placemark>
        <Placemark id="51387">
            <name>Jalan Kebon Kawung</name>
            <styleUrl>#51388</styleUrl>
            <LineString id="51386">
                <coordinates>107.6006435,-6.9124749,0.0 107.6002224,-6.9124495,0.0</coordinates>
            </LineString>
        </Placemark>
        <Placemark id="51391">
            <name>Jalan Kebon Kawung</name>
            <styleUrl>#51392</styleUrl>
            <LineString id="51390">
                <coordinates>107.6002224,-6.9124495,0.0 107.6000202,-6.912439,0.0</coordinates>
            </LineString>
        </Placemark>
        <Placemark id="51395">
            <name>Jalan Kebon Kawung</name>
            <styleUrl>#51396</styleUrl>
            <LineString id="51394">
                <coordinates>107.6000202,-6.912439,0.0 107.5993874,-6.9123994,0.0</coordinates>
            </LineString>
        </Placemark>
        <Placemark id="51399">
            <name>Jalan Kebon Kawung</name>
            <styleUrl>#51400</styleUrl>
            <LineString id="51398">
                <coordinates>107.5993874,-6.9123994,0.0 107.5990408,-6.912374,0.0 107.5990132,-6.912372,0.0</coordinates>
            </LineString>
        </Placemark>
        <Placemark id="51403">
            <name>Jalan Kebon Kawung</name>
            <styleUrl>#51404</styleUrl>
            <LineString id="51402">
                <coordinates>107.5990132,-6.912372,0.0 107.5982527,-6.912368,0.0</coordinates>
            </LineString>
        </Placemark>
        <Placemark id="51407">
            <name>Jalan Kebon Kawung</name>
            <styleUrl>#51408</styleUrl>
            <LineString id="51406">
                <coordinates>107.601745,-6.9125245,0.0 107.601624,-6.9125174,0.0</coordinates>
            </LineString>
        </Placemark>
        <Placemark id="51411">
            <name>Jalan Kebon Kawung</name>
            <styleUrl>#51412</styleUrl>
            <LineString id="51410">
                <coordinates>107.601624,-6.9125174,0.0 107.6015636,-6.9125139,0.0</coordinates>
            </LineString>
        </Placemark>
        <Placemark id="51415">
            <name>Jalan Kebon Kawung</name>
            <styleUrl>#51416</styleUrl>
            <LineString id="51414">
                <coordinates>107.6015636,-6.9125139,0.0 107.6010547,-6.9124917,0.0</coordinates>
            </LineString>
        </Placemark>
        <Placemark id="51419">
            <name>Jalan Kebon Kawung</name>
            <styleUrl>#51420</styleUrl>
            <LineString id="51418">
                <coordinates>107.6010547,-6.9124917,0.0 107.6009674,-6.9124878,0.0</coordinates>
            </LineString>
        </Placemark>
        <Placemark id="51423">
            <name>Jalan Kebon Kawung</name>
            <styleUrl>#51424</styleUrl>
            <LineString id="51422">
                <coordinates>107.6009674,-6.9124878,0.0 107.6007223,-6.9124771,0.0 107.6006435,-6.9124749,0.0</coordinates>
            </LineString>
        </Placemark>
        <Placemark id="51427">
            <name>Jalan Terusan Jakarta</name>
            <styleUrl>#51428</styleUrl>
            <LineString id="51426">
                <coordinates>107.6518998,-6.9126808,0.0 107.6518089,-6.9126922,0.0 107.6516097,-6.9127171,0.0 107.6512126,-6.9127667,0.0</coordinates>
            </LineString>
        </Placemark>
        <Placemark id="51431">
            <name>Jalan Sukabumi</name>
            <styleUrl>#51432</styleUrl>
            <LineString id="51430">
                <coordinates>107.6324739,-6.9181019,0.0 107.6322059,-6.9182368,0.0 107.6321219,-6.9182791,0.0 107.6320827,-6.9183023,0.0</coordinates>
            </LineString>
        </Placemark>
    </Document>
</kml>
