<?xml version="1.0" encoding="UTF-8"?>
<kml xmlns="http://www.opengis.net/kml/2.2" xmlns:gx="http://www.google.com/kml/ext/2.2">
    <Document id="54499">
        <Style id="54505">
            <IconStyle id="54506">
                <colorMode>normal</colorMode>
                <scale>1</scale>
                <heading>0</heading>
                <Icon id="54507">
                    <href>http://maps.google.com/mapfiles/kml/pushpin/ylw-pushpin.png</href>
                </Icon>
            </IconStyle>
        </Style>
        <Style id="54510">
            <IconStyle id="54511">
                <colorMode>normal</colorMode>
                <scale>1</scale>
                <heading>0</heading>
                <Icon id="54512">
                    <href>http://maps.google.com/mapfiles/kml/pushpin/ylw-pushpin.png</href>
                </Icon>
            </IconStyle>
        </Style>
        <Style id="54515">
            <LineStyle id="54516">
                <color>ff00F2FF</color>
                <colorMode>normal</colorMode>
                <width>4</width>
            </LineStyle>
        </Style>
        <Style id="54519">
            <LineStyle id="54520">
                <color>ff00F2FF</color>
                <colorMode>normal</colorMode>
                <width>4</width>
            </LineStyle>
        </Style>
        <Style id="54523">
            <LineStyle id="54524">
                <color>ff00F2FF</color>
                <colorMode>normal</colorMode>
                <width>4</width>
            </LineStyle>
        </Style>
        <Style id="54527">
            <LineStyle id="54528">
                <color>ff00F2FF</color>
                <colorMode>normal</colorMode>
                <width>4</width>
            </LineStyle>
        </Style>
        <Style id="54531">
            <LineStyle id="54532">
                <color>ff00F2FF</color>
                <colorMode>normal</colorMode>
                <width>4</width>
            </LineStyle>
        </Style>
        <Style id="54535">
            <LineStyle id="54536">
                <color>ff00F2FF</color>
                <colorMode>normal</colorMode>
                <width>4</width>
            </LineStyle>
        </Style>
        <Style id="54539">
            <LineStyle id="54540">
                <color>ff00F2FF</color>
                <colorMode>normal</colorMode>
                <width>4</width>
            </LineStyle>
        </Style>
        <Style id="54543">
            <LineStyle id="54544">
                <color>ff00F2FF</color>
                <colorMode>normal</colorMode>
                <width>4</width>
            </LineStyle>
        </Style>
        <Style id="54547">
            <LineStyle id="54548">
                <color>ff00F2FF</color>
                <colorMode>normal</colorMode>
                <width>4</width>
            </LineStyle>
        </Style>
        <Style id="54551">
            <LineStyle id="54552">
                <color>ff00F2FF</color>
                <colorMode>normal</colorMode>
                <width>4</width>
            </LineStyle>
        </Style>
        <Style id="54555">
            <LineStyle id="54556">
                <color>ff00F2FF</color>
                <colorMode>normal</colorMode>
                <width>4</width>
            </LineStyle>
        </Style>
        <Style id="54559">
            <LineStyle id="54560">
                <color>ff00F2FF</color>
                <colorMode>normal</colorMode>
                <width>4</width>
            </LineStyle>
        </Style>
        <Style id="54563">
            <LineStyle id="54564">
                <color>ff00F2FF</color>
                <colorMode>normal</colorMode>
                <width>4</width>
            </LineStyle>
        </Style>
        <Style id="54567">
            <LineStyle id="54568">
                <color>ff00F2FF</color>
                <colorMode>normal</colorMode>
                <width>4</width>
            </LineStyle>
        </Style>
        <Style id="54571">
            <LineStyle id="54572">
                <color>ff00F2FF</color>
                <colorMode>normal</colorMode>
                <width>4</width>
            </LineStyle>
        </Style>
        <Style id="54575">
            <LineStyle id="54576">
                <color>ff00F2FF</color>
                <colorMode>normal</colorMode>
                <width>4</width>
            </LineStyle>
        </Style>
        <Style id="54579">
            <LineStyle id="54580">
                <color>ff00F2FF</color>
                <colorMode>normal</colorMode>
                <width>4</width>
            </LineStyle>
        </Style>
        <Style id="54583">
            <LineStyle id="54584">
                <color>ff00F2FF</color>
                <colorMode>normal</colorMode>
                <width>4</width>
            </LineStyle>
        </Style>
        <Style id="54587">
            <LineStyle id="54588">
                <color>ff00F2FF</color>
                <colorMode>normal</colorMode>
                <width>4</width>
            </LineStyle>
        </Style>
        <Style id="54591">
            <LineStyle id="54592">
                <color>ff00F2FF</color>
                <colorMode>normal</colorMode>
                <width>4</width>
            </LineStyle>
        </Style>
        <Style id="54595">
            <LineStyle id="54596">
                <color>ff00F2FF</color>
                <colorMode>normal</colorMode>
                <width>4</width>
            </LineStyle>
        </Style>
        <Style id="54599">
            <LineStyle id="54600">
                <color>ff00F2FF</color>
                <colorMode>normal</colorMode>
                <width>4</width>
            </LineStyle>
        </Style>
        <Style id="54603">
            <LineStyle id="54604">
                <color>ff00F2FF</color>
                <colorMode>normal</colorMode>
                <width>4</width>
            </LineStyle>
        </Style>
        <Style id="54607">
            <LineStyle id="54608">
                <color>ff00F2FF</color>
                <colorMode>normal</colorMode>
                <width>4</width>
            </LineStyle>
        </Style>
        <Style id="54611">
            <LineStyle id="54612">
                <color>ff00F2FF</color>
                <colorMode>normal</colorMode>
                <width>4</width>
            </LineStyle>
        </Style>
        <Style id="54615">
            <LineStyle id="54616">
                <color>ff00F2FF</color>
                <colorMode>normal</colorMode>
                <width>4</width>
            </LineStyle>
        </Style>
        <Style id="54619">
            <LineStyle id="54620">
                <color>ff00F2FF</color>
                <colorMode>normal</colorMode>
                <width>4</width>
            </LineStyle>
        </Style>
        <Style id="54623">
            <LineStyle id="54624">
                <color>ff00F2FF</color>
                <colorMode>normal</colorMode>
                <width>4</width>
            </LineStyle>
        </Style>
        <Style id="54627">
            <LineStyle id="54628">
                <color>ff00F2FF</color>
                <colorMode>normal</colorMode>
                <width>4</width>
            </LineStyle>
        </Style>
        <Style id="54631">
            <LineStyle id="54632">
                <color>ff00F2FF</color>
                <colorMode>normal</colorMode>
                <width>4</width>
            </LineStyle>
        </Style>
        <Style id="54635">
            <LineStyle id="54636">
                <color>ff00F2FF</color>
                <colorMode>normal</colorMode>
                <width>4</width>
            </LineStyle>
        </Style>
        <Style id="54639">
            <LineStyle id="54640">
                <color>ff00F2FF</color>
                <colorMode>normal</colorMode>
                <width>4</width>
            </LineStyle>
        </Style>
        <Style id="54643">
            <LineStyle id="54644">
                <color>ff00F2FF</color>
                <colorMode>normal</colorMode>
                <width>4</width>
            </LineStyle>
        </Style>
        <Style id="54647">
            <LineStyle id="54648">
                <color>ff00F2FF</color>
                <colorMode>normal</colorMode>
                <width>4</width>
            </LineStyle>
        </Style>
        <Style id="54651">
            <LineStyle id="54652">
                <color>ff00F2FF</color>
                <colorMode>normal</colorMode>
                <width>4</width>
            </LineStyle>
        </Style>
        <Style id="54655">
            <LineStyle id="54656">
                <color>ff00F2FF</color>
                <colorMode>normal</colorMode>
                <width>4</width>
            </LineStyle>
        </Style>
        <Style id="54659">
            <LineStyle id="54660">
                <color>ff00F2FF</color>
                <colorMode>normal</colorMode>
                <width>4</width>
            </LineStyle>
        </Style>
        <Style id="54663">
            <LineStyle id="54664">
                <color>ff00F2FF</color>
                <colorMode>normal</colorMode>
                <width>4</width>
            </LineStyle>
        </Style>
        <Style id="54667">
            <LineStyle id="54668">
                <color>ff00F2FF</color>
                <colorMode>normal</colorMode>
                <width>4</width>
            </LineStyle>
        </Style>
        <Style id="54671">
            <LineStyle id="54672">
                <color>ff00F2FF</color>
                <colorMode>normal</colorMode>
                <width>4</width>
            </LineStyle>
        </Style>
        <Style id="54675">
            <LineStyle id="54676">
                <color>ff00F2FF</color>
                <colorMode>normal</colorMode>
                <width>4</width>
            </LineStyle>
        </Style>
        <Style id="54679">
            <LineStyle id="54680">
                <color>ff00F2FF</color>
                <colorMode>normal</colorMode>
                <width>4</width>
            </LineStyle>
        </Style>
        <Style id="54683">
            <LineStyle id="54684">
                <color>ff00F2FF</color>
                <colorMode>normal</colorMode>
                <width>4</width>
            </LineStyle>
        </Style>
        <Style id="54687">
            <LineStyle id="54688">
                <color>ff00F2FF</color>
                <colorMode>normal</colorMode>
                <width>4</width>
            </LineStyle>
        </Style>
        <Style id="54691">
            <LineStyle id="54692">
                <color>ff00F2FF</color>
                <colorMode>normal</colorMode>
                <width>4</width>
            </LineStyle>
        </Style>
        <Style id="54695">
            <LineStyle id="54696">
                <color>ff00F2FF</color>
                <colorMode>normal</colorMode>
                <width>4</width>
            </LineStyle>
        </Style>
        <Style id="54699">
            <LineStyle id="54700">
                <color>ff00F2FF</color>
                <colorMode>normal</colorMode>
                <width>4</width>
            </LineStyle>
        </Style>
        <Style id="54703">
            <LineStyle id="54704">
                <color>ff00F2FF</color>
                <colorMode>normal</colorMode>
                <width>4</width>
            </LineStyle>
        </Style>
        <Style id="54707">
            <LineStyle id="54708">
                <color>ff00F2FF</color>
                <colorMode>normal</colorMode>
                <width>4</width>
            </LineStyle>
        </Style>
        <Style id="54711">
            <LineStyle id="54712">
                <color>ff00F2FF</color>
                <colorMode>normal</colorMode>
                <width>4</width>
            </LineStyle>
        </Style>
        <Style id="54715">
            <LineStyle id="54716">
                <color>ff00F2FF</color>
                <colorMode>normal</colorMode>
                <width>4</width>
            </LineStyle>
        </Style>
        <ExtendedData>
            <Data name="route-name">
                <value>35: Cibaduyut → Kalapa</value>
            </Data>
            <Data name="source">
                <value>Transport for Bandung</value>
            </Data>
        </ExtendedData>
        <Placemark id="54504">
            <name>Terminal Cibaduyut</name>
            <styleUrl>#54505</styleUrl>
            <Point id="54503">
                <coordinates>107.5937757,-6.9617658,0.0</coordinates>
            </Point>
        </Placemark>
        <Placemark id="54509">
            <name>Terminal Abdul Muis/Kebon Kalapa</name>
            <styleUrl>#54510</styleUrl>
            <Point id="54508">
                <coordinates>107.6058322,-6.9276428,0.0</coordinates>
            </Point>
        </Placemark>
        <Placemark id="54514">
            <name>Jalan Dewi Sartika</name>
            <styleUrl>#54515</styleUrl>
            <LineString id="54513">
                <coordinates>107.6054273,-6.9316877,0.0 107.6055016,-6.9311384,0.0</coordinates>
            </LineString>
        </Placemark>
        <Placemark id="54518">
            <name>Jalan Mohammad Toha</name>
            <styleUrl>#54519</styleUrl>
            <LineString id="54517">
                <coordinates>107.6062717,-6.9369192,0.0 107.6062734,-6.9368359,0.0 107.6062967,-6.9365546,0.0 107.6063142,-6.9363593,0.0 107.6063233,-6.9362301,0.0 107.6063417,-6.936014,0.0 107.6064406,-6.9346805,0.0 107.6064535,-6.9345182,0.0 107.6064952,-6.9339342,0.0 107.606542,-6.9332805,0.0 107.6065448,-6.9332508,0.0 107.6065614,-6.9329988,0.0 107.6065733,-6.9328659,0.0</coordinates>
            </LineString>
        </Placemark>
        <Placemark id="54522">
            <name>Route Segment</name>
            <styleUrl>#54523</styleUrl>
            <LineString id="54521">
                <coordinates>107.5870783,-6.9286663,0.0 107.5870069,-6.9287166,0.0</coordinates>
            </LineString>
        </Placemark>
        <Placemark id="54526">
            <name>Jalan Raya Cibaduyut</name>
            <styleUrl>#54527</styleUrl>
            <LineString id="54525">
                <coordinates>107.5951636,-6.9477707,0.0 107.5951418,-6.9478259,0.0 107.5951296,-6.9478505,0.0 107.5951215,-6.9478692,0.0 107.5950953,-6.9479038,0.0 107.5950618,-6.9479511,0.0 107.5950276,-6.9479856,0.0 107.5949773,-6.9480149,0.0 107.5948566,-6.9480862,0.0 107.5947507,-6.9481401,0.0 107.5946789,-6.9481874,0.0 107.5946166,-6.9482326,0.0 107.5945643,-6.9482752,0.0 107.5945267,-6.9483019,0.0 107.5944851,-6.9483431,0.0 107.5944503,-6.9483844,0.0 107.594408,-6.9484363,0.0 107.5943671,-6.9484982,0.0 107.5943322,-6.9485655,0.0 107.5942998,-6.9486456,0.0</coordinates>
            </LineString>
        </Placemark>
        <Placemark id="54530">
            <name>Jalan Keluar Terminal Leuwipanjang</name>
            <styleUrl>#54531</styleUrl>
            <LineString id="54529">
                <coordinates>107.5930712,-6.9449781,0.0 107.593015,-6.9448403,0.0 107.5929533,-6.9447063,0.0 107.5928942,-6.9445945,0.0 107.5928516,-6.9445099,0.0 107.5927633,-6.9443785,0.0 107.5926206,-6.9442577,0.0 107.5924038,-6.9441248,0.0 107.5921208,-6.9439946,0.0</coordinates>
            </LineString>
        </Placemark>
        <Placemark id="54534">
            <name>Jalan Ibu Inggit Ganarsih</name>
            <styleUrl>#54535</styleUrl>
            <LineString id="54533">
                <coordinates>107.6054273,-6.9316877,0.0 107.6059974,-6.9317627,0.0 107.6060299,-6.9317669,0.0 107.6064523,-6.9318239,0.0 107.606653,-6.9318519,0.0</coordinates>
            </LineString>
        </Placemark>
        <Placemark id="54538">
            <name>Jalan Peta</name>
            <styleUrl>#54539</styleUrl>
            <LineString id="54537">
                <coordinates>107.5870783,-6.9286663,0.0 107.5872693,-6.9289677,0.0 107.5877514,-6.9297245,0.0 107.5878209,-6.9298432,0.0 107.5879133,-6.929976,0.0 107.5880867,-6.9302251,0.0 107.5885186,-6.9308281,0.0 107.5892718,-6.9317765,0.0 107.5896129,-6.9322061,0.0 107.5898891,-6.9325542,0.0 107.5900921,-6.932815,0.0 107.5902264,-6.9329875,0.0 107.5904689,-6.9332992,0.0 107.5906616,-6.9335467,0.0 107.591246,-6.9342321,0.0 107.5913302,-6.9343317,0.0 107.5918144,-6.9348252,0.0 107.5920652,-6.9350312,0.0 107.5924543,-6.9353145,0.0 107.5926882,-6.9354742,0.0 107.5927748,-6.935529,0.0 107.5928457,-6.9355727,0.0 107.593996,-6.9363217,0.0 107.594144,-6.936407,0.0 107.5941686,-6.9364211,0.0</coordinates>
            </LineString>
        </Placemark>
        <Placemark id="54542">
            <name>Jalan Peta</name>
            <styleUrl>#54543</styleUrl>
            <LineString id="54541">
                <coordinates>107.5950424,-6.936952,0.0 107.595108,-6.9369797,0.0 107.5952913,-6.937055,0.0</coordinates>
            </LineString>
        </Placemark>
        <Placemark id="54546">
            <name>Route Segment</name>
            <styleUrl>#54547</styleUrl>
            <LineString id="54545">
                <coordinates>107.6058679,-6.9374947,0.0 107.605993,-6.9374403,0.0 107.6060369,-6.9374207,0.0 107.6061034,-6.9373922,0.0 107.6061338,-6.9373664,0.0 107.6061526,-6.9373442,0.0 107.6061812,-6.9373044,0.0 107.6062104,-6.9372527,0.0</coordinates>
            </LineString>
        </Placemark>
        <Placemark id="54550">
            <name>Jalan Kyai Haji Wahid Hasyim</name>
            <styleUrl>#54551</styleUrl>
            <LineString id="54549">
                <coordinates>107.5920724,-6.9418438,0.0 107.5922389,-6.9415903,0.0 107.5924641,-6.9412448,0.0 107.5930896,-6.9402979,0.0 107.59314,-6.9402168,0.0 107.5932148,-6.9400962,0.0 107.5932356,-6.9400628,0.0 107.5933094,-6.939944,0.0 107.5934404,-6.9397331,0.0 107.5936005,-6.9394752,0.0 107.5937688,-6.9391642,0.0 107.5939092,-6.9389121,0.0 107.5939987,-6.938752,0.0 107.5940814,-6.9386042,0.0 107.5941015,-6.9385696,0.0 107.594148,-6.9384872,0.0 107.594204,-6.9383881,0.0 107.594524,-6.9378129,0.0 107.5945872,-6.9376992,0.0 107.5946221,-6.9376377,0.0 107.5946542,-6.9375847,0.0 107.5948299,-6.9373141,0.0</coordinates>
            </LineString>
        </Placemark>
        <Placemark id="54554">
            <name>Jalan Raya Cibaduyut</name>
            <styleUrl>#54555</styleUrl>
            <LineString id="54553">
                <coordinates>107.5951636,-6.9477707,0.0 107.5951744,-6.9476516,0.0 107.5951774,-6.9476057,0.0</coordinates>
            </LineString>
        </Placemark>
        <Placemark id="54558">
            <name>Jalan Raya Cibaduyut</name>
            <styleUrl>#54559</styleUrl>
            <LineString id="54557">
                <coordinates>107.5942998,-6.9486456,0.0 107.5942619,-6.9487521,0.0 107.594111,-6.9491645,0.0 107.594007,-6.9494581,0.0 107.593989,-6.9495183,0.0 107.5939029,-6.9498072,0.0 107.5937705,-6.950365,0.0 107.5937512,-6.9504458,0.0 107.5937476,-6.9504611,0.0 107.593706,-6.9506522,0.0 107.5936724,-6.9508306,0.0 107.5936409,-6.9510003,0.0 107.593606,-6.9512253,0.0 107.5935936,-6.95131,0.0 107.5935928,-6.9513153,0.0 107.5935268,-6.9517653,0.0 107.5935106,-6.9518508,0.0 107.5934577,-6.9521425,0.0 107.5934263,-6.9522883,0.0 107.5933988,-6.9524241,0.0 107.5933754,-6.9525559,0.0 107.5933284,-6.9527389,0.0 107.5933177,-6.9527975,0.0 107.593309,-6.9528767,0.0 107.5933036,-6.9529725,0.0 107.593305,-6.9532368,0.0 107.5933075,-6.9534735,0.0 107.5932993,-6.9536359,0.0 107.5932909,-6.9538691,0.0 107.5932949,-6.9539843,0.0 107.5932996,-6.9541793,0.0 107.593305,-6.9542246,0.0 107.5933365,-6.9543897,0.0 107.5933935,-6.9546193,0.0 107.5934061,-6.9546625,0.0 107.5934384,-6.9547824,0.0 107.5934686,-6.9549341,0.0 107.593488,-6.955044,0.0 107.5934934,-6.9550985,0.0 107.5934947,-6.9551751,0.0 107.5934916,-6.9551915,0.0 107.5934747,-6.9552797,0.0 107.5934458,-6.9553814,0.0 107.5933754,-6.9556357,0.0 107.5933656,-6.9556633,0.0 107.593298,-6.955853,0.0 107.5932667,-6.9559447,0.0 107.5932482,-6.9560037,0.0 107.5932429,-6.9560206,0.0 107.5931688,-6.9562614,0.0 107.5931279,-6.9564338,0.0 107.5931118,-6.9565123,0.0 107.5931011,-6.9565895,0.0 107.5930924,-6.9567466,0.0 107.5931829,-6.9574289,0.0 107.5931876,-6.957554,0.0 107.593193,-6.9577384,0.0 107.5931995,-6.957832,0.0 107.5932071,-6.9579567,0.0 107.5932265,-6.9580632,0.0 107.593256,-6.958195,0.0 107.5932729,-6.9582559,0.0 107.5932835,-6.9582848,0.0 107.5933485,-6.9584339,0.0 107.5934169,-6.9585984,0.0 107.5934817,-6.9587587,0.0 107.5935162,-6.958844,0.0 107.5935437,-6.9589191,0.0 107.5935578,-6.9589944,0.0 107.5935544,-6.9590537,0.0 107.5935423,-6.9591362,0.0 107.5935324,-6.9592025,0.0 107.5935172,-6.9593415,0.0 107.5935017,-6.9594638,0.0 107.5934861,-6.959587,0.0 107.5934847,-6.9596633,0.0 107.5934853,-6.9597652,0.0 107.5934947,-6.9598657,0.0 107.5935034,-6.9599256,0.0 107.5935148,-6.9599802,0.0 107.5935343,-6.9600407,0.0 107.5935611,-6.9601013,0.0 107.5935846,-6.9601313,0.0 107.5936972,-6.9602917,0.0 107.5937871,-6.9604228,0.0 107.5938486,-6.9605156,0.0 107.5939708,-6.9607057,0.0 107.5939983,-6.9607589,0.0 107.5940191,-6.9608068,0.0 107.5940339,-6.9608475,0.0 107.5940399,-6.9608927,0.0 107.5940406,-6.960948,0.0 107.5940379,-6.9610205,0.0 107.5938862,-6.9614574,0.0 107.5938691,-6.9615072,0.0 107.5937757,-6.9617658,0.0</coordinates>
            </LineString>
        </Placemark>
        <Placemark id="54562">
            <name>Jalan Peta</name>
            <styleUrl>#54563</styleUrl>
            <LineString id="54561">
                <coordinates>107.5941,-6.9365167,0.0 107.5940685,-6.936498,0.0 107.5938061,-6.9363242,0.0 107.5936556,-6.9362262,0.0 107.5935951,-6.9361842,0.0 107.5934206,-6.9360675,0.0 107.5929263,-6.9357476,0.0 107.5926841,-6.9355767,0.0 107.5923469,-6.9353519,0.0 107.5919994,-6.9351204,0.0 107.5917192,-6.9348719,0.0 107.5916857,-6.9348415,0.0 107.5914958,-6.9346635,0.0 107.5914306,-6.9346026,0.0 107.5914077,-6.934577,0.0 107.5911483,-6.9342878,0.0 107.5907048,-6.9337927,0.0 107.5906563,-6.9337317,0.0 107.5905268,-6.933574,0.0 107.5902955,-6.9332924,0.0 107.5900181,-6.9329457,0.0 107.5899659,-6.9328782,0.0 107.5892057,-6.9318954,0.0 107.5887036,-6.9312262,0.0 107.5886347,-6.9311348,0.0 107.5885244,-6.9309884,0.0 107.5884445,-6.9308824,0.0 107.5882717,-6.9306532,0.0 107.5881617,-6.9305127,0.0 107.5880076,-6.930291,0.0 107.5878265,-6.9300334,0.0 107.58773,-6.9298868,0.0</coordinates>
            </LineString>
        </Placemark>
        <Placemark id="54566">
            <name>Route Segment</name>
            <styleUrl>#54567</styleUrl>
            <LineString id="54565">
                <coordinates>107.5948299,-6.9373141,0.0 107.5948404,-6.9372004,0.0 107.5948364,-6.9370866,0.0 107.5948276,-6.937023,0.0 107.5948141,-6.9369602,0.0</coordinates>
            </LineString>
        </Placemark>
        <Placemark id="54570">
            <name>Jalan Peta</name>
            <styleUrl>#54571</styleUrl>
            <LineString id="54569">
                <coordinates>107.599356,-6.9374873,0.0 107.5994448,-6.9374721,0.0</coordinates>
            </LineString>
        </Placemark>
        <Placemark id="54574">
            <name>Jalan Peta</name>
            <styleUrl>#54575</styleUrl>
            <LineString id="54573">
                <coordinates>107.5994448,-6.9374721,0.0 107.5994636,-6.9374701,0.0 107.6001982,-6.9373255,0.0 107.6005128,-6.9372644,0.0 107.6009668,-6.9371867,0.0 107.6012443,-6.9371571,0.0 107.6015131,-6.9371424,0.0 107.601986,-6.9371494,0.0 107.6020331,-6.9371534,0.0 107.6023057,-6.9371766,0.0 107.6025122,-6.9371945,0.0</coordinates>
            </LineString>
        </Placemark>
        <Placemark id="54578">
            <name>Jalan Keluar Terminal Leuwipanjang</name>
            <styleUrl>#54579</styleUrl>
            <LineString id="54577">
                <coordinates>107.5921208,-6.9439946,0.0 107.5918901,-6.9438721,0.0</coordinates>
            </LineString>
        </Placemark>
        <Placemark id="54582">
            <name>Jalan Peta</name>
            <styleUrl>#54583</styleUrl>
            <LineString id="54581">
                <coordinates>107.5948326,-6.9368455,0.0 107.5949722,-6.9369162,0.0 107.5950424,-6.936952,0.0</coordinates>
            </LineString>
        </Placemark>
        <Placemark id="54586">
            <name>Jalan Peta</name>
            <styleUrl>#54587</styleUrl>
            <LineString id="54585">
                <coordinates>107.5941686,-6.9364211,0.0 107.5948326,-6.9368455,0.0</coordinates>
            </LineString>
        </Placemark>
        <Placemark id="54590">
            <name>Jalan Peta</name>
            <styleUrl>#54591</styleUrl>
            <LineString id="54589">
                <coordinates>107.5948141,-6.9369602,0.0 107.5943039,-6.9366433,0.0 107.5941,-6.9365167,0.0</coordinates>
            </LineString>
        </Placemark>
        <Placemark id="54594">
            <name>Jalan Mohammad Toha</name>
            <styleUrl>#54595</styleUrl>
            <LineString id="54593">
                <coordinates>107.6062104,-6.9372527,0.0 107.606234,-6.9369923,0.0 107.606247,-6.9369443,0.0 107.6062717,-6.9369192,0.0</coordinates>
            </LineString>
        </Placemark>
        <Placemark id="54598">
            <name>Jalur Bus AKDP Terminal Leuwipanjang</name>
            <styleUrl>#54599</styleUrl>
            <LineString id="54597">
                <coordinates>107.5940938,-6.9455608,0.0 107.594043,-6.9455517,0.0 107.5940056,-6.9454851,0.0 107.5939356,-6.9453939,0.0 107.5938407,-6.9453373,0.0 107.5937316,-6.9453157,0.0 107.5934986,-6.9452867,0.0</coordinates>
            </LineString>
        </Placemark>
        <Placemark id="54602">
            <name>Jalan Peta</name>
            <styleUrl>#54603</styleUrl>
            <LineString id="54601">
                <coordinates>107.5952913,-6.937055,0.0 107.5955701,-6.9371851,0.0 107.5956524,-6.9372267,0.0 107.5957833,-6.9372929,0.0 107.5960045,-6.937408,0.0 107.596358,-6.9375437,0.0 107.5965807,-6.9376054,0.0 107.5967717,-6.9376364,0.0 107.5970266,-6.9376757,0.0 107.5970826,-6.9376843,0.0 107.597167,-6.937696,0.0 107.597571,-6.9377203,0.0 107.5980158,-6.9377065,0.0 107.5984843,-6.937651,0.0 107.5993404,-6.9374905,0.0 107.599356,-6.9374873,0.0</coordinates>
            </LineString>
        </Placemark>
        <Placemark id="54606">
            <name>Jalan Leuwi Panjang</name>
            <styleUrl>#54607</styleUrl>
            <LineString id="54605">
                <coordinates>107.5952184,-6.9469031,0.0 107.5952459,-6.9466699,0.0 107.5952669,-6.9462117,0.0 107.595271,-6.9461694,0.0 107.5952757,-6.9461131,0.0 107.5952807,-6.9460535,0.0 107.5952859,-6.9459928,0.0 107.595295,-6.9458786,0.0</coordinates>
            </LineString>
        </Placemark>
        <Placemark id="54610">
            <name>Jalan Peta</name>
            <styleUrl>#54611</styleUrl>
            <LineString id="54609">
                <coordinates>107.6030015,-6.937215,0.0 107.603088,-6.9372221,0.0</coordinates>
            </LineString>
        </Placemark>
        <Placemark id="54614">
            <name>Jalan Peta</name>
            <styleUrl>#54615</styleUrl>
            <LineString id="54613">
                <coordinates>107.603088,-6.9372221,0.0 107.6031857,-6.9372292,0.0 107.6033103,-6.9372436,0.0</coordinates>
            </LineString>
        </Placemark>
        <Placemark id="54618">
            <name>Jalan Leuwi Panjang</name>
            <styleUrl>#54619</styleUrl>
            <LineString id="54617">
                <coordinates>107.5951948,-6.9471897,0.0 107.595201,-6.9471108,0.0 107.5952184,-6.9469031,0.0</coordinates>
            </LineString>
        </Placemark>
        <Placemark id="54622">
            <name>Jalan Raya Cibaduyut</name>
            <styleUrl>#54623</styleUrl>
            <LineString id="54621">
                <coordinates>107.5951774,-6.9476057,0.0 107.5951895,-6.9474073,0.0 107.5951905,-6.9473813,0.0</coordinates>
            </LineString>
        </Placemark>
        <Placemark id="54626">
            <name>Jalan Peta</name>
            <styleUrl>#54627</styleUrl>
            <LineString id="54625">
                <coordinates>107.6047707,-6.9373901,0.0 107.6053694,-6.9374494,0.0 107.6058679,-6.9374947,0.0</coordinates>
            </LineString>
        </Placemark>
        <Placemark id="54630">
            <name>Jalan Peta</name>
            <styleUrl>#54631</styleUrl>
            <LineString id="54629">
                <coordinates>107.6033103,-6.9372436,0.0 107.6035072,-6.9372599,0.0 107.6039376,-6.9372954,0.0 107.6044053,-6.9373359,0.0 107.6044997,-6.9373449,0.0 107.6045611,-6.9373516,0.0 107.6046277,-6.9373634,0.0 107.6046918,-6.937377,0.0 107.6047707,-6.9373901,0.0</coordinates>
            </LineString>
        </Placemark>
        <Placemark id="54634">
            <name>Jalan Peta</name>
            <styleUrl>#54635</styleUrl>
            <LineString id="54633">
                <coordinates>107.6025122,-6.9371945,0.0 107.6028574,-6.9372066,0.0 107.602893,-6.9372085,0.0 107.6030015,-6.937215,0.0</coordinates>
            </LineString>
        </Placemark>
        <Placemark id="54638">
            <name>Jalur Masuk Bus</name>
            <styleUrl>#54639</styleUrl>
            <LineString id="54637">
                <coordinates>107.595295,-6.9458786,0.0 107.5947542,-6.9458158,0.0</coordinates>
            </LineString>
        </Placemark>
        <Placemark id="54642">
            <name>Jalan Raya Cibaduyut</name>
            <styleUrl>#54643</styleUrl>
            <LineString id="54641">
                <coordinates>107.5951905,-6.9473813,0.0 107.5951948,-6.9471897,0.0</coordinates>
            </LineString>
        </Placemark>
        <Placemark id="54646">
            <name>Jalan Peta</name>
            <styleUrl>#54647</styleUrl>
            <LineString id="54645">
                <coordinates>107.58773,-6.9298868,0.0 107.5876706,-6.9297926,0.0 107.5876218,-6.9297152,0.0 107.5873584,-6.9292693,0.0 107.5873385,-6.9292381,0.0 107.5872624,-6.9291184,0.0 107.5870069,-6.9287166,0.0</coordinates>
            </LineString>
        </Placemark>
        <Placemark id="54650">
            <name>Jalan Keluar Terminal Leuwipanjang</name>
            <styleUrl>#54651</styleUrl>
            <LineString id="54649">
                <coordinates>107.5918901,-6.9438721,0.0 107.5918384,-6.9438586,0.0 107.5917569,-6.9438503,0.0 107.5916902,-6.9438514,0.0 107.5916419,-6.9438523,0.0</coordinates>
            </LineString>
        </Placemark>
        <Placemark id="54654">
            <name>Jalan Keluar Terminal Leuwipanjang</name>
            <styleUrl>#54655</styleUrl>
            <LineString id="54653">
                <coordinates>107.5916419,-6.9438523,0.0 107.5910845,-6.9435862,0.0 107.5910269,-6.9435481,0.0</coordinates>
            </LineString>
        </Placemark>
        <Placemark id="54658">
            <name>Jalur Bus AKDP</name>
            <styleUrl>#54659</styleUrl>
            <LineString id="54657">
                <coordinates>107.5945045,-6.9456294,0.0 107.5940938,-6.9455608,0.0</coordinates>
            </LineString>
        </Placemark>
        <Placemark id="54662">
            <name>Jalur Bus AKDP</name>
            <styleUrl>#54663</styleUrl>
            <LineString id="54661">
                <coordinates>107.5947542,-6.9458158,0.0 107.5946833,-6.9457747,0.0 107.5946602,-6.9457539,0.0 107.5946417,-6.9457374,0.0 107.5946051,-6.945699,0.0 107.5945604,-6.9456597,0.0 107.5945045,-6.9456294,0.0</coordinates>
            </LineString>
        </Placemark>
        <Placemark id="54666">
            <name>Jalan Keluar Terminal Leuwipanjang</name>
            <styleUrl>#54667</styleUrl>
            <LineString id="54665">
                <coordinates>107.5931649,-6.9452261,0.0 107.5930712,-6.9449781,0.0</coordinates>
            </LineString>
        </Placemark>
        <Placemark id="54670">
            <name>Jalan Dewi Sartika</name>
            <styleUrl>#54671</styleUrl>
            <LineString id="54669">
                <coordinates>107.6055016,-6.9311384,0.0 107.6055192,-6.9309578,0.0 107.6055259,-6.9309078,0.0</coordinates>
            </LineString>
        </Placemark>
        <Placemark id="54674">
            <name>Jalan Dewi Sartika</name>
            <styleUrl>#54675</styleUrl>
            <LineString id="54673">
                <coordinates>107.6055259,-6.9309078,0.0 107.605557,-6.9305299,0.0 107.6055585,-6.9305004,0.0 107.6055781,-6.930239,0.0</coordinates>
            </LineString>
        </Placemark>
        <Placemark id="54678">
            <name>Jalan Dewi Sartika</name>
            <styleUrl>#54679</styleUrl>
            <LineString id="54677">
                <coordinates>107.6055781,-6.930239,0.0 107.6055888,-6.9300028,0.0</coordinates>
            </LineString>
        </Placemark>
        <Placemark id="54682">
            <name>Jalan Dewi Sartika</name>
            <styleUrl>#54683</styleUrl>
            <LineString id="54681">
                <coordinates>107.6055888,-6.9300028,0.0 107.6055993,-6.9298025,0.0</coordinates>
            </LineString>
        </Placemark>
        <Placemark id="54686">
            <name>Jalan Dewi Sartika</name>
            <styleUrl>#54687</styleUrl>
            <LineString id="54685">
                <coordinates>107.6055993,-6.9298025,0.0 107.6056708,-6.9290327,0.0</coordinates>
            </LineString>
        </Placemark>
        <Placemark id="54690">
            <name>Jalan Dewi Sartika</name>
            <styleUrl>#54691</styleUrl>
            <LineString id="54689">
                <coordinates>107.6056708,-6.9290327,0.0 107.6057162,-6.9286824,0.0</coordinates>
            </LineString>
        </Placemark>
        <Placemark id="54694">
            <name>Jalan Dewi Sartika</name>
            <styleUrl>#54695</styleUrl>
            <LineString id="54693">
                <coordinates>107.6057162,-6.9286824,0.0 107.6057961,-6.9281235,0.0</coordinates>
            </LineString>
        </Placemark>
        <Placemark id="54698">
            <name>Jalan Dewi Sartika</name>
            <styleUrl>#54699</styleUrl>
            <LineString id="54697">
                <coordinates>107.6057961,-6.9281235,0.0 107.6058055,-6.928016,0.0 107.6058217,-6.9278434,0.0</coordinates>
            </LineString>
        </Placemark>
        <Placemark id="54702">
            <name>Jalan Dewi Sartika</name>
            <styleUrl>#54703</styleUrl>
            <LineString id="54701">
                <coordinates>107.6058217,-6.9278434,0.0 107.6058322,-6.9276428,0.0</coordinates>
            </LineString>
        </Placemark>
        <Placemark id="54706">
            <name>Jalan Kyai Haji Wahid Hasyim</name>
            <styleUrl>#54707</styleUrl>
            <LineString id="54705">
                <coordinates>107.5910269,-6.9435481,0.0 107.5910603,-6.9434929,0.0 107.5910903,-6.9434463,0.0 107.5911028,-6.9434233,0.0 107.5911203,-6.9433931,0.0 107.5912147,-6.9432302,0.0 107.591257,-6.9431573,0.0 107.5913003,-6.9430856,0.0 107.5913435,-6.9430138,0.0 107.5914686,-6.9428144,0.0 107.5916513,-6.9425217,0.0 107.5918451,-6.942203,0.0 107.5918647,-6.9421708,0.0 107.59192,-6.9420837,0.0 107.5920724,-6.9418438,0.0</coordinates>
            </LineString>
        </Placemark>
        <Placemark id="54710">
            <name>Jalur Bus AKDP Terminal Leuwipanjang</name>
            <styleUrl>#54711</styleUrl>
            <LineString id="54709">
                <coordinates>107.5934986,-6.9452867,0.0 107.59347,-6.9453161,0.0 107.5934218,-6.9453234,0.0 107.5933109,-6.9453104,0.0 107.5932611,-6.9452989,0.0 107.5932328,-6.9452752,0.0 107.5932131,-6.9452464,0.0 107.5931649,-6.9452261,0.0</coordinates>
            </LineString>
        </Placemark>
        <Placemark id="54714">
            <name>Jalan Mohammad Toha</name>
            <styleUrl>#54715</styleUrl>
            <LineString id="54713">
                <coordinates>107.6065733,-6.9328659,0.0 107.6065797,-6.9327947,0.0 107.6066451,-6.9319531,0.0 107.606653,-6.9318519,0.0</coordinates>
            </LineString>
        </Placemark>
    </Document>
</kml>
