<?xml version="1.0" encoding="UTF-8"?>
<kml xmlns="http://www.opengis.net/kml/2.2" xmlns:gx="http://www.google.com/kml/ext/2.2">
    <Document id="55050">
        <Style id="55056">
            <LineStyle id="55057">
                <color>ff00F2FF</color>
                <colorMode>normal</colorMode>
                <width>4</width>
            </LineStyle>
        </Style>
        <Style id="55060">
            <LineStyle id="55061">
                <color>ff00F2FF</color>
                <colorMode>normal</colorMode>
                <width>4</width>
            </LineStyle>
        </Style>
        <Style id="55064">
            <LineStyle id="55065">
                <color>ff00F2FF</color>
                <colorMode>normal</colorMode>
                <width>4</width>
            </LineStyle>
        </Style>
        <Style id="55068">
            <LineStyle id="55069">
                <color>ff00F2FF</color>
                <colorMode>normal</colorMode>
                <width>4</width>
            </LineStyle>
        </Style>
        <Style id="55072">
            <LineStyle id="55073">
                <color>ff00F2FF</color>
                <colorMode>normal</colorMode>
                <width>4</width>
            </LineStyle>
        </Style>
        <Style id="55076">
            <LineStyle id="55077">
                <color>ff00F2FF</color>
                <colorMode>normal</colorMode>
                <width>4</width>
            </LineStyle>
        </Style>
        <Style id="55080">
            <LineStyle id="55081">
                <color>ff00F2FF</color>
                <colorMode>normal</colorMode>
                <width>4</width>
            </LineStyle>
        </Style>
        <Style id="55084">
            <LineStyle id="55085">
                <color>ff00F2FF</color>
                <colorMode>normal</colorMode>
                <width>4</width>
            </LineStyle>
        </Style>
        <Style id="55088">
            <LineStyle id="55089">
                <color>ff00F2FF</color>
                <colorMode>normal</colorMode>
                <width>4</width>
            </LineStyle>
        </Style>
        <Style id="55092">
            <LineStyle id="55093">
                <color>ff00F2FF</color>
                <colorMode>normal</colorMode>
                <width>4</width>
            </LineStyle>
        </Style>
        <Style id="55096">
            <LineStyle id="55097">
                <color>ff00F2FF</color>
                <colorMode>normal</colorMode>
                <width>4</width>
            </LineStyle>
        </Style>
        <Style id="55100">
            <LineStyle id="55101">
                <color>ff00F2FF</color>
                <colorMode>normal</colorMode>
                <width>4</width>
            </LineStyle>
        </Style>
        <Style id="55104">
            <LineStyle id="55105">
                <color>ff00F2FF</color>
                <colorMode>normal</colorMode>
                <width>4</width>
            </LineStyle>
        </Style>
        <Style id="55108">
            <LineStyle id="55109">
                <color>ff00F2FF</color>
                <colorMode>normal</colorMode>
                <width>4</width>
            </LineStyle>
        </Style>
        <Style id="55112">
            <LineStyle id="55113">
                <color>ff00F2FF</color>
                <colorMode>normal</colorMode>
                <width>4</width>
            </LineStyle>
        </Style>
        <Style id="55116">
            <LineStyle id="55117">
                <color>ff00F2FF</color>
                <colorMode>normal</colorMode>
                <width>4</width>
            </LineStyle>
        </Style>
        <Style id="55120">
            <LineStyle id="55121">
                <color>ff00F2FF</color>
                <colorMode>normal</colorMode>
                <width>4</width>
            </LineStyle>
        </Style>
        <Style id="55124">
            <LineStyle id="55125">
                <color>ff00F2FF</color>
                <colorMode>normal</colorMode>
                <width>4</width>
            </LineStyle>
        </Style>
        <Style id="55128">
            <LineStyle id="55129">
                <color>ff00F2FF</color>
                <colorMode>normal</colorMode>
                <width>4</width>
            </LineStyle>
        </Style>
        <Style id="55132">
            <LineStyle id="55133">
                <color>ff00F2FF</color>
                <colorMode>normal</colorMode>
                <width>4</width>
            </LineStyle>
        </Style>
        <Style id="55136">
            <LineStyle id="55137">
                <color>ff00F2FF</color>
                <colorMode>normal</colorMode>
                <width>4</width>
            </LineStyle>
        </Style>
        <Style id="55140">
            <LineStyle id="55141">
                <color>ff00F2FF</color>
                <colorMode>normal</colorMode>
                <width>4</width>
            </LineStyle>
        </Style>
        <Style id="55144">
            <LineStyle id="55145">
                <color>ff00F2FF</color>
                <colorMode>normal</colorMode>
                <width>4</width>
            </LineStyle>
        </Style>
        <Style id="55148">
            <LineStyle id="55149">
                <color>ff00F2FF</color>
                <colorMode>normal</colorMode>
                <width>4</width>
            </LineStyle>
        </Style>
        <Style id="55152">
            <LineStyle id="55153">
                <color>ff00F2FF</color>
                <colorMode>normal</colorMode>
                <width>4</width>
            </LineStyle>
        </Style>
        <Style id="55156">
            <LineStyle id="55157">
                <color>ff00F2FF</color>
                <colorMode>normal</colorMode>
                <width>4</width>
            </LineStyle>
        </Style>
        <Style id="55160">
            <LineStyle id="55161">
                <color>ff00F2FF</color>
                <colorMode>normal</colorMode>
                <width>4</width>
            </LineStyle>
        </Style>
        <Style id="55164">
            <LineStyle id="55165">
                <color>ff00F2FF</color>
                <colorMode>normal</colorMode>
                <width>4</width>
            </LineStyle>
        </Style>
        <Style id="55168">
            <LineStyle id="55169">
                <color>ff00F2FF</color>
                <colorMode>normal</colorMode>
                <width>4</width>
            </LineStyle>
        </Style>
        <Style id="55172">
            <LineStyle id="55173">
                <color>ff00F2FF</color>
                <colorMode>normal</colorMode>
                <width>4</width>
            </LineStyle>
        </Style>
        <Style id="55176">
            <LineStyle id="55177">
                <color>ff00F2FF</color>
                <colorMode>normal</colorMode>
                <width>4</width>
            </LineStyle>
        </Style>
        <Style id="55180">
            <LineStyle id="55181">
                <color>ff00F2FF</color>
                <colorMode>normal</colorMode>
                <width>4</width>
            </LineStyle>
        </Style>
        <Style id="55184">
            <LineStyle id="55185">
                <color>ff00F2FF</color>
                <colorMode>normal</colorMode>
                <width>4</width>
            </LineStyle>
        </Style>
        <Style id="55188">
            <LineStyle id="55189">
                <color>ff00F2FF</color>
                <colorMode>normal</colorMode>
                <width>4</width>
            </LineStyle>
        </Style>
        <Style id="55192">
            <LineStyle id="55193">
                <color>ff00F2FF</color>
                <colorMode>normal</colorMode>
                <width>4</width>
            </LineStyle>
        </Style>
        <Style id="55196">
            <LineStyle id="55197">
                <color>ff00F2FF</color>
                <colorMode>normal</colorMode>
                <width>4</width>
            </LineStyle>
        </Style>
        <Style id="55200">
            <LineStyle id="55201">
                <color>ff00F2FF</color>
                <colorMode>normal</colorMode>
                <width>4</width>
            </LineStyle>
        </Style>
        <Style id="55204">
            <LineStyle id="55205">
                <color>ff00F2FF</color>
                <colorMode>normal</colorMode>
                <width>4</width>
            </LineStyle>
        </Style>
        <Style id="55208">
            <LineStyle id="55209">
                <color>ff00F2FF</color>
                <colorMode>normal</colorMode>
                <width>4</width>
            </LineStyle>
        </Style>
        <Style id="55212">
            <LineStyle id="55213">
                <color>ff00F2FF</color>
                <colorMode>normal</colorMode>
                <width>4</width>
            </LineStyle>
        </Style>
        <Style id="55216">
            <LineStyle id="55217">
                <color>ff00F2FF</color>
                <colorMode>normal</colorMode>
                <width>4</width>
            </LineStyle>
        </Style>
        <Style id="55220">
            <LineStyle id="55221">
                <color>ff00F2FF</color>
                <colorMode>normal</colorMode>
                <width>4</width>
            </LineStyle>
        </Style>
        <Style id="55224">
            <LineStyle id="55225">
                <color>ff00F2FF</color>
                <colorMode>normal</colorMode>
                <width>4</width>
            </LineStyle>
        </Style>
        <Style id="55228">
            <LineStyle id="55229">
                <color>ff00F2FF</color>
                <colorMode>normal</colorMode>
                <width>4</width>
            </LineStyle>
        </Style>
        <Style id="55232">
            <LineStyle id="55233">
                <color>ff00F2FF</color>
                <colorMode>normal</colorMode>
                <width>4</width>
            </LineStyle>
        </Style>
        <Style id="55236">
            <LineStyle id="55237">
                <color>ff00F2FF</color>
                <colorMode>normal</colorMode>
                <width>4</width>
            </LineStyle>
        </Style>
        <Style id="55240">
            <LineStyle id="55241">
                <color>ff00F2FF</color>
                <colorMode>normal</colorMode>
                <width>4</width>
            </LineStyle>
        </Style>
        <Style id="55244">
            <LineStyle id="55245">
                <color>ff00F2FF</color>
                <colorMode>normal</colorMode>
                <width>4</width>
            </LineStyle>
        </Style>
        <Style id="55248">
            <LineStyle id="55249">
                <color>ff00F2FF</color>
                <colorMode>normal</colorMode>
                <width>4</width>
            </LineStyle>
        </Style>
        <Style id="55252">
            <LineStyle id="55253">
                <color>ff00F2FF</color>
                <colorMode>normal</colorMode>
                <width>4</width>
            </LineStyle>
        </Style>
        <Style id="55256">
            <LineStyle id="55257">
                <color>ff00F2FF</color>
                <colorMode>normal</colorMode>
                <width>4</width>
            </LineStyle>
        </Style>
        <Style id="55260">
            <LineStyle id="55261">
                <color>ff00F2FF</color>
                <colorMode>normal</colorMode>
                <width>4</width>
            </LineStyle>
        </Style>
        <Style id="55264">
            <LineStyle id="55265">
                <color>ff00F2FF</color>
                <colorMode>normal</colorMode>
                <width>4</width>
            </LineStyle>
        </Style>
        <Style id="55268">
            <LineStyle id="55269">
                <color>ff00F2FF</color>
                <colorMode>normal</colorMode>
                <width>4</width>
            </LineStyle>
        </Style>
        <Style id="55272">
            <LineStyle id="55273">
                <color>ff00F2FF</color>
                <colorMode>normal</colorMode>
                <width>4</width>
            </LineStyle>
        </Style>
        <Style id="55276">
            <LineStyle id="55277">
                <color>ff00F2FF</color>
                <colorMode>normal</colorMode>
                <width>4</width>
            </LineStyle>
        </Style>
        <Style id="55280">
            <LineStyle id="55281">
                <color>ff00F2FF</color>
                <colorMode>normal</colorMode>
                <width>4</width>
            </LineStyle>
        </Style>
        <Style id="55284">
            <LineStyle id="55285">
                <color>ff00F2FF</color>
                <colorMode>normal</colorMode>
                <width>4</width>
            </LineStyle>
        </Style>
        <Style id="55288">
            <LineStyle id="55289">
                <color>ff00F2FF</color>
                <colorMode>normal</colorMode>
                <width>4</width>
            </LineStyle>
        </Style>
        <Style id="55292">
            <LineStyle id="55293">
                <color>ff00F2FF</color>
                <colorMode>normal</colorMode>
                <width>4</width>
            </LineStyle>
        </Style>
        <Style id="55296">
            <IconStyle id="55297">
                <colorMode>normal</colorMode>
                <scale>1</scale>
                <heading>0</heading>
                <Icon id="55298">
                    <href>http://maps.google.com/mapfiles/kml/pushpin/ylw-pushpin.png</href>
                </Icon>
            </IconStyle>
        </Style>
        <Style id="55301">
            <IconStyle id="55302">
                <colorMode>normal</colorMode>
                <scale>1</scale>
                <heading>0</heading>
                <Icon id="55303">
                    <href>http://maps.google.com/mapfiles/kml/pushpin/ylw-pushpin.png</href>
                </Icon>
            </IconStyle>
        </Style>
        <ExtendedData>
            <Data name="route-name">
                <value>35: Kalapa → Karangsetra</value>
            </Data>
            <Data name="source">
                <value>Transport for Bandung</value>
            </Data>
        </ExtendedData>
        <Placemark id="55055">
            <name>Jalan Gardujati</name>
            <styleUrl>#55056</styleUrl>
            <LineString id="55054">
                <coordinates>107.5982824,-6.9187314,0.0 107.5983085,-6.9194279,0.0 107.5983096,-6.9194582,0.0 107.5983293,-6.919971,0.0 107.5983308,-6.92001,0.0 107.5983386,-6.9201181,0.0</coordinates>
            </LineString>
        </Placemark>
        <Placemark id="55059">
            <name>Jalan Pasir Kaliki</name>
            <styleUrl>#55060</styleUrl>
            <LineString id="55058">
                <coordinates>107.597321,-6.898017,0.0 107.5973143,-6.897839,0.0 107.5973006,-6.8973077,0.0 107.5972936,-6.8969114,0.0 107.5972895,-6.8968371,0.0</coordinates>
            </LineString>
        </Placemark>
        <Placemark id="55063">
            <name>Jalan Sukajadi</name>
            <styleUrl>#55064</styleUrl>
            <LineString id="55062">
                <coordinates>107.5967323,-6.8873957,0.0 107.5967238,-6.8872476,0.0 107.5967027,-6.8868139,0.0 107.5967016,-6.8867916,0.0</coordinates>
            </LineString>
        </Placemark>
        <Placemark id="55067">
            <name>Jalan Ibu Inggit Ganarsih</name>
            <styleUrl>#55068</styleUrl>
            <LineString id="55066">
                <coordinates>107.603397,-6.9314278,0.0 107.6023617,-6.9312985,0.0 107.6020014,-6.9312415,0.0 107.6017942,-6.9312076,0.0</coordinates>
            </LineString>
        </Placemark>
        <Placemark id="55071">
            <name>Jalan HOS. Cokroaminoto</name>
            <styleUrl>#55072</styleUrl>
            <LineString id="55070">
                <coordinates>107.5980296,-6.9131529,0.0 107.5980155,-6.9128993,0.0 107.5980004,-6.9126452,0.0</coordinates>
            </LineString>
        </Placemark>
        <Placemark id="55075">
            <name>Jalan HOS. Cokroaminoto</name>
            <styleUrl>#55076</styleUrl>
            <LineString id="55074">
                <coordinates>107.5981313,-6.9141206,0.0 107.5981201,-6.9145111,0.0</coordinates>
            </LineString>
        </Placemark>
        <Placemark id="55079">
            <name>Jalan Sukajadi</name>
            <styleUrl>#55080</styleUrl>
            <LineString id="55078">
                <coordinates>107.5965234,-6.8840238,0.0 107.5965088,-6.8836453,0.0 107.5965062,-6.8835624,0.0 107.596503,-6.8834688,0.0 107.5964741,-6.8826331,0.0 107.5964702,-6.8825274,0.0 107.5964601,-6.8821498,0.0 107.5964542,-6.8820032,0.0 107.596444,-6.8817861,0.0 107.5964302,-6.8814833,0.0 107.5964257,-6.8813836,0.0 107.5964243,-6.8813611,0.0 107.5963984,-6.8809341,0.0</coordinates>
            </LineString>
        </Placemark>
        <Placemark id="55083">
            <name>Jalan HOS. Cokroaminoto</name>
            <styleUrl>#55084</styleUrl>
            <LineString id="55082">
                <coordinates>107.5976288,-6.9073749,0.0 107.5975909,-6.9072507,0.0 107.597581,-6.9071682,0.0 107.5975322,-6.9065723,0.0 107.5975328,-6.9064531,0.0</coordinates>
            </LineString>
        </Placemark>
        <Placemark id="55087">
            <name>Jalan HOS. Cokroaminoto</name>
            <styleUrl>#55088</styleUrl>
            <LineString id="55086">
                <coordinates>107.5975495,-6.9063779,0.0 107.5975567,-6.9063376,0.0 107.5975619,-6.9063034,0.0 107.59755,-6.9058209,0.0 107.5975392,-6.9055076,0.0 107.5975466,-6.9054505,0.0 107.5975702,-6.9053954,0.0</coordinates>
            </LineString>
        </Placemark>
        <Placemark id="55091">
            <name>Jalan HOS. Cokroaminoto</name>
            <styleUrl>#55092</styleUrl>
            <LineString id="55090">
                <coordinates>107.5982102,-6.9163251,0.0 107.5982087,-6.9161927,0.0 107.5982045,-6.9161384,0.0 107.5981715,-6.9156959,0.0 107.598156,-6.9155614,0.0 107.5981533,-6.9155424,0.0 107.5981204,-6.9153156,0.0 107.5981054,-6.9152242,0.0 107.5980922,-6.9151108,0.0 107.5980776,-6.9149475,0.0 107.5980911,-6.9146113,0.0</coordinates>
            </LineString>
        </Placemark>
        <Placemark id="55095">
            <name>Jalan Sindang Sirna</name>
            <styleUrl>#55096</styleUrl>
            <LineString id="55094">
                <coordinates>107.5962548,-6.8783299,0.0 107.595762,-6.8778535,0.0</coordinates>
            </LineString>
        </Placemark>
        <Placemark id="55099">
            <name>Jalan HOS. Cokroaminoto</name>
            <styleUrl>#55100</styleUrl>
            <LineString id="55098">
                <coordinates>107.5974073,-6.9013528,0.0 107.5973841,-6.9009013,0.0 107.597381,-6.9007859,0.0 107.5973772,-6.900662,0.0</coordinates>
            </LineString>
        </Placemark>
        <Placemark id="55103">
            <name>Jalan Pasir Kaliki</name>
            <styleUrl>#55104</styleUrl>
            <LineString id="55102">
                <coordinates>107.5973503,-6.8989275,0.0 107.5973395,-6.8985629,0.0 107.5973325,-6.8983576,0.0 107.5973274,-6.898195,0.0 107.5973223,-6.8980478,0.0 107.597321,-6.898017,0.0</coordinates>
            </LineString>
        </Placemark>
        <Placemark id="55107">
            <name>Jalan HOS. Cokroaminoto</name>
            <styleUrl>#55108</styleUrl>
            <LineString id="55106">
                <coordinates>107.5979469,-6.9117824,0.0 107.5979313,-6.9116207,0.0</coordinates>
            </LineString>
        </Placemark>
        <Placemark id="55111">
            <name>Jalan Pungkur</name>
            <styleUrl>#55112</styleUrl>
            <LineString id="55110">
                <coordinates>107.6059177,-6.9273911,0.0 107.6050539,-6.9273113,0.0 107.6049045,-6.927299,0.0 107.6047838,-6.9272891,0.0 107.6042912,-6.9272485,0.0 107.6038271,-6.9272103,0.0 107.6036918,-6.9271992,0.0</coordinates>
            </LineString>
        </Placemark>
        <Placemark id="55115">
            <name>Jalan Otto Iskandardinata</name>
            <styleUrl>#55116</styleUrl>
            <LineString id="55114">
                <coordinates>107.6036918,-6.9271992,0.0 107.6036329,-6.9280445,0.0 107.6035987,-6.9285343,0.0 107.6035394,-6.9293944,0.0 107.603531,-6.9295081,0.0 107.6035279,-6.9295503,0.0 107.6035002,-6.9299478,0.0 107.6034837,-6.930184,0.0 107.6034762,-6.930325,0.0 107.6034705,-6.9303736,0.0 107.6034661,-6.9304369,0.0 107.603397,-6.9314278,0.0</coordinates>
            </LineString>
        </Placemark>
        <Placemark id="55119">
            <name>Jalan Astana Anyar</name>
            <styleUrl>#55120</styleUrl>
            <LineString id="55118">
                <coordinates>107.6017942,-6.9312076,0.0 107.6017766,-6.9311868,0.0 107.6014884,-6.9308457,0.0 107.6013919,-6.9307438,0.0 107.601334,-6.9306827,0.0 107.6012628,-6.9306121,0.0 107.6012254,-6.9305749,0.0 107.6011214,-6.930478,0.0 107.6008741,-6.9302699,0.0</coordinates>
            </LineString>
        </Placemark>
        <Placemark id="55123">
            <name>Jalan Astana Anyar</name>
            <styleUrl>#55124</styleUrl>
            <LineString id="55122">
                <coordinates>107.6007743,-6.9300052,0.0 107.6007602,-6.9298949,0.0 107.6007454,-6.9296679,0.0 107.6007387,-6.9296054,0.0 107.6007351,-6.9295707,0.0 107.600717,-6.9293977,0.0 107.6006985,-6.9292319,0.0 107.6006731,-6.9290234,0.0 107.600612,-6.9288685,0.0 107.6005919,-6.9288192,0.0 107.6005121,-6.9286235,0.0</coordinates>
            </LineString>
        </Placemark>
        <Placemark id="55127">
            <name>Jalan Astana Anyar</name>
            <styleUrl>#55128</styleUrl>
            <LineString id="55126">
                <coordinates>107.5986744,-6.9232626,0.0 107.598693,-6.9233336,0.0 107.5987003,-6.9233666,0.0 107.5987418,-6.9235419,0.0 107.5987785,-6.9236837,0.0 107.5988393,-6.9239196,0.0 107.5989872,-6.9243261,0.0 107.5990381,-6.9244659,0.0 107.5991575,-6.9247939,0.0 107.5992769,-6.9251219,0.0 107.5995204,-6.9258084,0.0 107.5995293,-6.9258336,0.0 107.5996933,-6.9262957,0.0 107.5997325,-6.9263959,0.0 107.599866,-6.9267377,0.0 107.5999192,-6.9268738,0.0</coordinates>
            </LineString>
        </Placemark>
        <Placemark id="55131">
            <name>Jalan Astana Anyar</name>
            <styleUrl>#55132</styleUrl>
            <LineString id="55130">
                <coordinates>107.5984717,-6.9214196,0.0 107.5984828,-6.9215649,0.0 107.5985679,-6.9225334,0.0 107.5985764,-6.9225957,0.0 107.598583,-6.9226401,0.0 107.5986598,-6.9231557,0.0 107.5986613,-6.9231659,0.0 107.5986744,-6.9232626,0.0</coordinates>
            </LineString>
        </Placemark>
        <Placemark id="55135">
            <name>Jalan Sukajadi</name>
            <styleUrl>#55136</styleUrl>
            <LineString id="55134">
                <coordinates>107.5967016,-6.8867916,0.0 107.5964324,-6.88604,0.0 107.5964113,-6.8859394,0.0 107.5963989,-6.8858417,0.0 107.5964138,-6.8856254,0.0 107.5964457,-6.8854301,0.0 107.5965693,-6.8848932,0.0</coordinates>
            </LineString>
        </Placemark>
        <Placemark id="55139">
            <name>Jalan Sukajadi</name>
            <styleUrl>#55140</styleUrl>
            <LineString id="55138">
                <coordinates>107.5965291,-6.8842065,0.0 107.5965234,-6.8840238,0.0</coordinates>
            </LineString>
        </Placemark>
        <Placemark id="55143">
            <name>Jalan Pasir Kaliki</name>
            <styleUrl>#55144</styleUrl>
            <LineString id="55142">
                <coordinates>107.5973566,-6.9002078,0.0 107.5973521,-6.9001109,0.0 107.5973452,-6.8999212,0.0</coordinates>
            </LineString>
        </Placemark>
        <Placemark id="55147">
            <name>Jalan HOS. Cokroaminoto</name>
            <styleUrl>#55148</styleUrl>
            <LineString id="55146">
                <coordinates>107.5975116,-6.9035067,0.0 107.5974908,-6.9034505,0.0 107.5974789,-6.9033926,0.0 107.5974727,-6.9033217,0.0 107.5974521,-6.9026867,0.0 107.5974311,-6.9019145,0.0 107.5974213,-6.9017168,0.0 107.597414,-6.9015643,0.0 107.5974073,-6.9013528,0.0</coordinates>
            </LineString>
        </Placemark>
        <Placemark id="55151">
            <name>Jalan HOS. Cokroaminoto</name>
            <styleUrl>#55152</styleUrl>
            <LineString id="55150">
                <coordinates>107.5979313,-6.9116207,0.0 107.5979188,-6.9114098,0.0 107.5978086,-6.909947,0.0 107.5978015,-6.9098566,0.0 107.5977774,-6.9094546,0.0 107.5977427,-6.9089045,0.0 107.5976909,-6.9082042,0.0 107.5976849,-6.9081059,0.0 107.5976772,-6.9080121,0.0 107.5976288,-6.9073749,0.0</coordinates>
            </LineString>
        </Placemark>
        <Placemark id="55155">
            <name>Jalan HOS. Cokroaminoto</name>
            <styleUrl>#55156</styleUrl>
            <LineString id="55154">
                <coordinates>107.5979805,-6.912262,0.0 107.5979469,-6.9117824,0.0</coordinates>
            </LineString>
        </Placemark>
        <Placemark id="55159">
            <name>Jalan HOS. Cokroaminoto</name>
            <styleUrl>#55160</styleUrl>
            <LineString id="55158">
                <coordinates>107.5975328,-6.9064531,0.0 107.5975429,-6.906405,0.0 107.5975495,-6.9063779,0.0</coordinates>
            </LineString>
        </Placemark>
        <Placemark id="55163">
            <name>Jalan Sukajadi</name>
            <styleUrl>#55164</styleUrl>
            <LineString id="55162">
                <coordinates>107.5972816,-6.8966817,0.0 107.5972787,-6.8966241,0.0 107.5972616,-6.8963456,0.0 107.5972601,-6.8962772,0.0 107.5972557,-6.8962319,0.0 107.597252,-6.8961231,0.0 107.5972487,-6.8960662,0.0 107.5972328,-6.8957942,0.0 107.5972172,-6.8955656,0.0 107.5971842,-6.8950939,0.0 107.5971773,-6.8950042,0.0 107.5971398,-6.8945401,0.0 107.5971049,-6.8940789,0.0 107.5970982,-6.8939774,0.0 107.5970769,-6.893622,0.0 107.5970644,-6.8934134,0.0 107.5970391,-6.8930157,0.0</coordinates>
            </LineString>
        </Placemark>
        <Placemark id="55167">
            <name>Jalan Sukajadi</name>
            <styleUrl>#55168</styleUrl>
            <LineString id="55166">
                <coordinates>107.5969097,-6.8902486,0.0 107.5969052,-6.8900717,0.0 107.5969028,-6.8899793,0.0 107.5969032,-6.8898955,0.0 107.596901,-6.8897159,0.0 107.5968858,-6.8894176,0.0 107.5968696,-6.889221,0.0 107.5968625,-6.8891028,0.0 107.5968398,-6.888674,0.0 107.5968348,-6.8885657,0.0 107.5968303,-6.8885035,0.0 107.5968078,-6.8882126,0.0 107.5967817,-6.8879179,0.0 107.5967633,-6.8877297,0.0 107.5967526,-6.887631,0.0</coordinates>
            </LineString>
        </Placemark>
        <Placemark id="55171">
            <name>Jalan HOS. Cokroaminoto</name>
            <styleUrl>#55172</styleUrl>
            <LineString id="55170">
                <coordinates>107.5975702,-6.9053954,0.0 107.5975685,-6.9053623,0.0 107.5975647,-6.9052979,0.0 107.5975641,-6.9052785,0.0 107.5975561,-6.9050098,0.0 107.5975537,-6.9049333,0.0</coordinates>
            </LineString>
        </Placemark>
        <Placemark id="55175">
            <name>Jalan Sukajadi</name>
            <styleUrl>#55176</styleUrl>
            <LineString id="55174">
                <coordinates>107.5965693,-6.8848932,0.0 107.5965291,-6.8842065,0.0</coordinates>
            </LineString>
        </Placemark>
        <Placemark id="55179">
            <name>Jalan Gardujati</name>
            <styleUrl>#55180</styleUrl>
            <LineString id="55178">
                <coordinates>107.598224,-6.9170874,0.0 107.5982101,-6.9164481,0.0 107.5982092,-6.9164103,0.0 107.5982102,-6.9163251,0.0</coordinates>
            </LineString>
        </Placemark>
        <Placemark id="55183">
            <name>Jalan Astana Anyar</name>
            <styleUrl>#55184</styleUrl>
            <LineString id="55182">
                <coordinates>107.6008741,-6.9302699,0.0 107.6008268,-6.9301487,0.0 107.6007743,-6.9300052,0.0</coordinates>
            </LineString>
        </Placemark>
        <Placemark id="55187">
            <name>Jalan HOS. Cokroaminoto</name>
            <styleUrl>#55188</styleUrl>
            <LineString id="55186">
                <coordinates>107.5973772,-6.900662,0.0 107.5973654,-6.9003949,0.0</coordinates>
            </LineString>
        </Placemark>
        <Placemark id="55191">
            <name>Jalan Astana Anyar</name>
            <styleUrl>#55192</styleUrl>
            <LineString id="55190">
                <coordinates>107.6005121,-6.9286235,0.0 107.6004015,-6.9283347,0.0 107.6003256,-6.9280843,0.0 107.6002646,-6.9279252,0.0 107.6001956,-6.9277355,0.0 107.5999523,-6.9269769,0.0 107.5999192,-6.9268738,0.0</coordinates>
            </LineString>
        </Placemark>
        <Placemark id="55195">
            <name>Jalan Sukajadi</name>
            <styleUrl>#55196</styleUrl>
            <LineString id="55194">
                <coordinates>107.5970391,-6.8930157,0.0 107.5970212,-6.8924855,0.0 107.596988,-6.8919756,0.0 107.5969852,-6.8919419,0.0 107.5969612,-6.8915359,0.0 107.5969542,-6.8914244,0.0 107.5969493,-6.8913097,0.0 107.5969393,-6.8910002,0.0 107.5969258,-6.8906657,0.0 107.5969183,-6.8904777,0.0 107.5969097,-6.8902486,0.0</coordinates>
            </LineString>
        </Placemark>
        <Placemark id="55199">
            <name>Jalan HOS. Cokroaminoto</name>
            <styleUrl>#55200</styleUrl>
            <LineString id="55198">
                <coordinates>107.5975537,-6.9049333,0.0 107.5975448,-6.904529,0.0 107.5975406,-6.9043005,0.0 107.5975343,-6.9039924,0.0</coordinates>
            </LineString>
        </Placemark>
        <Placemark id="55203">
            <name>Jalan HOS. Cokroaminoto</name>
            <styleUrl>#55204</styleUrl>
            <LineString id="55202">
                <coordinates>107.5980004,-6.9126452,0.0 107.5979867,-6.9123682,0.0 107.5979845,-6.9123202,0.0 107.5979805,-6.912262,0.0</coordinates>
            </LineString>
        </Placemark>
        <Placemark id="55207">
            <name>Jalan Sukajadi</name>
            <styleUrl>#55208</styleUrl>
            <LineString id="55206">
                <coordinates>107.5967526,-6.887631,0.0 107.5967323,-6.8873957,0.0</coordinates>
            </LineString>
        </Placemark>
        <Placemark id="55211">
            <name>Jalan HOS. Cokroaminoto</name>
            <styleUrl>#55212</styleUrl>
            <LineString id="55210">
                <coordinates>107.5981201,-6.9145111,0.0 107.5981205,-6.9145443,0.0</coordinates>
            </LineString>
        </Placemark>
        <Placemark id="55215">
            <name>Jalan Gardujati</name>
            <styleUrl>#55216</styleUrl>
            <LineString id="55214">
                <coordinates>107.5982595,-6.9181989,0.0 107.5982308,-6.9180616,0.0 107.5982278,-6.9178847,0.0 107.5982246,-6.9176091,0.0 107.598224,-6.9170874,0.0</coordinates>
            </LineString>
        </Placemark>
        <Placemark id="55219">
            <name>Jalan HOS. Cokroaminoto</name>
            <styleUrl>#55220</styleUrl>
            <LineString id="55218">
                <coordinates>107.5980911,-6.9146113,0.0 107.5980937,-6.9145881,0.0 107.5981205,-6.9145443,0.0</coordinates>
            </LineString>
        </Placemark>
        <Placemark id="55223">
            <name>Jalan HOS. Cokroaminoto</name>
            <styleUrl>#55224</styleUrl>
            <LineString id="55222">
                <coordinates>107.5973654,-6.9003949,0.0 107.5973566,-6.9002078,0.0</coordinates>
            </LineString>
        </Placemark>
        <Placemark id="55227">
            <name>Jalan HOS. Cokroaminoto</name>
            <styleUrl>#55228</styleUrl>
            <LineString id="55226">
                <coordinates>107.5980758,-6.9134531,0.0 107.5981284,-6.913989,0.0 107.5981313,-6.9140657,0.0 107.5981313,-6.9141206,0.0</coordinates>
            </LineString>
        </Placemark>
        <Placemark id="55231">
            <name>Jalan HOS. Cokroaminoto</name>
            <styleUrl>#55232</styleUrl>
            <LineString id="55230">
                <coordinates>107.5980724,-6.9134153,0.0 107.5980758,-6.9134531,0.0</coordinates>
            </LineString>
        </Placemark>
        <Placemark id="55235">
            <name>Jalan HOS. Cokroaminoto</name>
            <styleUrl>#55236</styleUrl>
            <LineString id="55234">
                <coordinates>107.5980724,-6.9134153,0.0 107.5980457,-6.9133719,0.0 107.5980366,-6.9133217,0.0 107.598033,-6.9132616,0.0</coordinates>
            </LineString>
        </Placemark>
        <Placemark id="55239">
            <name>Jalan HOS. Cokroaminoto</name>
            <styleUrl>#55240</styleUrl>
            <LineString id="55238">
                <coordinates>107.598033,-6.9132616,0.0 107.5980296,-6.9131529,0.0</coordinates>
            </LineString>
        </Placemark>
        <Placemark id="55243">
            <name>Jalan HOS. Cokroaminoto</name>
            <styleUrl>#55244</styleUrl>
            <LineString id="55242">
                <coordinates>107.5975343,-6.9039924,0.0 107.5975116,-6.9035067,0.0</coordinates>
            </LineString>
        </Placemark>
        <Placemark id="55247">
            <name>Jalan Sukajadi</name>
            <styleUrl>#55248</styleUrl>
            <LineString id="55246">
                <coordinates>107.5963984,-6.8809341,0.0 107.5963847,-6.8806684,0.0 107.5963806,-6.8805716,0.0 107.596369,-6.8802996,0.0 107.5963356,-6.8796695,0.0 107.5963312,-6.8795732,0.0 107.5963111,-6.8792113,0.0 107.5962832,-6.8787501,0.0 107.5962548,-6.8783299,0.0</coordinates>
            </LineString>
        </Placemark>
        <Placemark id="55251">
            <name>Jalan Pasir Kaliki</name>
            <styleUrl>#55252</styleUrl>
            <LineString id="55250">
                <coordinates>107.5972895,-6.8968371,0.0 107.5972816,-6.8966817,0.0</coordinates>
            </LineString>
        </Placemark>
        <Placemark id="55255">
            <name>Jalan Dewi Sartika</name>
            <styleUrl>#55256</styleUrl>
            <LineString id="55254">
                <coordinates>107.605817,-6.92756,0.0 107.6058222,-6.9274995,0.0</coordinates>
            </LineString>
        </Placemark>
        <Placemark id="55259">
            <name>Jalan Dewi Sartika</name>
            <styleUrl>#55260</styleUrl>
            <LineString id="55258">
                <coordinates>107.6058222,-6.9274995,0.0 107.6058291,-6.927479,0.0 107.6058504,-6.9274581,0.0 107.6058814,-6.9274381,0.0 107.6059038,-6.9274217,0.0 107.6059122,-6.927408,0.0 107.6059177,-6.9273911,0.0</coordinates>
            </LineString>
        </Placemark>
        <Placemark id="55263">
            <name>Jalan Astana Anyar</name>
            <styleUrl>#55264</styleUrl>
            <LineString id="55262">
                <coordinates>107.5983386,-6.9201181,0.0 107.5983407,-6.92014,0.0 107.5983508,-6.9202439,0.0 107.5983525,-6.9202632,0.0 107.5984122,-6.9208607,0.0 107.5984181,-6.9209178,0.0 107.5984299,-6.9210083,0.0 107.5984615,-6.9213127,0.0 107.5984717,-6.9214196,0.0</coordinates>
            </LineString>
        </Placemark>
        <Placemark id="55267">
            <name>Jalan Gardujati</name>
            <styleUrl>#55268</styleUrl>
            <LineString id="55266">
                <coordinates>107.5982824,-6.9187314,0.0 107.5982807,-6.9186924,0.0 107.5982595,-6.9181989,0.0</coordinates>
            </LineString>
        </Placemark>
        <Placemark id="55271">
            <name>Jalan Sirna Galih</name>
            <styleUrl>#55272</styleUrl>
            <LineString id="55270">
                <coordinates>107.595762,-6.8778535,0.0 107.5956102,-6.878024,0.0 107.5954945,-6.8781633,0.0 107.5952688,-6.878474,0.0 107.5952214,-6.8785531,0.0 107.5951778,-6.8786152,0.0 107.5951569,-6.8786717,0.0 107.5951588,-6.8787715,0.0 107.5951687,-6.8788937,0.0 107.5951798,-6.8790317,0.0</coordinates>
            </LineString>
        </Placemark>
        <Placemark id="55275">
            <name>Jalan Pasir Kaliki</name>
            <styleUrl>#55276</styleUrl>
            <LineString id="55274">
                <coordinates>107.5973572,-6.8990747,0.0 107.5973543,-6.8990234,0.0</coordinates>
            </LineString>
        </Placemark>
        <Placemark id="55279">
            <name>Jalan Pasir Kaliki</name>
            <styleUrl>#55280</styleUrl>
            <LineString id="55278">
                <coordinates>107.5973543,-6.8990234,0.0 107.5973503,-6.8989275,0.0</coordinates>
            </LineString>
        </Placemark>
        <Placemark id="55283">
            <name>Jalan Pasir Kaliki</name>
            <styleUrl>#55284</styleUrl>
            <LineString id="55282">
                <coordinates>107.5973452,-6.8999212,0.0 107.5973408,-6.8998291,0.0</coordinates>
            </LineString>
        </Placemark>
        <Placemark id="55287">
            <name>Jalan Pasir Kaliki</name>
            <styleUrl>#55288</styleUrl>
            <LineString id="55286">
                <coordinates>107.5973408,-6.8998291,0.0 107.5973293,-6.8994991,0.0 107.5973312,-6.8994022,0.0 107.5973423,-6.8991445,0.0 107.5973572,-6.8990747,0.0</coordinates>
            </LineString>
        </Placemark>
        <Placemark id="55291">
            <name>Jalan Dewi Sartika</name>
            <styleUrl>#55292</styleUrl>
            <LineString id="55290">
                <coordinates>107.6058121,-6.9276265,0.0 107.605817,-6.92756,0.0</coordinates>
            </LineString>
        </Placemark>
        <Placemark id="55295">
            <name>Terminal Abdul Muis/Kebon Kalapa</name>
            <styleUrl>#55296</styleUrl>
            <Point id="55294">
                <coordinates>107.6058121,-6.9276265,0.0</coordinates>
            </Point>
        </Placemark>
        <Placemark id="55300">
            <name>Karangsetra Waterland</name>
            <styleUrl>#55301</styleUrl>
            <Point id="55299">
                <coordinates>107.5951798,-6.8790317,0.0</coordinates>
            </Point>
        </Placemark>
    </Document>
</kml>
