<?xml version="1.0" encoding="UTF-8"?>
<kml xmlns="http://www.opengis.net/kml/2.2" xmlns:gx="http://www.google.com/kml/ext/2.2">
    <Document id="54657">
        <Style id="54663">
            <IconStyle id="54664">
                <colorMode>normal</colorMode>
                <scale>1</scale>
                <heading>0</heading>
                <Icon id="54665">
                    <href>http://maps.google.com/mapfiles/kml/pushpin/ylw-pushpin.png</href>
                </Icon>
            </IconStyle>
        </Style>
        <Style id="54668">
            <IconStyle id="54669">
                <colorMode>normal</colorMode>
                <scale>1</scale>
                <heading>0</heading>
                <Icon id="54670">
                    <href>http://maps.google.com/mapfiles/kml/pushpin/ylw-pushpin.png</href>
                </Icon>
            </IconStyle>
        </Style>
        <Style id="54673">
            <LineStyle id="54674">
                <color>ff00F2FF</color>
                <colorMode>normal</colorMode>
                <width>4</width>
            </LineStyle>
        </Style>
        <Style id="54677">
            <LineStyle id="54678">
                <color>ff00F2FF</color>
                <colorMode>normal</colorMode>
                <width>4</width>
            </LineStyle>
        </Style>
        <Style id="54681">
            <LineStyle id="54682">
                <color>ff00F2FF</color>
                <colorMode>normal</colorMode>
                <width>4</width>
            </LineStyle>
        </Style>
        <Style id="54685">
            <LineStyle id="54686">
                <color>ff00F2FF</color>
                <colorMode>normal</colorMode>
                <width>4</width>
            </LineStyle>
        </Style>
        <Style id="54689">
            <LineStyle id="54690">
                <color>ff00F2FF</color>
                <colorMode>normal</colorMode>
                <width>4</width>
            </LineStyle>
        </Style>
        <Style id="54693">
            <LineStyle id="54694">
                <color>ff00F2FF</color>
                <colorMode>normal</colorMode>
                <width>4</width>
            </LineStyle>
        </Style>
        <Style id="54697">
            <LineStyle id="54698">
                <color>ff00F2FF</color>
                <colorMode>normal</colorMode>
                <width>4</width>
            </LineStyle>
        </Style>
        <Style id="54701">
            <LineStyle id="54702">
                <color>ff00F2FF</color>
                <colorMode>normal</colorMode>
                <width>4</width>
            </LineStyle>
        </Style>
        <Style id="54705">
            <LineStyle id="54706">
                <color>ff00F2FF</color>
                <colorMode>normal</colorMode>
                <width>4</width>
            </LineStyle>
        </Style>
        <Style id="54709">
            <LineStyle id="54710">
                <color>ff00F2FF</color>
                <colorMode>normal</colorMode>
                <width>4</width>
            </LineStyle>
        </Style>
        <Style id="54713">
            <LineStyle id="54714">
                <color>ff00F2FF</color>
                <colorMode>normal</colorMode>
                <width>4</width>
            </LineStyle>
        </Style>
        <Style id="54717">
            <LineStyle id="54718">
                <color>ff00F2FF</color>
                <colorMode>normal</colorMode>
                <width>4</width>
            </LineStyle>
        </Style>
        <Style id="54721">
            <LineStyle id="54722">
                <color>ff00F2FF</color>
                <colorMode>normal</colorMode>
                <width>4</width>
            </LineStyle>
        </Style>
        <Style id="54725">
            <LineStyle id="54726">
                <color>ff00F2FF</color>
                <colorMode>normal</colorMode>
                <width>4</width>
            </LineStyle>
        </Style>
        <Style id="54729">
            <LineStyle id="54730">
                <color>ff00F2FF</color>
                <colorMode>normal</colorMode>
                <width>4</width>
            </LineStyle>
        </Style>
        <Style id="54733">
            <LineStyle id="54734">
                <color>ff00F2FF</color>
                <colorMode>normal</colorMode>
                <width>4</width>
            </LineStyle>
        </Style>
        <Style id="54737">
            <LineStyle id="54738">
                <color>ff00F2FF</color>
                <colorMode>normal</colorMode>
                <width>4</width>
            </LineStyle>
        </Style>
        <Style id="54741">
            <LineStyle id="54742">
                <color>ff00F2FF</color>
                <colorMode>normal</colorMode>
                <width>4</width>
            </LineStyle>
        </Style>
        <Style id="54745">
            <LineStyle id="54746">
                <color>ff00F2FF</color>
                <colorMode>normal</colorMode>
                <width>4</width>
            </LineStyle>
        </Style>
        <Style id="54749">
            <LineStyle id="54750">
                <color>ff00F2FF</color>
                <colorMode>normal</colorMode>
                <width>4</width>
            </LineStyle>
        </Style>
        <Style id="54753">
            <LineStyle id="54754">
                <color>ff00F2FF</color>
                <colorMode>normal</colorMode>
                <width>4</width>
            </LineStyle>
        </Style>
        <Style id="54757">
            <LineStyle id="54758">
                <color>ff00F2FF</color>
                <colorMode>normal</colorMode>
                <width>4</width>
            </LineStyle>
        </Style>
        <Style id="54761">
            <LineStyle id="54762">
                <color>ff00F2FF</color>
                <colorMode>normal</colorMode>
                <width>4</width>
            </LineStyle>
        </Style>
        <Style id="54765">
            <LineStyle id="54766">
                <color>ff00F2FF</color>
                <colorMode>normal</colorMode>
                <width>4</width>
            </LineStyle>
        </Style>
        <Style id="54769">
            <LineStyle id="54770">
                <color>ff00F2FF</color>
                <colorMode>normal</colorMode>
                <width>4</width>
            </LineStyle>
        </Style>
        <Style id="54773">
            <LineStyle id="54774">
                <color>ff00F2FF</color>
                <colorMode>normal</colorMode>
                <width>4</width>
            </LineStyle>
        </Style>
        <Style id="54777">
            <LineStyle id="54778">
                <color>ff00F2FF</color>
                <colorMode>normal</colorMode>
                <width>4</width>
            </LineStyle>
        </Style>
        <ExtendedData>
            <Data name="route-name">
                <value>35: Kalapa → Cibaduyut</value>
            </Data>
            <Data name="source">
                <value>Transport for Bandung</value>
            </Data>
        </ExtendedData>
        <Placemark id="54662">
            <name>Terminal Abdul Muis/Kebon Kalapa</name>
            <styleUrl>#54663</styleUrl>
            <Point id="54661">
                <coordinates>107.6058322,-6.9276428,0.0</coordinates>
            </Point>
        </Placemark>
        <Placemark id="54667">
            <name>Terminal Cibaduyut</name>
            <styleUrl>#54668</styleUrl>
            <Point id="54666">
                <coordinates>107.5937757,-6.9617658,0.0</coordinates>
            </Point>
        </Placemark>
        <Placemark id="54672">
            <name>Jalan Otto Iskandardinata</name>
            <styleUrl>#54673</styleUrl>
            <LineString id="54671">
                <coordinates>107.6032238,-6.935481,0.0 107.6032173,-6.935578,0.0 107.6032076,-6.9357215,0.0 107.6031855,-6.936049,0.0 107.6031741,-6.936219,0.0 107.6031624,-6.9363928,0.0 107.6031505,-6.9365689,0.0</coordinates>
            </LineString>
        </Placemark>
        <Placemark id="54676">
            <name>Jalan Otto Iskandardinata</name>
            <styleUrl>#54677</styleUrl>
            <LineString id="54675">
                <coordinates>107.603088,-6.9372221,0.0 107.6030728,-6.9373193,0.0</coordinates>
            </LineString>
        </Placemark>
        <Placemark id="54680">
            <name>Jalan Raya Cibaduyut</name>
            <styleUrl>#54681</styleUrl>
            <LineString id="54679">
                <coordinates>107.5951636,-6.9477707,0.0 107.5951418,-6.9478259,0.0 107.5951296,-6.9478505,0.0 107.5951215,-6.9478692,0.0 107.5950953,-6.9479038,0.0 107.5950618,-6.9479511,0.0 107.5950276,-6.9479856,0.0 107.5949773,-6.9480149,0.0 107.5948566,-6.9480862,0.0 107.5947507,-6.9481401,0.0 107.5946789,-6.9481874,0.0 107.5946166,-6.9482326,0.0 107.5945643,-6.9482752,0.0 107.5945267,-6.9483019,0.0 107.5944851,-6.9483431,0.0 107.5944503,-6.9483844,0.0 107.594408,-6.9484363,0.0 107.5943671,-6.9484982,0.0 107.5943322,-6.9485655,0.0 107.5942998,-6.9486456,0.0</coordinates>
            </LineString>
        </Placemark>
        <Placemark id="54684">
            <name>Jalan Raya Cibaduyut</name>
            <styleUrl>#54685</styleUrl>
            <LineString id="54683">
                <coordinates>107.5952613,-6.9473935,0.0 107.5952577,-6.9474217,0.0 107.595237,-6.9476192,0.0</coordinates>
            </LineString>
        </Placemark>
        <Placemark id="54688">
            <name>Jalan Pungkur</name>
            <styleUrl>#54689</styleUrl>
            <LineString id="54687">
                <coordinates>107.6059454,-6.9273849,0.0 107.6050539,-6.9273113,0.0 107.6049045,-6.927299,0.0 107.6047838,-6.9272891,0.0 107.6042912,-6.9272485,0.0 107.6038271,-6.9272103,0.0 107.6037294,-6.9272023,0.0 107.6036918,-6.9271992,0.0</coordinates>
            </LineString>
        </Placemark>
        <Placemark id="54692">
            <name>Jalan Otto Iskandardinata</name>
            <styleUrl>#54693</styleUrl>
            <LineString id="54691">
                <coordinates>107.6036918,-6.9271992,0.0 107.6036329,-6.9280445,0.0 107.6035987,-6.9285343,0.0 107.6035394,-6.9293944,0.0 107.603531,-6.9295081,0.0 107.6035279,-6.9295503,0.0 107.6035002,-6.9299478,0.0 107.6034837,-6.930184,0.0 107.6034742,-6.930325,0.0 107.6034705,-6.9303736,0.0 107.6034661,-6.9304369,0.0 107.603397,-6.9314278,0.0</coordinates>
            </LineString>
        </Placemark>
        <Placemark id="54696">
            <name>Jalan Otto Iskandardinata</name>
            <styleUrl>#54697</styleUrl>
            <LineString id="54695">
                <coordinates>107.6032271,-6.9338577,0.0 107.603223,-6.9339734,0.0 107.6032159,-6.9342862,0.0</coordinates>
            </LineString>
        </Placemark>
        <Placemark id="54700">
            <name>Jalan Otto Iskandardinata</name>
            <styleUrl>#54701</styleUrl>
            <LineString id="54699">
                <coordinates>107.603397,-6.9314278,0.0 107.6033247,-6.9324527,0.0 107.6033123,-6.9326285,0.0 107.603267,-6.9332705,0.0 107.6032353,-6.9337195,0.0 107.6032271,-6.9338577,0.0</coordinates>
            </LineString>
        </Placemark>
        <Placemark id="54704">
            <name>Jalan Raya Cibaduyut</name>
            <styleUrl>#54705</styleUrl>
            <LineString id="54703">
                <coordinates>107.5942998,-6.9486456,0.0 107.5942619,-6.9487521,0.0 107.594111,-6.9491645,0.0 107.594007,-6.9494581,0.0 107.593989,-6.9495183,0.0 107.5939029,-6.9498072,0.0 107.5937705,-6.950365,0.0 107.5937512,-6.9504458,0.0 107.5937476,-6.9504611,0.0 107.593706,-6.9506522,0.0 107.5936724,-6.9508306,0.0 107.5936409,-6.9510003,0.0 107.593606,-6.9512253,0.0 107.5935936,-6.95131,0.0 107.5935928,-6.9513153,0.0 107.5935268,-6.9517653,0.0 107.5935106,-6.9518508,0.0 107.5934577,-6.9521425,0.0 107.5934263,-6.9522883,0.0 107.5933988,-6.9524241,0.0 107.5933754,-6.9525559,0.0 107.5933284,-6.9527389,0.0 107.5933177,-6.9527975,0.0 107.593309,-6.9528767,0.0 107.5933036,-6.9529725,0.0 107.593305,-6.9532368,0.0 107.5933075,-6.9534735,0.0 107.5932993,-6.9536359,0.0 107.5932909,-6.9538691,0.0 107.5932949,-6.9539843,0.0 107.5932996,-6.9541793,0.0 107.593305,-6.9542246,0.0 107.5933365,-6.9543897,0.0 107.5933935,-6.9546193,0.0 107.5934061,-6.9546625,0.0 107.5934384,-6.9547824,0.0 107.5934686,-6.9549341,0.0 107.593488,-6.955044,0.0 107.5934934,-6.9550985,0.0 107.5934947,-6.9551751,0.0 107.5934916,-6.9551915,0.0 107.5934747,-6.9552797,0.0 107.5934458,-6.9553814,0.0 107.5933754,-6.9556357,0.0 107.5933656,-6.9556633,0.0 107.593298,-6.955853,0.0 107.5932667,-6.9559447,0.0 107.5932482,-6.9560037,0.0 107.5932429,-6.9560206,0.0 107.5931688,-6.9562614,0.0 107.5931279,-6.9564338,0.0 107.5931118,-6.9565123,0.0 107.5931011,-6.9565895,0.0 107.5930924,-6.9567466,0.0 107.5931829,-6.9574289,0.0 107.5931876,-6.957554,0.0 107.593193,-6.9577384,0.0 107.5931995,-6.957832,0.0 107.5932071,-6.9579567,0.0 107.5932265,-6.9580632,0.0 107.593256,-6.958195,0.0 107.5932729,-6.9582559,0.0 107.5932835,-6.9582848,0.0 107.5933485,-6.9584339,0.0 107.5934169,-6.9585984,0.0 107.5934817,-6.9587587,0.0 107.5935162,-6.958844,0.0 107.5935437,-6.9589191,0.0 107.5935578,-6.9589944,0.0 107.5935544,-6.9590537,0.0 107.5935423,-6.9591362,0.0 107.5935324,-6.9592025,0.0 107.5935172,-6.9593415,0.0 107.5935017,-6.9594638,0.0 107.5934861,-6.959587,0.0 107.5934847,-6.9596633,0.0 107.5934853,-6.9597652,0.0 107.5934947,-6.9598657,0.0 107.5935034,-6.9599256,0.0 107.5935148,-6.9599802,0.0 107.5935343,-6.9600407,0.0 107.5935611,-6.9601013,0.0 107.5935846,-6.9601313,0.0 107.5936972,-6.9602917,0.0 107.5937871,-6.9604228,0.0 107.5938486,-6.9605156,0.0 107.5939708,-6.9607057,0.0 107.5939983,-6.9607589,0.0 107.5940191,-6.9608068,0.0 107.5940339,-6.9608475,0.0 107.5940399,-6.9608927,0.0 107.5940406,-6.960948,0.0 107.5940379,-6.9610205,0.0 107.5938862,-6.9614574,0.0 107.5938691,-6.9615072,0.0 107.5937757,-6.9617658,0.0</coordinates>
            </LineString>
        </Placemark>
        <Placemark id="54708">
            <name>Jalan Peta</name>
            <styleUrl>#54709</styleUrl>
            <LineString id="54707">
                <coordinates>107.6030728,-6.9373193,0.0 107.6029983,-6.9373153,0.0</coordinates>
            </LineString>
        </Placemark>
        <Placemark id="54712">
            <name>Jalan Leuwi Panjang</name>
            <styleUrl>#54713</styleUrl>
            <LineString id="54711">
                <coordinates>107.5969723,-6.9383546,0.0 107.5968615,-6.9387441,0.0 107.5968452,-6.9388088,0.0 107.5968139,-6.9389435,0.0 107.5967878,-6.9390978,0.0 107.5966221,-6.9399458,0.0 107.5966054,-6.9400414,0.0 107.5966114,-6.9401199,0.0 107.5966329,-6.9401738,0.0 107.5966745,-6.9402803,0.0 107.5966973,-6.9403529,0.0 107.5967087,-6.9404168,0.0 107.5967033,-6.940486,0.0 107.5965833,-6.9410971,0.0 107.5965417,-6.9412841,0.0 107.5964954,-6.9414186,0.0 107.5964519,-6.9415138,0.0 107.5963654,-6.9416968,0.0 107.5962371,-6.9419225,0.0 107.596167,-6.9420457,0.0 107.5961146,-6.942194,0.0 107.5960889,-6.9422916,0.0 107.5960698,-6.9423867,0.0 107.5960376,-6.9425466,0.0 107.595975,-6.942858,0.0 107.5959473,-6.9430231,0.0 107.5959444,-6.9430421,0.0 107.5958988,-6.9432792,0.0 107.5957265,-6.944081,0.0 107.5957205,-6.9441083,0.0 107.5956449,-6.9446452,0.0 107.595546,-6.9450223,0.0 107.5954987,-6.9452012,0.0 107.5954628,-6.9453245,0.0 107.5954333,-6.945459,0.0 107.5954118,-6.9455715,0.0 107.5953998,-6.9456593,0.0 107.5953844,-6.9458471,0.0 107.5953773,-6.945973,0.0</coordinates>
            </LineString>
        </Placemark>
        <Placemark id="54716">
            <name>Jalan Leuwi Panjang</name>
            <styleUrl>#54717</styleUrl>
            <LineString id="54715">
                <coordinates>107.5953773,-6.945973,0.0 107.5953699,-6.9460639,0.0 107.5953572,-6.9462205,0.0 107.5953554,-6.946242,0.0 107.5952938,-6.9469212,0.0</coordinates>
            </LineString>
        </Placemark>
        <Placemark id="54720">
            <name>Jalan Peta</name>
            <styleUrl>#54721</styleUrl>
            <LineString id="54719">
                <coordinates>107.6021772,-6.9372552,0.0 107.602016,-6.9372409,0.0 107.6019146,-6.9372385,0.0 107.601703,-6.9372304,0.0 107.6014696,-6.937233,0.0 107.6010236,-6.9372742,0.0 107.6000125,-6.9374564,0.0 107.5998296,-6.9374914,0.0 107.5994727,-6.9375618,0.0</coordinates>
            </LineString>
        </Placemark>
        <Placemark id="54724">
            <name>Jalan Raya Cibaduyut</name>
            <styleUrl>#54725</styleUrl>
            <LineString id="54723">
                <coordinates>107.595237,-6.9476192,0.0 107.595229,-6.9476602,0.0 107.5951636,-6.9477707,0.0</coordinates>
            </LineString>
        </Placemark>
        <Placemark id="54728">
            <name>Jalan Peta</name>
            <styleUrl>#54729</styleUrl>
            <LineString id="54727">
                <coordinates>107.5994727,-6.9375618,0.0 107.5993708,-6.9375805,0.0</coordinates>
            </LineString>
        </Placemark>
        <Placemark id="54732">
            <name>Jalan Peta</name>
            <styleUrl>#54733</styleUrl>
            <LineString id="54731">
                <coordinates>107.5993708,-6.9375805,0.0 107.5988884,-6.9376814,0.0 107.5984434,-6.9377562,0.0 107.5983423,-6.9377695,0.0 107.5980891,-6.9378047,0.0 107.5978299,-6.9378174,0.0 107.5975831,-6.9378255,0.0 107.5972383,-6.9378114,0.0 107.5971376,-6.937801,0.0</coordinates>
            </LineString>
        </Placemark>
        <Placemark id="54736">
            <name>Jalan Otto Iskandardinata</name>
            <styleUrl>#54737</styleUrl>
            <LineString id="54735">
                <coordinates>107.6031033,-6.9370152,0.0 107.6030927,-6.9371305,0.0 107.603088,-6.9372221,0.0</coordinates>
            </LineString>
        </Placemark>
        <Placemark id="54740">
            <name>Jalan Leuwi Panjang</name>
            <styleUrl>#54741</styleUrl>
            <LineString id="54739">
                <coordinates>107.5952938,-6.9469212,0.0 107.5952796,-6.9471244,0.0 107.5952745,-6.9472037,0.0</coordinates>
            </LineString>
        </Placemark>
        <Placemark id="54744">
            <name>Jalan Otto Iskandardinata</name>
            <styleUrl>#54745</styleUrl>
            <LineString id="54743">
                <coordinates>107.6031782,-6.9351372,0.0 107.6032137,-6.9352454,0.0 107.6032252,-6.9353491,0.0 107.6032238,-6.935481,0.0</coordinates>
            </LineString>
        </Placemark>
        <Placemark id="54748">
            <name>Jalan Otto Iskandardinata</name>
            <styleUrl>#54749</styleUrl>
            <LineString id="54747">
                <coordinates>107.6031505,-6.9365689,0.0 107.6031322,-6.9367751,0.0 107.6031033,-6.9370152,0.0</coordinates>
            </LineString>
        </Placemark>
        <Placemark id="54752">
            <name>Jalan Otto Iskandardinata</name>
            <styleUrl>#54753</styleUrl>
            <LineString id="54751">
                <coordinates>107.6032159,-6.9342862,0.0 107.6031855,-6.9349893,0.0 107.6031782,-6.9351372,0.0</coordinates>
            </LineString>
        </Placemark>
        <Placemark id="54756">
            <name>Jalan Leuwi Panjang</name>
            <styleUrl>#54757</styleUrl>
            <LineString id="54755">
                <coordinates>107.5971376,-6.937801,0.0 107.5969723,-6.9383546,0.0</coordinates>
            </LineString>
        </Placemark>
        <Placemark id="54760">
            <name>Jalan Leuwi Panjang</name>
            <styleUrl>#54761</styleUrl>
            <LineString id="54759">
                <coordinates>107.5952745,-6.9472037,0.0 107.5952613,-6.9473935,0.0</coordinates>
            </LineString>
        </Placemark>
        <Placemark id="54764">
            <name>Jalan Dewi Sartika</name>
            <styleUrl>#54765</styleUrl>
            <LineString id="54763">
                <coordinates>107.6058386,-6.9275637,0.0 107.6058453,-6.9274973,0.0</coordinates>
            </LineString>
        </Placemark>
        <Placemark id="54768">
            <name>Jalan Dewi Sartika</name>
            <styleUrl>#54769</styleUrl>
            <LineString id="54767">
                <coordinates>107.6058453,-6.9274973,0.0 107.6058559,-6.9274746,0.0 107.605878,-6.9274596,0.0 107.6059082,-6.9274425,0.0 107.6059305,-6.9274223,0.0 107.6059373,-6.9274102,0.0 107.6059454,-6.9273849,0.0</coordinates>
            </LineString>
        </Placemark>
        <Placemark id="54772">
            <name>Jalan Dewi Sartika</name>
            <styleUrl>#54773</styleUrl>
            <LineString id="54771">
                <coordinates>107.6058322,-6.9276428,0.0 107.6058386,-6.9275637,0.0</coordinates>
            </LineString>
        </Placemark>
        <Placemark id="54776">
            <name>Jalan Peta</name>
            <styleUrl>#54777</styleUrl>
            <LineString id="54775">
                <coordinates>107.6029983,-6.9373153,0.0 107.6028855,-6.9373037,0.0 107.6028514,-6.9373009,0.0 107.6021772,-6.9372552,0.0</coordinates>
            </LineString>
        </Placemark>
    </Document>
</kml>
