<?xml version="1.0" encoding="UTF-8"?>
<kml xmlns="http://www.opengis.net/kml/2.2" xmlns:gx="http://www.google.com/kml/ext/2.2">
    <Document id="76094">
        <Style id="76100">
            <IconStyle id="76101">
                <colorMode>normal</colorMode>
                <scale>1</scale>
                <heading>0</heading>
                <Icon id="76102">
                    <href>http://maps.google.com/mapfiles/kml/pushpin/ylw-pushpin.png</href>
                </Icon>
            </IconStyle>
        </Style>
        <Style id="76105">
            <IconStyle id="76106">
                <colorMode>normal</colorMode>
                <scale>1</scale>
                <heading>0</heading>
                <Icon id="76107">
                    <href>http://maps.google.com/mapfiles/kml/pushpin/ylw-pushpin.png</href>
                </Icon>
            </IconStyle>
        </Style>
        <Style id="76110">
            <LineStyle id="76111">
                <color>ff356615</color>
                <colorMode>normal</colorMode>
                <width>4</width>
            </LineStyle>
        </Style>
        <Style id="76114">
            <LineStyle id="76115">
                <color>ff356615</color>
                <colorMode>normal</colorMode>
                <width>4</width>
            </LineStyle>
        </Style>
        <Style id="76118">
            <LineStyle id="76119">
                <color>ff356615</color>
                <colorMode>normal</colorMode>
                <width>4</width>
            </LineStyle>
        </Style>
        <Style id="76122">
            <LineStyle id="76123">
                <color>ff356615</color>
                <colorMode>normal</colorMode>
                <width>4</width>
            </LineStyle>
        </Style>
        <Style id="76126">
            <LineStyle id="76127">
                <color>ff356615</color>
                <colorMode>normal</colorMode>
                <width>4</width>
            </LineStyle>
        </Style>
        <Style id="76130">
            <LineStyle id="76131">
                <color>ff356615</color>
                <colorMode>normal</colorMode>
                <width>4</width>
            </LineStyle>
        </Style>
        <Style id="76134">
            <LineStyle id="76135">
                <color>ff356615</color>
                <colorMode>normal</colorMode>
                <width>4</width>
            </LineStyle>
        </Style>
        <Style id="76138">
            <LineStyle id="76139">
                <color>ff356615</color>
                <colorMode>normal</colorMode>
                <width>4</width>
            </LineStyle>
        </Style>
        <Style id="76142">
            <LineStyle id="76143">
                <color>ff356615</color>
                <colorMode>normal</colorMode>
                <width>4</width>
            </LineStyle>
        </Style>
        <Style id="76146">
            <LineStyle id="76147">
                <color>ff356615</color>
                <colorMode>normal</colorMode>
                <width>4</width>
            </LineStyle>
        </Style>
        <Style id="76150">
            <LineStyle id="76151">
                <color>ff356615</color>
                <colorMode>normal</colorMode>
                <width>4</width>
            </LineStyle>
        </Style>
        <Style id="76154">
            <LineStyle id="76155">
                <color>ff356615</color>
                <colorMode>normal</colorMode>
                <width>4</width>
            </LineStyle>
        </Style>
        <Style id="76158">
            <LineStyle id="76159">
                <color>ff356615</color>
                <colorMode>normal</colorMode>
                <width>4</width>
            </LineStyle>
        </Style>
        <Style id="76162">
            <LineStyle id="76163">
                <color>ff356615</color>
                <colorMode>normal</colorMode>
                <width>4</width>
            </LineStyle>
        </Style>
        <Style id="76166">
            <LineStyle id="76167">
                <color>ff356615</color>
                <colorMode>normal</colorMode>
                <width>4</width>
            </LineStyle>
        </Style>
        <Style id="76170">
            <LineStyle id="76171">
                <color>ff356615</color>
                <colorMode>normal</colorMode>
                <width>4</width>
            </LineStyle>
        </Style>
        <Style id="76174">
            <LineStyle id="76175">
                <color>ff356615</color>
                <colorMode>normal</colorMode>
                <width>4</width>
            </LineStyle>
        </Style>
        <Style id="76178">
            <LineStyle id="76179">
                <color>ff356615</color>
                <colorMode>normal</colorMode>
                <width>4</width>
            </LineStyle>
        </Style>
        <Style id="76182">
            <LineStyle id="76183">
                <color>ff356615</color>
                <colorMode>normal</colorMode>
                <width>4</width>
            </LineStyle>
        </Style>
        <Style id="76186">
            <LineStyle id="76187">
                <color>ff356615</color>
                <colorMode>normal</colorMode>
                <width>4</width>
            </LineStyle>
        </Style>
        <Style id="76190">
            <LineStyle id="76191">
                <color>ff356615</color>
                <colorMode>normal</colorMode>
                <width>4</width>
            </LineStyle>
        </Style>
        <ExtendedData>
            <Data name="route-name">
                <value>906: Buahbatu → Dayeuhkolot</value>
            </Data>
            <Data name="source">
                <value>Transport for Bandung</value>
            </Data>
        </ExtendedData>
        <Placemark id="76099">
            <name>Kordon</name>
            <styleUrl>#76100</styleUrl>
            <Point id="76098">
                <coordinates>107.6392468,-6.9552162,0.0</coordinates>
            </Point>
        </Placemark>
        <Placemark id="76104">
            <name>Dayeuh Kolot</name>
            <styleUrl>#76105</styleUrl>
            <Point id="76103">
                <coordinates>107.6270195,-6.9861916,0.0</coordinates>
            </Point>
        </Placemark>
        <Placemark id="76109">
            <name>Jalan Bojongsoang</name>
            <styleUrl>#76110</styleUrl>
            <LineString id="76108">
                <coordinates>107.6334271,-6.982576,0.0 107.6333183,-6.9826588,0.0 107.6331518,-6.9827833,0.0 107.6329595,-6.9828925,0.0 107.632677,-6.9830155,0.0 107.6324623,-6.9830967,0.0 107.6322221,-6.9831765,0.0 107.6319965,-6.9832285,0.0 107.6317677,-6.9832746,0.0 107.6316703,-6.9832899,0.0 107.6314598,-6.9833231,0.0 107.6313168,-6.9833408,0.0 107.6311272,-6.9834023,0.0 107.6310399,-6.9834527,0.0 107.6309193,-6.9835557,0.0 107.6307659,-6.9837107,0.0 107.6305255,-6.9838989,0.0 107.6301666,-6.9841369,0.0 107.6301521,-6.9841458,0.0</coordinates>
            </LineString>
        </Placemark>
        <Placemark id="76113">
            <name>Jalan Bojongsoang</name>
            <styleUrl>#76114</styleUrl>
            <LineString id="76112">
                <coordinates>107.629967,-6.984275,0.0 107.629842,-6.9843655,0.0 107.6297584,-6.9844195,0.0 107.629587,-6.9844922,0.0 107.629441,-6.9845291,0.0 107.6291326,-6.9845669,0.0 107.629002,-6.9845787,0.0 107.6288669,-6.9846967,0.0 107.6286511,-6.9849081,0.0 107.6283903,-6.9851983,0.0 107.62832,-6.9852785,0.0 107.6281685,-6.9854591,0.0 107.6276386,-6.9860824,0.0 107.6276154,-6.986108,0.0 107.6275953,-6.9861306,0.0 107.627565,-6.9861572,0.0 107.6275382,-6.9861699,0.0 107.6275025,-6.9861794,0.0 107.6274602,-6.9861832,0.0 107.6273537,-6.9861862,0.0 107.6272859,-6.9861805,0.0 107.6272097,-6.9861837,0.0 107.6270195,-6.9861916,0.0</coordinates>
            </LineString>
        </Placemark>
        <Placemark id="76117">
            <name>Jalan Bojongsoang</name>
            <styleUrl>#76118</styleUrl>
            <LineString id="76116">
                <coordinates>107.6301521,-6.9841458,0.0 107.629967,-6.984275,0.0</coordinates>
            </LineString>
        </Placemark>
        <Placemark id="76121">
            <name>Jalan Raya Bojongsoang</name>
            <styleUrl>#76122</styleUrl>
            <LineString id="76120">
                <coordinates>107.6378206,-6.9660771,0.0 107.6377617,-6.9662997,0.0 107.6377398,-6.9663836,0.0 107.637718,-6.9664881,0.0 107.6376914,-6.9666121,0.0 107.63764,-6.9668648,0.0 107.6376161,-6.9669718,0.0 107.6376092,-6.9670029,0.0 107.6375979,-6.9670536,0.0 107.6375686,-6.9671846,0.0 107.6374709,-6.9676213,0.0 107.6374449,-6.9677377,0.0 107.6373154,-6.9683172,0.0 107.6372888,-6.9684363,0.0 107.6370571,-6.9694733,0.0 107.6370479,-6.9695143,0.0 107.6369304,-6.9700405,0.0 107.6369161,-6.9701041,0.0 107.6368934,-6.9701783,0.0</coordinates>
            </LineString>
        </Placemark>
        <Placemark id="76125">
            <name>Jalan Buah Batu</name>
            <styleUrl>#76126</styleUrl>
            <LineString id="76124">
                <coordinates>107.6392468,-6.9552162,0.0 107.6393343,-6.9559465,0.0 107.6394517,-6.956606,0.0</coordinates>
            </LineString>
        </Placemark>
        <Placemark id="76129">
            <name>Jalan Raya Bojongsoang</name>
            <styleUrl>#76130</styleUrl>
            <LineString id="76128">
                <coordinates>107.6368934,-6.9701783,0.0 107.6368245,-6.9704403,0.0 107.6367566,-6.9706618,0.0 107.6367317,-6.9707871,0.0 107.6366699,-6.9710324,0.0 107.6366614,-6.971059,0.0 107.6365939,-6.9713026,0.0 107.6365819,-6.9713462,0.0 107.6365553,-6.9714433,0.0 107.6364823,-6.9717147,0.0 107.6363461,-6.9721812,0.0 107.636329,-6.9722306,0.0 107.6363081,-6.9723012,0.0 107.6362682,-6.9724362,0.0</coordinates>
            </LineString>
        </Placemark>
        <Placemark id="76133">
            <name>Jalan Raya Bojongsoang</name>
            <styleUrl>#76134</styleUrl>
            <LineString id="76132">
                <coordinates>107.6362682,-6.9724362,0.0 107.6362346,-6.9725688,0.0 107.636209,-6.9726819,0.0 107.6361683,-6.9728419,0.0 107.6361478,-6.9729226,0.0 107.6360627,-6.9732596,0.0 107.6359274,-6.9737582,0.0 107.6357541,-6.9743918,0.0 107.6356773,-6.9746727,0.0</coordinates>
            </LineString>
        </Placemark>
        <Placemark id="76137">
            <name>Jalan Raya Bojongsoang</name>
            <styleUrl>#76138</styleUrl>
            <LineString id="76136">
                <coordinates>107.6356773,-6.9746727,0.0 107.6355974,-6.9749692,0.0 107.6355497,-6.9751353,0.0 107.6355355,-6.9751827,0.0 107.6355279,-6.9752078,0.0 107.6354421,-6.9755257,0.0 107.6354001,-6.9756899,0.0 107.6353506,-6.9758765,0.0 107.6353405,-6.9759145,0.0 107.6352574,-6.9762278,0.0 107.6352127,-6.9763963,0.0 107.6348432,-6.9777891,0.0 107.6345295,-6.9789719,0.0 107.6345019,-6.9790759,0.0</coordinates>
            </LineString>
        </Placemark>
        <Placemark id="76141">
            <name>Jalan Raya Bojongsoang</name>
            <styleUrl>#76142</styleUrl>
            <LineString id="76140">
                <coordinates>107.6345019,-6.9790759,0.0 107.6344946,-6.9791121,0.0 107.6343461,-6.9796139,0.0 107.634329,-6.9796715,0.0 107.6342743,-6.9798563,0.0 107.6342581,-6.9799109,0.0 107.6341755,-6.9801901,0.0 107.6341706,-6.9802082,0.0 107.6341456,-6.9803001,0.0 107.6341275,-6.9803984,0.0 107.6341206,-6.9804782,0.0 107.6341262,-6.9806244,0.0 107.6341369,-6.980772,0.0 107.6341523,-6.9810824,0.0 107.634147,-6.981186,0.0 107.6341207,-6.9813165,0.0 107.6340806,-6.9814577,0.0 107.6340129,-6.9816639,0.0 107.6340009,-6.9816991,0.0 107.6339781,-6.9817662,0.0 107.6339127,-6.981957,0.0 107.6338707,-6.9820795,0.0 107.6337834,-6.9822627,0.0</coordinates>
            </LineString>
        </Placemark>
        <Placemark id="76145">
            <name>Jalan Raya Bojongsoang</name>
            <styleUrl>#76146</styleUrl>
            <LineString id="76144">
                <coordinates>107.6378206,-6.9660771,0.0 107.6379086,-6.9657162,0.0</coordinates>
            </LineString>
        </Placemark>
        <Placemark id="76149">
            <name>Jalan Buah Batu</name>
            <styleUrl>#76150</styleUrl>
            <LineString id="76148">
                <coordinates>107.6386939,-6.961947,0.0 107.6386768,-6.9620232,0.0 107.6384895,-6.9629095,0.0 107.6381098,-6.9649586,0.0 107.6380538,-6.9652734,0.0 107.6379965,-6.9653319,0.0</coordinates>
            </LineString>
        </Placemark>
        <Placemark id="76153">
            <name>Jalan Bojongsoang</name>
            <styleUrl>#76154</styleUrl>
            <LineString id="76152">
                <coordinates>107.6337834,-6.9822627,0.0 107.6336032,-6.9824154,0.0 107.6335002,-6.9825117,0.0</coordinates>
            </LineString>
        </Placemark>
        <Placemark id="76157">
            <name>Jalan Bojongsoang</name>
            <styleUrl>#76158</styleUrl>
            <LineString id="76156">
                <coordinates>107.6335002,-6.9825117,0.0 107.6334271,-6.982576,0.0</coordinates>
            </LineString>
        </Placemark>
        <Placemark id="76161">
            <name>Jalan Buah Batu</name>
            <styleUrl>#76162</styleUrl>
            <LineString id="76160">
                <coordinates>107.6379086,-6.9657162,0.0 107.6379887,-6.9653666,0.0 107.6379942,-6.9653424,0.0 107.6379965,-6.9653319,0.0</coordinates>
            </LineString>
        </Placemark>
        <Placemark id="76165">
            <name>Jalan Buah Batu</name>
            <styleUrl>#76166</styleUrl>
            <LineString id="76164">
                <coordinates>107.6394517,-6.956606,0.0 107.6395289,-6.9570266,0.0</coordinates>
            </LineString>
        </Placemark>
        <Placemark id="76169">
            <name>Jalan Buah Batu</name>
            <styleUrl>#76170</styleUrl>
            <LineString id="76168">
                <coordinates>107.6395289,-6.9570266,0.0 107.6395491,-6.9571696,0.0</coordinates>
            </LineString>
        </Placemark>
        <Placemark id="76173">
            <name>Jalan Buah Batu</name>
            <styleUrl>#76174</styleUrl>
            <LineString id="76172">
                <coordinates>107.6395491,-6.9571696,0.0 107.6395936,-6.9575518,0.0 107.6395984,-6.9579307,0.0 107.6395876,-6.9580497,0.0 107.6395723,-6.9581613,0.0 107.639519,-6.9584058,0.0 107.6394347,-6.9587335,0.0</coordinates>
            </LineString>
        </Placemark>
        <Placemark id="76177">
            <name>Jalan Buah Batu</name>
            <styleUrl>#76178</styleUrl>
            <LineString id="76176">
                <coordinates>107.6394347,-6.9587335,0.0 107.6392201,-6.9597843,0.0</coordinates>
            </LineString>
        </Placemark>
        <Placemark id="76181">
            <name>Jalan Buah Batu</name>
            <styleUrl>#76182</styleUrl>
            <LineString id="76180">
                <coordinates>107.6392201,-6.9597843,0.0 107.6391051,-6.960282,0.0</coordinates>
            </LineString>
        </Placemark>
        <Placemark id="76185">
            <name>Jalan Buah Batu</name>
            <styleUrl>#76186</styleUrl>
            <LineString id="76184">
                <coordinates>107.6391051,-6.960282,0.0 107.6390503,-6.9605477,0.0 107.6389921,-6.9607716,0.0</coordinates>
            </LineString>
        </Placemark>
        <Placemark id="76189">
            <name>Jalan Buah Batu</name>
            <styleUrl>#76190</styleUrl>
            <LineString id="76188">
                <coordinates>107.6389921,-6.9607716,0.0 107.6387182,-6.9618449,0.0 107.6386939,-6.961947,0.0</coordinates>
            </LineString>
        </Placemark>
    </Document>
</kml>
