<?xml version="1.0" encoding="UTF-8"?>
<kml xmlns="http://www.opengis.net/kml/2.2" xmlns:gx="http://www.google.com/kml/ext/2.2">
    <Document id="61180">
        <Style id="61186">
            <LineStyle id="61187">
                <color>ff356615</color>
                <colorMode>normal</colorMode>
                <width>4</width>
            </LineStyle>
        </Style>
        <Style id="61190">
            <LineStyle id="61191">
                <color>ff356615</color>
                <colorMode>normal</colorMode>
                <width>4</width>
            </LineStyle>
        </Style>
        <Style id="61194">
            <LineStyle id="61195">
                <color>ff356615</color>
                <colorMode>normal</colorMode>
                <width>4</width>
            </LineStyle>
        </Style>
        <Style id="61198">
            <LineStyle id="61199">
                <color>ff356615</color>
                <colorMode>normal</colorMode>
                <width>4</width>
            </LineStyle>
        </Style>
        <Style id="61202">
            <LineStyle id="61203">
                <color>ff356615</color>
                <colorMode>normal</colorMode>
                <width>4</width>
            </LineStyle>
        </Style>
        <Style id="61206">
            <LineStyle id="61207">
                <color>ff356615</color>
                <colorMode>normal</colorMode>
                <width>4</width>
            </LineStyle>
        </Style>
        <Style id="61210">
            <LineStyle id="61211">
                <color>ff356615</color>
                <colorMode>normal</colorMode>
                <width>4</width>
            </LineStyle>
        </Style>
        <Style id="61214">
            <LineStyle id="61215">
                <color>ff356615</color>
                <colorMode>normal</colorMode>
                <width>4</width>
            </LineStyle>
        </Style>
        <Style id="61218">
            <LineStyle id="61219">
                <color>ff356615</color>
                <colorMode>normal</colorMode>
                <width>4</width>
            </LineStyle>
        </Style>
        <Style id="61222">
            <LineStyle id="61223">
                <color>ff356615</color>
                <colorMode>normal</colorMode>
                <width>4</width>
            </LineStyle>
        </Style>
        <Style id="61226">
            <LineStyle id="61227">
                <color>ff356615</color>
                <colorMode>normal</colorMode>
                <width>4</width>
            </LineStyle>
        </Style>
        <Style id="61230">
            <LineStyle id="61231">
                <color>ff356615</color>
                <colorMode>normal</colorMode>
                <width>4</width>
            </LineStyle>
        </Style>
        <Style id="61234">
            <LineStyle id="61235">
                <color>ff356615</color>
                <colorMode>normal</colorMode>
                <width>4</width>
            </LineStyle>
        </Style>
        <Style id="61238">
            <LineStyle id="61239">
                <color>ff356615</color>
                <colorMode>normal</colorMode>
                <width>4</width>
            </LineStyle>
        </Style>
        <Style id="61242">
            <LineStyle id="61243">
                <color>ff356615</color>
                <colorMode>normal</colorMode>
                <width>4</width>
            </LineStyle>
        </Style>
        <Style id="61246">
            <LineStyle id="61247">
                <color>ff356615</color>
                <colorMode>normal</colorMode>
                <width>4</width>
            </LineStyle>
        </Style>
        <Style id="61250">
            <LineStyle id="61251">
                <color>ff356615</color>
                <colorMode>normal</colorMode>
                <width>4</width>
            </LineStyle>
        </Style>
        <Style id="61254">
            <LineStyle id="61255">
                <color>ff356615</color>
                <colorMode>normal</colorMode>
                <width>4</width>
            </LineStyle>
        </Style>
        <Style id="61258">
            <LineStyle id="61259">
                <color>ff356615</color>
                <colorMode>normal</colorMode>
                <width>4</width>
            </LineStyle>
        </Style>
        <Style id="61262">
            <LineStyle id="61263">
                <color>ff356615</color>
                <colorMode>normal</colorMode>
                <width>4</width>
            </LineStyle>
        </Style>
        <Style id="61266">
            <LineStyle id="61267">
                <color>ff356615</color>
                <colorMode>normal</colorMode>
                <width>4</width>
            </LineStyle>
        </Style>
        <Style id="61270">
            <LineStyle id="61271">
                <color>ff356615</color>
                <colorMode>normal</colorMode>
                <width>4</width>
            </LineStyle>
        </Style>
        <Style id="61274">
            <LineStyle id="61275">
                <color>ff356615</color>
                <colorMode>normal</colorMode>
                <width>4</width>
            </LineStyle>
        </Style>
        <Style id="61278">
            <LineStyle id="61279">
                <color>ff356615</color>
                <colorMode>normal</colorMode>
                <width>4</width>
            </LineStyle>
        </Style>
        <Style id="61282">
            <LineStyle id="61283">
                <color>ff356615</color>
                <colorMode>normal</colorMode>
                <width>4</width>
            </LineStyle>
        </Style>
        <Style id="61286">
            <LineStyle id="61287">
                <color>ff356615</color>
                <colorMode>normal</colorMode>
                <width>4</width>
            </LineStyle>
        </Style>
        <Style id="61290">
            <LineStyle id="61291">
                <color>ff356615</color>
                <colorMode>normal</colorMode>
                <width>4</width>
            </LineStyle>
        </Style>
        <Style id="61294">
            <LineStyle id="61295">
                <color>ff356615</color>
                <colorMode>normal</colorMode>
                <width>4</width>
            </LineStyle>
        </Style>
        <Style id="61298">
            <LineStyle id="61299">
                <color>ff356615</color>
                <colorMode>normal</colorMode>
                <width>4</width>
            </LineStyle>
        </Style>
        <Style id="61302">
            <LineStyle id="61303">
                <color>ff356615</color>
                <colorMode>normal</colorMode>
                <width>4</width>
            </LineStyle>
        </Style>
        <Style id="61306">
            <LineStyle id="61307">
                <color>ff356615</color>
                <colorMode>normal</colorMode>
                <width>4</width>
            </LineStyle>
        </Style>
        <Style id="61310">
            <LineStyle id="61311">
                <color>ff356615</color>
                <colorMode>normal</colorMode>
                <width>4</width>
            </LineStyle>
        </Style>
        <Style id="61314">
            <LineStyle id="61315">
                <color>ff356615</color>
                <colorMode>normal</colorMode>
                <width>4</width>
            </LineStyle>
        </Style>
        <Style id="61318">
            <LineStyle id="61319">
                <color>ff356615</color>
                <colorMode>normal</colorMode>
                <width>4</width>
            </LineStyle>
        </Style>
        <Style id="61322">
            <LineStyle id="61323">
                <color>ff356615</color>
                <colorMode>normal</colorMode>
                <width>4</width>
            </LineStyle>
        </Style>
        <Style id="61326">
            <LineStyle id="61327">
                <color>ff356615</color>
                <colorMode>normal</colorMode>
                <width>4</width>
            </LineStyle>
        </Style>
        <Style id="61330">
            <LineStyle id="61331">
                <color>ff356615</color>
                <colorMode>normal</colorMode>
                <width>4</width>
            </LineStyle>
        </Style>
        <Style id="61334">
            <LineStyle id="61335">
                <color>ff356615</color>
                <colorMode>normal</colorMode>
                <width>4</width>
            </LineStyle>
        </Style>
        <Style id="61338">
            <LineStyle id="61339">
                <color>ff356615</color>
                <colorMode>normal</colorMode>
                <width>4</width>
            </LineStyle>
        </Style>
        <Style id="61342">
            <LineStyle id="61343">
                <color>ff356615</color>
                <colorMode>normal</colorMode>
                <width>4</width>
            </LineStyle>
        </Style>
        <Style id="61346">
            <LineStyle id="61347">
                <color>ff356615</color>
                <colorMode>normal</colorMode>
                <width>4</width>
            </LineStyle>
        </Style>
        <Style id="61350">
            <IconStyle id="61351">
                <colorMode>normal</colorMode>
                <scale>1</scale>
                <heading>0</heading>
                <Icon id="61352">
                    <href>http://maps.google.com/mapfiles/kml/pushpin/ylw-pushpin.png</href>
                </Icon>
            </IconStyle>
        </Style>
        <Style id="61355">
            <IconStyle id="61356">
                <colorMode>normal</colorMode>
                <scale>1</scale>
                <heading>0</heading>
                <Icon id="61357">
                    <href>http://maps.google.com/mapfiles/kml/pushpin/ylw-pushpin.png</href>
                </Icon>
            </IconStyle>
        </Style>
        <ExtendedData>
            <Data name="route-name">
                <value>908: Nagreg → Cicalengka → Cileunyi</value>
            </Data>
            <Data name="source">
                <value>Transport for Bandung</value>
            </Data>
        </ExtendedData>
        <Placemark id="61185">
            <name>Route Segment</name>
            <styleUrl>#61186</styleUrl>
            <LineString id="61184">
                <coordinates>107.8554136,-7.0001043,0.0 107.8545161,-6.9995283,0.0</coordinates>
            </LineString>
        </Placemark>
        <Placemark id="61189">
            <name>Jalan Raya Cicalengka</name>
            <styleUrl>#61190</styleUrl>
            <LineString id="61188">
                <coordinates>107.8545161,-6.9995283,0.0 107.8544468,-6.9994873,0.0 107.8536922,-6.9990356,0.0 107.8529549,-6.9986186,0.0 107.852293,-6.9982598,0.0 107.8522575,-6.9982406,0.0 107.852102,-6.9981674,0.0 107.8512708,-6.997776,0.0 107.8511806,-6.9977335,0.0 107.8506744,-6.9974999,0.0 107.8503301,-6.997341,0.0 107.850304,-6.9973289,0.0 107.8502069,-6.9972742,0.0 107.8501198,-6.9972116,0.0 107.8499726,-6.9970755,0.0 107.8499173,-6.9970146,0.0 107.849873,-6.9969454,0.0 107.849779,-6.9968016,0.0 107.8496424,-6.9965719,0.0 107.8496102,-6.9965185,0.0 107.849513,-6.9963779,0.0 107.8494922,-6.9963427,0.0 107.8494716,-6.9963195,0.0 107.8493672,-6.9961819,0.0 107.8492549,-6.9961054,0.0 107.8492373,-6.9960935,0.0 107.8490928,-6.9960279,0.0 107.8489181,-6.9959777,0.0 107.8487639,-6.9959497,0.0 107.8486204,-6.9959338,0.0 107.8484458,-6.9959193,0.0 107.847683,-6.9959131,0.0 107.8475831,-6.9958912,0.0 107.8474993,-6.9958605,0.0 107.8474121,-6.9958233,0.0 107.8472283,-6.9957341,0.0 107.8469194,-6.9955644,0.0 107.8468528,-6.9955278,0.0 107.8467347,-6.9954572,0.0 107.846472,-6.9953001,0.0 107.8461488,-6.9950863,0.0 107.846103,-6.9950551,0.0 107.8453588,-6.9945629,0.0 107.845294,-6.9945257,0.0 107.844606,-6.9940565,0.0 107.8438335,-6.993482,0.0 107.8435835,-6.9932811,0.0 107.8435734,-6.9932666,0.0 107.8434727,-6.9931394,0.0 107.8433485,-6.992948,0.0 107.843232,-6.9927594,0.0 107.8428691,-6.9920069,0.0 107.8427912,-6.991807,0.0 107.8424198,-6.9908541,0.0 107.8423689,-6.9907277,0.0 107.8422039,-6.9903164,0.0 107.8420832,-6.9900542,0.0 107.8420269,-6.989937,0.0 107.8419317,-6.98975,0.0 107.8419075,-6.9897067,0.0 107.8413763,-6.9885765,0.0 107.8413101,-6.9884095,0.0 107.8412336,-6.9882052,0.0 107.841125,-6.987915,0.0 107.8410032,-6.9876527,0.0 107.8409439,-6.9875703,0.0 107.8408769,-6.9874944,0.0 107.8407884,-6.9874358,0.0 107.8406771,-6.9873839,0.0 107.8404811,-6.9873109,0.0 107.8403297,-6.9872495,0.0 107.8402103,-6.9872055,0.0 107.8400216,-6.9871335,0.0 107.8398197,-6.9870561,0.0</coordinates>
            </LineString>
        </Placemark>
        <Placemark id="61193">
            <name>Route Segment</name>
            <styleUrl>#61194</styleUrl>
            <LineString id="61192">
                <coordinates>107.8580027,-7.001658,0.0 107.8579718,-7.0016403,0.0 107.8577214,-7.0015023,0.0 107.8574977,-7.001391,0.0 107.8565919,-7.0008844,0.0 107.8562992,-7.0006933,0.0 107.8556924,-7.0002833,0.0 107.8555051,-7.0001614,0.0 107.8554136,-7.0001043,0.0</coordinates>
            </LineString>
        </Placemark>
        <Placemark id="61197">
            <name>Jalan Raya Nagreg</name>
            <styleUrl>#61198</styleUrl>
            <LineString id="61196">
                <coordinates>107.8715713,-7.0107546,0.0 107.8709695,-7.0103163,0.0 107.8702083,-7.0098899,0.0 107.8699569,-7.0097595,0.0 107.8698915,-7.0097256,0.0 107.8692883,-7.0094125,0.0 107.8691071,-7.009294,0.0 107.8687933,-7.0090648,0.0 107.868512,-7.0088672,0.0 107.8681415,-7.0085819,0.0 107.8679445,-7.0084687,0.0 107.8673154,-7.0081575,0.0 107.8671545,-7.0080826,0.0 107.8662715,-7.0076372,0.0 107.8662421,-7.0076193,0.0 107.8656393,-7.007253,0.0 107.8651582,-7.0069605,0.0 107.8651267,-7.0069421,0.0 107.8642642,-7.0064547,0.0 107.8636058,-7.0061368,0.0 107.863067,-7.0058878,0.0 107.8620776,-7.0055255,0.0 107.8620068,-7.0055046,0.0 107.8618934,-7.0054485,0.0 107.8618118,-7.0054118,0.0 107.8615755,-7.0052848,0.0 107.8612925,-7.0051125,0.0 107.8610525,-7.0049041,0.0 107.8608359,-7.004703,0.0 107.86074,-7.0045886,0.0 107.8606361,-7.004439,0.0 107.8604921,-7.0041904,0.0 107.8603489,-7.0039099,0.0 107.8602311,-7.0036492,0.0 107.8598636,-7.0029808,0.0 107.8597516,-7.0028183,0.0 107.8596408,-7.0026837,0.0 107.8594365,-7.0024642,0.0 107.8593529,-7.0023867,0.0 107.8592677,-7.0023302,0.0 107.8587073,-7.0020385,0.0 107.858472,-7.0019161,0.0</coordinates>
            </LineString>
        </Placemark>
        <Placemark id="61201">
            <name>Jalan Raya Cicalengka</name>
            <styleUrl>#61202</styleUrl>
            <LineString id="61200">
                <coordinates>107.8347562,-6.9822549,0.0 107.8344686,-6.9815698,0.0 107.8344496,-6.981524,0.0 107.8343845,-6.9813674,0.0 107.8341994,-6.9809248,0.0 107.8341833,-6.9808861,0.0 107.83407,-6.9806145,0.0 107.8340013,-6.98045,0.0 107.8339884,-6.9804203,0.0 107.8339288,-6.9802619,0.0 107.8338684,-6.9800999,0.0 107.8338084,-6.9798976,0.0 107.8337357,-6.9796226,0.0 107.8337041,-6.9795184,0.0</coordinates>
            </LineString>
        </Placemark>
        <Placemark id="61205">
            <name>Jalan Raya Majalaya - Cicalengka</name>
            <styleUrl>#61206</styleUrl>
            <LineString id="61204">
                <coordinates>107.8337041,-6.9795184,0.0 107.8335823,-6.9789968,0.0 107.8335211,-6.9788155,0.0</coordinates>
            </LineString>
        </Placemark>
        <Placemark id="61209">
            <name>Jalan Raya Cicalengka</name>
            <styleUrl>#61210</styleUrl>
            <LineString id="61208">
                <coordinates>107.825987,-6.9668803,0.0 107.8256639,-6.9668638,0.0 107.8243874,-6.9668028,0.0 107.8241523,-6.9667939,0.0</coordinates>
            </LineString>
        </Placemark>
        <Placemark id="61213">
            <name>Jalan Raya Dangdeur</name>
            <styleUrl>#61214</styleUrl>
            <LineString id="61212">
                <coordinates>107.769612,-6.9544076,0.0 107.7692204,-6.9542753,0.0 107.7691799,-6.9542637,0.0 107.7689338,-6.9541876,0.0 107.7686256,-6.9540991,0.0 107.7680468,-6.9538967,0.0 107.7672433,-6.9536367,0.0 107.7665026,-6.9533937,0.0 107.7662954,-6.9533067,0.0 107.766203,-6.9532507,0.0 107.7660886,-6.953184,0.0 107.7658939,-6.9530311,0.0 107.7656972,-6.9528835,0.0 107.765379,-6.9526446,0.0 107.7651933,-6.9524787,0.0 107.7650708,-6.9523684,0.0 107.7648823,-6.9521987,0.0 107.7647533,-6.9520827,0.0 107.7645734,-6.9519209,0.0 107.7642476,-6.951655,0.0</coordinates>
            </LineString>
        </Placemark>
        <Placemark id="61217">
            <name>Jalan Raya Dangdeur</name>
            <styleUrl>#61218</styleUrl>
            <LineString id="61216">
                <coordinates>107.7751844,-6.9562092,0.0 107.7745177,-6.9559878,0.0 107.7740706,-6.9558393,0.0 107.773636,-6.9557027,0.0 107.7733106,-6.9555956,0.0 107.773058,-6.9555131,0.0 107.7727712,-6.9554192,0.0 107.7724153,-6.9553004,0.0 107.771783,-6.9551013,0.0 107.7711497,-6.9548989,0.0 107.7709356,-6.9548363,0.0</coordinates>
            </LineString>
        </Placemark>
        <Placemark id="61221">
            <name>Jalan Raya Cicalengka</name>
            <styleUrl>#61222</styleUrl>
            <LineString id="61220">
                <coordinates>107.8392729,-6.9868408,0.0 107.8389044,-6.9866865,0.0 107.8386777,-6.9865991,0.0 107.8383833,-6.9864872,0.0 107.8381796,-6.9864026,0.0 107.8378808,-6.9862797,0.0 107.8373437,-6.9860825,0.0 107.8371225,-6.9859909,0.0 107.8370199,-6.9859516,0.0 107.8366685,-6.9858251,0.0 107.8362407,-6.9856388,0.0 107.8361438,-6.9855895,0.0 107.8360866,-6.9855522,0.0 107.8360234,-6.985499,0.0 107.8359242,-6.9853685,0.0 107.8358544,-6.9852381,0.0 107.8357861,-6.9850318,0.0 107.8356774,-6.984699,0.0 107.8354897,-6.9840321,0.0 107.8354481,-6.9839256,0.0 107.8353006,-6.9835622,0.0 107.8351455,-6.9832054,0.0 107.8350825,-6.9830347,0.0 107.8349911,-6.9828005,0.0 107.8349588,-6.9827275,0.0 107.8348384,-6.9824506,0.0</coordinates>
            </LineString>
        </Placemark>
        <Placemark id="61225">
            <name>Jalan Raya Cicalengka</name>
            <styleUrl>#61226</styleUrl>
            <LineString id="61224">
                <coordinates>107.8119794,-6.966175,0.0 107.8118829,-6.966171,0.0 107.8117303,-6.9661647,0.0 107.8113726,-6.966151,0.0 107.8107805,-6.9660884,0.0 107.8097056,-6.9659524,0.0 107.8095342,-6.9659265,0.0 107.8078589,-6.9656994,0.0 107.8076502,-6.9656691,0.0 107.8072391,-6.9656031,0.0 107.8059116,-6.9653716,0.0 107.8054968,-6.9653053,0.0 107.804262,-6.9650934,0.0 107.8041499,-6.9650717,0.0 107.8036051,-6.9649836,0.0 107.8035236,-6.96497,0.0 107.802791,-6.9648408,0.0 107.8024076,-6.9647767,0.0 107.800685,-6.9644906,0.0 107.8005045,-6.964459,0.0 107.800324,-6.9644288,0.0 107.8000245,-6.9643693,0.0 107.7998312,-6.9643294,0.0 107.7996138,-6.9642614,0.0 107.7990752,-6.9640828,0.0</coordinates>
            </LineString>
        </Placemark>
        <Placemark id="61229">
            <name>Jalan Raya Majalaya - Cicalengka</name>
            <styleUrl>#61230</styleUrl>
            <LineString id="61228">
                <coordinates>107.8269193,-6.970892,0.0 107.82692,-6.9708664,0.0</coordinates>
            </LineString>
        </Placemark>
        <Placemark id="61233">
            <name>Jalan Raya Majalaya - Cicalengka</name>
            <styleUrl>#61234</styleUrl>
            <LineString id="61232">
                <coordinates>107.8271598,-6.9676358,0.0 107.8270707,-6.9675205,0.0 107.8269245,-6.9673954,0.0 107.8266566,-6.9671714,0.0 107.8264495,-6.9670501,0.0 107.826257,-6.9669755,0.0 107.825987,-6.9668803,0.0</coordinates>
            </LineString>
        </Placemark>
        <Placemark id="61237">
            <name>Jalan Raya Dangdeur</name>
            <styleUrl>#61238</styleUrl>
            <LineString id="61236">
                <coordinates>107.7708917,-6.954823,0.0 107.7708692,-6.9548176,0.0 107.7708394,-6.954809,0.0 107.7702427,-6.9546259,0.0</coordinates>
            </LineString>
        </Placemark>
        <Placemark id="61241">
            <name>Jalan Raya Dangdeur</name>
            <styleUrl>#61242</styleUrl>
            <LineString id="61240">
                <coordinates>107.7698855,-6.9545075,0.0 107.7696991,-6.9544399,0.0 107.769612,-6.9544076,0.0</coordinates>
            </LineString>
        </Placemark>
        <Placemark id="61245">
            <name>Jalan Raya Dangdeur</name>
            <styleUrl>#61246</styleUrl>
            <LineString id="61244">
                <coordinates>107.7702427,-6.9546259,0.0 107.7698855,-6.9545075,0.0</coordinates>
            </LineString>
        </Placemark>
        <Placemark id="61249">
            <name>Jalan Raya Cicalengka</name>
            <styleUrl>#61250</styleUrl>
            <LineString id="61248">
                <coordinates>107.8121598,-6.9661836,0.0 107.8119794,-6.966175,0.0</coordinates>
            </LineString>
        </Placemark>
        <Placemark id="61253">
            <name>Jalan Raya Cicalengka</name>
            <styleUrl>#61254</styleUrl>
            <LineString id="61252">
                <coordinates>107.8241523,-6.9667939,0.0 107.8237117,-6.9667674,0.0 107.8233704,-6.9667756,0.0 107.8226708,-6.9667267,0.0 107.8223482,-6.9667134,0.0 107.8221614,-6.9667046,0.0 107.821794,-6.9666854,0.0 107.8211752,-6.9666446,0.0 107.8197247,-6.9665547,0.0 107.8192232,-6.9665281,0.0 107.8180619,-6.9664588,0.0 107.8176442,-6.9664404,0.0 107.8168268,-6.9664033,0.0 107.8157432,-6.9663533,0.0 107.8152108,-6.9663384,0.0 107.8149036,-6.9663264,0.0 107.8146876,-6.9663172,0.0 107.8139107,-6.9662866,0.0 107.8135182,-6.9662673,0.0 107.8130386,-6.9662349,0.0 107.8123477,-6.9661925,0.0 107.8122451,-6.966188,0.0 107.8121598,-6.9661836,0.0</coordinates>
            </LineString>
        </Placemark>
        <Placemark id="61257">
            <name>Jalan Raya Cicalengka</name>
            <styleUrl>#61258</styleUrl>
            <LineString id="61256">
                <coordinates>107.7908282,-6.961362,0.0 107.7905426,-6.9612755,0.0 107.7896065,-6.9609613,0.0 107.7889494,-6.9607494,0.0 107.7879805,-6.9604262,0.0 107.7876592,-6.9603156,0.0 107.7873735,-6.9602184,0.0 107.7871227,-6.9601386,0.0 107.7866185,-6.9599695,0.0 107.7865045,-6.9599362,0.0 107.7851593,-6.9594956,0.0 107.7850306,-6.959453,0.0 107.7843654,-6.959228,0.0 107.7838411,-6.9590603,0.0 107.7837357,-6.9590223,0.0 107.7836318,-6.9589857,0.0 107.782335,-6.9585824,0.0 107.782186,-6.9585262,0.0 107.7816078,-6.9583477,0.0 107.7811803,-6.9581963,0.0 107.780735,-6.9580552,0.0 107.7802201,-6.9578755,0.0 107.7798647,-6.9577717,0.0 107.7789125,-6.9574615,0.0 107.7787408,-6.9574016,0.0 107.778592,-6.9573537,0.0 107.7781763,-6.9572311,0.0 107.7775484,-6.957034,0.0 107.7774638,-6.9570032,0.0 107.77738,-6.9569682,0.0 107.7773498,-6.9569571,0.0 107.777083,-6.9568648,0.0 107.7767847,-6.9567841,0.0</coordinates>
            </LineString>
        </Placemark>
        <Placemark id="61261">
            <name>Jalan Raya Cicalengka</name>
            <styleUrl>#61262</styleUrl>
            <LineString id="61260">
                <coordinates>107.7910361,-6.9614352,0.0 107.7908282,-6.961362,0.0</coordinates>
            </LineString>
        </Placemark>
        <Placemark id="61265">
            <name>Jalan Raya Majalaya - Cicalengka</name>
            <styleUrl>#61266</styleUrl>
            <LineString id="61264">
                <coordinates>107.8334693,-6.9783926,0.0 107.8334739,-6.9782544,0.0</coordinates>
            </LineString>
        </Placemark>
        <Placemark id="61269">
            <name>Jalan Raya Majalaya - Cicalengka</name>
            <styleUrl>#61270</styleUrl>
            <LineString id="61268">
                <coordinates>107.8335211,-6.9788155,0.0 107.8334928,-6.9786994,0.0 107.8334761,-6.978552,0.0 107.8334693,-6.9783926,0.0</coordinates>
            </LineString>
        </Placemark>
        <Placemark id="61273">
            <name>Jalan Raya Cipacing</name>
            <styleUrl>#61274</styleUrl>
            <LineString id="61272">
                <coordinates>107.7582047,-6.9463533,0.0 107.7581185,-6.9462528,0.0</coordinates>
            </LineString>
        </Placemark>
        <Placemark id="61277">
            <name>Jalan Raya Cipacing</name>
            <styleUrl>#61278</styleUrl>
            <LineString id="61276">
                <coordinates>107.7637278,-6.9512076,0.0 107.7636967,-6.9511802,0.0 107.7633764,-6.9508895,0.0 107.7632519,-6.9507762,0.0 107.7628973,-6.9504774,0.0 107.7627113,-6.9503256,0.0 107.7623174,-6.9499795,0.0 107.7620876,-6.9497659,0.0 107.7620039,-6.9496968,0.0 107.7617899,-6.9495203,0.0 107.7615197,-6.949285,0.0 107.761415,-6.949195,0.0 107.7603657,-6.9482848,0.0 107.7601193,-6.9480656,0.0 107.7598531,-6.9478402,0.0 107.7596554,-6.9476639,0.0 107.7595832,-6.9475989,0.0 107.7592865,-6.9473383,0.0 107.7589074,-6.9469995,0.0 107.7585289,-6.9466629,0.0 107.7582233,-6.9463751,0.0 107.7582047,-6.9463533,0.0</coordinates>
            </LineString>
        </Placemark>
        <Placemark id="61281">
            <name>Jalan Raya Dangdeur</name>
            <styleUrl>#61282</styleUrl>
            <LineString id="61280">
                <coordinates>107.7709356,-6.9548363,0.0 107.7708917,-6.954823,0.0</coordinates>
            </LineString>
        </Placemark>
        <Placemark id="61285">
            <name>Jalan Raya Majalaya - Cicalengka</name>
            <styleUrl>#61286</styleUrl>
            <LineString id="61284">
                <coordinates>107.8269529,-6.970634,0.0 107.8270018,-6.9704341,0.0 107.8270332,-6.970331,0.0 107.8270521,-6.9702507,0.0 107.8271212,-6.9699855,0.0 107.8271466,-6.9698684,0.0 107.8271855,-6.9697379,0.0 107.8273364,-6.969296,0.0 107.8273606,-6.9691981,0.0 107.8274082,-6.9689079,0.0 107.8274176,-6.9688014,0.0 107.8274142,-6.9686471,0.0 107.8274135,-6.9685026,0.0 107.8274082,-6.968412,0.0 107.8273733,-6.9682476,0.0 107.8273022,-6.9679781,0.0 107.8271598,-6.9676358,0.0</coordinates>
            </LineString>
        </Placemark>
        <Placemark id="61289">
            <name>Jalan Raya Majalaya - Cicalengka</name>
            <styleUrl>#61290</styleUrl>
            <LineString id="61288">
                <coordinates>107.8334739,-6.9782544,0.0 107.8334783,-6.9782148,0.0 107.8334791,-6.9781192,0.0 107.8334983,-6.9775528,0.0 107.8334888,-6.9773816,0.0 107.8334658,-6.9772547,0.0 107.8334429,-6.9771672,0.0 107.8334043,-6.977081,0.0 107.8333523,-6.9769576,0.0 107.8332862,-6.9768259,0.0 107.8331378,-6.9766,0.0 107.8330533,-6.9764744,0.0 107.8327071,-6.9759238,0.0 107.8320846,-6.9749123,0.0 107.8320279,-6.9748336,0.0 107.8318229,-6.9746499,0.0 107.8317399,-6.9745755,0.0 107.8316608,-6.9745183,0.0 107.8315561,-6.9744362,0.0 107.8312375,-6.9741893,0.0 107.8311218,-6.974102,0.0 107.8310589,-6.9740504,0.0 107.8309939,-6.9739972,0.0 107.8309065,-6.9739256,0.0 107.8308252,-6.9738611,0.0 107.830589,-6.9736735,0.0 107.8305487,-6.9736437,0.0 107.8303803,-6.9735172,0.0 107.8303244,-6.9734701,0.0 107.8302483,-6.973406,0.0 107.830176,-6.9733504,0.0 107.8299171,-6.9731446,0.0 107.8297547,-6.9730322,0.0 107.8296218,-6.97292,0.0 107.8293592,-6.9727195,0.0 107.8291508,-6.9725612,0.0 107.8290965,-6.9725176,0.0 107.8289599,-6.9724082,0.0 107.8285321,-6.9720742,0.0 107.8282416,-6.9718756,0.0 107.8281813,-6.9718396,0.0 107.8277327,-6.9715976,0.0 107.8272369,-6.9713502,0.0 107.8271715,-6.9713115,0.0 107.8270474,-6.9712395,0.0 107.8270025,-6.9711962,0.0 107.8269612,-6.9711256,0.0 107.826931,-6.9710487,0.0 107.8269188,-6.97095,0.0 107.8269187,-6.9709227,0.0 107.826919,-6.970911,0.0 107.8269193,-6.970892,0.0</coordinates>
            </LineString>
        </Placemark>
        <Placemark id="61293">
            <name>Jalan Raya Nagreg</name>
            <styleUrl>#61294</styleUrl>
            <LineString id="61292">
                <coordinates>107.8916538,-7.0213162,0.0 107.8914381,-7.0212251,0.0 107.8910178,-7.0210596,0.0 107.8907494,-7.0209611,0.0 107.8905761,-7.0209013,0.0 107.8903297,-7.0208366,0.0 107.890266,-7.0208247,0.0 107.8901412,-7.0207993,0.0 107.8899305,-7.0207665,0.0 107.889729,-7.0207392,0.0 107.8896164,-7.020724,0.0 107.8893313,-7.0206782,0.0 107.8890788,-7.0206295,0.0</coordinates>
            </LineString>
        </Placemark>
        <Placemark id="61297">
            <name>Jalan Raya Nagreg</name>
            <styleUrl>#61298</styleUrl>
            <LineString id="61296">
                <coordinates>107.8890788,-7.0206295,0.0 107.888419,-7.0204483,0.0 107.8882699,-7.0203975,0.0 107.887959,-7.0202593,0.0 107.8876667,-7.0201129,0.0 107.8875166,-7.0200315,0.0 107.887095,-7.0197996,0.0 107.8869811,-7.019736,0.0 107.8866334,-7.0195367,0.0 107.8864399,-7.0194259,0.0 107.8858919,-7.0191211,0.0 107.8858146,-7.0190774,0.0 107.8853903,-7.0188488,0.0 107.8850845,-7.0186745,0.0 107.8845372,-7.0183626,0.0 107.8841816,-7.0181599,0.0 107.8832521,-7.0176302,0.0 107.8829434,-7.0174543,0.0 107.8820648,-7.0169724,0.0 107.881168,-7.0164842,0.0 107.8804496,-7.0160916,0.0 107.8790748,-7.0153218,0.0 107.878835,-7.0151875,0.0 107.8779477,-7.0146951,0.0 107.8771012,-7.0142051,0.0 107.8764787,-7.0138602,0.0 107.8762851,-7.0137532,0.0 107.8760374,-7.0136167,0.0 107.8757875,-7.0134756,0.0 107.874398,-7.0127001,0.0 107.8736881,-7.0122922,0.0 107.8734347,-7.01215,0.0 107.873145,-7.011971,0.0 107.8728904,-7.0118164,0.0 107.8726606,-7.0116624,0.0 107.8724277,-7.011485,0.0 107.8721822,-7.011287,0.0 107.871902,-7.0110391,0.0 107.8716426,-7.0108121,0.0 107.8716186,-7.0107891,0.0 107.8715713,-7.0107546,0.0</coordinates>
            </LineString>
        </Placemark>
        <Placemark id="61301">
            <name>Jalan Raya Majalaya - Cicalengka</name>
            <styleUrl>#61302</styleUrl>
            <LineString id="61300">
                <coordinates>107.82692,-6.9708664,0.0 107.8269529,-6.970634,0.0</coordinates>
            </LineString>
        </Placemark>
        <Placemark id="61305">
            <name>Jalan Raya Cipacing</name>
            <styleUrl>#61306</styleUrl>
            <LineString id="61304">
                <coordinates>107.7555798,-6.9424232,0.0 107.7552405,-6.9420808,0.0 107.7550934,-6.9419295,0.0 107.7549285,-6.9417526,0.0 107.7547449,-6.9415507,0.0</coordinates>
            </LineString>
        </Placemark>
        <Placemark id="61309">
            <name>Route Segment</name>
            <styleUrl>#61310</styleUrl>
            <LineString id="61308">
                <coordinates>107.7547449,-6.9415507,0.0 107.7546238,-6.9414254,0.0 107.7544909,-6.9412837,0.0 107.7544152,-6.9412021,0.0 107.7543297,-6.9411117,0.0 107.7540569,-6.9408199,0.0</coordinates>
            </LineString>
        </Placemark>
        <Placemark id="61313">
            <name>Route Segment</name>
            <styleUrl>#61314</styleUrl>
            <LineString id="61312">
                <coordinates>107.7642476,-6.951655,0.0 107.7638858,-6.9513467,0.0</coordinates>
            </LineString>
        </Placemark>
        <Placemark id="61317">
            <name>Jalan Raya Cipacing</name>
            <styleUrl>#61318</styleUrl>
            <LineString id="61316">
                <coordinates>107.7581185,-6.9462528,0.0 107.7581077,-6.9462396,0.0 107.7580567,-6.9461015,0.0 107.7579739,-6.9456688,0.0 107.7579108,-6.9452473,0.0 107.7579039,-6.9452065,0.0 107.7578799,-6.9450636,0.0 107.7578368,-6.9448985,0.0 107.7577769,-6.9447825,0.0 107.7576954,-6.9446728,0.0 107.7573574,-6.9442745,0.0 107.7573021,-6.9442165,0.0 107.7569266,-6.943836,0.0 107.7566293,-6.9435347,0.0 107.7564104,-6.943302,0.0 107.7558672,-6.9427223,0.0 107.7557736,-6.9426257,0.0 107.7556415,-6.9424863,0.0 107.7555798,-6.9424232,0.0</coordinates>
            </LineString>
        </Placemark>
        <Placemark id="61321">
            <name>Jalan Raya Cipacing</name>
            <styleUrl>#61322</styleUrl>
            <LineString id="61320">
                <coordinates>107.7638858,-6.9513467,0.0 107.7637278,-6.9512076,0.0</coordinates>
            </LineString>
        </Placemark>
        <Placemark id="61325">
            <name>Jalan Raya Dangdeur</name>
            <styleUrl>#61326</styleUrl>
            <LineString id="61324">
                <coordinates>107.7767847,-6.9567841,0.0 107.7759323,-6.9564852,0.0 107.775452,-6.9562981,0.0 107.7753243,-6.956255,0.0 107.7751844,-6.9562092,0.0</coordinates>
            </LineString>
        </Placemark>
        <Placemark id="61329">
            <name>Jalan Raya Cicalengka</name>
            <styleUrl>#61330</styleUrl>
            <LineString id="61328">
                <coordinates>107.7990752,-6.9640828,0.0 107.7988447,-6.9640064,0.0 107.7982841,-6.9638197,0.0 107.7964277,-6.9631859,0.0 107.7963157,-6.9631452,0.0 107.7953839,-6.9628396,0.0 107.7951441,-6.9627578,0.0 107.7950054,-6.9627114,0.0 107.7946222,-6.9625987,0.0 107.7938959,-6.962369,0.0 107.7935305,-6.9622486,0.0 107.7932449,-6.962158,0.0 107.7925116,-6.9619189,0.0 107.7920713,-6.9617755,0.0 107.7919057,-6.9617242,0.0 107.7911688,-6.9614818,0.0 107.7910361,-6.9614352,0.0</coordinates>
            </LineString>
        </Placemark>
        <Placemark id="61333">
            <name>Jalan Raya Nagreg</name>
            <styleUrl>#61334</styleUrl>
            <LineString id="61332">
                <coordinates>107.858472,-7.0019161,0.0 107.85842,-7.0018858,0.0 107.8582105,-7.0017719,0.0 107.858141,-7.0017336,0.0 107.8580027,-7.001658,0.0</coordinates>
            </LineString>
        </Placemark>
        <Placemark id="61337">
            <name>Route Segment</name>
            <styleUrl>#61338</styleUrl>
            <LineString id="61336">
                <coordinates>107.7540569,-6.9408199,0.0 107.7538374,-6.9405922,0.0 107.753818,-6.940561,0.0 107.7537775,-6.9405013,0.0 107.7537453,-6.9404081,0.0</coordinates>
            </LineString>
        </Placemark>
        <Placemark id="61341">
            <name>Jalan Raya Cicalengka</name>
            <styleUrl>#61342</styleUrl>
            <LineString id="61340">
                <coordinates>107.8398197,-6.9870561,0.0 107.8392729,-6.9868408,0.0</coordinates>
            </LineString>
        </Placemark>
        <Placemark id="61345">
            <name>Jalan Raya Cicalengka</name>
            <styleUrl>#61346</styleUrl>
            <LineString id="61344">
                <coordinates>107.8348384,-6.9824506,0.0 107.8347964,-6.9823506,0.0 107.8347562,-6.9822549,0.0</coordinates>
            </LineString>
        </Placemark>
        <Placemark id="61349">
            <name>Perlintasan Kereta Api Nagreg</name>
            <styleUrl>#61350</styleUrl>
            <Point id="61348">
                <coordinates>107.8916538,-7.0213162,0.0</coordinates>
            </Point>
        </Placemark>
        <Placemark id="61354">
            <name>Pasar Cileunyi</name>
            <styleUrl>#61355</styleUrl>
            <Point id="61353">
                <coordinates>107.7537453,-6.9404081,0.0</coordinates>
            </Point>
        </Placemark>
    </Document>
</kml>
