<?xml version="1.0" encoding="UTF-8"?>
<kml xmlns="http://www.opengis.net/kml/2.2" xmlns:gx="http://www.google.com/kml/ext/2.2">
    <Document id="71409">
        <Style id="71415">
            <LineStyle id="71416">
                <color>ff356615</color>
                <colorMode>normal</colorMode>
                <width>4</width>
            </LineStyle>
        </Style>
        <Style id="71419">
            <LineStyle id="71420">
                <color>ff356615</color>
                <colorMode>normal</colorMode>
                <width>4</width>
            </LineStyle>
        </Style>
        <Style id="71423">
            <LineStyle id="71424">
                <color>ff356615</color>
                <colorMode>normal</colorMode>
                <width>4</width>
            </LineStyle>
        </Style>
        <Style id="71427">
            <LineStyle id="71428">
                <color>ff356615</color>
                <colorMode>normal</colorMode>
                <width>4</width>
            </LineStyle>
        </Style>
        <Style id="71431">
            <LineStyle id="71432">
                <color>ff356615</color>
                <colorMode>normal</colorMode>
                <width>4</width>
            </LineStyle>
        </Style>
        <Style id="71435">
            <LineStyle id="71436">
                <color>ff356615</color>
                <colorMode>normal</colorMode>
                <width>4</width>
            </LineStyle>
        </Style>
        <Style id="71439">
            <LineStyle id="71440">
                <color>ff356615</color>
                <colorMode>normal</colorMode>
                <width>4</width>
            </LineStyle>
        </Style>
        <Style id="71443">
            <LineStyle id="71444">
                <color>ff356615</color>
                <colorMode>normal</colorMode>
                <width>4</width>
            </LineStyle>
        </Style>
        <Style id="71447">
            <LineStyle id="71448">
                <color>ff356615</color>
                <colorMode>normal</colorMode>
                <width>4</width>
            </LineStyle>
        </Style>
        <Style id="71451">
            <LineStyle id="71452">
                <color>ff356615</color>
                <colorMode>normal</colorMode>
                <width>4</width>
            </LineStyle>
        </Style>
        <Style id="71455">
            <LineStyle id="71456">
                <color>ff356615</color>
                <colorMode>normal</colorMode>
                <width>4</width>
            </LineStyle>
        </Style>
        <Style id="71459">
            <LineStyle id="71460">
                <color>ff356615</color>
                <colorMode>normal</colorMode>
                <width>4</width>
            </LineStyle>
        </Style>
        <Style id="71463">
            <LineStyle id="71464">
                <color>ff356615</color>
                <colorMode>normal</colorMode>
                <width>4</width>
            </LineStyle>
        </Style>
        <Style id="71467">
            <LineStyle id="71468">
                <color>ff356615</color>
                <colorMode>normal</colorMode>
                <width>4</width>
            </LineStyle>
        </Style>
        <Style id="71471">
            <LineStyle id="71472">
                <color>ff356615</color>
                <colorMode>normal</colorMode>
                <width>4</width>
            </LineStyle>
        </Style>
        <Style id="71475">
            <LineStyle id="71476">
                <color>ff356615</color>
                <colorMode>normal</colorMode>
                <width>4</width>
            </LineStyle>
        </Style>
        <Style id="71479">
            <LineStyle id="71480">
                <color>ff356615</color>
                <colorMode>normal</colorMode>
                <width>4</width>
            </LineStyle>
        </Style>
        <Style id="71483">
            <LineStyle id="71484">
                <color>ff356615</color>
                <colorMode>normal</colorMode>
                <width>4</width>
            </LineStyle>
        </Style>
        <Style id="71487">
            <LineStyle id="71488">
                <color>ff356615</color>
                <colorMode>normal</colorMode>
                <width>4</width>
            </LineStyle>
        </Style>
        <Style id="71491">
            <LineStyle id="71492">
                <color>ff356615</color>
                <colorMode>normal</colorMode>
                <width>4</width>
            </LineStyle>
        </Style>
        <Style id="71495">
            <LineStyle id="71496">
                <color>ff356615</color>
                <colorMode>normal</colorMode>
                <width>4</width>
            </LineStyle>
        </Style>
        <Style id="71499">
            <LineStyle id="71500">
                <color>ff356615</color>
                <colorMode>normal</colorMode>
                <width>4</width>
            </LineStyle>
        </Style>
        <Style id="71503">
            <LineStyle id="71504">
                <color>ff356615</color>
                <colorMode>normal</colorMode>
                <width>4</width>
            </LineStyle>
        </Style>
        <Style id="71507">
            <LineStyle id="71508">
                <color>ff356615</color>
                <colorMode>normal</colorMode>
                <width>4</width>
            </LineStyle>
        </Style>
        <Style id="71511">
            <LineStyle id="71512">
                <color>ff356615</color>
                <colorMode>normal</colorMode>
                <width>4</width>
            </LineStyle>
        </Style>
        <Style id="71515">
            <LineStyle id="71516">
                <color>ff356615</color>
                <colorMode>normal</colorMode>
                <width>4</width>
            </LineStyle>
        </Style>
        <Style id="71519">
            <LineStyle id="71520">
                <color>ff356615</color>
                <colorMode>normal</colorMode>
                <width>4</width>
            </LineStyle>
        </Style>
        <Style id="71523">
            <LineStyle id="71524">
                <color>ff356615</color>
                <colorMode>normal</colorMode>
                <width>4</width>
            </LineStyle>
        </Style>
        <Style id="71527">
            <LineStyle id="71528">
                <color>ff356615</color>
                <colorMode>normal</colorMode>
                <width>4</width>
            </LineStyle>
        </Style>
        <Style id="71531">
            <LineStyle id="71532">
                <color>ff356615</color>
                <colorMode>normal</colorMode>
                <width>4</width>
            </LineStyle>
        </Style>
        <Style id="71535">
            <LineStyle id="71536">
                <color>ff356615</color>
                <colorMode>normal</colorMode>
                <width>4</width>
            </LineStyle>
        </Style>
        <Style id="71539">
            <LineStyle id="71540">
                <color>ff356615</color>
                <colorMode>normal</colorMode>
                <width>4</width>
            </LineStyle>
        </Style>
        <Style id="71543">
            <LineStyle id="71544">
                <color>ff356615</color>
                <colorMode>normal</colorMode>
                <width>4</width>
            </LineStyle>
        </Style>
        <Style id="71547">
            <LineStyle id="71548">
                <color>ff356615</color>
                <colorMode>normal</colorMode>
                <width>4</width>
            </LineStyle>
        </Style>
        <Style id="71551">
            <LineStyle id="71552">
                <color>ff356615</color>
                <colorMode>normal</colorMode>
                <width>4</width>
            </LineStyle>
        </Style>
        <Style id="71555">
            <LineStyle id="71556">
                <color>ff356615</color>
                <colorMode>normal</colorMode>
                <width>4</width>
            </LineStyle>
        </Style>
        <Style id="71559">
            <LineStyle id="71560">
                <color>ff356615</color>
                <colorMode>normal</colorMode>
                <width>4</width>
            </LineStyle>
        </Style>
        <Style id="71563">
            <LineStyle id="71564">
                <color>ff356615</color>
                <colorMode>normal</colorMode>
                <width>4</width>
            </LineStyle>
        </Style>
        <Style id="71567">
            <LineStyle id="71568">
                <color>ff356615</color>
                <colorMode>normal</colorMode>
                <width>4</width>
            </LineStyle>
        </Style>
        <Style id="71571">
            <LineStyle id="71572">
                <color>ff356615</color>
                <colorMode>normal</colorMode>
                <width>4</width>
            </LineStyle>
        </Style>
        <Style id="71575">
            <LineStyle id="71576">
                <color>ff356615</color>
                <colorMode>normal</colorMode>
                <width>4</width>
            </LineStyle>
        </Style>
        <Style id="71579">
            <LineStyle id="71580">
                <color>ff356615</color>
                <colorMode>normal</colorMode>
                <width>4</width>
            </LineStyle>
        </Style>
        <Style id="71583">
            <LineStyle id="71584">
                <color>ff356615</color>
                <colorMode>normal</colorMode>
                <width>4</width>
            </LineStyle>
        </Style>
        <Style id="71587">
            <LineStyle id="71588">
                <color>ff356615</color>
                <colorMode>normal</colorMode>
                <width>4</width>
            </LineStyle>
        </Style>
        <Style id="71591">
            <LineStyle id="71592">
                <color>ff356615</color>
                <colorMode>normal</colorMode>
                <width>4</width>
            </LineStyle>
        </Style>
        <Style id="71595">
            <LineStyle id="71596">
                <color>ff356615</color>
                <colorMode>normal</colorMode>
                <width>4</width>
            </LineStyle>
        </Style>
        <Style id="71599">
            <LineStyle id="71600">
                <color>ff356615</color>
                <colorMode>normal</colorMode>
                <width>4</width>
            </LineStyle>
        </Style>
        <Style id="71603">
            <LineStyle id="71604">
                <color>ff356615</color>
                <colorMode>normal</colorMode>
                <width>4</width>
            </LineStyle>
        </Style>
        <Style id="71607">
            <LineStyle id="71608">
                <color>ff356615</color>
                <colorMode>normal</colorMode>
                <width>4</width>
            </LineStyle>
        </Style>
        <Style id="71611">
            <LineStyle id="71612">
                <color>ff356615</color>
                <colorMode>normal</colorMode>
                <width>4</width>
            </LineStyle>
        </Style>
        <Style id="71615">
            <LineStyle id="71616">
                <color>ff356615</color>
                <colorMode>normal</colorMode>
                <width>4</width>
            </LineStyle>
        </Style>
        <Style id="71619">
            <LineStyle id="71620">
                <color>ff356615</color>
                <colorMode>normal</colorMode>
                <width>4</width>
            </LineStyle>
        </Style>
        <Style id="71623">
            <LineStyle id="71624">
                <color>ff356615</color>
                <colorMode>normal</colorMode>
                <width>4</width>
            </LineStyle>
        </Style>
        <Style id="71627">
            <LineStyle id="71628">
                <color>ff356615</color>
                <colorMode>normal</colorMode>
                <width>4</width>
            </LineStyle>
        </Style>
        <Style id="71631">
            <LineStyle id="71632">
                <color>ff356615</color>
                <colorMode>normal</colorMode>
                <width>4</width>
            </LineStyle>
        </Style>
        <Style id="71635">
            <LineStyle id="71636">
                <color>ff356615</color>
                <colorMode>normal</colorMode>
                <width>4</width>
            </LineStyle>
        </Style>
        <Style id="71639">
            <LineStyle id="71640">
                <color>ff356615</color>
                <colorMode>normal</colorMode>
                <width>4</width>
            </LineStyle>
        </Style>
        <Style id="71643">
            <LineStyle id="71644">
                <color>ff356615</color>
                <colorMode>normal</colorMode>
                <width>4</width>
            </LineStyle>
        </Style>
        <Style id="71647">
            <LineStyle id="71648">
                <color>ff356615</color>
                <colorMode>normal</colorMode>
                <width>4</width>
            </LineStyle>
        </Style>
        <Style id="71651">
            <LineStyle id="71652">
                <color>ff356615</color>
                <colorMode>normal</colorMode>
                <width>4</width>
            </LineStyle>
        </Style>
        <Style id="71655">
            <LineStyle id="71656">
                <color>ff356615</color>
                <colorMode>normal</colorMode>
                <width>4</width>
            </LineStyle>
        </Style>
        <Style id="71659">
            <LineStyle id="71660">
                <color>ff356615</color>
                <colorMode>normal</colorMode>
                <width>4</width>
            </LineStyle>
        </Style>
        <Style id="71663">
            <LineStyle id="71664">
                <color>ff356615</color>
                <colorMode>normal</colorMode>
                <width>4</width>
            </LineStyle>
        </Style>
        <Style id="71667">
            <LineStyle id="71668">
                <color>ff356615</color>
                <colorMode>normal</colorMode>
                <width>4</width>
            </LineStyle>
        </Style>
        <Style id="71671">
            <LineStyle id="71672">
                <color>ff356615</color>
                <colorMode>normal</colorMode>
                <width>4</width>
            </LineStyle>
        </Style>
        <Style id="71675">
            <IconStyle id="71676">
                <colorMode>normal</colorMode>
                <scale>1</scale>
                <heading>0</heading>
                <Icon id="71677">
                    <href>http://maps.google.com/mapfiles/kml/pushpin/ylw-pushpin.png</href>
                </Icon>
            </IconStyle>
        </Style>
        <Style id="71680">
            <IconStyle id="71681">
                <colorMode>normal</colorMode>
                <scale>1</scale>
                <heading>0</heading>
                <Icon id="71682">
                    <href>http://maps.google.com/mapfiles/kml/pushpin/ylw-pushpin.png</href>
                </Icon>
            </IconStyle>
        </Style>
        <ExtendedData>
            <Data name="route-name">
                <value>915: Cililin → Cimahi</value>
            </Data>
            <Data name="source">
                <value>Transport for Bandung</value>
            </Data>
        </ExtendedData>
        <Placemark id="71414">
            <name>Route Segment</name>
            <styleUrl>#71415</styleUrl>
            <LineString id="71413">
                <coordinates>107.4576918,-6.9517585,0.0 107.457704,-6.9514784,0.0</coordinates>
            </LineString>
        </Placemark>
        <Placemark id="71418">
            <name>Jalan Cihampelas-Tanjungjaya</name>
            <styleUrl>#71419</styleUrl>
            <LineString id="71417">
                <coordinates>107.4758684,-6.9353972,0.0 107.4757826,-6.9356862,0.0 107.4756512,-6.936136,0.0 107.4755964,-6.9363402,0.0 107.4755627,-6.9364688,0.0 107.4755265,-6.9365806,0.0 107.4754946,-6.9366713,0.0 107.4754487,-6.9367844,0.0 107.4754071,-6.9368656,0.0 107.4753481,-6.9369734,0.0 107.4752676,-6.9370666,0.0 107.4751589,-6.9371469,0.0 107.4750742,-6.9371846,0.0 107.4749941,-6.9371996,0.0 107.4748935,-6.9372085,0.0 107.4747489,-6.9371969,0.0 107.474351,-6.937176,0.0 107.4741775,-6.937183,0.0 107.4740307,-6.9371946,0.0 107.4739166,-6.9372192,0.0 107.4738419,-6.9372452,0.0 107.4737741,-6.9372685,0.0 107.4736933,-6.937311,0.0 107.4735906,-6.9373877,0.0 107.473482,-6.937491,0.0 107.4733774,-6.9376113,0.0 107.4733217,-6.9377362,0.0 107.4731366,-6.9380637,0.0 107.473028,-6.9382381,0.0 107.4728885,-6.9384512,0.0 107.4727772,-6.9386216,0.0 107.4726204,-6.9389451,0.0 107.472576,-6.9390542,0.0 107.4723776,-6.9396107,0.0 107.4723373,-6.9397332,0.0 107.4723119,-6.9398304,0.0 107.4722703,-6.940036,0.0 107.4722614,-6.9400691,0.0 107.4722569,-6.940086,0.0 107.4722448,-6.9401739,0.0 107.4722287,-6.9404973,0.0 107.4722047,-6.9406644,0.0 107.4721965,-6.9407581,0.0 107.4721869,-6.9408667,0.0 107.4721659,-6.9409628,0.0 107.4721664,-6.9410436,0.0 107.4721495,-6.9411457,0.0 107.4721385,-6.9411938,0.0 107.472111,-6.9412495,0.0 107.4720489,-6.9413434,0.0 107.4720217,-6.941368,0.0 107.4719946,-6.9413918,0.0 107.4719342,-6.9414445,0.0 107.4718869,-6.9414792,0.0 107.471832,-6.9415217,0.0 107.4717022,-6.9416256,0.0 107.4715898,-6.9416949,0.0 107.4714692,-6.941783,0.0 107.4713618,-6.9418664,0.0 107.4712457,-6.9419543,0.0 107.4711281,-6.9420621,0.0 107.4710105,-6.9421618,0.0 107.4709618,-6.9422228,0.0 107.4709104,-6.9422785,0.0 107.4708082,-6.9423619,0.0 107.4707071,-6.9424412,0.0 107.4705842,-6.9425462,0.0 107.4704672,-6.9426212,0.0 107.4703488,-6.9426961,0.0 107.4702303,-6.9427522,0.0 107.4699935,-6.9428726,0.0 107.4698724,-6.9429341,0.0 107.469801,-6.9429814,0.0 107.4697296,-6.9430206,0.0 107.4695895,-6.9431045,0.0 107.4692852,-6.9432656,0.0 107.4692082,-6.9433181,0.0 107.4691311,-6.9433734,0.0 107.4690275,-6.9434401,0.0 107.4689682,-6.9434644,0.0 107.4689008,-6.9435046,0.0 107.4688416,-6.9435617,0.0 107.4687797,-6.9436135,0.0 107.4686453,-6.9437237,0.0 107.4685072,-6.9438514,0.0 107.4684076,-6.9439326,0.0 107.4683008,-6.9440226,0.0 107.4682072,-6.9441169,0.0 107.4681259,-6.9441866,0.0 107.4679439,-6.9443434,0.0 107.4677868,-6.9444575,0.0 107.4677218,-6.9445135,0.0 107.4676904,-6.9445444,0.0 107.467659,-6.9445752,0.0 107.4676032,-6.9446255,0.0 107.4675515,-6.9446765,0.0 107.4674734,-6.9447568,0.0 107.4674405,-6.944803,0.0 107.4674098,-6.9448561,0.0 107.467361,-6.9449414,0.0 107.4673362,-6.9450076,0.0 107.4672864,-6.9451009,0.0 107.4672298,-6.9452027,0.0 107.4671509,-6.9453318,0.0 107.4671249,-6.945386,0.0 107.4670319,-6.9455764,0.0 107.4669438,-6.9457133,0.0 107.4668584,-6.9458502,0.0 107.4668151,-6.9459032,0.0 107.4667751,-6.9459571,0.0 107.4667483,-6.9460068,0.0 107.4667294,-6.9460565,0.0 107.4667088,-6.9461087,0.0 107.4666922,-6.9461789,0.0 107.4666875,-6.9462257,0.0 107.4666806,-6.9462882,0.0 107.4666743,-6.9463745,0.0 107.466685,-6.9465191,0.0 107.4666926,-6.9466067,0.0 107.4666967,-6.9466478,0.0 107.4667207,-6.9468546,0.0 107.4667472,-6.9470498,0.0 107.4667603,-6.9471369,0.0 107.4668058,-6.9473701,0.0 107.4668397,-6.9475646,0.0 107.4668481,-6.9476056,0.0 107.4668585,-6.9477118,0.0 107.4668638,-6.9478097,0.0 107.4668656,-6.9479138,0.0 107.4668454,-6.9483167,0.0 107.4668381,-6.9484439,0.0 107.4668048,-6.9485987,0.0 107.4667782,-6.9487225,0.0 107.4667423,-6.9488238,0.0 107.4667265,-6.948876,0.0 107.4666888,-6.9489364,0.0 107.4666484,-6.9489593,0.0 107.4665585,-6.9490188,0.0 107.4663922,-6.9491026,0.0 107.4662447,-6.9491758,0.0 107.4660234,-6.949273,0.0 107.4657311,-6.9493742,0.0 107.4655902,-6.9493982,0.0 107.4653958,-6.9494128,0.0 107.4648231,-6.9494235,0.0 107.4645549,-6.9494408,0.0 107.4643309,-6.9495007,0.0 107.4641365,-6.9495672,0.0 107.4639206,-6.9496657,0.0 107.463761,-6.9497616,0.0 107.4635799,-6.949896,0.0 107.4634136,-6.9500052,0.0 107.4633238,-6.9500651,0.0 107.4630247,-6.9502568,0.0 107.4626465,-6.9505231,0.0 107.4625003,-6.9506376,0.0 107.4623756,-6.95076,0.0 107.4620172,-6.9512054,0.0 107.4619839,-6.9512412,0.0 107.4619264,-6.9513073,0.0 107.4615625,-6.9517257,0.0 107.4612159,-6.9521239,0.0</coordinates>
            </LineString>
        </Placemark>
        <Placemark id="71422">
            <name>Route Segment</name>
            <styleUrl>#71423</styleUrl>
            <LineString id="71421">
                <coordinates>107.5057911,-6.9322597,0.0 107.5054506,-6.9336212,0.0</coordinates>
            </LineString>
        </Placemark>
        <Placemark id="71426">
            <name>Route Segment</name>
            <styleUrl>#71427</styleUrl>
            <LineString id="71425">
                <coordinates>107.5047475,-6.9304271,0.0 107.5047512,-6.9304787,0.0 107.5047443,-6.9305287,0.0 107.5047274,-6.930621,0.0 107.5047152,-6.9307372,0.0 107.5047151,-6.9307694,0.0 107.5047253,-6.9308162,0.0 107.5047495,-6.9308687,0.0 107.504786,-6.9309261,0.0 107.5048829,-6.931028,0.0 107.5053162,-6.9313043,0.0 107.5056486,-6.9315116,0.0 107.5057573,-6.931612,0.0 107.5057982,-6.9316633,0.0 107.5058341,-6.9317293,0.0 107.5058648,-6.9318084,0.0 107.5058709,-6.9318878,0.0 107.505857,-6.9320073,0.0 107.5058282,-6.9321256,0.0 107.5057911,-6.9322597,0.0</coordinates>
            </LineString>
        </Placemark>
        <Placemark id="71430">
            <name>Route Segment</name>
            <styleUrl>#71431</styleUrl>
            <LineString id="71429">
                <coordinates>107.5054506,-6.9336212,0.0 107.5053838,-6.9339252,0.0 107.5053433,-6.9341298,0.0 107.505284,-6.9343975,0.0 107.5052628,-6.9345039,0.0 107.505164,-6.9348236,0.0 107.5050768,-6.9349972,0.0 107.5050183,-6.9351215,0.0 107.5049254,-6.935334,0.0 107.504827,-6.9355483,0.0 107.5047458,-6.93574,0.0 107.5046432,-6.9360013,0.0 107.5046019,-6.9361063,0.0 107.5045771,-6.9361696,0.0</coordinates>
            </LineString>
        </Placemark>
        <Placemark id="71434">
            <name>Jalan Raya Sinar Mukti</name>
            <styleUrl>#71435</styleUrl>
            <LineString id="71433">
                <coordinates>107.494254,-6.922391,0.0 107.4942654,-6.922416,0.0 107.4942705,-6.9224366,0.0 107.4942702,-6.9224549,0.0 107.4942604,-6.9224896,0.0 107.4942031,-6.9226314,0.0 107.4940695,-6.9229558,0.0 107.4940364,-6.9230387,0.0 107.4940317,-6.9230773,0.0 107.4940348,-6.9231158,0.0 107.4940405,-6.9231438,0.0 107.4940501,-6.9231731,0.0 107.4940659,-6.9232117,0.0 107.4940874,-6.9232344,0.0 107.4941739,-6.9232899,0.0 107.4950832,-6.9238019,0.0 107.4953293,-6.92392,0.0 107.4954017,-6.9239573,0.0 107.4954875,-6.9240092,0.0 107.4956726,-6.9241312,0.0 107.4957405,-6.9241733,0.0 107.495861,-6.9242521,0.0 107.4959461,-6.9243059,0.0 107.4959964,-6.9243352,0.0 107.4962344,-6.9244748,0.0 107.4963034,-6.9245175,0.0 107.4965681,-6.9246772,0.0 107.4967167,-6.924772,0.0 107.496767,-6.9248038,0.0 107.4969204,-6.9249008,0.0 107.4970432,-6.9249764,0.0 107.4971885,-6.9250557,0.0 107.4973113,-6.9251569,0.0 107.4974449,-6.9252846,0.0 107.4976121,-6.925452,0.0 107.4977978,-6.9256411,0.0 107.4980916,-6.9259839,0.0 107.4981342,-6.926027,0.0 107.4981962,-6.926097,0.0 107.4983435,-6.9262545,0.0 107.4984946,-6.9263646,0.0 107.4988173,-6.9265997,0.0 107.4989973,-6.926715,0.0 107.4993273,-6.9269129,0.0 107.49937,-6.9269388,0.0 107.4997648,-6.9271642,0.0 107.5001284,-6.9273761,0.0 107.5004683,-6.9275711,0.0 107.500992,-6.9279302,0.0 107.5012945,-6.928116,0.0 107.5016057,-6.928324,0.0 107.5019724,-6.9285237,0.0 107.5020746,-6.9285865,0.0 107.5021473,-6.9286327,0.0 107.502372,-6.928773,0.0 107.5026628,-6.9289478,0.0 107.5027094,-6.9289738,0.0 107.5029177,-6.9291047,0.0 107.5030413,-6.9291847,0.0 107.5035127,-6.9294892,0.0 107.5037458,-6.9296561,0.0 107.5038143,-6.9297019,0.0 107.5041485,-6.9299339,0.0 107.5045978,-6.9302449,0.0 107.5047043,-6.9303397,0.0 107.5047377,-6.9303862,0.0 107.5047475,-6.9304271,0.0</coordinates>
            </LineString>
        </Placemark>
        <Placemark id="71438">
            <name>Jalan Gedung Empat</name>
            <styleUrl>#71439</styleUrl>
            <LineString id="71437">
                <coordinates>107.5429927,-6.8805087,0.0 107.5427079,-6.880374,0.0 107.5426354,-6.8803397,0.0 107.542425,-6.8802474,0.0 107.5421995,-6.8801488,0.0 107.5420171,-6.8800697,0.0 107.5417036,-6.8799337,0.0 107.5411346,-6.8796867,0.0 107.54109,-6.8796691,0.0 107.5406962,-6.8794988,0.0 107.540645,-6.8794767,0.0 107.5405892,-6.8794522,0.0 107.540539,-6.8794301,0.0</coordinates>
            </LineString>
        </Placemark>
        <Placemark id="71442">
            <name>Jalan Sangkuriang</name>
            <styleUrl>#71443</styleUrl>
            <LineString id="71441">
                <coordinates>107.5347789,-6.8698083,0.0 107.5348977,-6.8695591,0.0 107.5349275,-6.8694646,0.0 107.5349652,-6.8693198,0.0 107.5350436,-6.8690241,0.0 107.5351176,-6.8689244,0.0 107.5354718,-6.868561,0.0 107.5355975,-6.8684429,0.0 107.5359422,-6.8681208,0.0 107.5361023,-6.8679713,0.0 107.5365763,-6.867518,0.0 107.5367335,-6.8673856,0.0 107.5367844,-6.8673427,0.0 107.5371367,-6.8670342,0.0 107.5373621,-6.8668427,0.0 107.5375545,-6.8666774,0.0 107.5376163,-6.8666274,0.0 107.5377841,-6.8664944,0.0 107.537952,-6.8663466,0.0 107.5380093,-6.8662941,0.0 107.5380377,-6.8662725,0.0 107.5380567,-6.8662568,0.0 107.5380827,-6.8662366,0.0 107.5381701,-6.8661688,0.0 107.5383217,-6.8660463,0.0 107.5384826,-6.8659149,0.0 107.5387001,-6.8657211,0.0 107.5387496,-6.8656786,0.0 107.5388466,-6.8655953,0.0 107.5389117,-6.8655325,0.0 107.5392049,-6.8652497,0.0 107.5392838,-6.8651835,0.0 107.5397164,-6.8648087,0.0 107.5398499,-6.864693,0.0 107.5400792,-6.8645014,0.0 107.5402175,-6.8643915,0.0 107.5404435,-6.8641945,0.0 107.5405949,-6.864072,0.0 107.5408134,-6.8639054,0.0 107.5410329,-6.8637125,0.0 107.541082,-6.8636655,0.0 107.5418617,-6.862969,0.0 107.5418969,-6.8629404,0.0 107.5420333,-6.8628294,0.0 107.5422778,-6.862618,0.0 107.5425451,-6.8623924,0.0 107.5426391,-6.8623131,0.0 107.5428016,-6.8621731,0.0 107.542838,-6.8621453,0.0 107.5431069,-6.8619184,0.0 107.5432201,-6.861823,0.0</coordinates>
            </LineString>
        </Placemark>
        <Placemark id="71446">
            <name>Jalan Encep Kartawiria</name>
            <styleUrl>#71447</styleUrl>
            <LineString id="71445">
                <coordinates>107.5481366,-6.8611406,0.0 107.5482544,-6.8611909,0.0 107.5483116,-6.8612154,0.0 107.5485014,-6.8612966,0.0 107.5486054,-6.861341,0.0 107.5488288,-6.8614365,0.0 107.5489062,-6.8614696,0.0 107.5490726,-6.8615407,0.0 107.5491765,-6.8615851,0.0 107.5493764,-6.8616706,0.0 107.5495095,-6.8617275,0.0 107.5499992,-6.8619497,0.0 107.5500486,-6.8619721,0.0 107.5506013,-6.8622229,0.0 107.5508125,-6.8623092,0.0 107.5512639,-6.8624937,0.0 107.5514012,-6.8625498,0.0 107.5514642,-6.8625755,0.0 107.5515897,-6.8626268,0.0 107.5520091,-6.8627982,0.0</coordinates>
            </LineString>
        </Placemark>
        <Placemark id="71450">
            <name>Jalan Jend. H. Amir Machmud</name>
            <styleUrl>#71451</styleUrl>
            <LineString id="71449">
                <coordinates>107.5456552,-6.8757181,0.0 107.5456755,-6.8757655,0.0 107.5457003,-6.8757888,0.0 107.5457155,-6.8758031,0.0 107.545797,-6.8758533,0.0 107.5460105,-6.8759848,0.0 107.5460284,-6.875998,0.0 107.5460407,-6.8760165,0.0 107.5460459,-6.8760366,0.0 107.5460443,-6.8760573,0.0 107.5459834,-6.8761579,0.0 107.5459671,-6.8762377,0.0</coordinates>
            </LineString>
        </Placemark>
        <Placemark id="71454">
            <name>Jalan Gedung Empat</name>
            <styleUrl>#71455</styleUrl>
            <LineString id="71453">
                <coordinates>107.5432961,-6.8803887,0.0 107.5432343,-6.8804621,0.0 107.5432089,-6.8804808,0.0 107.5431878,-6.8804948,0.0 107.5431612,-6.8805057,0.0 107.5431246,-6.8805142,0.0 107.5430651,-6.8805146,0.0 107.5429927,-6.8805087,0.0</coordinates>
            </LineString>
        </Placemark>
        <Placemark id="71458">
            <name>Jalan Raya Gadobangkong</name>
            <styleUrl>#71459</styleUrl>
            <LineString id="71457">
                <coordinates>107.5156622,-6.866132,0.0 107.5160919,-6.8663299,0.0</coordinates>
            </LineString>
        </Placemark>
        <Placemark id="71462">
            <name>Jalan Raya Gadobangkong</name>
            <styleUrl>#71463</styleUrl>
            <LineString id="71461">
                <coordinates>107.5169868,-6.8667469,0.0 107.5172135,-6.866858,0.0 107.5174342,-6.8669686,0.0 107.5176534,-6.8670757,0.0 107.5178625,-6.8671767,0.0 107.5179976,-6.8672401,0.0 107.5183058,-6.8673783,0.0 107.5183672,-6.8673963,0.0 107.5185612,-6.8674533,0.0 107.5190095,-6.8675906,0.0 107.5190798,-6.8676144,0.0 107.5191264,-6.8676288,0.0 107.5191731,-6.8676432,0.0 107.5195447,-6.8677576,0.0 107.5196849,-6.8678007,0.0 107.5200389,-6.8679097,0.0 107.5201726,-6.8679508,0.0 107.5207876,-6.868147,0.0 107.5208297,-6.8681604,0.0 107.5209164,-6.8681885,0.0 107.5212073,-6.8682829,0.0 107.521271,-6.8683036,0.0 107.5214983,-6.8683763,0.0 107.5216087,-6.8684028,0.0 107.5217268,-6.8684273,0.0 107.521842,-6.8684414,0.0 107.5220823,-6.8684515,0.0</coordinates>
            </LineString>
        </Placemark>
        <Placemark id="71466">
            <name>Jalan Encep Kartawiria</name>
            <styleUrl>#71467</styleUrl>
            <LineString id="71465">
                <coordinates>107.543905,-6.8698531,0.0 107.5440765,-6.8695845,0.0 107.5441595,-6.8694559,0.0 107.5443546,-6.8691974,0.0 107.5446498,-6.8687836,0.0 107.5447293,-6.8686746,0.0 107.544805,-6.8685941,0.0 107.5449096,-6.8684943,0.0 107.545053,-6.8683911,0.0 107.5453266,-6.8682216,0.0 107.5454837,-6.8681283,0.0 107.5456605,-6.8679979,0.0 107.545833,-6.8678297,0.0 107.5461702,-6.8674775,0.0 107.5465002,-6.8671255,0.0</coordinates>
            </LineString>
        </Placemark>
        <Placemark id="71470">
            <name>Jalan M. K. Wiganda Sasmita</name>
            <styleUrl>#71471</styleUrl>
            <LineString id="71469">
                <coordinates>107.5446463,-6.8714574,0.0 107.5446511,-6.8716065,0.0 107.5446323,-6.8718287,0.0 107.5445908,-6.8720646,0.0 107.544485,-6.8725336,0.0 107.5444631,-6.8726308,0.0 107.5444363,-6.8727513,0.0 107.5443963,-6.8728824,0.0 107.5443363,-6.8730225,0.0 107.5442618,-6.8731588,0.0 107.5440579,-6.8735153,0.0 107.5439467,-6.8736939,0.0 107.5435214,-6.8743778,0.0</coordinates>
            </LineString>
        </Placemark>
        <Placemark id="71474">
            <name>Jalan Jend. H. Amir Machmud</name>
            <styleUrl>#71475</styleUrl>
            <LineString id="71473">
                <coordinates>107.5439581,-6.8746902,0.0 107.5440471,-6.8747433,0.0 107.5441415,-6.8748005,0.0 107.5442734,-6.8748788,0.0 107.544369,-6.8749357,0.0 107.544421,-6.8749667,0.0 107.5446406,-6.875103,0.0 107.5447713,-6.8751823,0.0 107.5448011,-6.8752004,0.0 107.5450897,-6.8753753,0.0 107.5451296,-6.8753995,0.0 107.5454809,-6.8756124,0.0 107.5456005,-6.875685,0.0 107.5456552,-6.8757181,0.0</coordinates>
            </LineString>
        </Placemark>
        <Placemark id="71478">
            <name>Jalan Gedung Empat</name>
            <styleUrl>#71479</styleUrl>
            <LineString id="71477">
                <coordinates>107.540539,-6.8794301,0.0 107.5402889,-6.8793189,0.0 107.5401392,-6.8792514,0.0</coordinates>
            </LineString>
        </Placemark>
        <Placemark id="71482">
            <name>Jalan Gatot Subroto</name>
            <styleUrl>#71483</styleUrl>
            <LineString id="71481">
                <coordinates>107.5444652,-6.8783241,0.0 107.544451,-6.8783866,0.0 107.5443515,-6.8785233,0.0 107.5443133,-6.8785759,0.0 107.5441059,-6.8788685,0.0 107.5440248,-6.8789876,0.0 107.5439242,-6.8791339,0.0 107.5438905,-6.8791833,0.0 107.5438142,-6.8792937,0.0 107.5437554,-6.8793795,0.0 107.5437169,-6.8794368,0.0 107.543657,-6.8795243,0.0 107.5434841,-6.879778,0.0 107.5434454,-6.8798383,0.0 107.5433605,-6.8799929,0.0 107.5433193,-6.8801087,0.0 107.5432942,-6.8802472,0.0 107.5432923,-6.8803212,0.0 107.5432961,-6.8803887,0.0</coordinates>
            </LineString>
        </Placemark>
        <Placemark id="71486">
            <name>Jalan Sisingamangaraja</name>
            <styleUrl>#71487</styleUrl>
            <LineString id="71485">
                <coordinates>107.5398287,-6.8791606,0.0 107.5397533,-6.8791348,0.0 107.5395016,-6.8790697,0.0 107.5391401,-6.8789747,0.0 107.5391126,-6.8789597,0.0 107.5390937,-6.8789402,0.0</coordinates>
            </LineString>
        </Placemark>
        <Placemark id="71490">
            <name>Jalan Raya Cimareme</name>
            <styleUrl>#71491</styleUrl>
            <LineString id="71489">
                <coordinates>107.5034117,-6.8632727,0.0 107.5034772,-6.8633105,0.0 107.5035566,-6.8633604,0.0 107.5037925,-6.8634899,0.0 107.5039209,-6.8635608,0.0 107.504317,-6.8637653,0.0 107.5043597,-6.8637873,0.0 107.5044255,-6.8638215,0.0 107.5047344,-6.8639832,0.0</coordinates>
            </LineString>
        </Placemark>
        <Placemark id="71494">
            <name>Route Segment</name>
            <styleUrl>#71495</styleUrl>
            <LineString id="71493">
                <coordinates>107.5390937,-6.8789402,0.0 107.5390857,-6.8789467,0.0 107.5390744,-6.8789553,0.0 107.5390292,-6.8789871,0.0 107.5388206,-6.8790968,0.0 107.5385827,-6.8792246,0.0 107.5382603,-6.8794896,0.0 107.5381814,-6.8795544,0.0</coordinates>
            </LineString>
        </Placemark>
        <Placemark id="71498">
            <name>Jalan Raya Cipanji</name>
            <styleUrl>#71499</styleUrl>
            <LineString id="71497">
                <coordinates>107.5045771,-6.9361696,0.0 107.5045307,-6.9361504,0.0 107.5044957,-6.9361357,0.0 107.5044356,-6.9361107,0.0 107.5043624,-6.9360802,0.0 107.5040411,-6.9359355,0.0 107.5039537,-6.9359023,0.0 107.5036813,-6.9357868,0.0 107.5031157,-6.9355423,0.0 107.5029172,-6.9354504,0.0 107.5027719,-6.9353798,0.0 107.5024067,-6.9352277,0.0 107.5022679,-6.9351671,0.0 107.5020455,-6.9350737,0.0 107.5018981,-6.9350532,0.0 107.501858,-6.9350508,0.0 107.5014165,-6.9350391,0.0 107.5012301,-6.9350071,0.0 107.5010413,-6.9349525,0.0 107.5009703,-6.9349249,0.0 107.5008117,-6.9348633,0.0 107.5006631,-6.9347949,0.0 107.5005646,-6.9347248,0.0 107.5005177,-6.9346783,0.0 107.5003895,-6.9344916,0.0 107.5003061,-6.9343734,0.0 107.5002782,-6.9343462,0.0 107.5002414,-6.9343177,0.0 107.500031,-6.9342283,0.0 107.4990223,-6.9339438,0.0 107.4987861,-6.9338806,0.0 107.4980664,-6.9336652,0.0 107.4976976,-6.9335386,0.0 107.4973884,-6.9334278,0.0 107.4971223,-6.933303,0.0 107.4968753,-6.9331713,0.0 107.4966791,-6.9330681,0.0 107.4959887,-6.9327062,0.0 107.4954914,-6.9324572,0.0 107.4953607,-6.9323918,0.0 107.4951827,-6.9323038,0.0 107.4950544,-6.9322404,0.0 107.4947685,-6.9320991,0.0 107.4944695,-6.9319441,0.0 107.4944143,-6.9319176,0.0 107.4941681,-6.9318035,0.0 107.4936562,-6.9315664,0.0 107.4936345,-6.9315571,0.0 107.4933473,-6.9314344,0.0 107.4932669,-6.9314018,0.0 107.4930002,-6.9312887,0.0 107.4927503,-6.9311842,0.0 107.492598,-6.931115,0.0 107.4925561,-6.9310998,0.0 107.4922156,-6.9309434,0.0 107.4921346,-6.9309062,0.0 107.4916367,-6.9306846,0.0 107.4915616,-6.9306518,0.0 107.491198,-6.9304856,0.0 107.4908802,-6.9303404,0.0 107.4903839,-6.9301488,0.0 107.4892488,-6.9296577,0.0 107.4889022,-6.9295206,0.0 107.4877553,-6.9290587,0.0 107.4877132,-6.9290418,0.0 107.4875039,-6.9289593,0.0 107.4873165,-6.9288806,0.0 107.4870855,-6.9287952,0.0 107.4868912,-6.9287173,0.0 107.4868144,-6.9286905,0.0 107.4864179,-6.9285329,0.0 107.4862559,-6.9284722,0.0 107.4858535,-6.9283247,0.0 107.4856639,-6.9282554,0.0 107.4853015,-6.9281112,0.0 107.4845628,-6.9278311,0.0 107.4842658,-6.927712,0.0 107.4837548,-6.9275065,0.0 107.4836941,-6.9274802,0.0 107.4835007,-6.9273867,0.0 107.4833585,-6.9273015,0.0 107.4828368,-6.9269381,0.0 107.4824983,-6.9267143,0.0 107.4823595,-6.9266226,0.0 107.4820512,-6.9264245,0.0 107.4818803,-6.9263147,0.0 107.4805661,-6.9255108,0.0 107.4799512,-6.9251301,0.0 107.4799038,-6.9251022,0.0 107.479808,-6.925041,0.0 107.4797705,-6.9250196,0.0 107.4796832,-6.924975,0.0 107.4796302,-6.9249477,0.0</coordinates>
            </LineString>
        </Placemark>
        <Placemark id="71502">
            <name>Jalan Jend. H. Amir Machmud</name>
            <styleUrl>#71503</styleUrl>
            <LineString id="71501">
                <coordinates>107.5261248,-6.8684369,0.0 107.5262229,-6.8684691,0.0 107.5263122,-6.8685064,0.0 107.5263898,-6.8685422,0.0 107.5264225,-6.8685573,0.0 107.5266094,-6.8686384,0.0 107.5270877,-6.8688731,0.0 107.5271548,-6.868908,0.0 107.5273141,-6.8689718,0.0 107.5274989,-6.8690436,0.0 107.5275841,-6.8690682,0.0 107.527662,-6.8690849,0.0 107.5277986,-6.8691038,0.0 107.5278876,-6.8691021,0.0 107.5279891,-6.8690928,0.0 107.5281475,-6.8690695,0.0 107.5281996,-6.8690592,0.0 107.5283978,-6.8690203,0.0 107.5284509,-6.8690086,0.0 107.5285738,-6.8689815,0.0 107.5288591,-6.8689212,0.0 107.5289883,-6.8688991,0.0 107.5293786,-6.8688406,0.0 107.5300087,-6.868775,0.0 107.5302545,-6.8687509,0.0 107.5303683,-6.8687397,0.0 107.5306127,-6.8687157,0.0 107.5307996,-6.8686984,0.0 107.5309254,-6.8686864,0.0 107.5311227,-6.8686631,0.0 107.5311768,-6.86866,0.0 107.5313217,-6.8686505,0.0 107.5314385,-6.8686555,0.0 107.5315089,-6.8686615,0.0 107.5315735,-6.8686772,0.0 107.5317099,-6.8687176,0.0 107.5318119,-6.8687546,0.0 107.5318553,-6.8687705,0.0 107.531878,-6.8687794,0.0 107.5319386,-6.8688013,0.0 107.5322086,-6.8688988,0.0 107.5324527,-6.8689916,0.0 107.5327945,-6.8691177,0.0 107.5330853,-6.8692167,0.0</coordinates>
            </LineString>
        </Placemark>
        <Placemark id="71506">
            <name>Jalan Sisingamangaraja</name>
            <styleUrl>#71507</styleUrl>
            <LineString id="71505">
                <coordinates>107.5401392,-6.8792514,0.0 107.5400738,-6.8792366,0.0 107.5400159,-6.8792246,0.0</coordinates>
            </LineString>
        </Placemark>
        <Placemark id="71510">
            <name>Route Segment</name>
            <styleUrl>#71511</styleUrl>
            <LineString id="71509">
                <coordinates>107.5374857,-6.8801763,0.0 107.5379919,-6.8807505,0.0</coordinates>
            </LineString>
        </Placemark>
        <Placemark id="71514">
            <name>Jalan Cihampelas-Tanjungjaya</name>
            <styleUrl>#71515</styleUrl>
            <LineString id="71513">
                <coordinates>107.476133,-6.9344855,0.0 107.4758684,-6.9353972,0.0</coordinates>
            </LineString>
        </Placemark>
        <Placemark id="71518">
            <name>Jalan Cihampelas-Tanjungjaya</name>
            <styleUrl>#71519</styleUrl>
            <LineString id="71517">
                <coordinates>107.4796302,-6.9249477,0.0 107.4796021,-6.9249757,0.0 107.4795618,-6.9250206,0.0 107.4795216,-6.9250662,0.0 107.4789815,-6.9257084,0.0 107.4786416,-6.9261059,0.0 107.4783757,-6.9264229,0.0 107.4780081,-6.9268376,0.0 107.4776421,-6.9272762,0.0 107.4774955,-6.927453,0.0 107.4771942,-6.9278316,0.0 107.4771415,-6.9278931,0.0 107.4767985,-6.928304,0.0 107.4767127,-6.9284019,0.0 107.476584,-6.9285489,0.0 107.4763325,-6.9288245,0.0 107.4762212,-6.9289404,0.0 107.475972,-6.9291655,0.0 107.475719,-6.9294136,0.0 107.4752118,-6.9298445,0.0 107.4749913,-6.9300261,0.0 107.474817,-6.9301718,0.0 107.4746918,-6.9302884,0.0 107.4747386,-6.9303696,0.0 107.4748378,-6.9305754,0.0 107.4750001,-6.9308468,0.0 107.4751597,-6.9310834,0.0 107.4753076,-6.9313085,0.0 107.4755956,-6.9318014,0.0 107.4756827,-6.9319824,0.0 107.4761152,-6.9327546,0.0 107.4763459,-6.9331632,0.0 107.4763781,-6.933251,0.0 107.4763968,-6.9333363,0.0 107.4763982,-6.9334228,0.0 107.4763909,-6.9334995,0.0 107.4763414,-6.9337711,0.0 107.4763278,-6.9338269,0.0 107.476305,-6.933885,0.0 107.4762711,-6.9339654,0.0 107.4762366,-6.9340492,0.0 107.476133,-6.9344855,0.0</coordinates>
            </LineString>
        </Placemark>
        <Placemark id="71522">
            <name>Jalan Raya Cimareme</name>
            <styleUrl>#71523</styleUrl>
            <LineString id="71521">
                <coordinates>107.5047344,-6.8639832,0.0 107.5049911,-6.8641067,0.0 107.5050586,-6.8641392,0.0 107.5051499,-6.8641787,0.0 107.5051913,-6.8641937,0.0 107.5052503,-6.8642111,0.0 107.5053149,-6.8642263,0.0 107.5053817,-6.8642351,0.0 107.5054411,-6.8642368,0.0 107.5054978,-6.8642341,0.0 107.5055404,-6.864229,0.0</coordinates>
            </LineString>
        </Placemark>
        <Placemark id="71526">
            <name>Jalan Raya Gadobangkong</name>
            <styleUrl>#71527</styleUrl>
            <LineString id="71525">
                <coordinates>107.5063671,-6.864027,0.0 107.5065856,-6.8639771,0.0 107.5070193,-6.863866,0.0 107.5077676,-6.863685,0.0 107.5082119,-6.8635741,0.0 107.5086465,-6.8634599,0.0 107.5087248,-6.8634388,0.0 107.5094028,-6.8632576,0.0 107.5094818,-6.863253,0.0 107.5095628,-6.8632583,0.0 107.5096207,-6.8632683,0.0 107.5097112,-6.8632909,0.0 107.5098225,-6.8633262,0.0 107.5099964,-6.863395,0.0 107.5100491,-6.8634203,0.0 107.510072,-6.8634302,0.0 107.5104217,-6.8635854,0.0 107.5106152,-6.8636745,0.0 107.5106923,-6.8637105,0.0 107.510966,-6.8638385,0.0 107.5111617,-6.8639301,0.0 107.5113852,-6.8640346,0.0 107.5119852,-6.8643131,0.0 107.5120662,-6.8643533,0.0 107.5123015,-6.8644685,0.0 107.5125224,-6.8645767,0.0 107.5128242,-6.8647258,0.0 107.5130197,-6.8648201,0.0 107.513398,-6.865018,0.0 107.5134421,-6.8650411,0.0 107.513879,-6.8652552,0.0 107.5140447,-6.8653343,0.0 107.5150775,-6.8658424,0.0 107.5151703,-6.8658917,0.0 107.5152076,-6.8659101,0.0 107.5156233,-6.8661135,0.0 107.5156622,-6.866132,0.0</coordinates>
            </LineString>
        </Placemark>
        <Placemark id="71530">
            <name>Jalan Raya Gadobangkong</name>
            <styleUrl>#71531</styleUrl>
            <LineString id="71529">
                <coordinates>107.5160919,-6.8663299,0.0 107.5162566,-6.8664082,0.0 107.5164712,-6.8665071,0.0 107.5167612,-6.8666428,0.0 107.5169868,-6.8667469,0.0</coordinates>
            </LineString>
        </Placemark>
        <Placemark id="71534">
            <name>Jalan Raya Batujajar</name>
            <styleUrl>#71535</styleUrl>
            <LineString id="71533">
                <coordinates>107.5023278,-6.911546,0.0 107.5023613,-6.9115225,0.0 107.5023942,-6.9114806,0.0 107.5024237,-6.911424,0.0 107.5024512,-6.9113381,0.0 107.5024858,-6.911231,0.0 107.5025497,-6.9108109,0.0 107.502601,-6.9105029,0.0 107.5026368,-6.9102897,0.0 107.5027038,-6.9099424,0.0 107.5027093,-6.9099129,0.0 107.5027662,-6.909617,0.0 107.5027979,-6.9094362,0.0 107.5028649,-6.9090741,0.0 107.5028998,-6.9088904,0.0 107.5029373,-6.9087613,0.0 107.5030001,-6.9086232,0.0 107.5031063,-6.9084364,0.0 107.5031754,-6.9082643,0.0 107.5031955,-6.9081768,0.0 107.5031988,-6.9081062,0.0 107.5031938,-6.9080047,0.0 107.5031757,-6.9079328,0.0 107.5031449,-6.9078713,0.0 107.5030647,-6.9077574,0.0 107.5029913,-6.9076512,0.0 107.5029293,-6.9075318,0.0 107.5028783,-6.9074445,0.0 107.5028676,-6.9074212,0.0 107.502775,-6.9071749,0.0 107.5027097,-6.9069769,0.0 107.5026615,-6.9068088,0.0 107.5026443,-6.9067489,0.0 107.5025934,-6.9064034,0.0 107.5025786,-6.9062676,0.0 107.5025685,-6.9061119,0.0 107.5025638,-6.9059324,0.0 107.5025626,-6.9057973,0.0 107.5025853,-6.9055561,0.0 107.5026074,-6.9053223,0.0 107.5026206,-6.9049695,0.0 107.5026248,-6.9048564,0.0 107.5026235,-6.9047092,0.0 107.5026185,-6.9046334,0.0 107.502589,-6.9044962,0.0 107.5024579,-6.9042292,0.0 107.5024042,-6.9041121,0.0 107.5023358,-6.903975,0.0 107.5022627,-6.9038285,0.0 107.5021528,-6.9036062,0.0 107.5020911,-6.9034091,0.0 107.5020431,-6.9032008,0.0 107.5020388,-6.9031236,0.0 107.5019932,-6.9028833,0.0 107.5019845,-6.902406,0.0 107.5019724,-6.9022255,0.0 107.5019754,-6.9018644,0.0 107.5019757,-6.9016554,0.0 107.5019711,-6.9015322,0.0 107.5019709,-6.9013907,0.0 107.501966,-6.9012127,0.0 107.5019699,-6.9010352,0.0 107.5019751,-6.9008023,0.0 107.5019919,-6.9006253,0.0 107.5019932,-6.9006119,0.0 107.5020897,-6.9000048,0.0 107.502123,-6.8997487,0.0 107.5021487,-6.8995508,0.0 107.5021923,-6.8992151,0.0 107.5022183,-6.8990147,0.0 107.5023112,-6.8983103,0.0 107.5023308,-6.8981093,0.0 107.5023938,-6.8977092,0.0 107.5024177,-6.8975329,0.0 107.5024246,-6.8974823,0.0 107.5024798,-6.8970758,0.0 107.5024877,-6.8970176,0.0 107.5025212,-6.8967448,0.0 107.5025488,-6.8965199,0.0 107.5025553,-6.8964708,0.0 107.5025629,-6.8964131,0.0 107.5026541,-6.8957962,0.0 107.502679,-6.8956278,0.0 107.5027702,-6.8949834,0.0 107.5028229,-6.8946543,0.0 107.5028542,-6.8944049,0.0 107.502881,-6.8942316,0.0 107.5028924,-6.8941569,0.0 107.5029443,-6.8938177,0.0 107.502993,-6.893499,0.0 107.5030663,-6.8929995,0.0 107.5030849,-6.8928445,0.0 107.503113,-6.8926288,0.0 107.5032283,-6.8915211,0.0 107.5032457,-6.8913686,0.0 107.5032635,-6.8911856,0.0 107.5032853,-6.8909978,0.0 107.5033106,-6.8908503,0.0 107.503414,-6.8899178,0.0 107.5034643,-6.8893616,0.0 107.5034919,-6.8890562,0.0 107.5034926,-6.8886099,0.0 107.5035229,-6.8881359,0.0 107.5035273,-6.888024,0.0 107.5035337,-6.8879109,0.0 107.5035328,-6.8875667,0.0 107.5035623,-6.8870848,0.0 107.5035916,-6.8867718,0.0 107.5036146,-6.8865234,0.0 107.5036176,-6.8864782,0.0 107.5036413,-6.8861204,0.0 107.5036476,-6.8860262,0.0 107.5036926,-6.8856141,0.0 107.5037044,-6.885567,0.0 107.5037429,-6.8852347,0.0 107.5037527,-6.8851303,0.0 107.5037729,-6.8848813,0.0</coordinates>
            </LineString>
        </Placemark>
        <Placemark id="71538">
            <name>Jalan Raya Batujajar</name>
            <styleUrl>#71539</styleUrl>
            <LineString id="71537">
                <coordinates>107.4914443,-6.9190197,0.0 107.4914695,-6.9187767,0.0 107.491505,-6.9186106,0.0 107.4915039,-6.9185174,0.0 107.4914887,-6.9183939,0.0 107.4914616,-6.9181524,0.0 107.4914524,-6.9180786,0.0 107.4914194,-6.9177692,0.0 107.4913542,-6.9173598,0.0 107.4913465,-6.9172999,0.0 107.4913385,-6.9172518,0.0</coordinates>
            </LineString>
        </Placemark>
        <Placemark id="71542">
            <name>Jalan Cihampelas - Tanjungjaya</name>
            <styleUrl>#71543</styleUrl>
            <LineString id="71541">
                <coordinates>107.4593604,-6.9542458,0.0 107.4588058,-6.954522,0.0 107.4586514,-6.9545874,0.0 107.4584934,-6.9546208,0.0 107.4583966,-6.954626,0.0 107.4582702,-6.9546208,0.0 107.4580253,-6.9545945,0.0 107.4579091,-6.9545308,0.0 107.4578031,-6.9544455,0.0 107.4577173,-6.9543724,0.0 107.4576391,-6.9542877,0.0 107.4575659,-6.9541706,0.0 107.4575163,-6.9540615,0.0 107.457507,-6.9540056,0.0 107.4575061,-6.953955,0.0 107.4575633,-6.9531932,0.0 107.4575835,-6.9529667,0.0 107.457616,-6.9526618,0.0 107.4576819,-6.9518641,0.0</coordinates>
            </LineString>
        </Placemark>
        <Placemark id="71546">
            <name>Cililin-Cihampelas</name>
            <styleUrl>#71547</styleUrl>
            <LineString id="71545">
                <coordinates>107.4595606,-6.954144,0.0 107.459481,-6.9541844,0.0</coordinates>
            </LineString>
        </Placemark>
        <Placemark id="71550">
            <name>Cililin-Cihampelas</name>
            <styleUrl>#71551</styleUrl>
            <LineString id="71549">
                <coordinates>107.459481,-6.9541844,0.0 107.4593604,-6.9542458,0.0</coordinates>
            </LineString>
        </Placemark>
        <Placemark id="71554">
            <name>Jalan Cihampelas-Tanjungjaya</name>
            <styleUrl>#71555</styleUrl>
            <LineString id="71553">
                <coordinates>107.4612159,-6.9521239,0.0 107.4610554,-6.9523223,0.0 107.4609315,-6.9525912,0.0 107.4608655,-6.9528008,0.0 107.4607736,-6.953013,0.0 107.4607287,-6.953127,0.0 107.4606512,-6.9532652,0.0 107.4605973,-6.9533347,0.0 107.4604919,-6.9534589,0.0 107.4603076,-6.9536316,0.0 107.4601089,-6.9538026,0.0 107.4599657,-6.9538951,0.0 107.459806,-6.9540016,0.0 107.4595606,-6.954144,0.0</coordinates>
            </LineString>
        </Placemark>
        <Placemark id="71558">
            <name>Jalan Encep Kartawiria</name>
            <styleUrl>#71559</styleUrl>
            <LineString id="71557">
                <coordinates>107.5520091,-6.8627982,0.0 107.5521093,-6.8628488,0.0 107.5522241,-6.862907,0.0 107.5522532,-6.8629281,0.0 107.5522813,-6.8629481,0.0 107.5523021,-6.8629734,0.0 107.5523102,-6.8630045,0.0 107.5523074,-6.8630426,0.0 107.5522984,-6.8630741,0.0 107.552164,-6.8633045,0.0 107.5519697,-6.8636375,0.0 107.5517567,-6.8640031,0.0 107.5517415,-6.8640281,0.0 107.5516779,-6.8641313,0.0 107.5516125,-6.8642419,0.0 107.5515378,-6.8643684,0.0 107.5514168,-6.8645615,0.0 107.5513513,-6.864666,0.0 107.5512776,-6.8647835,0.0 107.55119,-6.8649233,0.0 107.5510345,-6.8651495,0.0 107.550925,-6.8652581,0.0 107.5508709,-6.8652984,0.0 107.5507422,-6.8653943,0.0</coordinates>
            </LineString>
        </Placemark>
        <Placemark id="71562">
            <name>Jalan Encep Kartawiria</name>
            <styleUrl>#71563</styleUrl>
            <LineString id="71561">
                <coordinates>107.5507422,-6.8653943,0.0 107.5503139,-6.8657143,0.0 107.5502595,-6.8657315,0.0 107.5501832,-6.8657248,0.0 107.5498536,-6.8656151,0.0 107.5495206,-6.8655042,0.0 107.5493841,-6.8654512,0.0 107.5492759,-6.8654092,0.0 107.5491144,-6.8653465,0.0 107.5489791,-6.8652939,0.0 107.5487964,-6.8652238,0.0 107.548716,-6.8652106,0.0 107.5486342,-6.8652225,0.0 107.5485739,-6.8652445,0.0 107.5485591,-6.8652545,0.0 107.5483103,-6.865432,0.0 107.5480127,-6.8656823,0.0 107.5478971,-6.8657801,0.0 107.5477754,-6.8658822,0.0 107.5477708,-6.8658853,0.0</coordinates>
            </LineString>
        </Placemark>
        <Placemark id="71566">
            <name>Jalan Jend. H. Amir Machmud</name>
            <styleUrl>#71567</styleUrl>
            <LineString id="71565">
                <coordinates>107.533145,-6.8692367,0.0 107.5331785,-6.8692495,0.0 107.5335628,-6.8693791,0.0 107.5337126,-6.8694306,0.0 107.5337447,-6.8694416,0.0 107.5339049,-6.8694966,0.0 107.5341763,-6.8696061,0.0 107.5342233,-6.8696235,0.0 107.5343842,-6.869692,0.0</coordinates>
            </LineString>
        </Placemark>
        <Placemark id="71570">
            <name>Jalan Jend. H. Amir Machmud</name>
            <styleUrl>#71571</styleUrl>
            <LineString id="71569">
                <coordinates>107.5330853,-6.8692167,0.0 107.533145,-6.8692367,0.0</coordinates>
            </LineString>
        </Placemark>
        <Placemark id="71574">
            <name>Jalan Raya Gadobangkong</name>
            <styleUrl>#71575</styleUrl>
            <LineString id="71573">
                <coordinates>107.5220823,-6.8684515,0.0 107.5221811,-6.8684242,0.0 107.5226775,-6.8684431,0.0 107.5232624,-6.8684653,0.0 107.523407,-6.8684708,0.0</coordinates>
            </LineString>
        </Placemark>
        <Placemark id="71578">
            <name>Jalan Raya Gadobangkong</name>
            <styleUrl>#71579</styleUrl>
            <LineString id="71577">
                <coordinates>107.523407,-6.8684708,0.0 107.5237171,-6.8684826,0.0 107.523763,-6.8684843,0.0 107.5238237,-6.8685111,0.0</coordinates>
            </LineString>
        </Placemark>
        <Placemark id="71582">
            <name>Jalan Raya Batujajar</name>
            <styleUrl>#71583</styleUrl>
            <LineString id="71581">
                <coordinates>107.5021628,-6.9116457,0.0 107.5023278,-6.911546,0.0</coordinates>
            </LineString>
        </Placemark>
        <Placemark id="71586">
            <name>Jalan Raya Batujajar</name>
            <styleUrl>#71587</styleUrl>
            <LineString id="71585">
                <coordinates>107.4913385,-6.9172518,0.0 107.4914701,-6.9171891,0.0 107.4916878,-6.9170953,0.0 107.4918129,-6.9170405,0.0 107.4918643,-6.9170188,0.0 107.4922035,-6.9168738,0.0 107.4927396,-6.9166203,0.0 107.4927698,-6.9166049,0.0 107.4931635,-6.9164254,0.0 107.4932565,-6.916387,0.0 107.4940431,-6.9159691,0.0 107.494329,-6.9158239,0.0 107.4944752,-6.9157458,0.0 107.494654,-6.9156556,0.0 107.4946823,-6.9156419,0.0 107.495014,-6.915481,0.0 107.4953547,-6.9152939,0.0 107.4956355,-6.915154,0.0 107.4966126,-6.9146456,0.0 107.4967187,-6.9145875,0.0 107.4970295,-6.9144213,0.0 107.4974676,-6.9142065,0.0 107.4978704,-6.9139886,0.0 107.4982513,-6.9137906,0.0 107.4987019,-6.9135488,0.0 107.4989328,-6.9134197,0.0 107.4992201,-6.9132645,0.0 107.4994826,-6.9131215,0.0 107.4995172,-6.9131049,0.0 107.4996903,-6.9130136,0.0 107.4997665,-6.9129741,0.0 107.4998995,-6.9129023,0.0 107.4999571,-6.9128713,0.0 107.5001605,-6.9127611,0.0 107.5003198,-6.9126756,0.0 107.5004429,-6.9126156,0.0 107.5011403,-6.9122366,0.0 107.5012108,-6.9121983,0.0 107.501307,-6.9121458,0.0 107.5014743,-6.9120488,0.0 107.5015412,-6.91201,0.0 107.5018115,-6.9118566,0.0 107.5020905,-6.9116877,0.0 107.5021628,-6.9116457,0.0</coordinates>
            </LineString>
        </Placemark>
        <Placemark id="71590">
            <name>Jalan Jend. H. Amir Machmud</name>
            <styleUrl>#71591</styleUrl>
            <LineString id="71589">
                <coordinates>107.5435214,-6.8743778,0.0 107.5438725,-6.8745904,0.0 107.5438997,-6.874607,0.0 107.5439581,-6.8746902,0.0</coordinates>
            </LineString>
        </Placemark>
        <Placemark id="71594">
            <name>Jalan M. K. Wiganda Sasmita</name>
            <styleUrl>#71595</styleUrl>
            <LineString id="71593">
                <coordinates>107.543905,-6.8698531,0.0 107.5440181,-6.8699272,0.0 107.5441549,-6.8700401,0.0 107.5442594,-6.8701566,0.0 107.5442995,-6.8702168,0.0 107.5443272,-6.870258,0.0 107.5443529,-6.8703057,0.0 107.5444209,-6.8704451,0.0 107.5444783,-6.8706458,0.0 107.5446135,-6.8712231,0.0 107.5446463,-6.8714574,0.0</coordinates>
            </LineString>
        </Placemark>
        <Placemark id="71598">
            <name>Route Segment</name>
            <styleUrl>#71599</styleUrl>
            <LineString id="71597">
                <coordinates>107.5030869,-6.8642948,0.0 107.5030776,-6.8642823,0.0 107.503072,-6.8642644,0.0 107.503083,-6.8642032,0.0 107.5031288,-6.863973,0.0 107.5031419,-6.8639589,0.0 107.5031622,-6.8639541,0.0 107.5032189,-6.8639533,0.0</coordinates>
            </LineString>
        </Placemark>
        <Placemark id="71602">
            <name>Jalan Gatot Subroto</name>
            <styleUrl>#71603</styleUrl>
            <LineString id="71601">
                <coordinates>107.5459671,-6.8762377,0.0 107.5458574,-6.8763919,0.0 107.545628,-6.8767142,0.0 107.5453107,-6.8771677,0.0 107.5452289,-6.8772766,0.0 107.5451738,-6.8773525,0.0 107.545096,-6.8774617,0.0 107.5444652,-6.8783241,0.0</coordinates>
            </LineString>
        </Placemark>
        <Placemark id="71606">
            <name>Jalan Jend. H. Amir Machmud</name>
            <styleUrl>#71607</styleUrl>
            <LineString id="71605">
                <coordinates>107.5343842,-6.869692,0.0 107.5344382,-6.8696871,0.0 107.5347789,-6.8698083,0.0</coordinates>
            </LineString>
        </Placemark>
        <Placemark id="71610">
            <name>Jalan Jend. H. Amir Machmud</name>
            <styleUrl>#71611</styleUrl>
            <LineString id="71609">
                <coordinates>107.534761,-6.8698508,0.0 107.5344209,-6.8697253,0.0 107.5343842,-6.869692,0.0</coordinates>
            </LineString>
        </Placemark>
        <Placemark id="71614">
            <name>Route Segment</name>
            <styleUrl>#71615</styleUrl>
            <LineString id="71613">
                <coordinates>107.5381814,-6.8795544,0.0 107.53814,-6.8795884,0.0 107.5377405,-6.8799427,0.0 107.5374857,-6.8801763,0.0</coordinates>
            </LineString>
        </Placemark>
        <Placemark id="71618">
            <name>Jalan Sisingamangaraja</name>
            <styleUrl>#71619</styleUrl>
            <LineString id="71617">
                <coordinates>107.5400159,-6.8792246,0.0 107.5398935,-6.8791827,0.0 107.5398287,-6.8791606,0.0</coordinates>
            </LineString>
        </Placemark>
        <Placemark id="71622">
            <name>Route Segment</name>
            <styleUrl>#71623</styleUrl>
            <LineString id="71621">
                <coordinates>107.5031713,-6.8643115,0.0 107.5030869,-6.8642948,0.0</coordinates>
            </LineString>
        </Placemark>
        <Placemark id="71626">
            <name>Jalan Raya Batujajar</name>
            <styleUrl>#71627</styleUrl>
            <LineString id="71625">
                <coordinates>107.5037729,-6.8848813,0.0 107.5038084,-6.8845761,0.0 107.5038225,-6.8844438,0.0 107.5038514,-6.8842165,0.0 107.5038653,-6.8840429,0.0 107.503889,-6.8838211,0.0 107.5040429,-6.8827832,0.0 107.5040978,-6.8824199,0.0 107.5041009,-6.88238,0.0 107.5041661,-6.8819198,0.0 107.5042728,-6.8811671,0.0 107.5042942,-6.880997,0.0 107.5042998,-6.880952,0.0 107.5043033,-6.8809059,0.0 107.5043303,-6.8805477,0.0 107.5043122,-6.8802191,0.0 107.5043117,-6.8799476,0.0 107.5043104,-6.8798876,0.0 107.5042908,-6.8795004,0.0 107.504255,-6.8791584,0.0 107.5042489,-6.8791,0.0 107.5041782,-6.8784018,0.0 107.5041711,-6.8783318,0.0 107.5041273,-6.8778026,0.0 107.5041175,-6.8776848,0.0 107.5040982,-6.8772838,0.0 107.5040812,-6.8769113,0.0 107.5040304,-6.8762619,0.0 107.5039977,-6.8757426,0.0 107.5039656,-6.8752943,0.0 107.5039539,-6.8751312,0.0 107.5039421,-6.8749672,0.0 107.5039171,-6.8745549,0.0 107.5039075,-6.8743962,0.0 107.503902,-6.8743047,0.0 107.5039032,-6.8741331,0.0 107.5039028,-6.8737299,0.0 107.5038798,-6.8732003,0.0 107.5038868,-6.8728542,0.0 107.5038887,-6.8726459,0.0 107.5038904,-6.8724841,0.0 107.5038911,-6.8724169,0.0 107.5038921,-6.8723281,0.0 107.5038995,-6.8722468,0.0 107.5039389,-6.8718158,0.0 107.5039373,-6.8716999,0.0 107.503933,-6.8713973,0.0 107.5039243,-6.8713432,0.0 107.5039057,-6.8712752,0.0 107.5038716,-6.8711799,0.0 107.5037644,-6.8709529,0.0 107.5036753,-6.8707765,0.0 107.5035692,-6.8705167,0.0 107.5035555,-6.8704832,0.0 107.5035441,-6.8704552,0.0 107.5034255,-6.8702326,0.0 107.5032935,-6.8699424,0.0 107.503234,-6.8698353,0.0 107.5031843,-6.8697532,0.0 107.5031464,-6.8696811,0.0 107.5030915,-6.869592,0.0 107.503067,-6.8695495,0.0 107.5030124,-6.8694317,0.0 107.5027378,-6.8688408,0.0 107.5026905,-6.8687256,0.0 107.502668,-6.8686603,0.0 107.5026611,-6.8686226,0.0 107.502656,-6.8683115,0.0 107.5026752,-6.8678932,0.0 107.5026918,-6.8677373,0.0 107.5027214,-6.8674235,0.0 107.5027649,-6.8671636,0.0 107.5028543,-6.8666089,0.0 107.5029067,-6.8662348,0.0 107.5029509,-6.8658652,0.0 107.5030369,-6.8653153,0.0 107.5030536,-6.8651797,0.0 107.5030845,-6.8649744,0.0 107.5031004,-6.8648688,0.0 107.5031493,-6.8645254,0.0 107.5031593,-6.86444,0.0 107.5031713,-6.8643115,0.0</coordinates>
            </LineString>
        </Placemark>
        <Placemark id="71630">
            <name>Jalan Raya Sinar Mukti</name>
            <styleUrl>#71631</styleUrl>
            <LineString id="71629">
                <coordinates>107.4914443,-6.9190197,0.0 107.4914446,-6.9192358,0.0 107.4914534,-6.9193802,0.0 107.491497,-6.9196793,0.0 107.4915298,-6.9199071,0.0 107.4915425,-6.9200546,0.0 107.4915393,-6.9202203,0.0 107.4915212,-6.9203482,0.0 107.4914494,-6.9206728,0.0 107.4914458,-6.920694,0.0 107.4913839,-6.920994,0.0 107.491385,-6.9210162,0.0 107.4913844,-6.921067,0.0 107.4913924,-6.9211109,0.0 107.4914065,-6.9211542,0.0 107.4914394,-6.9211973,0.0 107.491499,-6.9212334,0.0 107.4915473,-6.921252,0.0 107.4915943,-6.9212666,0.0 107.4920849,-6.9214167,0.0 107.4921374,-6.9214331,0.0 107.4923688,-6.9215002,0.0 107.492699,-6.9216088,0.0 107.4930082,-6.9217233,0.0 107.4932747,-6.9218338,0.0 107.493417,-6.9218987,0.0 107.4935752,-6.9219873,0.0 107.4936061,-6.9220033,0.0 107.4938084,-6.9221028,0.0 107.4940657,-6.9222452,0.0 107.4942322,-6.9223543,0.0 107.494254,-6.922391,0.0</coordinates>
            </LineString>
        </Placemark>
        <Placemark id="71634">
            <name>Jalan Encep Kartawiria</name>
            <styleUrl>#71635</styleUrl>
            <LineString id="71633">
                <coordinates>107.547753,-6.8659016,0.0 107.5477411,-6.865913,0.0 107.5473771,-6.8662639,0.0 107.5472142,-6.8664207,0.0 107.5469438,-6.8666809,0.0 107.5469032,-6.8667202,0.0 107.5466714,-6.8669532,0.0 107.5466134,-6.8670115,0.0 107.5465456,-6.8670797,0.0 107.5465002,-6.8671255,0.0</coordinates>
            </LineString>
        </Placemark>
        <Placemark id="71638">
            <name>Jalan Encep Kartawiria</name>
            <styleUrl>#71639</styleUrl>
            <LineString id="71637">
                <coordinates>107.5477708,-6.8658853,0.0 107.547753,-6.8659016,0.0</coordinates>
            </LineString>
        </Placemark>
        <Placemark id="71642">
            <name>Jalan Sangkuriang</name>
            <styleUrl>#71643</styleUrl>
            <LineString id="71641">
                <coordinates>107.534761,-6.8698508,0.0 107.5347789,-6.8698083,0.0</coordinates>
            </LineString>
        </Placemark>
        <Placemark id="71646">
            <name>Route Segment</name>
            <styleUrl>#71647</styleUrl>
            <LineString id="71645">
                <coordinates>107.4576819,-6.9518641,0.0 107.4576918,-6.9517585,0.0</coordinates>
            </LineString>
        </Placemark>
        <Placemark id="71650">
            <name>Jalan Sangkuriang</name>
            <styleUrl>#71651</styleUrl>
            <LineString id="71649">
                <coordinates>107.5436095,-6.8614943,0.0 107.5436642,-6.8614482,0.0 107.5437692,-6.8613596,0.0 107.5438866,-6.861289,0.0 107.5439515,-6.8612637,0.0 107.5441063,-6.8612576,0.0 107.544598,-6.8612677,0.0</coordinates>
            </LineString>
        </Placemark>
        <Placemark id="71654">
            <name>Jalan Sangkuriang</name>
            <styleUrl>#71655</styleUrl>
            <LineString id="71653">
                <coordinates>107.5432201,-6.861823,0.0 107.5433641,-6.8617014,0.0 107.5435683,-6.861529,0.0 107.5436095,-6.8614943,0.0</coordinates>
            </LineString>
        </Placemark>
        <Placemark id="71658">
            <name>Jalan Encep Kartawiria</name>
            <styleUrl>#71659</styleUrl>
            <LineString id="71657">
                <coordinates>107.544598,-6.8612677,0.0 107.5446953,-6.8612534,0.0 107.5447866,-6.8612398,0.0 107.5449113,-6.8611932,0.0 107.5450666,-6.8611338,0.0 107.5451181,-6.8611141,0.0 107.5456107,-6.8609327,0.0 107.5456811,-6.8609065,0.0 107.5457538,-6.8608794,0.0 107.5459197,-6.8608176,0.0 107.5459641,-6.860801,0.0 107.5461543,-6.8607302,0.0 107.5461836,-6.8607193,0.0 107.5465396,-6.8605867,0.0 107.5467379,-6.8605128,0.0 107.5467996,-6.8605064,0.0 107.5468491,-6.8605221,0.0 107.546986,-6.8605882,0.0 107.5472741,-6.860727,0.0 107.5476163,-6.860892,0.0 107.5477471,-6.8609551,0.0 107.5480308,-6.8610905,0.0 107.5481366,-6.8611406,0.0</coordinates>
            </LineString>
        </Placemark>
        <Placemark id="71662">
            <name>Jalan Raya Gadobangkong</name>
            <styleUrl>#71663</styleUrl>
            <LineString id="71661">
                <coordinates>107.5238237,-6.8685111,0.0 107.5238605,-6.8685121,0.0 107.524111,-6.8685186,0.0 107.5242475,-6.8685297,0.0 107.5243947,-6.8685238,0.0 107.5245213,-6.8685157,0.0 107.5246659,-6.8685002,0.0 107.5248121,-6.8684764,0.0 107.5250106,-6.8684338,0.0 107.5252251,-6.8683845,0.0 107.5253284,-6.8683626,0.0 107.5254235,-6.8683509,0.0 107.525547,-6.8683413,0.0 107.525671,-6.8683467,0.0 107.5258493,-6.8683639,0.0 107.5260715,-6.8684195,0.0 107.5261248,-6.8684369,0.0</coordinates>
            </LineString>
        </Placemark>
        <Placemark id="71666">
            <name>Jalan Raya Cimareme</name>
            <styleUrl>#71667</styleUrl>
            <LineString id="71665">
                <coordinates>107.5055404,-6.864229,0.0 107.5056235,-6.864215,0.0 107.505703,-6.8641943,0.0 107.5063671,-6.864027,0.0</coordinates>
            </LineString>
        </Placemark>
        <Placemark id="71670">
            <name>Jalan Raya Batujajar</name>
            <styleUrl>#71671</styleUrl>
            <LineString id="71669">
                <coordinates>107.5032189,-6.8639533,0.0 107.5032847,-6.8636311,0.0 107.5033296,-6.8634654,0.0 107.5033611,-6.8633881,0.0 107.5033906,-6.8633204,0.0 107.5034117,-6.8632727,0.0</coordinates>
            </LineString>
        </Placemark>
        <Placemark id="71674">
            <name>Terminal Cililin</name>
            <styleUrl>#71675</styleUrl>
            <Point id="71673">
                <coordinates>107.457704,-6.9514784,0.0</coordinates>
            </Point>
        </Placemark>
        <Placemark id="71679">
            <name>Pasar Antri</name>
            <styleUrl>#71680</styleUrl>
            <Point id="71678">
                <coordinates>107.5379919,-6.8807505,0.0</coordinates>
            </Point>
        </Placemark>
    </Document>
</kml>
