<?xml version="1.0" encoding="UTF-8"?>
<kml xmlns="http://www.opengis.net/kml/2.2" xmlns:gx="http://www.google.com/kml/ext/2.2">
    <Document id="68126">
        <Style id="68132">
            <IconStyle id="68133">
                <colorMode>normal</colorMode>
                <scale>1</scale>
                <heading>0</heading>
                <Icon id="68134">
                    <href>http://maps.google.com/mapfiles/kml/pushpin/ylw-pushpin.png</href>
                </Icon>
            </IconStyle>
        </Style>
        <Style id="68137">
            <IconStyle id="68138">
                <colorMode>normal</colorMode>
                <scale>1</scale>
                <heading>0</heading>
                <Icon id="68139">
                    <href>http://maps.google.com/mapfiles/kml/pushpin/ylw-pushpin.png</href>
                </Icon>
            </IconStyle>
        </Style>
        <Style id="68142">
            <LineStyle id="68143">
                <color>ff356615</color>
                <colorMode>normal</colorMode>
                <width>4</width>
            </LineStyle>
        </Style>
        <Style id="68146">
            <LineStyle id="68147">
                <color>ff356615</color>
                <colorMode>normal</colorMode>
                <width>4</width>
            </LineStyle>
        </Style>
        <Style id="68150">
            <LineStyle id="68151">
                <color>ff356615</color>
                <colorMode>normal</colorMode>
                <width>4</width>
            </LineStyle>
        </Style>
        <Style id="68154">
            <LineStyle id="68155">
                <color>ff356615</color>
                <colorMode>normal</colorMode>
                <width>4</width>
            </LineStyle>
        </Style>
        <Style id="68158">
            <LineStyle id="68159">
                <color>ff356615</color>
                <colorMode>normal</colorMode>
                <width>4</width>
            </LineStyle>
        </Style>
        <Style id="68162">
            <LineStyle id="68163">
                <color>ff356615</color>
                <colorMode>normal</colorMode>
                <width>4</width>
            </LineStyle>
        </Style>
        <Style id="68166">
            <LineStyle id="68167">
                <color>ff356615</color>
                <colorMode>normal</colorMode>
                <width>4</width>
            </LineStyle>
        </Style>
        <Style id="68170">
            <LineStyle id="68171">
                <color>ff356615</color>
                <colorMode>normal</colorMode>
                <width>4</width>
            </LineStyle>
        </Style>
        <Style id="68174">
            <LineStyle id="68175">
                <color>ff356615</color>
                <colorMode>normal</colorMode>
                <width>4</width>
            </LineStyle>
        </Style>
        <Style id="68178">
            <LineStyle id="68179">
                <color>ff356615</color>
                <colorMode>normal</colorMode>
                <width>4</width>
            </LineStyle>
        </Style>
        <Style id="68182">
            <LineStyle id="68183">
                <color>ff356615</color>
                <colorMode>normal</colorMode>
                <width>4</width>
            </LineStyle>
        </Style>
        <Style id="68186">
            <LineStyle id="68187">
                <color>ff356615</color>
                <colorMode>normal</colorMode>
                <width>4</width>
            </LineStyle>
        </Style>
        <Style id="68190">
            <LineStyle id="68191">
                <color>ff356615</color>
                <colorMode>normal</colorMode>
                <width>4</width>
            </LineStyle>
        </Style>
        <Style id="68194">
            <LineStyle id="68195">
                <color>ff356615</color>
                <colorMode>normal</colorMode>
                <width>4</width>
            </LineStyle>
        </Style>
        <Style id="68198">
            <LineStyle id="68199">
                <color>ff356615</color>
                <colorMode>normal</colorMode>
                <width>4</width>
            </LineStyle>
        </Style>
        <Style id="68202">
            <LineStyle id="68203">
                <color>ff356615</color>
                <colorMode>normal</colorMode>
                <width>4</width>
            </LineStyle>
        </Style>
        <Style id="68206">
            <LineStyle id="68207">
                <color>ff356615</color>
                <colorMode>normal</colorMode>
                <width>4</width>
            </LineStyle>
        </Style>
        <Style id="68210">
            <LineStyle id="68211">
                <color>ff356615</color>
                <colorMode>normal</colorMode>
                <width>4</width>
            </LineStyle>
        </Style>
        <Style id="68214">
            <LineStyle id="68215">
                <color>ff356615</color>
                <colorMode>normal</colorMode>
                <width>4</width>
            </LineStyle>
        </Style>
        <Style id="68218">
            <LineStyle id="68219">
                <color>ff356615</color>
                <colorMode>normal</colorMode>
                <width>4</width>
            </LineStyle>
        </Style>
        <Style id="68222">
            <LineStyle id="68223">
                <color>ff356615</color>
                <colorMode>normal</colorMode>
                <width>4</width>
            </LineStyle>
        </Style>
        <Style id="68226">
            <LineStyle id="68227">
                <color>ff356615</color>
                <colorMode>normal</colorMode>
                <width>4</width>
            </LineStyle>
        </Style>
        <Style id="68230">
            <LineStyle id="68231">
                <color>ff356615</color>
                <colorMode>normal</colorMode>
                <width>4</width>
            </LineStyle>
        </Style>
        <Style id="68234">
            <LineStyle id="68235">
                <color>ff356615</color>
                <colorMode>normal</colorMode>
                <width>4</width>
            </LineStyle>
        </Style>
        <Style id="68238">
            <LineStyle id="68239">
                <color>ff356615</color>
                <colorMode>normal</colorMode>
                <width>4</width>
            </LineStyle>
        </Style>
        <Style id="68242">
            <LineStyle id="68243">
                <color>ff356615</color>
                <colorMode>normal</colorMode>
                <width>4</width>
            </LineStyle>
        </Style>
        <Style id="68246">
            <LineStyle id="68247">
                <color>ff356615</color>
                <colorMode>normal</colorMode>
                <width>4</width>
            </LineStyle>
        </Style>
        <Style id="68250">
            <LineStyle id="68251">
                <color>ff356615</color>
                <colorMode>normal</colorMode>
                <width>4</width>
            </LineStyle>
        </Style>
        <Style id="68254">
            <LineStyle id="68255">
                <color>ff356615</color>
                <colorMode>normal</colorMode>
                <width>4</width>
            </LineStyle>
        </Style>
        <Style id="68258">
            <LineStyle id="68259">
                <color>ff356615</color>
                <colorMode>normal</colorMode>
                <width>4</width>
            </LineStyle>
        </Style>
        <Style id="68262">
            <LineStyle id="68263">
                <color>ff356615</color>
                <colorMode>normal</colorMode>
                <width>4</width>
            </LineStyle>
        </Style>
        <Style id="68266">
            <LineStyle id="68267">
                <color>ff356615</color>
                <colorMode>normal</colorMode>
                <width>4</width>
            </LineStyle>
        </Style>
        <Style id="68270">
            <LineStyle id="68271">
                <color>ff356615</color>
                <colorMode>normal</colorMode>
                <width>4</width>
            </LineStyle>
        </Style>
        <Style id="68274">
            <LineStyle id="68275">
                <color>ff356615</color>
                <colorMode>normal</colorMode>
                <width>4</width>
            </LineStyle>
        </Style>
        <Style id="68278">
            <LineStyle id="68279">
                <color>ff356615</color>
                <colorMode>normal</colorMode>
                <width>4</width>
            </LineStyle>
        </Style>
        <Style id="68282">
            <LineStyle id="68283">
                <color>ff356615</color>
                <colorMode>normal</colorMode>
                <width>4</width>
            </LineStyle>
        </Style>
        <Style id="68286">
            <LineStyle id="68287">
                <color>ff356615</color>
                <colorMode>normal</colorMode>
                <width>4</width>
            </LineStyle>
        </Style>
        <Style id="68290">
            <LineStyle id="68291">
                <color>ff356615</color>
                <colorMode>normal</colorMode>
                <width>4</width>
            </LineStyle>
        </Style>
        <Style id="68294">
            <LineStyle id="68295">
                <color>ff356615</color>
                <colorMode>normal</colorMode>
                <width>4</width>
            </LineStyle>
        </Style>
        <Style id="68298">
            <LineStyle id="68299">
                <color>ff356615</color>
                <colorMode>normal</colorMode>
                <width>4</width>
            </LineStyle>
        </Style>
        <Style id="68302">
            <LineStyle id="68303">
                <color>ff356615</color>
                <colorMode>normal</colorMode>
                <width>4</width>
            </LineStyle>
        </Style>
        <Style id="68306">
            <LineStyle id="68307">
                <color>ff356615</color>
                <colorMode>normal</colorMode>
                <width>4</width>
            </LineStyle>
        </Style>
        <Style id="68310">
            <LineStyle id="68311">
                <color>ff356615</color>
                <colorMode>normal</colorMode>
                <width>4</width>
            </LineStyle>
        </Style>
        <Style id="68314">
            <LineStyle id="68315">
                <color>ff356615</color>
                <colorMode>normal</colorMode>
                <width>4</width>
            </LineStyle>
        </Style>
        <Style id="68318">
            <LineStyle id="68319">
                <color>ff356615</color>
                <colorMode>normal</colorMode>
                <width>4</width>
            </LineStyle>
        </Style>
        <Style id="68322">
            <LineStyle id="68323">
                <color>ff356615</color>
                <colorMode>normal</colorMode>
                <width>4</width>
            </LineStyle>
        </Style>
        <Style id="68326">
            <LineStyle id="68327">
                <color>ff356615</color>
                <colorMode>normal</colorMode>
                <width>4</width>
            </LineStyle>
        </Style>
        <Style id="68330">
            <LineStyle id="68331">
                <color>ff356615</color>
                <colorMode>normal</colorMode>
                <width>4</width>
            </LineStyle>
        </Style>
        <Style id="68334">
            <LineStyle id="68335">
                <color>ff356615</color>
                <colorMode>normal</colorMode>
                <width>4</width>
            </LineStyle>
        </Style>
        <Style id="68338">
            <LineStyle id="68339">
                <color>ff356615</color>
                <colorMode>normal</colorMode>
                <width>4</width>
            </LineStyle>
        </Style>
        <Style id="68342">
            <LineStyle id="68343">
                <color>ff356615</color>
                <colorMode>normal</colorMode>
                <width>4</width>
            </LineStyle>
        </Style>
        <Style id="68346">
            <LineStyle id="68347">
                <color>ff356615</color>
                <colorMode>normal</colorMode>
                <width>4</width>
            </LineStyle>
        </Style>
        <Style id="68350">
            <LineStyle id="68351">
                <color>ff356615</color>
                <colorMode>normal</colorMode>
                <width>4</width>
            </LineStyle>
        </Style>
        <Style id="68354">
            <LineStyle id="68355">
                <color>ff356615</color>
                <colorMode>normal</colorMode>
                <width>4</width>
            </LineStyle>
        </Style>
        <Style id="68358">
            <LineStyle id="68359">
                <color>ff356615</color>
                <colorMode>normal</colorMode>
                <width>4</width>
            </LineStyle>
        </Style>
        <Style id="68362">
            <LineStyle id="68363">
                <color>ff356615</color>
                <colorMode>normal</colorMode>
                <width>4</width>
            </LineStyle>
        </Style>
        <Style id="68366">
            <LineStyle id="68367">
                <color>ff356615</color>
                <colorMode>normal</colorMode>
                <width>4</width>
            </LineStyle>
        </Style>
        <Style id="68370">
            <LineStyle id="68371">
                <color>ff356615</color>
                <colorMode>normal</colorMode>
                <width>4</width>
            </LineStyle>
        </Style>
        <Style id="68374">
            <LineStyle id="68375">
                <color>ff356615</color>
                <colorMode>normal</colorMode>
                <width>4</width>
            </LineStyle>
        </Style>
        <Style id="68378">
            <LineStyle id="68379">
                <color>ff356615</color>
                <colorMode>normal</colorMode>
                <width>4</width>
            </LineStyle>
        </Style>
        <Style id="68382">
            <LineStyle id="68383">
                <color>ff356615</color>
                <colorMode>normal</colorMode>
                <width>4</width>
            </LineStyle>
        </Style>
        <Style id="68386">
            <LineStyle id="68387">
                <color>ff356615</color>
                <colorMode>normal</colorMode>
                <width>4</width>
            </LineStyle>
        </Style>
        <Style id="68390">
            <LineStyle id="68391">
                <color>ff356615</color>
                <colorMode>normal</colorMode>
                <width>4</width>
            </LineStyle>
        </Style>
        <Style id="68394">
            <LineStyle id="68395">
                <color>ff356615</color>
                <colorMode>normal</colorMode>
                <width>4</width>
            </LineStyle>
        </Style>
        <Style id="68398">
            <LineStyle id="68399">
                <color>ff356615</color>
                <colorMode>normal</colorMode>
                <width>4</width>
            </LineStyle>
        </Style>
        <Style id="68402">
            <LineStyle id="68403">
                <color>ff356615</color>
                <colorMode>normal</colorMode>
                <width>4</width>
            </LineStyle>
        </Style>
        <Style id="68406">
            <LineStyle id="68407">
                <color>ff356615</color>
                <colorMode>normal</colorMode>
                <width>4</width>
            </LineStyle>
        </Style>
        <Style id="68410">
            <LineStyle id="68411">
                <color>ff356615</color>
                <colorMode>normal</colorMode>
                <width>4</width>
            </LineStyle>
        </Style>
        <Style id="68414">
            <LineStyle id="68415">
                <color>ff356615</color>
                <colorMode>normal</colorMode>
                <width>4</width>
            </LineStyle>
        </Style>
        <Style id="68418">
            <LineStyle id="68419">
                <color>ff356615</color>
                <colorMode>normal</colorMode>
                <width>4</width>
            </LineStyle>
        </Style>
        <Style id="68422">
            <LineStyle id="68423">
                <color>ff356615</color>
                <colorMode>normal</colorMode>
                <width>4</width>
            </LineStyle>
        </Style>
        <Style id="68426">
            <LineStyle id="68427">
                <color>ff356615</color>
                <colorMode>normal</colorMode>
                <width>4</width>
            </LineStyle>
        </Style>
        <Style id="68430">
            <LineStyle id="68431">
                <color>ff356615</color>
                <colorMode>normal</colorMode>
                <width>4</width>
            </LineStyle>
        </Style>
        <Style id="68434">
            <LineStyle id="68435">
                <color>ff356615</color>
                <colorMode>normal</colorMode>
                <width>4</width>
            </LineStyle>
        </Style>
        <Style id="68438">
            <LineStyle id="68439">
                <color>ff356615</color>
                <colorMode>normal</colorMode>
                <width>4</width>
            </LineStyle>
        </Style>
        <Style id="68442">
            <LineStyle id="68443">
                <color>ff356615</color>
                <colorMode>normal</colorMode>
                <width>4</width>
            </LineStyle>
        </Style>
        <Style id="68446">
            <LineStyle id="68447">
                <color>ff356615</color>
                <colorMode>normal</colorMode>
                <width>4</width>
            </LineStyle>
        </Style>
        <Style id="68450">
            <LineStyle id="68451">
                <color>ff356615</color>
                <colorMode>normal</colorMode>
                <width>4</width>
            </LineStyle>
        </Style>
        <Style id="68454">
            <LineStyle id="68455">
                <color>ff356615</color>
                <colorMode>normal</colorMode>
                <width>4</width>
            </LineStyle>
        </Style>
        <Style id="68458">
            <LineStyle id="68459">
                <color>ff356615</color>
                <colorMode>normal</colorMode>
                <width>4</width>
            </LineStyle>
        </Style>
        <Style id="68462">
            <LineStyle id="68463">
                <color>ff356615</color>
                <colorMode>normal</colorMode>
                <width>4</width>
            </LineStyle>
        </Style>
        <Style id="68466">
            <LineStyle id="68467">
                <color>ff356615</color>
                <colorMode>normal</colorMode>
                <width>4</width>
            </LineStyle>
        </Style>
        <Style id="68470">
            <LineStyle id="68471">
                <color>ff356615</color>
                <colorMode>normal</colorMode>
                <width>4</width>
            </LineStyle>
        </Style>
        <Style id="68474">
            <LineStyle id="68475">
                <color>ff356615</color>
                <colorMode>normal</colorMode>
                <width>4</width>
            </LineStyle>
        </Style>
        <Style id="68478">
            <LineStyle id="68479">
                <color>ff356615</color>
                <colorMode>normal</colorMode>
                <width>4</width>
            </LineStyle>
        </Style>
        <Style id="68482">
            <LineStyle id="68483">
                <color>ff356615</color>
                <colorMode>normal</colorMode>
                <width>4</width>
            </LineStyle>
        </Style>
        <Style id="68486">
            <LineStyle id="68487">
                <color>ff356615</color>
                <colorMode>normal</colorMode>
                <width>4</width>
            </LineStyle>
        </Style>
        <Style id="68490">
            <LineStyle id="68491">
                <color>ff356615</color>
                <colorMode>normal</colorMode>
                <width>4</width>
            </LineStyle>
        </Style>
        <Style id="68494">
            <LineStyle id="68495">
                <color>ff356615</color>
                <colorMode>normal</colorMode>
                <width>4</width>
            </LineStyle>
        </Style>
        <Style id="68498">
            <LineStyle id="68499">
                <color>ff356615</color>
                <colorMode>normal</colorMode>
                <width>4</width>
            </LineStyle>
        </Style>
        <Style id="68502">
            <LineStyle id="68503">
                <color>ff356615</color>
                <colorMode>normal</colorMode>
                <width>4</width>
            </LineStyle>
        </Style>
        <Style id="68506">
            <LineStyle id="68507">
                <color>ff356615</color>
                <colorMode>normal</colorMode>
                <width>4</width>
            </LineStyle>
        </Style>
        <Style id="68510">
            <LineStyle id="68511">
                <color>ff356615</color>
                <colorMode>normal</colorMode>
                <width>4</width>
            </LineStyle>
        </Style>
        <Style id="68514">
            <LineStyle id="68515">
                <color>ff356615</color>
                <colorMode>normal</colorMode>
                <width>4</width>
            </LineStyle>
        </Style>
        <Style id="68518">
            <LineStyle id="68519">
                <color>ff356615</color>
                <colorMode>normal</colorMode>
                <width>4</width>
            </LineStyle>
        </Style>
        <Style id="68522">
            <LineStyle id="68523">
                <color>ff356615</color>
                <colorMode>normal</colorMode>
                <width>4</width>
            </LineStyle>
        </Style>
        <Style id="68526">
            <LineStyle id="68527">
                <color>ff356615</color>
                <colorMode>normal</colorMode>
                <width>4</width>
            </LineStyle>
        </Style>
        <Style id="68530">
            <LineStyle id="68531">
                <color>ff356615</color>
                <colorMode>normal</colorMode>
                <width>4</width>
            </LineStyle>
        </Style>
        <Style id="68534">
            <LineStyle id="68535">
                <color>ff356615</color>
                <colorMode>normal</colorMode>
                <width>4</width>
            </LineStyle>
        </Style>
        <Style id="68538">
            <LineStyle id="68539">
                <color>ff356615</color>
                <colorMode>normal</colorMode>
                <width>4</width>
            </LineStyle>
        </Style>
        <Style id="68542">
            <LineStyle id="68543">
                <color>ff356615</color>
                <colorMode>normal</colorMode>
                <width>4</width>
            </LineStyle>
        </Style>
        <Style id="68546">
            <LineStyle id="68547">
                <color>ff356615</color>
                <colorMode>normal</colorMode>
                <width>4</width>
            </LineStyle>
        </Style>
        <Style id="68550">
            <LineStyle id="68551">
                <color>ff356615</color>
                <colorMode>normal</colorMode>
                <width>4</width>
            </LineStyle>
        </Style>
        <Style id="68554">
            <LineStyle id="68555">
                <color>ff356615</color>
                <colorMode>normal</colorMode>
                <width>4</width>
            </LineStyle>
        </Style>
        <ExtendedData>
            <Data name="route-name">
                <value>918: Stasiun Hall → Cimahi</value>
            </Data>
            <Data name="source">
                <value>Transport for Bandung</value>
            </Data>
        </ExtendedData>
        <Placemark id="68131">
            <name>Stasiun Hall</name>
            <styleUrl>#68132</styleUrl>
            <Point id="68130">
                <coordinates>107.6024325,-6.9161432,0.0</coordinates>
            </Point>
        </Placemark>
        <Placemark id="68136">
            <name>Pasar Antri</name>
            <styleUrl>#68137</styleUrl>
            <Point id="68135">
                <coordinates>107.5379919,-6.8807505,0.0</coordinates>
            </Point>
        </Placemark>
        <Placemark id="68141">
            <name>Jalan Kebon Kawung</name>
            <styleUrl>#68142</styleUrl>
            <LineString id="68140">
                <coordinates>107.5982527,-6.912368,0.0 107.5981735,-6.9123668,0.0 107.5980964,-6.9123486,0.0 107.5980334,-6.9123085,0.0 107.5979805,-6.912262,0.0</coordinates>
            </LineString>
        </Placemark>
        <Placemark id="68145">
            <name>Jalan Kebon Kawung</name>
            <styleUrl>#68146</styleUrl>
            <LineString id="68144">
                <coordinates>107.6019305,-6.9125353,0.0 107.601745,-6.9125245,0.0</coordinates>
            </LineString>
        </Placemark>
        <Placemark id="68149">
            <name>Jalan Jendral Sudirman</name>
            <styleUrl>#68150</styleUrl>
            <LineString id="68148">
                <coordinates>107.5741991,-6.9172935,0.0 107.5741057,-6.9172433,0.0 107.5739928,-6.9171937,0.0 107.5739676,-6.9171826,0.0 107.5739351,-6.917172,0.0 107.5737577,-6.9170672,0.0 107.57361,-6.916953,0.0 107.5735023,-6.9168687,0.0 107.5731624,-6.916607,0.0 107.5730285,-6.9164995,0.0 107.5725721,-6.916133,0.0</coordinates>
            </LineString>
        </Placemark>
        <Placemark id="68153">
            <name>Jalan Aruna</name>
            <styleUrl>#68154</styleUrl>
            <LineString id="68152">
                <coordinates>107.5894511,-6.9112342,0.0 107.5891899,-6.9105353,0.0 107.5885406,-6.9088993,0.0 107.5884207,-6.9086068,0.0 107.5883107,-6.9083352,0.0 107.5883022,-6.9083129,0.0 107.5882157,-6.908086,0.0 107.5879895,-6.9075052,0.0 107.587786,-6.907013,0.0</coordinates>
            </LineString>
        </Placemark>
        <Placemark id="68157">
            <name>Jalan Stasiun Timur</name>
            <styleUrl>#68158</styleUrl>
            <LineString id="68156">
                <coordinates>107.6045889,-6.9148224,0.0 107.6045944,-6.9147921,0.0 107.6046031,-6.9147807,0.0 107.6046151,-6.914765,0.0 107.6046317,-6.9147543,0.0 107.6046427,-6.9147472,0.0 107.6046716,-6.9147379,0.0 107.6047205,-6.914736,0.0 107.6053917,-6.9148138,0.0 107.6063544,-6.9149336,0.0 107.6064066,-6.9149399,0.0</coordinates>
            </LineString>
        </Placemark>
        <Placemark id="68161">
            <name>Jalan Otto Iskandardinata</name>
            <styleUrl>#68162</styleUrl>
            <LineString id="68160">
                <coordinates>107.604546,-6.9153572,0.0 107.6045814,-6.9149387,0.0 107.6045889,-6.9148224,0.0</coordinates>
            </LineString>
        </Placemark>
        <Placemark id="68165">
            <name>Jalan Gedung Empat</name>
            <styleUrl>#68166</styleUrl>
            <LineString id="68164">
                <coordinates>107.5429927,-6.8805087,0.0 107.5427079,-6.880374,0.0 107.5426354,-6.8803397,0.0 107.542425,-6.8802474,0.0 107.5421995,-6.8801488,0.0 107.5420171,-6.8800697,0.0 107.5417036,-6.8799337,0.0 107.5411346,-6.8796867,0.0 107.54109,-6.8796691,0.0 107.5406962,-6.8794988,0.0 107.540645,-6.8794767,0.0 107.5405892,-6.8794522,0.0 107.540539,-6.8794301,0.0</coordinates>
            </LineString>
        </Placemark>
        <Placemark id="68169">
            <name>Jalan Pajajaran</name>
            <styleUrl>#68170</styleUrl>
            <LineString id="68168">
                <coordinates>107.5975328,-6.9064531,0.0 107.5972812,-6.9064634,0.0 107.5971648,-6.9064676,0.0 107.5970224,-6.9064779,0.0 107.5968205,-6.9064928,0.0</coordinates>
            </LineString>
        </Placemark>
        <Placemark id="68173">
            <name>Jalan HOS. Cokroaminoto</name>
            <styleUrl>#68174</styleUrl>
            <LineString id="68172">
                <coordinates>107.5976288,-6.9073749,0.0 107.5975909,-6.9072507,0.0 107.597581,-6.9071682,0.0 107.5975322,-6.9065723,0.0 107.5975328,-6.9064531,0.0</coordinates>
            </LineString>
        </Placemark>
        <Placemark id="68177">
            <name>Jalan Kebon Kawung</name>
            <styleUrl>#68178</styleUrl>
            <LineString id="68176">
                <coordinates>107.6041426,-6.9127091,0.0 107.603885,-6.9126611,0.0</coordinates>
            </LineString>
        </Placemark>
        <Placemark id="68181">
            <name>Jalan Gedung Empat</name>
            <styleUrl>#68182</styleUrl>
            <LineString id="68180">
                <coordinates>107.5432961,-6.8803887,0.0 107.5432343,-6.8804621,0.0 107.5432089,-6.8804808,0.0 107.5431878,-6.8804948,0.0 107.5431612,-6.8805057,0.0 107.5431246,-6.8805142,0.0 107.5430651,-6.8805146,0.0 107.5429927,-6.8805087,0.0</coordinates>
            </LineString>
        </Placemark>
        <Placemark id="68185">
            <name>Jalan HOS. Cokroaminoto</name>
            <styleUrl>#68186</styleUrl>
            <LineString id="68184">
                <coordinates>107.5979469,-6.9117824,0.0 107.5979313,-6.9116207,0.0</coordinates>
            </LineString>
        </Placemark>
        <Placemark id="68189">
            <name>Jalan Garuda</name>
            <styleUrl>#68190</styleUrl>
            <LineString id="68188">
                <coordinates>107.5783486,-6.9103499,0.0 107.5782065,-6.910981,0.0 107.5781807,-6.9110965,0.0 107.5780214,-6.9117553,0.0</coordinates>
            </LineString>
        </Placemark>
        <Placemark id="68193">
            <name>Jalan Jend. H. Amir Machmud</name>
            <styleUrl>#68194</styleUrl>
            <LineString id="68192">
                <coordinates>107.5619186,-6.8987547,0.0 107.561722,-6.8984577,0.0 107.5612358,-6.8977129,0.0 107.5609323,-6.8972252,0.0</coordinates>
            </LineString>
        </Placemark>
        <Placemark id="68197">
            <name>Jalan Garuda</name>
            <styleUrl>#68198</styleUrl>
            <LineString id="68196">
                <coordinates>107.5790983,-6.9081626,0.0 107.5790187,-6.908286,0.0 107.5789712,-6.9083703,0.0 107.5789311,-6.9084452,0.0 107.578906,-6.908499,0.0 107.5788645,-6.9086014,0.0 107.5788205,-6.9087197,0.0 107.57878,-6.9088565,0.0 107.5787249,-6.9090819,0.0 107.57866,-6.9093468,0.0 107.5786212,-6.9095084,0.0 107.5785977,-6.9096065,0.0 107.5785672,-6.9097317,0.0 107.5785295,-6.9098609,0.0 107.5784607,-6.9100841,0.0 107.5783486,-6.9103499,0.0</coordinates>
            </LineString>
        </Placemark>
        <Placemark id="68201">
            <name>Jalan Suniaraja</name>
            <styleUrl>#68202</styleUrl>
            <LineString id="68200">
                <coordinates>107.6027081,-6.91612,0.0 107.6031079,-6.9160834,0.0</coordinates>
            </LineString>
        </Placemark>
        <Placemark id="68205">
            <name>Jalan Suniaraja</name>
            <styleUrl>#68206</styleUrl>
            <LineString id="68204">
                <coordinates>107.6024325,-6.9161432,0.0 107.6025481,-6.9161309,0.0 107.6027081,-6.91612,0.0</coordinates>
            </LineString>
        </Placemark>
        <Placemark id="68209">
            <name>Jalan Jendral Sudirman</name>
            <styleUrl>#68210</styleUrl>
            <LineString id="68208">
                <coordinates>107.5766159,-6.9175515,0.0 107.5762592,-6.9175155,0.0 107.5760342,-6.9174893,0.0 107.5757932,-6.9174613,0.0 107.5756139,-6.9174409,0.0 107.5754537,-6.9174221,0.0 107.5751233,-6.9173833,0.0 107.5750142,-6.9173706,0.0 107.5747901,-6.9173287,0.0 107.5747047,-6.9173134,0.0 107.5746765,-6.9173067,0.0 107.5745601,-6.9172787,0.0</coordinates>
            </LineString>
        </Placemark>
        <Placemark id="68213">
            <name>Jalan Garuda</name>
            <styleUrl>#68214</styleUrl>
            <LineString id="68212">
                <coordinates>107.5776073,-6.9136496,0.0 107.5774382,-6.9143939,0.0 107.5772255,-6.9153302,0.0 107.5771848,-6.9155032,0.0 107.5771079,-6.9158293,0.0 107.5770623,-6.916012,0.0 107.5770472,-6.9160725,0.0 107.5770267,-6.9161661,0.0 107.5768707,-6.91682,0.0 107.5768513,-6.9168985,0.0 107.5768101,-6.9171039,0.0 107.5767538,-6.9173844,0.0</coordinates>
            </LineString>
        </Placemark>
        <Placemark id="68217">
            <name>Jalan Perintis Kemerdekaan</name>
            <styleUrl>#68218</styleUrl>
            <LineString id="68216">
                <coordinates>107.6070945,-6.9151362,0.0 107.6071194,-6.9149776,0.0 107.6071865,-6.9145473,0.0 107.6071931,-6.9145156,0.0</coordinates>
            </LineString>
        </Placemark>
        <Placemark id="68221">
            <name>Jalan Ciroyom</name>
            <styleUrl>#68222</styleUrl>
            <LineString id="68220">
                <coordinates>107.5834264,-6.911033,0.0 107.5832037,-6.9108829,0.0 107.5831698,-6.9108601,0.0 107.5826513,-6.9105104,0.0 107.5821809,-6.9101938,0.0 107.5816797,-6.9098712,0.0 107.5815439,-6.9097842,0.0 107.5813924,-6.9096894,0.0 107.5811508,-6.9095295,0.0 107.5810967,-6.9094937,0.0 107.5810602,-6.9094696,0.0 107.5799006,-6.9086849,0.0 107.5794756,-6.9083983,0.0 107.5794427,-6.9083767,0.0 107.5792165,-6.9082306,0.0 107.5791712,-6.9082041,0.0 107.5791303,-6.9081795,0.0 107.5791236,-6.908176,0.0 107.5790983,-6.9081626,0.0</coordinates>
            </LineString>
        </Placemark>
        <Placemark id="68225">
            <name>Jalan Ciroyom</name>
            <styleUrl>#68226</styleUrl>
            <LineString id="68224">
                <coordinates>107.5858255,-6.912692,0.0 107.5857994,-6.912677,0.0 107.5857541,-6.912651,0.0 107.5857253,-6.9126318,0.0 107.584839,-6.912027,0.0 107.5845003,-6.911786,0.0 107.5839364,-6.9113821,0.0 107.5838485,-6.9113187,0.0 107.5834264,-6.911033,0.0</coordinates>
            </LineString>
        </Placemark>
        <Placemark id="68229">
            <name>Jalan HOS. Cokroaminoto</name>
            <styleUrl>#68230</styleUrl>
            <LineString id="68228">
                <coordinates>107.5979313,-6.9116207,0.0 107.5979188,-6.9114098,0.0 107.5978086,-6.909947,0.0 107.5978015,-6.9098566,0.0 107.5977774,-6.9094546,0.0 107.5977427,-6.9089045,0.0 107.5976909,-6.9082042,0.0 107.5976849,-6.9081059,0.0 107.5976772,-6.9080121,0.0 107.5976288,-6.9073749,0.0</coordinates>
            </LineString>
        </Placemark>
        <Placemark id="68233">
            <name>Jalan HOS. Cokroaminoto</name>
            <styleUrl>#68234</styleUrl>
            <LineString id="68232">
                <coordinates>107.5979805,-6.912262,0.0 107.5979469,-6.9117824,0.0</coordinates>
            </LineString>
        </Placemark>
        <Placemark id="68237">
            <name>Jalan Jendral Sudirman</name>
            <styleUrl>#68238</styleUrl>
            <LineString id="68236">
                <coordinates>107.5708773,-6.9135594,0.0 107.5707008,-6.9132508,0.0 107.5705747,-6.9130517,0.0 107.5703429,-6.9126894,0.0</coordinates>
            </LineString>
        </Placemark>
        <Placemark id="68241">
            <name>Jalan Kebon Jukut</name>
            <styleUrl>#68242</styleUrl>
            <LineString id="68240">
                <coordinates>107.6046031,-6.9144539,0.0 107.6046132,-6.9144687,0.0 107.6046449,-6.9144848,0.0 107.606675,-6.9147337,0.0 107.606787,-6.9147395,0.0 107.6068501,-6.9147298,0.0 107.6069016,-6.9147011,0.0 107.6069388,-6.9146561,0.0 107.606975,-6.9145811,0.0</coordinates>
            </LineString>
        </Placemark>
        <Placemark id="68245">
            <name>Jalan Jend. H. Amir Machmud</name>
            <styleUrl>#68246</styleUrl>
            <LineString id="68244">
                <coordinates>107.5584996,-6.89319,0.0 107.5583845,-6.8929942,0.0 107.5582968,-6.8928484,0.0 107.5582471,-6.892759,0.0 107.558126,-6.8925411,0.0 107.5580399,-6.8924036,0.0 107.5580255,-6.8923792,0.0 107.5579997,-6.8923353,0.0 107.5578961,-6.8921589,0.0 107.557751,-6.8919043,0.0 107.5575682,-6.8915839,0.0 107.557194,-6.8909422,0.0 107.5571049,-6.8907999,0.0 107.5566781,-6.8901125,0.0 107.5566284,-6.8900246,0.0 107.556216,-6.8893169,0.0 107.5561597,-6.8892257,0.0 107.5561065,-6.8891389,0.0 107.5556898,-6.8884357,0.0 107.5556524,-6.888377,0.0</coordinates>
            </LineString>
        </Placemark>
        <Placemark id="68249">
            <name>Jalan Gedung Empat</name>
            <styleUrl>#68250</styleUrl>
            <LineString id="68248">
                <coordinates>107.540539,-6.8794301,0.0 107.5402889,-6.8793189,0.0 107.5401392,-6.8792514,0.0</coordinates>
            </LineString>
        </Placemark>
        <Placemark id="68253">
            <name>Jalan Gatot Subroto</name>
            <styleUrl>#68254</styleUrl>
            <LineString id="68252">
                <coordinates>107.5444652,-6.8783241,0.0 107.544451,-6.8783866,0.0 107.5443515,-6.8785233,0.0 107.5443133,-6.8785759,0.0 107.5441059,-6.8788685,0.0 107.5440248,-6.8789876,0.0 107.5439242,-6.8791339,0.0 107.5438905,-6.8791833,0.0 107.5438142,-6.8792937,0.0 107.5437554,-6.8793795,0.0 107.5437169,-6.8794368,0.0 107.543657,-6.8795243,0.0 107.5434841,-6.879778,0.0 107.5434454,-6.8798383,0.0 107.5433605,-6.8799929,0.0 107.5433193,-6.8801087,0.0 107.5432942,-6.8802472,0.0 107.5432923,-6.8803212,0.0 107.5432961,-6.8803887,0.0</coordinates>
            </LineString>
        </Placemark>
        <Placemark id="68257">
            <name>Jalan Sisingamangaraja</name>
            <styleUrl>#68258</styleUrl>
            <LineString id="68256">
                <coordinates>107.5398287,-6.8791606,0.0 107.5397533,-6.8791348,0.0 107.5395016,-6.8790697,0.0 107.5391401,-6.8789747,0.0 107.5391126,-6.8789597,0.0 107.5390937,-6.8789402,0.0</coordinates>
            </LineString>
        </Placemark>
        <Placemark id="68261">
            <name>Jalan Jend. H. Amir Machmud</name>
            <styleUrl>#68262</styleUrl>
            <LineString id="68260">
                <coordinates>107.5605385,-6.8965689,0.0 107.5604549,-6.8964301,0.0 107.5604095,-6.8963547,0.0</coordinates>
            </LineString>
        </Placemark>
        <Placemark id="68265">
            <name>Route Segment</name>
            <styleUrl>#68266</styleUrl>
            <LineString id="68264">
                <coordinates>107.5390937,-6.8789402,0.0 107.5390857,-6.8789467,0.0 107.5390744,-6.8789553,0.0 107.5390292,-6.8789871,0.0 107.5388206,-6.8790968,0.0 107.5385827,-6.8792246,0.0 107.5382603,-6.8794896,0.0 107.5381814,-6.8795544,0.0</coordinates>
            </LineString>
        </Placemark>
        <Placemark id="68269">
            <name>Jalan Jend. H. Amir Machmud</name>
            <styleUrl>#68270</styleUrl>
            <LineString id="68268">
                <coordinates>107.5600306,-6.895741,0.0 107.5598314,-6.8954093,0.0 107.5597806,-6.8953192,0.0 107.5597514,-6.895268,0.0 107.5597097,-6.8952017,0.0 107.5596795,-6.8951484,0.0 107.5595504,-6.8949421,0.0 107.5594638,-6.8948057,0.0 107.5592798,-6.8945128,0.0 107.5590928,-6.8942163,0.0 107.5589968,-6.8940554,0.0 107.5588448,-6.8937845,0.0 107.5586991,-6.8935235,0.0</coordinates>
            </LineString>
        </Placemark>
        <Placemark id="68273">
            <name>Jalan Jend. H. Amir Machmud</name>
            <styleUrl>#68274</styleUrl>
            <LineString id="68272">
                <coordinates>107.5470087,-6.8765884,0.0 107.5468201,-6.8764737,0.0 107.5462018,-6.8760976,0.0 107.5461771,-6.8760913,0.0 107.5461516,-6.8760916,0.0 107.546127,-6.8760985,0.0 107.5461059,-6.8761108,0.0 107.5460886,-6.8761279,0.0 107.546043,-6.8761965,0.0 107.5459671,-6.8762377,0.0</coordinates>
            </LineString>
        </Placemark>
        <Placemark id="68277">
            <name>Jalan Sisingamangaraja</name>
            <styleUrl>#68278</styleUrl>
            <LineString id="68276">
                <coordinates>107.5401392,-6.8792514,0.0 107.5400738,-6.8792366,0.0 107.5400159,-6.8792246,0.0</coordinates>
            </LineString>
        </Placemark>
        <Placemark id="68281">
            <name>Route Segment</name>
            <styleUrl>#68282</styleUrl>
            <LineString id="68280">
                <coordinates>107.5374857,-6.8801763,0.0 107.5379919,-6.8807505,0.0</coordinates>
            </LineString>
        </Placemark>
        <Placemark id="68285">
            <name>Jalan Jend. H. Amir Machmud</name>
            <styleUrl>#68286</styleUrl>
            <LineString id="68284">
                <coordinates>107.5471213,-6.876653,0.0 107.5470087,-6.8765884,0.0</coordinates>
            </LineString>
        </Placemark>
        <Placemark id="68289">
            <name>Jalan Jend. H. Amir Machmud</name>
            <styleUrl>#68290</styleUrl>
            <LineString id="68288">
                <coordinates>107.548903,-6.8778074,0.0 107.548341,-6.8774399,0.0 107.54804,-6.8772387,0.0 107.5479168,-6.8771586,0.0 107.5474888,-6.8768836,0.0 107.5471213,-6.876653,0.0</coordinates>
            </LineString>
        </Placemark>
        <Placemark id="68293">
            <name>Jalan Pajajaran</name>
            <styleUrl>#68294</styleUrl>
            <LineString id="68292">
                <coordinates>107.5959262,-6.9065893,0.0 107.5952568,-6.9066609,0.0 107.595037,-6.9066943,0.0 107.5945793,-6.9067595,0.0 107.5945435,-6.9067649,0.0 107.5942472,-6.906822,0.0 107.5941987,-6.9068309,0.0 107.594084,-6.9068527,0.0 107.5937537,-6.9069123,0.0 107.5936226,-6.9069359,0.0 107.5930436,-6.9070358,0.0</coordinates>
            </LineString>
        </Placemark>
        <Placemark id="68297">
            <name>Jalan Pajajaran</name>
            <styleUrl>#68298</styleUrl>
            <LineString id="68296">
                <coordinates>107.5920701,-6.9071489,0.0 107.5918373,-6.9071242,0.0 107.5916612,-6.9071113,0.0 107.5915994,-6.9071068,0.0 107.5913085,-6.9070897,0.0 107.5911224,-6.9070825,0.0</coordinates>
            </LineString>
        </Placemark>
        <Placemark id="68301">
            <name>Jalan Pajajaran</name>
            <styleUrl>#68302</styleUrl>
            <LineString id="68300">
                <coordinates>107.5906383,-6.9070791,0.0 107.5904897,-6.9070683,0.0 107.5902528,-6.9070511,0.0 107.5892287,-6.9069531,0.0 107.5890575,-6.9069317,0.0 107.5889568,-6.9069197,0.0 107.5888977,-6.9069111,0.0 107.5887781,-6.9068994,0.0 107.5886037,-6.906884,0.0 107.5883918,-6.9068594,0.0 107.588209,-6.9068423,0.0</coordinates>
            </LineString>
        </Placemark>
        <Placemark id="68305">
            <name>Jalan Jendral Sudirman</name>
            <styleUrl>#68306</styleUrl>
            <LineString id="68304">
                <coordinates>107.5698951,-6.9119365,0.0 107.5697893,-6.9117669,0.0 107.569777,-6.9117459,0.0 107.5696479,-6.9115248,0.0 107.5696333,-6.9115004,0.0 107.569579,-6.9114097,0.0 107.5692741,-6.9108999,0.0 107.5691136,-6.9106315,0.0 107.5689887,-6.9104164,0.0</coordinates>
            </LineString>
        </Placemark>
        <Placemark id="68309">
            <name>Jalan Jend. H. Amir Machmud</name>
            <styleUrl>#68310</styleUrl>
            <LineString id="68308">
                <coordinates>107.5586991,-6.8935235,0.0 107.5586896,-6.8935077,0.0</coordinates>
            </LineString>
        </Placemark>
        <Placemark id="68313">
            <name>Jalan Jend. H. Amir Machmud</name>
            <styleUrl>#68314</styleUrl>
            <LineString id="68312">
                <coordinates>107.5586388,-6.8934232,0.0 107.5584996,-6.89319,0.0</coordinates>
            </LineString>
        </Placemark>
        <Placemark id="68317">
            <name>Jalan Jendral Sudirman</name>
            <styleUrl>#68318</styleUrl>
            <LineString id="68316">
                <coordinates>107.5715151,-6.9146659,0.0 107.5714243,-6.9145091,0.0 107.571384,-6.9144417,0.0 107.5710851,-6.913941,0.0 107.5709375,-6.9136862,0.0 107.5708773,-6.9135594,0.0</coordinates>
            </LineString>
        </Placemark>
        <Placemark id="68321">
            <name>Jalan Jend. H. Amir Machmud</name>
            <styleUrl>#68322</styleUrl>
            <LineString id="68320">
                <coordinates>107.5532991,-6.8845055,0.0 107.5532758,-6.8844655,0.0 107.5532307,-6.8843827,0.0 107.5531006,-6.8841655,0.0 107.5529605,-6.8839307,0.0 107.5529416,-6.883899,0.0 107.5528472,-6.8837408,0.0 107.5527794,-6.8836271,0.0 107.5527092,-6.8835093,0.0 107.5526121,-6.8833467,0.0 107.5525863,-6.8833033,0.0 107.5524109,-6.8830094,0.0 107.5522959,-6.8828167,0.0 107.5522386,-6.8827206,0.0 107.5521505,-6.8825808,0.0 107.5520864,-6.8824613,0.0 107.5519526,-6.8822389,0.0 107.5518285,-6.882035,0.0 107.5516065,-6.8816734,0.0 107.5515108,-6.8815261,0.0 107.5513286,-6.8812206,0.0 107.5513112,-6.8811893,0.0 107.5510818,-6.8808273,0.0 107.5510407,-6.8807588,0.0 107.5509549,-6.8806153,0.0 107.5507239,-6.8802572,0.0 107.550617,-6.8800913,0.0 107.5505345,-6.8799545,0.0 107.5504164,-6.8797669,0.0 107.5503819,-6.8797123,0.0 107.5503366,-6.8796404,0.0 107.5501318,-6.8792963,0.0 107.5500491,-6.8791569,0.0 107.5499778,-6.8790409,0.0 107.5498734,-6.8788724,0.0 107.5498308,-6.8788036,0.0 107.549812,-6.8787698,0.0</coordinates>
            </LineString>
        </Placemark>
        <Placemark id="68325">
            <name>Jalan Jend. H. Amir Machmud</name>
            <styleUrl>#68326</styleUrl>
            <LineString id="68324">
                <coordinates>107.549812,-6.8787698,0.0 107.5497459,-6.8787214,0.0 107.5497311,-6.8787014,0.0 107.5496078,-6.8784837,0.0 107.5495062,-6.8783419,0.0 107.5493651,-6.8781649,0.0 107.5493436,-6.8781455,0.0</coordinates>
            </LineString>
        </Placemark>
        <Placemark id="68329">
            <name>Jalan Jend. H. Amir Machmud</name>
            <styleUrl>#68330</styleUrl>
            <LineString id="68328">
                <coordinates>107.565673,-6.9049534,0.0 107.5653296,-6.9043922,0.0 107.5651363,-6.9040727,0.0 107.5647726,-6.9034716,0.0 107.5647281,-6.9033981,0.0 107.5646958,-6.9033447,0.0 107.5644297,-6.902905,0.0 107.5643428,-6.9027614,0.0 107.5642879,-6.9026706,0.0 107.5639096,-6.9020454,0.0 107.5636843,-6.9016737,0.0 107.5636389,-6.901598,0.0 107.5635866,-6.9015056,0.0 107.5635485,-6.901452,0.0 107.5635096,-6.9013988,0.0 107.5633165,-6.9010686,0.0 107.5632168,-6.9009003,0.0 107.562808,-6.9002247,0.0 107.5626899,-6.9000295,0.0 107.5625298,-6.8997648,0.0 107.5622867,-6.899363,0.0 107.5622663,-6.8993293,0.0 107.5619186,-6.8987547,0.0</coordinates>
            </LineString>
        </Placemark>
        <Placemark id="68333">
            <name>Jalan Aceh</name>
            <styleUrl>#68334</styleUrl>
            <LineString id="68332">
                <coordinates>107.6041426,-6.9127091,0.0 107.604692,-6.9127619,0.0</coordinates>
            </LineString>
        </Placemark>
        <Placemark id="68337">
            <name>Jalan Pajajaran</name>
            <styleUrl>#68338</styleUrl>
            <LineString id="68336">
                <coordinates>107.5968205,-6.9064928,0.0 107.5966166,-6.906518,0.0 107.5964032,-6.9065473,0.0 107.5961119,-6.9066005,0.0 107.5960526,-6.9066041,0.0 107.5959951,-6.9065992,0.0 107.5959262,-6.9065893,0.0</coordinates>
            </LineString>
        </Placemark>
        <Placemark id="68341">
            <name>Jalan Stasiun Timur</name>
            <styleUrl>#68342</styleUrl>
            <LineString id="68340">
                <coordinates>107.606909,-6.9153005,0.0 107.6070035,-6.9152646,0.0 107.6070659,-6.9152151,0.0 107.6070945,-6.9151362,0.0</coordinates>
            </LineString>
        </Placemark>
        <Placemark id="68345">
            <name>Jalan Jend. H. Amir Machmud</name>
            <styleUrl>#68346</styleUrl>
            <LineString id="68344">
                <coordinates>107.549261,-6.8780613,0.0 107.5491797,-6.8780009,0.0 107.5490452,-6.8779037,0.0 107.548903,-6.8778074,0.0</coordinates>
            </LineString>
        </Placemark>
        <Placemark id="68349">
            <name>Jalan Jendral Sudirman</name>
            <styleUrl>#68350</styleUrl>
            <LineString id="68348">
                <coordinates>107.5703429,-6.9126894,0.0 107.5701276,-6.9123274,0.0 107.5698951,-6.9119365,0.0</coordinates>
            </LineString>
        </Placemark>
        <Placemark id="68353">
            <name>Jalan Aruna</name>
            <styleUrl>#68354</styleUrl>
            <LineString id="68352">
                <coordinates>107.5877897,-6.9068561,0.0 107.587786,-6.907013,0.0</coordinates>
            </LineString>
        </Placemark>
        <Placemark id="68357">
            <name>Jalan Pajajaran</name>
            <styleUrl>#68358</styleUrl>
            <LineString id="68356">
                <coordinates>107.5906641,-6.907081,0.0 107.5906383,-6.9070791,0.0</coordinates>
            </LineString>
        </Placemark>
        <Placemark id="68361">
            <name>Jalan Pajajaran</name>
            <styleUrl>#68362</styleUrl>
            <LineString id="68360">
                <coordinates>107.5911224,-6.9070825,0.0 107.5910022,-6.9071149,0.0 107.5906641,-6.907081,0.0</coordinates>
            </LineString>
        </Placemark>
        <Placemark id="68365">
            <name>Jalan Jend. H. Amir Machmud</name>
            <styleUrl>#68366</styleUrl>
            <LineString id="68364">
                <coordinates>107.5556524,-6.888377,0.0 107.5554234,-6.8880103,0.0 107.5552322,-6.8876864,0.0 107.5550315,-6.8873463,0.0 107.5548919,-6.8871098,0.0 107.5548167,-6.8869883,0.0 107.5546245,-6.8866774,0.0 107.5543949,-6.8863155,0.0 107.5541879,-6.8860004,0.0 107.5541319,-6.8859141,0.0 107.5540996,-6.8858644,0.0</coordinates>
            </LineString>
        </Placemark>
        <Placemark id="68369">
            <name>Jalan Jend. H. Amir Machmud</name>
            <styleUrl>#68370</styleUrl>
            <LineString id="68368">
                <coordinates>107.5540996,-6.8858644,0.0 107.5539786,-6.8856737,0.0 107.5538495,-6.8854676,0.0 107.5537567,-6.8853142,0.0 107.5536309,-6.8850994,0.0 107.5533096,-6.8845788,0.0 107.5532991,-6.8845055,0.0</coordinates>
            </LineString>
        </Placemark>
        <Placemark id="68373">
            <name>Jalan Jend. H. Amir Machmud</name>
            <styleUrl>#68374</styleUrl>
            <LineString id="68372">
                <coordinates>107.5493436,-6.8781455,0.0 107.549261,-6.8780613,0.0</coordinates>
            </LineString>
        </Placemark>
        <Placemark id="68377">
            <name>Jalan Gatot Subroto</name>
            <styleUrl>#68378</styleUrl>
            <LineString id="68376">
                <coordinates>107.5459671,-6.8762377,0.0 107.5458574,-6.8763919,0.0 107.545628,-6.8767142,0.0 107.5453107,-6.8771677,0.0 107.5452289,-6.8772766,0.0 107.5451738,-6.8773525,0.0 107.545096,-6.8774617,0.0 107.5444652,-6.8783241,0.0</coordinates>
            </LineString>
        </Placemark>
        <Placemark id="68381">
            <name>Bunderan Cibeureum</name>
            <styleUrl>#68382</styleUrl>
            <LineString id="68380">
                <coordinates>107.5745601,-6.9172787,0.0 107.5745248,-6.9173306,0.0 107.5744751,-6.9173693,0.0 107.5744159,-6.9173911,0.0</coordinates>
            </LineString>
        </Placemark>
        <Placemark id="68385">
            <name>Jalan Suniaraja</name>
            <styleUrl>#68386</styleUrl>
            <LineString id="68384">
                <coordinates>107.6031079,-6.9160834,0.0 107.60326,-6.9160638,0.0 107.6040403,-6.915928,0.0 107.6043695,-6.9158689,0.0 107.6045054,-6.9158364,0.0</coordinates>
            </LineString>
        </Placemark>
        <Placemark id="68389">
            <name>Jalan Otto Iskandardinata</name>
            <styleUrl>#68390</styleUrl>
            <LineString id="68388">
                <coordinates>107.6045054,-6.9158364,0.0 107.6045124,-6.9157548,0.0 107.6045273,-6.915589,0.0 107.604546,-6.9153572,0.0</coordinates>
            </LineString>
        </Placemark>
        <Placemark id="68393">
            <name>Route Segment</name>
            <styleUrl>#68394</styleUrl>
            <LineString id="68392">
                <coordinates>107.5381814,-6.8795544,0.0 107.53814,-6.8795884,0.0 107.5377405,-6.8799427,0.0 107.5374857,-6.8801763,0.0</coordinates>
            </LineString>
        </Placemark>
        <Placemark id="68397">
            <name>Jalan Sisingamangaraja</name>
            <styleUrl>#68398</styleUrl>
            <LineString id="68396">
                <coordinates>107.5400159,-6.8792246,0.0 107.5398935,-6.8791827,0.0 107.5398287,-6.8791606,0.0</coordinates>
            </LineString>
        </Placemark>
        <Placemark id="68401">
            <name>Jalan Jend. H. Amir Machmud</name>
            <styleUrl>#68402</styleUrl>
            <LineString id="68400">
                <coordinates>107.5586896,-6.8935077,0.0 107.5586388,-6.8934232,0.0</coordinates>
            </LineString>
        </Placemark>
        <Placemark id="68405">
            <name>Jalan Garuda</name>
            <styleUrl>#68406</styleUrl>
            <LineString id="68404">
                <coordinates>107.5767538,-6.9173844,0.0 107.5766836,-6.9174697,0.0</coordinates>
            </LineString>
        </Placemark>
        <Placemark id="68409">
            <name>Jalan Stasiun Timur</name>
            <styleUrl>#68410</styleUrl>
            <LineString id="68408">
                <coordinates>107.6064066,-6.9149399,0.0 107.6065239,-6.9149519,0.0 107.6066003,-6.9149924,0.0 107.6066521,-6.9150384,0.0 107.6067855,-6.9152656,0.0 107.6068306,-6.9152963,0.0 107.606909,-6.9153005,0.0</coordinates>
            </LineString>
        </Placemark>
        <Placemark id="68413">
            <name>Bunderan Cibeureum</name>
            <styleUrl>#68414</styleUrl>
            <LineString id="68412">
                <coordinates>107.5742937,-6.9173779,0.0 107.5742396,-6.9173432,0.0 107.5741991,-6.9172935,0.0</coordinates>
            </LineString>
        </Placemark>
        <Placemark id="68417">
            <name>Bunderan Cibeureum</name>
            <styleUrl>#68418</styleUrl>
            <LineString id="68416">
                <coordinates>107.5744159,-6.9173911,0.0 107.5743538,-6.9173939,0.0 107.5742937,-6.9173779,0.0</coordinates>
            </LineString>
        </Placemark>
        <Placemark id="68421">
            <name>Jalan Kebon Kawung</name>
            <styleUrl>#68422</styleUrl>
            <LineString id="68420">
                <coordinates>107.603885,-6.9126611,0.0 107.6038515,-6.9126567,0.0 107.6036069,-6.9126444,0.0 107.6032433,-6.9126176,0.0 107.6029824,-6.9125986,0.0 107.6029303,-6.9125954,0.0 107.6027169,-6.9125813,0.0 107.6024779,-6.9125651,0.0 107.6023535,-6.9125612,0.0 107.6022742,-6.9125566,0.0 107.6020122,-6.91254,0.0</coordinates>
            </LineString>
        </Placemark>
        <Placemark id="68425">
            <name>Jalan Kebon Kawung</name>
            <styleUrl>#68426</styleUrl>
            <LineString id="68424">
                <coordinates>107.6020122,-6.91254,0.0 107.6019305,-6.9125353,0.0</coordinates>
            </LineString>
        </Placemark>
        <Placemark id="68429">
            <name>Jalan Pajajaran</name>
            <styleUrl>#68430</styleUrl>
            <LineString id="68428">
                <coordinates>107.5930436,-6.9070358,0.0 107.592893,-6.9070548,0.0 107.5928538,-6.9070598,0.0 107.5926825,-6.9070846,0.0 107.5925401,-6.9070991,0.0 107.5923942,-6.9071118,0.0 107.592239,-6.9071272,0.0 107.5920701,-6.9071489,0.0</coordinates>
            </LineString>
        </Placemark>
        <Placemark id="68433">
            <name>Jalan Arjuna</name>
            <styleUrl>#68434</styleUrl>
            <LineString id="68432">
                <coordinates>107.5894771,-6.9112533,0.0 107.5894865,-6.9112733,0.0 107.5894871,-6.9112953,0.0 107.5894789,-6.9113158,0.0 107.5894633,-6.9113314,0.0</coordinates>
            </LineString>
        </Placemark>
        <Placemark id="68437">
            <name>Jalan Arjuna</name>
            <styleUrl>#68438</styleUrl>
            <LineString id="68436">
                <coordinates>107.5894511,-6.9112342,0.0 107.5894655,-6.9112418,0.0 107.5894771,-6.9112533,0.0</coordinates>
            </LineString>
        </Placemark>
        <Placemark id="68441">
            <name>Jalan Layang Ciroyom</name>
            <styleUrl>#68442</styleUrl>
            <LineString id="68440">
                <coordinates>107.5869574,-6.9132909,0.0 107.587254,-6.913434,0.0</coordinates>
            </LineString>
        </Placemark>
        <Placemark id="68445">
            <name>Jalan Layang Ciroyom</name>
            <styleUrl>#68446</styleUrl>
            <LineString id="68444">
                <coordinates>107.5893166,-6.9121005,0.0 107.5893455,-6.911919,0.0</coordinates>
            </LineString>
        </Placemark>
        <Placemark id="68449">
            <name>Jalan Layang Ciroyom</name>
            <styleUrl>#68450</styleUrl>
            <LineString id="68448">
                <coordinates>107.587254,-6.913434,0.0 107.588191,-6.9137939,0.0 107.588437,-6.9138722,0.0 107.5885401,-6.9138874,0.0 107.5886196,-6.9138868,0.0 107.588728,-6.9138625,0.0 107.5888188,-6.9138239,0.0 107.588893,-6.9137668,0.0 107.5889601,-6.9136911,0.0 107.5890025,-6.9136299,0.0 107.5890418,-6.9135555,0.0 107.5890796,-6.9134472,0.0 107.5890983,-6.9133449,0.0 107.5891155,-6.9132456,0.0 107.5893166,-6.9121005,0.0</coordinates>
            </LineString>
        </Placemark>
        <Placemark id="68453">
            <name>Jalan Garuda</name>
            <styleUrl>#68454</styleUrl>
            <LineString id="68452">
                <coordinates>107.5780214,-6.9117553,0.0 107.5780145,-6.9117904,0.0 107.578003,-6.9118487,0.0 107.5779564,-6.9120857,0.0 107.5779077,-6.9123395,0.0 107.5778207,-6.9127137,0.0 107.5778075,-6.9127704,0.0 107.5776241,-6.9135596,0.0 107.5776188,-6.9135881,0.0 107.5776073,-6.9136496,0.0</coordinates>
            </LineString>
        </Placemark>
        <Placemark id="68457">
            <name>Jalan Pajajaran</name>
            <styleUrl>#68458</styleUrl>
            <LineString id="68456">
                <coordinates>107.588209,-6.9068423,0.0 107.5881464,-6.9068364,0.0 107.5880555,-6.9068315,0.0 107.5879978,-6.9068303,0.0 107.5879768,-6.9068298,0.0 107.5879555,-6.9068304,0.0 107.5879312,-6.9068311,0.0 107.5878886,-6.9068344,0.0 107.5878356,-6.9068448,0.0 107.5877897,-6.9068561,0.0</coordinates>
            </LineString>
        </Placemark>
        <Placemark id="68461">
            <name>Jalan Kebon Jukut</name>
            <styleUrl>#68462</styleUrl>
            <LineString id="68460">
                <coordinates>107.6071931,-6.9145156,0.0 107.6071796,-6.9144917,0.0 107.6071622,-6.9144726,0.0 107.6071398,-6.9144595,0.0 107.6071185,-6.9144541,0.0 107.6070966,-6.9144542,0.0 107.6070754,-6.9144598,0.0 107.6070563,-6.9144706,0.0 107.606975,-6.9145811,0.0</coordinates>
            </LineString>
        </Placemark>
        <Placemark id="68465">
            <name>Route Segment</name>
            <styleUrl>#68466</styleUrl>
            <LineString id="68464">
                <coordinates>107.5766836,-6.9174697,0.0 107.5766159,-6.9175515,0.0</coordinates>
            </LineString>
        </Placemark>
        <Placemark id="68469">
            <name>Jalan Layang Ciroyom</name>
            <styleUrl>#68470</styleUrl>
            <LineString id="68468">
                <coordinates>107.5869574,-6.9132909,0.0 107.5867121,-6.9132166,0.0</coordinates>
            </LineString>
        </Placemark>
        <Placemark id="68473">
            <name>Jalan Layang Ciroyom</name>
            <styleUrl>#68474</styleUrl>
            <LineString id="68472">
                <coordinates>107.5894064,-6.9117422,0.0 107.5893455,-6.911919,0.0</coordinates>
            </LineString>
        </Placemark>
        <Placemark id="68477">
            <name>Jalan Arjuna</name>
            <styleUrl>#68478</styleUrl>
            <LineString id="68476">
                <coordinates>107.5894633,-6.9113314,0.0 107.5894584,-6.9114138,0.0 107.5894414,-6.9115309,0.0 107.5894278,-6.9116169,0.0 107.5894064,-6.9117422,0.0</coordinates>
            </LineString>
        </Placemark>
        <Placemark id="68481">
            <name>Jalan Otto Iskandardinata</name>
            <styleUrl>#68482</styleUrl>
            <LineString id="68480">
                <coordinates>107.604692,-6.9127619,0.0 107.6046613,-6.913176,0.0 107.6046522,-6.9133158,0.0 107.6046393,-6.9134886,0.0 107.6046306,-6.9136374,0.0 107.6046271,-6.9136785,0.0 107.604621,-6.9137727,0.0 107.6046177,-6.9138395,0.0 107.6046089,-6.913972,0.0 107.6045855,-6.9143581,0.0 107.6045878,-6.9143974,0.0 107.6045929,-6.9144391,0.0 107.6046031,-6.9144539,0.0</coordinates>
            </LineString>
        </Placemark>
        <Placemark id="68485">
            <name>Jalan Ciroyom</name>
            <styleUrl>#68486</styleUrl>
            <LineString id="68484">
                <coordinates>107.5860843,-6.9128486,0.0 107.5860324,-6.912814,0.0 107.5858255,-6.912692,0.0</coordinates>
            </LineString>
        </Placemark>
        <Placemark id="68489">
            <name>Jalan Jendral Sudirman</name>
            <styleUrl>#68490</styleUrl>
            <LineString id="68488">
                <coordinates>107.5725721,-6.916133,0.0 107.5723979,-6.9159874,0.0 107.5723395,-6.9159333,0.0 107.5722759,-6.9158629,0.0 107.5722121,-6.9157842,0.0 107.5721531,-6.915707,0.0 107.5720994,-6.9156231,0.0 107.5720549,-6.9155598,0.0 107.5719123,-6.9153326,0.0 107.5718695,-6.9152634,0.0 107.5717819,-6.9151024,0.0 107.5717255,-6.9150035,0.0 107.5715151,-6.9146659,0.0</coordinates>
            </LineString>
        </Placemark>
        <Placemark id="68493">
            <name>Jalan Jend. H. Amir Machmud</name>
            <styleUrl>#68494</styleUrl>
            <LineString id="68492">
                <coordinates>107.5603175,-6.8962042,0.0 107.5602833,-6.896152,0.0 107.5600306,-6.895741,0.0</coordinates>
            </LineString>
        </Placemark>
        <Placemark id="68497">
            <name>Jalan Jend. H. Amir Machmud</name>
            <styleUrl>#68498</styleUrl>
            <LineString id="68496">
                <coordinates>107.5609323,-6.8972252,0.0 107.5607448,-6.8969157,0.0 107.5606211,-6.896708,0.0 107.5605385,-6.8965689,0.0</coordinates>
            </LineString>
        </Placemark>
        <Placemark id="68501">
            <name>Jalan Jend. H. Amir Machmud</name>
            <styleUrl>#68502</styleUrl>
            <LineString id="68500">
                <coordinates>107.5604095,-6.8963547,0.0 107.5603175,-6.8962042,0.0</coordinates>
            </LineString>
        </Placemark>
        <Placemark id="68505">
            <name>Jalan Ciroyom</name>
            <styleUrl>#68506</styleUrl>
            <LineString id="68504">
                <coordinates>107.5867121,-6.9132166,0.0 107.586425,-6.9130541,0.0</coordinates>
            </LineString>
        </Placemark>
        <Placemark id="68509">
            <name>Jalan Ciroyom</name>
            <styleUrl>#68510</styleUrl>
            <LineString id="68508">
                <coordinates>107.586425,-6.9130541,0.0 107.5860843,-6.9128486,0.0</coordinates>
            </LineString>
        </Placemark>
        <Placemark id="68513">
            <name>Jalan Kebon Kawung</name>
            <styleUrl>#68514</styleUrl>
            <LineString id="68512">
                <coordinates>107.6006435,-6.9124749,0.0 107.6002224,-6.9124495,0.0</coordinates>
            </LineString>
        </Placemark>
        <Placemark id="68517">
            <name>Jalan Kebon Kawung</name>
            <styleUrl>#68518</styleUrl>
            <LineString id="68516">
                <coordinates>107.6002224,-6.9124495,0.0 107.6000202,-6.912439,0.0</coordinates>
            </LineString>
        </Placemark>
        <Placemark id="68521">
            <name>Jalan Kebon Kawung</name>
            <styleUrl>#68522</styleUrl>
            <LineString id="68520">
                <coordinates>107.6000202,-6.912439,0.0 107.5993874,-6.9123994,0.0</coordinates>
            </LineString>
        </Placemark>
        <Placemark id="68525">
            <name>Jalan Kebon Kawung</name>
            <styleUrl>#68526</styleUrl>
            <LineString id="68524">
                <coordinates>107.5993874,-6.9123994,0.0 107.5990408,-6.912374,0.0 107.5990132,-6.912372,0.0</coordinates>
            </LineString>
        </Placemark>
        <Placemark id="68529">
            <name>Jalan Kebon Kawung</name>
            <styleUrl>#68530</styleUrl>
            <LineString id="68528">
                <coordinates>107.5990132,-6.912372,0.0 107.5982527,-6.912368,0.0</coordinates>
            </LineString>
        </Placemark>
        <Placemark id="68533">
            <name>Jalan Kebon Kawung</name>
            <styleUrl>#68534</styleUrl>
            <LineString id="68532">
                <coordinates>107.601745,-6.9125245,0.0 107.601624,-6.9125174,0.0</coordinates>
            </LineString>
        </Placemark>
        <Placemark id="68537">
            <name>Jalan Kebon Kawung</name>
            <styleUrl>#68538</styleUrl>
            <LineString id="68536">
                <coordinates>107.601624,-6.9125174,0.0 107.6015636,-6.9125139,0.0</coordinates>
            </LineString>
        </Placemark>
        <Placemark id="68541">
            <name>Jalan Kebon Kawung</name>
            <styleUrl>#68542</styleUrl>
            <LineString id="68540">
                <coordinates>107.6015636,-6.9125139,0.0 107.6010547,-6.9124917,0.0</coordinates>
            </LineString>
        </Placemark>
        <Placemark id="68545">
            <name>Jalan Kebon Kawung</name>
            <styleUrl>#68546</styleUrl>
            <LineString id="68544">
                <coordinates>107.6010547,-6.9124917,0.0 107.6009674,-6.9124878,0.0</coordinates>
            </LineString>
        </Placemark>
        <Placemark id="68549">
            <name>Jalan Kebon Kawung</name>
            <styleUrl>#68550</styleUrl>
            <LineString id="68548">
                <coordinates>107.6009674,-6.9124878,0.0 107.6007223,-6.9124771,0.0 107.6006435,-6.9124749,0.0</coordinates>
            </LineString>
        </Placemark>
        <Placemark id="68553">
            <name>Jalan Jend. H. Amir Machmud</name>
            <styleUrl>#68554</styleUrl>
            <LineString id="68552">
                <coordinates>107.5689887,-6.9104164,0.0 107.5689617,-6.9103691,0.0 107.5688997,-6.9102637,0.0 107.5688731,-6.910217,0.0 107.5688157,-6.9101246,0.0 107.5686493,-6.9098587,0.0 107.5683186,-6.9093322,0.0 107.5676739,-6.9082679,0.0 107.5674722,-6.9079333,0.0 107.5673325,-6.9077024,0.0 107.5672438,-6.907556,0.0 107.5668478,-6.9069015,0.0 107.5666139,-6.9065148,0.0 107.5664877,-6.9063062,0.0 107.5663055,-6.9060051,0.0 107.5659443,-6.9054074,0.0 107.565924,-6.9053734,0.0 107.565673,-6.9049534,0.0</coordinates>
            </LineString>
        </Placemark>
    </Document>
</kml>
