<?xml version="1.0" encoding="UTF-8"?>
<kml xmlns="http://www.opengis.net/kml/2.2" xmlns:gx="http://www.google.com/kml/ext/2.2">
    <Document id="63851">
        <Style id="63857">
            <IconStyle id="63858">
                <colorMode>normal</colorMode>
                <scale>1</scale>
                <heading>0</heading>
                <Icon id="63859">
                    <href>http://maps.google.com/mapfiles/kml/pushpin/ylw-pushpin.png</href>
                </Icon>
            </IconStyle>
        </Style>
        <Style id="63862">
            <IconStyle id="63863">
                <colorMode>normal</colorMode>
                <scale>1</scale>
                <heading>0</heading>
                <Icon id="63864">
                    <href>http://maps.google.com/mapfiles/kml/pushpin/ylw-pushpin.png</href>
                </Icon>
            </IconStyle>
        </Style>
        <Style id="63867">
            <LineStyle id="63868">
                <color>ff4d660e</color>
                <colorMode>normal</colorMode>
                <width>4</width>
            </LineStyle>
        </Style>
        <Style id="63871">
            <LineStyle id="63872">
                <color>ff4d660e</color>
                <colorMode>normal</colorMode>
                <width>4</width>
            </LineStyle>
        </Style>
        <Style id="63875">
            <LineStyle id="63876">
                <color>ff4d660e</color>
                <colorMode>normal</colorMode>
                <width>4</width>
            </LineStyle>
        </Style>
        <Style id="63879">
            <LineStyle id="63880">
                <color>ff4d660e</color>
                <colorMode>normal</colorMode>
                <width>4</width>
            </LineStyle>
        </Style>
        <Style id="63883">
            <LineStyle id="63884">
                <color>ff4d660e</color>
                <colorMode>normal</colorMode>
                <width>4</width>
            </LineStyle>
        </Style>
        <Style id="63887">
            <LineStyle id="63888">
                <color>ff4d660e</color>
                <colorMode>normal</colorMode>
                <width>4</width>
            </LineStyle>
        </Style>
        <Style id="63891">
            <LineStyle id="63892">
                <color>ff4d660e</color>
                <colorMode>normal</colorMode>
                <width>4</width>
            </LineStyle>
        </Style>
        <Style id="63895">
            <LineStyle id="63896">
                <color>ff4d660e</color>
                <colorMode>normal</colorMode>
                <width>4</width>
            </LineStyle>
        </Style>
        <Style id="63899">
            <LineStyle id="63900">
                <color>ff4d660e</color>
                <colorMode>normal</colorMode>
                <width>4</width>
            </LineStyle>
        </Style>
        <Style id="63903">
            <LineStyle id="63904">
                <color>ff4d660e</color>
                <colorMode>normal</colorMode>
                <width>4</width>
            </LineStyle>
        </Style>
        <Style id="63907">
            <LineStyle id="63908">
                <color>ff4d660e</color>
                <colorMode>normal</colorMode>
                <width>4</width>
            </LineStyle>
        </Style>
        <Style id="63911">
            <LineStyle id="63912">
                <color>ff4d660e</color>
                <colorMode>normal</colorMode>
                <width>4</width>
            </LineStyle>
        </Style>
        <Style id="63915">
            <LineStyle id="63916">
                <color>ff4d660e</color>
                <colorMode>normal</colorMode>
                <width>4</width>
            </LineStyle>
        </Style>
        <Style id="63919">
            <LineStyle id="63920">
                <color>ff4d660e</color>
                <colorMode>normal</colorMode>
                <width>4</width>
            </LineStyle>
        </Style>
        <Style id="63923">
            <LineStyle id="63924">
                <color>ff4d660e</color>
                <colorMode>normal</colorMode>
                <width>4</width>
            </LineStyle>
        </Style>
        <Style id="63927">
            <LineStyle id="63928">
                <color>ff4d660e</color>
                <colorMode>normal</colorMode>
                <width>4</width>
            </LineStyle>
        </Style>
        <Style id="63931">
            <LineStyle id="63932">
                <color>ff4d660e</color>
                <colorMode>normal</colorMode>
                <width>4</width>
            </LineStyle>
        </Style>
        <Style id="63935">
            <LineStyle id="63936">
                <color>ff4d660e</color>
                <colorMode>normal</colorMode>
                <width>4</width>
            </LineStyle>
        </Style>
        <Style id="63939">
            <LineStyle id="63940">
                <color>ff4d660e</color>
                <colorMode>normal</colorMode>
                <width>4</width>
            </LineStyle>
        </Style>
        <Style id="63943">
            <LineStyle id="63944">
                <color>ff4d660e</color>
                <colorMode>normal</colorMode>
                <width>4</width>
            </LineStyle>
        </Style>
        <Style id="63947">
            <LineStyle id="63948">
                <color>ff4d660e</color>
                <colorMode>normal</colorMode>
                <width>4</width>
            </LineStyle>
        </Style>
        <Style id="63951">
            <LineStyle id="63952">
                <color>ff4d660e</color>
                <colorMode>normal</colorMode>
                <width>4</width>
            </LineStyle>
        </Style>
        <Style id="63955">
            <LineStyle id="63956">
                <color>ff4d660e</color>
                <colorMode>normal</colorMode>
                <width>4</width>
            </LineStyle>
        </Style>
        <Style id="63959">
            <LineStyle id="63960">
                <color>ff4d660e</color>
                <colorMode>normal</colorMode>
                <width>4</width>
            </LineStyle>
        </Style>
        <Style id="63963">
            <LineStyle id="63964">
                <color>ff4d660e</color>
                <colorMode>normal</colorMode>
                <width>4</width>
            </LineStyle>
        </Style>
        <Style id="63967">
            <LineStyle id="63968">
                <color>ff4d660e</color>
                <colorMode>normal</colorMode>
                <width>4</width>
            </LineStyle>
        </Style>
        <Style id="63971">
            <LineStyle id="63972">
                <color>ff4d660e</color>
                <colorMode>normal</colorMode>
                <width>4</width>
            </LineStyle>
        </Style>
        <Style id="63975">
            <LineStyle id="63976">
                <color>ff4d660e</color>
                <colorMode>normal</colorMode>
                <width>4</width>
            </LineStyle>
        </Style>
        <Style id="63979">
            <LineStyle id="63980">
                <color>ff4d660e</color>
                <colorMode>normal</colorMode>
                <width>4</width>
            </LineStyle>
        </Style>
        <Style id="63983">
            <LineStyle id="63984">
                <color>ff4d660e</color>
                <colorMode>normal</colorMode>
                <width>4</width>
            </LineStyle>
        </Style>
        <Style id="63987">
            <LineStyle id="63988">
                <color>ff4d660e</color>
                <colorMode>normal</colorMode>
                <width>4</width>
            </LineStyle>
        </Style>
        <Style id="63991">
            <LineStyle id="63992">
                <color>ff4d660e</color>
                <colorMode>normal</colorMode>
                <width>4</width>
            </LineStyle>
        </Style>
        <Style id="63995">
            <LineStyle id="63996">
                <color>ff4d660e</color>
                <colorMode>normal</colorMode>
                <width>4</width>
            </LineStyle>
        </Style>
        <Style id="63999">
            <LineStyle id="64000">
                <color>ff4d660e</color>
                <colorMode>normal</colorMode>
                <width>4</width>
            </LineStyle>
        </Style>
        <Style id="64003">
            <LineStyle id="64004">
                <color>ff4d660e</color>
                <colorMode>normal</colorMode>
                <width>4</width>
            </LineStyle>
        </Style>
        <Style id="64007">
            <LineStyle id="64008">
                <color>ff4d660e</color>
                <colorMode>normal</colorMode>
                <width>4</width>
            </LineStyle>
        </Style>
        <Style id="64011">
            <LineStyle id="64012">
                <color>ff4d660e</color>
                <colorMode>normal</colorMode>
                <width>4</width>
            </LineStyle>
        </Style>
        <Style id="64015">
            <LineStyle id="64016">
                <color>ff4d660e</color>
                <colorMode>normal</colorMode>
                <width>4</width>
            </LineStyle>
        </Style>
        <Style id="64019">
            <LineStyle id="64020">
                <color>ff4d660e</color>
                <colorMode>normal</colorMode>
                <width>4</width>
            </LineStyle>
        </Style>
        <Style id="64023">
            <LineStyle id="64024">
                <color>ff4d660e</color>
                <colorMode>normal</colorMode>
                <width>4</width>
            </LineStyle>
        </Style>
        <Style id="64027">
            <LineStyle id="64028">
                <color>ff4d660e</color>
                <colorMode>normal</colorMode>
                <width>4</width>
            </LineStyle>
        </Style>
        <Style id="64031">
            <LineStyle id="64032">
                <color>ff4d660e</color>
                <colorMode>normal</colorMode>
                <width>4</width>
            </LineStyle>
        </Style>
        <Style id="64035">
            <LineStyle id="64036">
                <color>ff4d660e</color>
                <colorMode>normal</colorMode>
                <width>4</width>
            </LineStyle>
        </Style>
        <Style id="64039">
            <LineStyle id="64040">
                <color>ff4d660e</color>
                <colorMode>normal</colorMode>
                <width>4</width>
            </LineStyle>
        </Style>
        <Style id="64043">
            <LineStyle id="64044">
                <color>ff4d660e</color>
                <colorMode>normal</colorMode>
                <width>4</width>
            </LineStyle>
        </Style>
        <Style id="64047">
            <LineStyle id="64048">
                <color>ff4d660e</color>
                <colorMode>normal</colorMode>
                <width>4</width>
            </LineStyle>
        </Style>
        <Style id="64051">
            <LineStyle id="64052">
                <color>ff4d660e</color>
                <colorMode>normal</colorMode>
                <width>4</width>
            </LineStyle>
        </Style>
        <Style id="64055">
            <LineStyle id="64056">
                <color>ff4d660e</color>
                <colorMode>normal</colorMode>
                <width>4</width>
            </LineStyle>
        </Style>
        <Style id="64059">
            <LineStyle id="64060">
                <color>ff4d660e</color>
                <colorMode>normal</colorMode>
                <width>4</width>
            </LineStyle>
        </Style>
        <Style id="64063">
            <LineStyle id="64064">
                <color>ff4d660e</color>
                <colorMode>normal</colorMode>
                <width>4</width>
            </LineStyle>
        </Style>
        <Style id="64067">
            <LineStyle id="64068">
                <color>ff4d660e</color>
                <colorMode>normal</colorMode>
                <width>4</width>
            </LineStyle>
        </Style>
        <Style id="64071">
            <LineStyle id="64072">
                <color>ff4d660e</color>
                <colorMode>normal</colorMode>
                <width>4</width>
            </LineStyle>
        </Style>
        <Style id="64075">
            <LineStyle id="64076">
                <color>ff4d660e</color>
                <colorMode>normal</colorMode>
                <width>4</width>
            </LineStyle>
        </Style>
        <Style id="64079">
            <LineStyle id="64080">
                <color>ff4d660e</color>
                <colorMode>normal</colorMode>
                <width>4</width>
            </LineStyle>
        </Style>
        <Style id="64083">
            <LineStyle id="64084">
                <color>ff4d660e</color>
                <colorMode>normal</colorMode>
                <width>4</width>
            </LineStyle>
        </Style>
        <Style id="64087">
            <LineStyle id="64088">
                <color>ff4d660e</color>
                <colorMode>normal</colorMode>
                <width>4</width>
            </LineStyle>
        </Style>
        <Style id="64091">
            <LineStyle id="64092">
                <color>ff4d660e</color>
                <colorMode>normal</colorMode>
                <width>4</width>
            </LineStyle>
        </Style>
        <Style id="64095">
            <LineStyle id="64096">
                <color>ff4d660e</color>
                <colorMode>normal</colorMode>
                <width>4</width>
            </LineStyle>
        </Style>
        <Style id="64099">
            <LineStyle id="64100">
                <color>ff4d660e</color>
                <colorMode>normal</colorMode>
                <width>4</width>
            </LineStyle>
        </Style>
        <Style id="64103">
            <LineStyle id="64104">
                <color>ff4d660e</color>
                <colorMode>normal</colorMode>
                <width>4</width>
            </LineStyle>
        </Style>
        <Style id="64107">
            <LineStyle id="64108">
                <color>ff4d660e</color>
                <colorMode>normal</colorMode>
                <width>4</width>
            </LineStyle>
        </Style>
        <Style id="64111">
            <LineStyle id="64112">
                <color>ff4d660e</color>
                <colorMode>normal</colorMode>
                <width>4</width>
            </LineStyle>
        </Style>
        <Style id="64115">
            <LineStyle id="64116">
                <color>ff4d660e</color>
                <colorMode>normal</colorMode>
                <width>4</width>
            </LineStyle>
        </Style>
        <Style id="64119">
            <LineStyle id="64120">
                <color>ff4d660e</color>
                <colorMode>normal</colorMode>
                <width>4</width>
            </LineStyle>
        </Style>
        <Style id="64123">
            <LineStyle id="64124">
                <color>ff4d660e</color>
                <colorMode>normal</colorMode>
                <width>4</width>
            </LineStyle>
        </Style>
        <Style id="64127">
            <LineStyle id="64128">
                <color>ff4d660e</color>
                <colorMode>normal</colorMode>
                <width>4</width>
            </LineStyle>
        </Style>
        <Style id="64131">
            <LineStyle id="64132">
                <color>ff4d660e</color>
                <colorMode>normal</colorMode>
                <width>4</width>
            </LineStyle>
        </Style>
        <Style id="64135">
            <LineStyle id="64136">
                <color>ff4d660e</color>
                <colorMode>normal</colorMode>
                <width>4</width>
            </LineStyle>
        </Style>
        <Style id="64139">
            <LineStyle id="64140">
                <color>ff4d660e</color>
                <colorMode>normal</colorMode>
                <width>4</width>
            </LineStyle>
        </Style>
        <Style id="64143">
            <LineStyle id="64144">
                <color>ff4d660e</color>
                <colorMode>normal</colorMode>
                <width>4</width>
            </LineStyle>
        </Style>
        <Style id="64147">
            <LineStyle id="64148">
                <color>ff4d660e</color>
                <colorMode>normal</colorMode>
                <width>4</width>
            </LineStyle>
        </Style>
        <Style id="64151">
            <LineStyle id="64152">
                <color>ff4d660e</color>
                <colorMode>normal</colorMode>
                <width>4</width>
            </LineStyle>
        </Style>
        <Style id="64155">
            <LineStyle id="64156">
                <color>ff4d660e</color>
                <colorMode>normal</colorMode>
                <width>4</width>
            </LineStyle>
        </Style>
        <Style id="64159">
            <LineStyle id="64160">
                <color>ff4d660e</color>
                <colorMode>normal</colorMode>
                <width>4</width>
            </LineStyle>
        </Style>
        <Style id="64163">
            <LineStyle id="64164">
                <color>ff4d660e</color>
                <colorMode>normal</colorMode>
                <width>4</width>
            </LineStyle>
        </Style>
        <Style id="64167">
            <LineStyle id="64168">
                <color>ff4d660e</color>
                <colorMode>normal</colorMode>
                <width>4</width>
            </LineStyle>
        </Style>
        <Style id="64171">
            <LineStyle id="64172">
                <color>ff4d660e</color>
                <colorMode>normal</colorMode>
                <width>4</width>
            </LineStyle>
        </Style>
        <Style id="64175">
            <LineStyle id="64176">
                <color>ff4d660e</color>
                <colorMode>normal</colorMode>
                <width>4</width>
            </LineStyle>
        </Style>
        <ExtendedData>
            <Data name="route-name">
                <value>926: Ciroyom → Lembang</value>
            </Data>
            <Data name="source">
                <value>Transport for Bandung</value>
            </Data>
        </ExtendedData>
        <Placemark id="63856">
            <name>Stasiun Ciroyom</name>
            <styleUrl>#63857</styleUrl>
            <Point id="63855">
                <coordinates>107.5890644,-6.914151,0.0</coordinates>
            </Point>
        </Placemark>
        <Placemark id="63861">
            <name>Pasar Panorama Lembang</name>
            <styleUrl>#63862</styleUrl>
            <Point id="63860">
                <coordinates>107.6223753,-6.8173275,0.0</coordinates>
            </Point>
        </Placemark>
        <Placemark id="63866">
            <name>Jalan Dursasana</name>
            <styleUrl>#63867</styleUrl>
            <LineString id="63865">
                <coordinates>107.5963629,-6.9038698,0.0 107.5967047,-6.9039377,0.0 107.5967891,-6.9039548,0.0 107.596855,-6.9039658,0.0 107.5972103,-6.9039896,0.0 107.5975343,-6.9039924,0.0</coordinates>
            </LineString>
        </Placemark>
        <Placemark id="63870">
            <name>Jalan Aruna</name>
            <styleUrl>#63871</styleUrl>
            <LineString id="63869">
                <coordinates>107.5894511,-6.9112342,0.0 107.5891899,-6.9105353,0.0 107.5885406,-6.9088993,0.0 107.5884207,-6.9086068,0.0 107.5883107,-6.9083352,0.0 107.5883022,-6.9083129,0.0 107.5882157,-6.908086,0.0 107.5879895,-6.9075052,0.0 107.587786,-6.907013,0.0</coordinates>
            </LineString>
        </Placemark>
        <Placemark id="63874">
            <name>Jalan Pasir Kaliki</name>
            <styleUrl>#63875</styleUrl>
            <LineString id="63873">
                <coordinates>107.597321,-6.898017,0.0 107.5973143,-6.897839,0.0 107.5973006,-6.8973077,0.0 107.5972936,-6.8969114,0.0 107.5972895,-6.8968371,0.0</coordinates>
            </LineString>
        </Placemark>
        <Placemark id="63878">
            <name>Jalan Sukajadi</name>
            <styleUrl>#63879</styleUrl>
            <LineString id="63877">
                <coordinates>107.5967323,-6.8873957,0.0 107.5967238,-6.8872476,0.0 107.5967027,-6.8868139,0.0 107.5967016,-6.8867916,0.0</coordinates>
            </LineString>
        </Placemark>
        <Placemark id="63882">
            <name>Jalan Sukajadi</name>
            <styleUrl>#63883</styleUrl>
            <LineString id="63881">
                <coordinates>107.5961957,-6.8768743,0.0 107.5961919,-6.8768247,0.0 107.5961498,-6.8762747,0.0 107.5961192,-6.8758667,0.0 107.5960887,-6.8756034,0.0 107.5960697,-6.8754397,0.0 107.5960058,-6.8749813,0.0 107.595994,-6.8749009,0.0 107.5959746,-6.8747745,0.0 107.5958725,-6.8743267,0.0 107.5958215,-6.8741565,0.0 107.5958267,-6.874066,0.0</coordinates>
            </LineString>
        </Placemark>
        <Placemark id="63886">
            <name>Jalan Ciroyom</name>
            <styleUrl>#63887</styleUrl>
            <LineString id="63885">
                <coordinates>107.5889396,-6.9145084,0.0 107.588866,-6.9144206,0.0 107.5887699,-6.9143283,0.0 107.5885486,-6.9141236,0.0</coordinates>
            </LineString>
        </Placemark>
        <Placemark id="63890">
            <name>Jalan Sukajadi</name>
            <styleUrl>#63891</styleUrl>
            <LineString id="63889">
                <coordinates>107.5962548,-6.8783299,0.0 107.596246,-6.8780655,0.0 107.5962436,-6.8779934,0.0 107.5962315,-6.8776265,0.0 107.5962243,-6.8774107,0.0</coordinates>
            </LineString>
        </Placemark>
        <Placemark id="63894">
            <name>Jalan Sukajadi</name>
            <styleUrl>#63895</styleUrl>
            <LineString id="63893">
                <coordinates>107.5965234,-6.8840238,0.0 107.5965088,-6.8836453,0.0 107.5965062,-6.8835624,0.0 107.596503,-6.8834688,0.0 107.5964741,-6.8826331,0.0 107.5964702,-6.8825274,0.0 107.5964601,-6.8821498,0.0 107.5964542,-6.8820032,0.0 107.596444,-6.8817861,0.0 107.5964302,-6.8814833,0.0 107.5964257,-6.8813836,0.0 107.5964243,-6.8813611,0.0 107.5963984,-6.8809341,0.0</coordinates>
            </LineString>
        </Placemark>
        <Placemark id="63898">
            <name>Jalan Raya Lembang</name>
            <styleUrl>#63899</styleUrl>
            <LineString id="63897">
                <coordinates>107.6163789,-6.811649,0.0 107.6164088,-6.8116431,0.0 107.6164434,-6.8116425,0.0 107.6164785,-6.8116484,0.0 107.6172038,-6.8119627,0.0 107.6177233,-6.8121782,0.0 107.6178628,-6.8122361,0.0 107.6182268,-6.8123871,0.0 107.6184657,-6.8124862,0.0 107.6189765,-6.8126981,0.0 107.6192366,-6.812806,0.0 107.6193746,-6.8128633,0.0 107.6195757,-6.8129467,0.0 107.6198191,-6.8130587,0.0 107.6200483,-6.8131645,0.0 107.6202088,-6.8132387,0.0 107.620509,-6.8133695,0.0 107.6208577,-6.8135218,0.0 107.6210281,-6.8135974,0.0 107.6212826,-6.8137149,0.0 107.621693,-6.8139141,0.0 107.6217813,-6.8139572,0.0 107.6218897,-6.8140061,0.0 107.6221012,-6.8141122,0.0 107.6227241,-6.8144267,0.0</coordinates>
            </LineString>
        </Placemark>
        <Placemark id="63902">
            <name>Jalan Dr. Setiabudi</name>
            <styleUrl>#63903</styleUrl>
            <LineString id="63901">
                <coordinates>107.5972396,-6.8419928,0.0 107.597156,-6.8420758,0.0 107.597081,-6.8421518,0.0 107.5969999,-6.8422469,0.0 107.5969602,-6.8423081,0.0 107.5969394,-6.8424439,0.0 107.5969511,-6.8425874,0.0 107.5969929,-6.8426633,0.0 107.5971794,-6.8428168,0.0 107.5978666,-6.8432222,0.0 107.5981935,-6.8433919,0.0 107.598666,-6.8435544,0.0 107.598744,-6.8435766,0.0 107.5997463,-6.8438168,0.0 107.6000366,-6.8439169,0.0 107.6001199,-6.8439715,0.0 107.6001867,-6.8440302,0.0 107.6002462,-6.8441552,0.0 107.6002559,-6.8442642,0.0 107.60026,-6.8443082,0.0 107.6002148,-6.8444891,0.0 107.5999705,-6.8446804,0.0 107.5995304,-6.8450352,0.0 107.5994602,-6.845109,0.0 107.5994254,-6.8451695,0.0 107.5993993,-6.8452291,0.0 107.5993949,-6.8452988,0.0 107.5994286,-6.8453854,0.0 107.5995243,-6.8454503,0.0 107.5998737,-6.8455737,0.0 107.5999582,-6.845654,0.0 107.6000063,-6.8457635,0.0 107.5999948,-6.8458209,0.0 107.5999515,-6.8459037,0.0 107.5998321,-6.8460484,0.0 107.5997258,-6.846149,0.0 107.5996211,-6.8462516,0.0 107.5995217,-6.8463522,0.0 107.5993413,-6.8465837,0.0 107.5992419,-6.8469421,0.0 107.599237,-6.8469565,0.0 107.5991586,-6.8472048,0.0 107.5990993,-6.8473345,0.0 107.5990499,-6.8473821,0.0 107.5990174,-6.8474134,0.0 107.5986994,-6.8476219,0.0 107.5985564,-6.8477671,0.0 107.5985017,-6.8478487,0.0 107.5984428,-6.8480271,0.0 107.5984397,-6.8481078,0.0 107.5985003,-6.8486682,0.0 107.5985662,-6.8489421,0.0 107.5985646,-6.8490121,0.0 107.5985403,-6.8490787,0.0 107.5984722,-6.8491591,0.0 107.5984316,-6.8492017,0.0 107.5982937,-6.8492553,0.0 107.5980473,-6.8492358,0.0 107.5976884,-6.8490271,0.0 107.5975167,-6.8489499,0.0 107.5974137,-6.848939,0.0 107.5973128,-6.8489512,0.0 107.5972468,-6.8489841,0.0 107.5972415,-6.8489964,0.0 107.5967559,-6.8511386,0.0 107.5967189,-6.8513147,0.0 107.5965922,-6.8518507,0.0 107.5965542,-6.8520169,0.0 107.5963426,-6.8529191,0.0 107.5963079,-6.8530727,0.0 107.5962736,-6.8532377,0.0 107.595942,-6.8545577,0.0 107.5959267,-6.8546328,0.0 107.5959134,-6.8546967,0.0 107.5958416,-6.8550414,0.0 107.5956822,-6.8557062,0.0 107.5955687,-6.8562544,0.0 107.5955251,-6.8564315,0.0 107.5954205,-6.8568563,0.0 107.5952274,-6.8575969,0.0 107.5951563,-6.8578927,0.0 107.5950049,-6.8584744,0.0</coordinates>
            </LineString>
        </Placemark>
        <Placemark id="63906">
            <name>Jalan Raya Lembang</name>
            <styleUrl>#63907</styleUrl>
            <LineString id="63905">
                <coordinates>107.6142297,-6.8149459,0.0 107.6140036,-6.8153139,0.0 107.6139426,-6.815415,0.0 107.6139121,-6.8154637,0.0 107.6137926,-6.8156552,0.0 107.6137495,-6.8157241,0.0 107.613632,-6.8159073,0.0 107.6131206,-6.8167009,0.0 107.6124629,-6.8177003,0.0 107.6123,-6.8179503,0.0 107.6120431,-6.8183654,0.0 107.6115872,-6.8190806,0.0</coordinates>
            </LineString>
        </Placemark>
        <Placemark id="63910">
            <name>Jalan Panorama</name>
            <styleUrl>#63911</styleUrl>
            <LineString id="63909">
                <coordinates>107.6230265,-6.8147144,0.0 107.6229738,-6.814945,0.0 107.6229166,-6.8151622,0.0 107.6228705,-6.8153302,0.0 107.6228153,-6.8155311,0.0 107.6227602,-6.815749,0.0 107.6226951,-6.8160069,0.0 107.622677,-6.8160656,0.0 107.6226507,-6.8161824,0.0 107.6226326,-6.8162633,0.0 107.6225267,-6.8167108,0.0 107.6224837,-6.816892,0.0 107.6223753,-6.8173275,0.0</coordinates>
            </LineString>
        </Placemark>
        <Placemark id="63914">
            <name>Jalan Astina</name>
            <styleUrl>#63915</styleUrl>
            <LineString id="63913">
                <coordinates>107.5962889,-6.9064673,0.0 107.5962554,-6.9062596,0.0 107.5962326,-6.9061052,0.0 107.5962205,-6.9059827,0.0 107.5962111,-6.9058775,0.0 107.5961991,-6.9057391,0.0 107.5961828,-6.9055899,0.0 107.596176,-6.9054878,0.0 107.596171,-6.9053889,0.0 107.596169,-6.9052811,0.0 107.5961694,-6.9051897,0.0 107.5961761,-6.9050714,0.0 107.5961881,-6.9049442,0.0 107.5962164,-6.9046946,0.0 107.5962473,-6.9044716,0.0 107.5962701,-6.9043338,0.0 107.596291,-6.9042031,0.0 107.5963629,-6.9038698,0.0</coordinates>
            </LineString>
        </Placemark>
        <Placemark id="63918">
            <name>Jalan HOS. Cokroaminoto</name>
            <styleUrl>#63919</styleUrl>
            <LineString id="63917">
                <coordinates>107.5974073,-6.9013528,0.0 107.5973841,-6.9009013,0.0 107.597381,-6.9007859,0.0 107.5973772,-6.900662,0.0</coordinates>
            </LineString>
        </Placemark>
        <Placemark id="63922">
            <name>Jalan Pasir Kaliki</name>
            <styleUrl>#63923</styleUrl>
            <LineString id="63921">
                <coordinates>107.5973503,-6.8989275,0.0 107.5973395,-6.8985629,0.0 107.5973325,-6.8983576,0.0 107.5973274,-6.898195,0.0 107.5973223,-6.8980478,0.0 107.597321,-6.898017,0.0</coordinates>
            </LineString>
        </Placemark>
        <Placemark id="63926">
            <name>Jalan Raya Lembang</name>
            <styleUrl>#63927</styleUrl>
            <LineString id="63925">
                <coordinates>107.6227241,-6.8144267,0.0 107.6229742,-6.8145616,0.0 107.6230037,-6.814587,0.0 107.6230198,-6.8146203,0.0 107.6230212,-6.8146456,0.0 107.6230265,-6.8147144,0.0</coordinates>
            </LineString>
        </Placemark>
        <Placemark id="63930">
            <name>Jalan Dr. Setiabudi</name>
            <styleUrl>#63931</styleUrl>
            <LineString id="63929">
                <coordinates>107.5947487,-6.8601046,0.0 107.5947415,-6.8601534,0.0 107.5947299,-6.8602278,0.0 107.5946876,-6.860499,0.0 107.5946834,-6.8605895,0.0 107.594682,-6.8607123,0.0 107.594691,-6.8607829,0.0 107.5947113,-6.8608802,0.0 107.5947543,-6.8609845,0.0 107.5947885,-6.8610543,0.0 107.5948338,-6.861136,0.0 107.5948731,-6.8611888,0.0 107.5949141,-6.8612418,0.0 107.595009,-6.861346,0.0 107.5950885,-6.8614258,0.0 107.5951733,-6.8614881,0.0 107.595248,-6.861538,0.0 107.5954158,-6.8616512,0.0 107.5955484,-6.8617416,0.0 107.5958307,-6.8619379,0.0 107.5959866,-6.8620463,0.0 107.5961672,-6.8621719,0.0 107.5961991,-6.8622073,0.0 107.5962242,-6.8622608,0.0 107.5962237,-6.8623248,0.0 107.5962141,-6.862385,0.0 107.5961999,-6.8624213,0.0 107.5960469,-6.8627747,0.0 107.5959257,-6.8629855,0.0 107.5958359,-6.8630694,0.0 107.5957803,-6.8631238,0.0 107.5957352,-6.8631536,0.0 107.5956823,-6.8631776,0.0 107.5955819,-6.8632153,0.0 107.594751,-6.8634425,0.0</coordinates>
            </LineString>
        </Placemark>
        <Placemark id="63934">
            <name>Jalan Sukajadi</name>
            <styleUrl>#63935</styleUrl>
            <LineString id="63933">
                <coordinates>107.5967016,-6.8867916,0.0 107.5964324,-6.88604,0.0 107.5964113,-6.8859394,0.0 107.5963989,-6.8858417,0.0 107.5964138,-6.8856254,0.0 107.5964457,-6.8854301,0.0 107.5965693,-6.8848932,0.0</coordinates>
            </LineString>
        </Placemark>
        <Placemark id="63938">
            <name>Jalan Sukajadi</name>
            <styleUrl>#63939</styleUrl>
            <LineString id="63937">
                <coordinates>107.5965291,-6.8842065,0.0 107.5965234,-6.8840238,0.0</coordinates>
            </LineString>
        </Placemark>
        <Placemark id="63942">
            <name>Jalan Pasir Kaliki</name>
            <styleUrl>#63943</styleUrl>
            <LineString id="63941">
                <coordinates>107.5973566,-6.9002078,0.0 107.5973521,-6.9001109,0.0 107.5973452,-6.8999212,0.0</coordinates>
            </LineString>
        </Placemark>
        <Placemark id="63946">
            <name>Jalan Raya Lembang</name>
            <styleUrl>#63947</styleUrl>
            <LineString id="63945">
                <coordinates>107.6115872,-6.8190806,0.0 107.6114096,-6.8193558,0.0 107.6110309,-6.8198952,0.0 107.6109037,-6.8200941,0.0 107.6108672,-6.820158,0.0 107.6107699,-6.8203002,0.0 107.6104246,-6.8206734,0.0 107.6102118,-6.8209096,0.0 107.6100393,-6.8210803,0.0 107.6099882,-6.8211292,0.0 107.6099572,-6.821161,0.0 107.6097639,-6.8213592,0.0 107.6097361,-6.8213877,0.0 107.6096276,-6.8215242,0.0 107.6095323,-6.8216821,0.0 107.609437,-6.8220692,0.0 107.609413,-6.8222279,0.0 107.609413,-6.8222911,0.0 107.6094362,-6.8223502,0.0 107.6095115,-6.8224749,0.0 107.6099843,-6.8227006,0.0 107.6103598,-6.822855,0.0 107.6105831,-6.8229955,0.0 107.610683,-6.8231241,0.0 107.6107098,-6.8232199,0.0 107.6107098,-6.8233318,0.0 107.6106676,-6.8235062,0.0 107.6105187,-6.8239024,0.0 107.6104148,-6.8241114,0.0 107.610225,-6.8243764,0.0 107.6097372,-6.8248788,0.0 107.6093506,-6.8251914,0.0 107.6092551,-6.8252496,0.0 107.6090495,-6.8253392,0.0 107.6089315,-6.8253645,0.0 107.6087061,-6.8253317,0.0 107.608583,-6.8252721,0.0 107.6085183,-6.8252592,0.0 107.6084246,-6.825244,0.0 107.6083615,-6.8252673,0.0 107.6083112,-6.8253157,0.0 107.6079714,-6.8260119,0.0 107.6078056,-6.8262617,0.0 107.6077716,-6.8263141,0.0 107.6077052,-6.8264162,0.0 107.6076321,-6.8265913,0.0 107.6075435,-6.826963,0.0 107.6074858,-6.8271202,0.0 107.6074322,-6.827248,0.0 107.6072347,-6.8275847,0.0 107.6071043,-6.8280074,0.0 107.606994,-6.8281946,0.0 107.6069161,-6.8282738,0.0 107.6068243,-6.828399,0.0 107.6068083,-6.8284496,0.0 107.6068219,-6.8285224,0.0 107.6068785,-6.8286259,0.0 107.6070126,-6.8287952,0.0 107.6070715,-6.8290123,0.0 107.6070647,-6.82932,0.0 107.6070168,-6.8299496,0.0 107.6069407,-6.8303313,0.0 107.6068861,-6.8304906,0.0 107.6067734,-6.8306527,0.0 107.6064686,-6.831018,0.0 107.6060275,-6.8315137,0.0 107.6058651,-6.8316961,0.0 107.6058212,-6.8317439,0.0 107.6056898,-6.8318898,0.0 107.6053932,-6.832226,0.0 107.6053419,-6.8322853,0.0 107.6047615,-6.8329566,0.0 107.6047301,-6.8329924,0.0 107.6046782,-6.8330604,0.0 107.604658,-6.8330869,0.0 107.6045758,-6.8331947,0.0 107.604445,-6.8333661,0.0 107.6042895,-6.8335443,0.0 107.6040805,-6.8337835,0.0 107.6039699,-6.8339229,0.0 107.6036533,-6.8341896,0.0 107.6035444,-6.8342606,0.0 107.6033887,-6.8343067,0.0 107.6033451,-6.8343043,0.0 107.6031829,-6.8342721,0.0 107.6030809,-6.8342235,0.0 107.6029735,-6.8341167,0.0 107.6027199,-6.8339236,0.0 107.602635,-6.8339046,0.0 107.6025344,-6.8339166,0.0 107.6024453,-6.8339772,0.0 107.6024044,-6.8340271,0.0 107.6023655,-6.8341776,0.0 107.6023507,-6.8343294,0.0 107.6023109,-6.8344584,0.0 107.6021388,-6.834593,0.0 107.6020007,-6.8346356,0.0 107.6019162,-6.8346276,0.0 107.6017539,-6.8345824,0.0 107.6016413,-6.8345904,0.0 107.6015876,-6.8346237,0.0 107.6015434,-6.8346756,0.0 107.6015058,-6.8347515,0.0 107.6014911,-6.8348327,0.0 107.6015125,-6.834898,0.0 107.6015528,-6.8349552,0.0 107.6015916,-6.8349978,0.0 107.6019457,-6.8352482,0.0 107.6020275,-6.8353254,0.0 107.602057,-6.8353906,0.0 107.6020476,-6.8355358,0.0 107.6019977,-6.8356196,0.0 107.6019293,-6.8356815,0.0 107.6018216,-6.8357251,0.0 107.6016658,-6.8357562,0.0 107.6010726,-6.8357928,0.0 107.6009372,-6.8358141,0.0 107.6008178,-6.835866,0.0 107.6006019,-6.8359885,0.0 107.6004919,-6.8360165,0.0 107.6002522,-6.8359712,0.0 107.6000212,-6.8359419,0.0 107.599863,-6.8359952,0.0 107.5994875,-6.836344,0.0 107.5991294,-6.8365331,0.0 107.5990529,-6.8366317,0.0 107.5990161,-6.8366947,0.0 107.5989296,-6.8368567,0.0 107.598888,-6.8369872,0.0 107.5988612,-6.8372082,0.0 107.5988772,-6.8373108,0.0 107.5989242,-6.8373947,0.0 107.5990268,-6.8375211,0.0 107.5992943,-6.8377901,0.0 107.5993359,-6.8378714,0.0 107.5993688,-6.8380052,0.0 107.599352,-6.838105,0.0 107.5993077,-6.8382329,0.0 107.5992568,-6.8383041,0.0 107.599185,-6.838356,0.0 107.599126,-6.838378,0.0 107.5990456,-6.8383913,0.0 107.5985668,-6.8384053,0.0 107.5984072,-6.838483,0.0 107.5983186,-6.8385315,0.0 107.5981993,-6.8386423,0.0 107.5981222,-6.8387622,0.0 107.5980927,-6.8388361,0.0 107.5980793,-6.8388979,0.0 107.5980833,-6.8390731,0.0 107.5981423,-6.8392602,0.0 107.5981691,-6.8393814,0.0 107.5981651,-6.8394712,0.0 107.5981443,-6.8395278,0.0 107.5980612,-6.8396017,0.0 107.5979747,-6.839633,0.0 107.5975093,-6.8396157,0.0 107.597398,-6.8396889,0.0 107.5973403,-6.8397489,0.0 107.5972975,-6.8398294,0.0 107.5972304,-6.8400578,0.0 107.5972116,-6.8402135,0.0 107.597225,-6.8404639,0.0 107.5973846,-6.8409206,0.0 107.5974342,-6.8410777,0.0 107.597516,-6.8414,0.0 107.5975065,-6.8415138,0.0 107.5974664,-6.8416516,0.0 107.5974222,-6.8417462,0.0 107.5973622,-6.8418432,0.0 107.5972396,-6.8419928,0.0</coordinates>
            </LineString>
        </Placemark>
        <Placemark id="63950">
            <name>Jalan HOS. Cokroaminoto</name>
            <styleUrl>#63951</styleUrl>
            <LineString id="63949">
                <coordinates>107.5975116,-6.9035067,0.0 107.5974908,-6.9034505,0.0 107.5974789,-6.9033926,0.0 107.5974727,-6.9033217,0.0 107.5974521,-6.9026867,0.0 107.5974311,-6.9019145,0.0 107.5974213,-6.9017168,0.0 107.597414,-6.9015643,0.0 107.5974073,-6.9013528,0.0</coordinates>
            </LineString>
        </Placemark>
        <Placemark id="63954">
            <name>Jalan Sukajadi</name>
            <styleUrl>#63955</styleUrl>
            <LineString id="63953">
                <coordinates>107.5972816,-6.8966817,0.0 107.5972787,-6.8966241,0.0 107.5972616,-6.8963456,0.0 107.5972601,-6.8962772,0.0 107.5972557,-6.8962319,0.0 107.597252,-6.8961231,0.0 107.5972487,-6.8960662,0.0 107.5972328,-6.8957942,0.0 107.5972172,-6.8955656,0.0 107.5971842,-6.8950939,0.0 107.5971773,-6.8950042,0.0 107.5971398,-6.8945401,0.0 107.5971049,-6.8940789,0.0 107.5970982,-6.8939774,0.0 107.5970769,-6.893622,0.0 107.5970644,-6.8934134,0.0 107.5970391,-6.8930157,0.0</coordinates>
            </LineString>
        </Placemark>
        <Placemark id="63958">
            <name>Jalan Sukajadi</name>
            <styleUrl>#63959</styleUrl>
            <LineString id="63957">
                <coordinates>107.5969097,-6.8902486,0.0 107.5969052,-6.8900717,0.0 107.5969028,-6.8899793,0.0 107.5969032,-6.8898955,0.0 107.596901,-6.8897159,0.0 107.5968858,-6.8894176,0.0 107.5968696,-6.889221,0.0 107.5968625,-6.8891028,0.0 107.5968398,-6.888674,0.0 107.5968348,-6.8885657,0.0 107.5968303,-6.8885035,0.0 107.5968078,-6.8882126,0.0 107.5967817,-6.8879179,0.0 107.5967633,-6.8877297,0.0 107.5967526,-6.887631,0.0</coordinates>
            </LineString>
        </Placemark>
        <Placemark id="63962">
            <name>Jalan Sukajadi</name>
            <styleUrl>#63963</styleUrl>
            <LineString id="63961">
                <coordinates>107.5965693,-6.8848932,0.0 107.5965291,-6.8842065,0.0</coordinates>
            </LineString>
        </Placemark>
        <Placemark id="63966">
            <name>Jalan Pajajaran</name>
            <styleUrl>#63967</styleUrl>
            <LineString id="63965">
                <coordinates>107.588219,-6.9067739,0.0 107.5883657,-6.9067835,0.0 107.5886607,-6.9068062,0.0 107.5888263,-6.9068235,0.0 107.5889202,-6.9068354,0.0 107.5889933,-6.9068461,0.0 107.5891215,-6.9068588,0.0 107.5898536,-6.90694,0.0 107.5902634,-6.9069819,0.0 107.5905238,-6.9070045,0.0 107.5906468,-6.9070144,0.0</coordinates>
            </LineString>
        </Placemark>
        <Placemark id="63970">
            <name>Jalan Pajajaran</name>
            <styleUrl>#63971</styleUrl>
            <LineString id="63969">
                <coordinates>107.5876614,-6.906814,0.0 107.5877282,-6.9067939,0.0 107.5877685,-6.9067842,0.0</coordinates>
            </LineString>
        </Placemark>
        <Placemark id="63974">
            <name>Jalan Arjuna</name>
            <styleUrl>#63975</styleUrl>
            <LineString id="63973">
                <coordinates>107.5890644,-6.914151,0.0 107.5890593,-6.9142395,0.0 107.5890483,-6.9143589,0.0 107.5890128,-6.9144475,0.0 107.5889396,-6.9145084,0.0</coordinates>
            </LineString>
        </Placemark>
        <Placemark id="63978">
            <name>Jalan Pajajaran</name>
            <styleUrl>#63979</styleUrl>
            <LineString id="63977">
                <coordinates>107.5959262,-6.9065893,0.0 107.5952568,-6.9066609,0.0 107.595037,-6.9066943,0.0 107.5945793,-6.9067595,0.0 107.5945435,-6.9067649,0.0 107.5942472,-6.906822,0.0 107.5941987,-6.9068309,0.0 107.594084,-6.9068527,0.0 107.5937537,-6.9069123,0.0 107.5936226,-6.9069359,0.0 107.5930436,-6.9070358,0.0</coordinates>
            </LineString>
        </Placemark>
        <Placemark id="63982">
            <name>Jalan Pajajaran</name>
            <styleUrl>#63983</styleUrl>
            <LineString id="63981">
                <coordinates>107.5920701,-6.9071489,0.0 107.5918373,-6.9071242,0.0 107.5916612,-6.9071113,0.0 107.5915994,-6.9071068,0.0 107.5913085,-6.9070897,0.0 107.5911224,-6.9070825,0.0</coordinates>
            </LineString>
        </Placemark>
        <Placemark id="63986">
            <name>Jalan Pajajaran</name>
            <styleUrl>#63987</styleUrl>
            <LineString id="63985">
                <coordinates>107.5876926,-6.9068803,0.0 107.5876614,-6.906814,0.0</coordinates>
            </LineString>
        </Placemark>
        <Placemark id="63990">
            <name>Jalan Aruna</name>
            <styleUrl>#63991</styleUrl>
            <LineString id="63989">
                <coordinates>107.587786,-6.907013,0.0 107.5877496,-6.9069614,0.0 107.5876926,-6.9068803,0.0</coordinates>
            </LineString>
        </Placemark>
        <Placemark id="63994">
            <name>Jalan HOS. Cokroaminoto</name>
            <styleUrl>#63995</styleUrl>
            <LineString id="63993">
                <coordinates>107.5973772,-6.900662,0.0 107.5973654,-6.9003949,0.0</coordinates>
            </LineString>
        </Placemark>
        <Placemark id="63998">
            <name>Jalan Sukajadi</name>
            <styleUrl>#63999</styleUrl>
            <LineString id="63997">
                <coordinates>107.5970391,-6.8930157,0.0 107.5970212,-6.8924855,0.0 107.596988,-6.8919756,0.0 107.5969852,-6.8919419,0.0 107.5969612,-6.8915359,0.0 107.5969542,-6.8914244,0.0 107.5969493,-6.8913097,0.0 107.5969393,-6.8910002,0.0 107.5969258,-6.8906657,0.0 107.5969183,-6.8904777,0.0 107.5969097,-6.8902486,0.0</coordinates>
            </LineString>
        </Placemark>
        <Placemark id="64002">
            <name>Jalan Arjuna</name>
            <styleUrl>#64003</styleUrl>
            <LineString id="64001">
                <coordinates>107.5893783,-6.9112937,0.0 107.5893814,-6.9112661,0.0 107.5893978,-6.9112436,0.0 107.5894232,-6.9112319,0.0 107.5894511,-6.9112342,0.0</coordinates>
            </LineString>
        </Placemark>
        <Placemark id="64006">
            <name>Jalan Pajajaran</name>
            <styleUrl>#64007</styleUrl>
            <LineString id="64005">
                <coordinates>107.5959262,-6.9065893,0.0 107.5960029,-6.9065331,0.0 107.5960368,-6.9065206,0.0 107.596056,-6.9065146,0.0 107.596066,-6.9065114,0.0 107.5962889,-6.9064673,0.0</coordinates>
            </LineString>
        </Placemark>
        <Placemark id="64010">
            <name>Jalan Dr. Setiabudi</name>
            <styleUrl>#64011</styleUrl>
            <LineString id="64009">
                <coordinates>107.5940961,-6.8651081,0.0 107.5940723,-6.8653071,0.0 107.5940489,-6.8655021,0.0 107.5940436,-6.8655555,0.0 107.5939941,-6.866016,0.0 107.59398,-6.8661473,0.0 107.5939484,-6.8664124,0.0 107.5939402,-6.8664718,0.0 107.5939135,-6.8666897,0.0 107.593824,-6.8674042,0.0 107.5937888,-6.8677009,0.0 107.5937561,-6.8679333,0.0 107.5937127,-6.8682235,0.0 107.5937093,-6.8682462,0.0 107.593703,-6.868294,0.0 107.5936933,-6.8683616,0.0 107.5936592,-6.8686283,0.0 107.5936527,-6.8686846,0.0 107.5936366,-6.868816,0.0 107.5936184,-6.8689604,0.0 107.5936057,-6.869061,0.0 107.5935721,-6.8693613,0.0 107.5935632,-6.8694388,0.0 107.5935337,-6.8696955,0.0 107.5935252,-6.8697698,0.0 107.5935167,-6.8698675,0.0 107.5935096,-6.8699573,0.0 107.593506,-6.8701005,0.0 107.5935249,-6.8704256,0.0</coordinates>
            </LineString>
        </Placemark>
        <Placemark id="64014">
            <name>Jalan Sukajadi</name>
            <styleUrl>#64015</styleUrl>
            <LineString id="64013">
                <coordinates>107.5967526,-6.887631,0.0 107.5967323,-6.8873957,0.0</coordinates>
            </LineString>
        </Placemark>
        <Placemark id="64018">
            <name>Jalan Dr. Setiabudi</name>
            <styleUrl>#64019</styleUrl>
            <LineString id="64017">
                <coordinates>107.5950049,-6.8584744,0.0 107.5949549,-6.8587099,0.0 107.5949424,-6.8587619,0.0</coordinates>
            </LineString>
        </Placemark>
        <Placemark id="64022">
            <name>Jalan Dr. Setiabudi</name>
            <styleUrl>#64023</styleUrl>
            <LineString id="64021">
                <coordinates>107.5949424,-6.8587619,0.0 107.5949303,-6.8588435,0.0</coordinates>
            </LineString>
        </Placemark>
        <Placemark id="64026">
            <name>Jalan Pajajaran</name>
            <styleUrl>#64027</styleUrl>
            <LineString id="64025">
                <coordinates>107.5906651,-6.9070158,0.0 107.5909034,-6.907037,0.0 107.5909941,-6.907047,0.0 107.5911224,-6.9070825,0.0</coordinates>
            </LineString>
        </Placemark>
        <Placemark id="64030">
            <name>Jalan Pajajaran</name>
            <styleUrl>#64031</styleUrl>
            <LineString id="64029">
                <coordinates>107.5906468,-6.9070144,0.0 107.5906651,-6.9070158,0.0</coordinates>
            </LineString>
        </Placemark>
        <Placemark id="64034">
            <name>Jalan Dr. Setiabudi</name>
            <styleUrl>#64035</styleUrl>
            <LineString id="64033">
                <coordinates>107.594917,-6.8589109,0.0 107.5948727,-6.8591879,0.0 107.5948433,-6.8593552,0.0</coordinates>
            </LineString>
        </Placemark>
        <Placemark id="64038">
            <name>Jalan Dr. Setiabudi</name>
            <styleUrl>#64039</styleUrl>
            <LineString id="64037">
                <coordinates>107.594751,-6.8634425,0.0 107.5946342,-6.8634956,0.0</coordinates>
            </LineString>
        </Placemark>
        <Placemark id="64042">
            <name>Jalan Dr. Setiabudi</name>
            <styleUrl>#64043</styleUrl>
            <LineString id="64041">
                <coordinates>107.5941115,-6.864801,0.0 107.5941535,-6.8646065,0.0 107.5941832,-6.8644809,0.0 107.5942318,-6.8642799,0.0 107.5943139,-6.8639829,0.0 107.594348,-6.8639131,0.0 107.5943936,-6.8638479,0.0</coordinates>
            </LineString>
        </Placemark>
        <Placemark id="64046">
            <name>Jalan HOS. Cokroaminoto</name>
            <styleUrl>#64047</styleUrl>
            <LineString id="64045">
                <coordinates>107.5973654,-6.9003949,0.0 107.5973566,-6.9002078,0.0</coordinates>
            </LineString>
        </Placemark>
        <Placemark id="64050">
            <name>Jalan Ciroyom</name>
            <styleUrl>#64051</styleUrl>
            <LineString id="64049">
                <coordinates>107.5885486,-6.9141236,0.0 107.5884097,-6.9140226,0.0 107.5881793,-6.913895,0.0 107.5880643,-6.9138413,0.0 107.5878468,-6.9137585,0.0 107.5874395,-6.9135978,0.0 107.5873411,-6.91356,0.0 107.5872252,-6.9135056,0.0</coordinates>
            </LineString>
        </Placemark>
        <Placemark id="64054">
            <name>Jalan HOS. Cokroaminoto</name>
            <styleUrl>#64055</styleUrl>
            <LineString id="64053">
                <coordinates>107.5975343,-6.9039924,0.0 107.5975116,-6.9035067,0.0</coordinates>
            </LineString>
        </Placemark>
        <Placemark id="64058">
            <name>Jalan Pajajaran</name>
            <styleUrl>#64059</styleUrl>
            <LineString id="64057">
                <coordinates>107.5930436,-6.9070358,0.0 107.592893,-6.9070548,0.0 107.5928538,-6.9070598,0.0 107.5926825,-6.9070846,0.0 107.5925401,-6.9070991,0.0 107.5923942,-6.9071118,0.0 107.592239,-6.9071272,0.0 107.5920701,-6.9071489,0.0</coordinates>
            </LineString>
        </Placemark>
        <Placemark id="64062">
            <name>Jalan Sukajadi</name>
            <styleUrl>#64063</styleUrl>
            <LineString id="64061">
                <coordinates>107.5963984,-6.8809341,0.0 107.5963847,-6.8806684,0.0 107.5963806,-6.8805716,0.0 107.596369,-6.8802996,0.0 107.5963356,-6.8796695,0.0 107.5963312,-6.8795732,0.0 107.5963111,-6.8792113,0.0 107.5962832,-6.8787501,0.0 107.5962548,-6.8783299,0.0</coordinates>
            </LineString>
        </Placemark>
        <Placemark id="64066">
            <name>Jalan Sukajadi</name>
            <styleUrl>#64067</styleUrl>
            <LineString id="64065">
                <coordinates>107.5962243,-6.8774107,0.0 107.5962202,-6.8773796,0.0 107.5962158,-6.8772881,0.0 107.5961957,-6.8768743,0.0</coordinates>
            </LineString>
        </Placemark>
        <Placemark id="64070">
            <name>Jalan Layang Ciroyom</name>
            <styleUrl>#64071</styleUrl>
            <LineString id="64069">
                <coordinates>107.5869632,-6.9132874,0.0 107.5872762,-6.9134317,0.0</coordinates>
            </LineString>
        </Placemark>
        <Placemark id="64074">
            <name>Jalan Layang Ciroyom</name>
            <styleUrl>#64075</styleUrl>
            <LineString id="64073">
                <coordinates>107.5893166,-6.9121005,0.0 107.5893455,-6.911919,0.0</coordinates>
            </LineString>
        </Placemark>
        <Placemark id="64078">
            <name>Jalan Layang Ciroyom</name>
            <styleUrl>#64079</styleUrl>
            <LineString id="64077">
                <coordinates>107.5872762,-6.9134317,0.0 107.588191,-6.9137939,0.0 107.588437,-6.9138722,0.0 107.5885401,-6.9138874,0.0 107.5886196,-6.9138868,0.0 107.588728,-6.9138625,0.0 107.5888188,-6.9138239,0.0 107.588893,-6.9137668,0.0 107.5889601,-6.9136911,0.0 107.5889978,-6.9136299,0.0 107.5890371,-6.9135543,0.0 107.5890714,-6.9134484,0.0 107.589096,-6.9133449,0.0 107.5891155,-6.9132456,0.0 107.5893166,-6.9121005,0.0</coordinates>
            </LineString>
        </Placemark>
        <Placemark id="64082">
            <name>Jalan Pajajaran</name>
            <styleUrl>#64083</styleUrl>
            <LineString id="64081">
                <coordinates>107.5877685,-6.9067842,0.0 107.5878368,-6.9067717,0.0 107.5878467,-6.9067699,0.0 107.5879251,-6.9067629,0.0 107.5879557,-6.9067619,0.0 107.5880056,-6.9067602,0.0 107.5881625,-6.9067702,0.0 107.588219,-6.9067739,0.0</coordinates>
            </LineString>
        </Placemark>
        <Placemark id="64086">
            <name>Jalan Dr. Setiabudi</name>
            <styleUrl>#64087</styleUrl>
            <LineString id="64085">
                <coordinates>107.5936179,-6.8707823,0.0 107.5937463,-6.8711539,0.0 107.5937922,-6.8712782,0.0 107.593895,-6.8715029,0.0 107.5940693,-6.8717924,0.0 107.5944136,-6.8722322,0.0 107.5948065,-6.8727176,0.0 107.5949802,-6.8729249,0.0 107.5951113,-6.8730936,0.0 107.5955371,-6.8736221,0.0 107.5956623,-6.8737793,0.0 107.5956814,-6.8738055,0.0 107.5956912,-6.8738171,0.0 107.5957307,-6.8738828,0.0 107.5957592,-6.8739356,0.0 107.5957878,-6.8739884,0.0 107.5958267,-6.874066,0.0</coordinates>
            </LineString>
        </Placemark>
        <Placemark id="64090">
            <name>Jalan Pasir Kaliki</name>
            <styleUrl>#64091</styleUrl>
            <LineString id="64089">
                <coordinates>107.5972895,-6.8968371,0.0 107.5972816,-6.8966817,0.0</coordinates>
            </LineString>
        </Placemark>
        <Placemark id="64094">
            <name>Jalan Dr. Setiabudi</name>
            <styleUrl>#64095</styleUrl>
            <LineString id="64093">
                <coordinates>107.5935249,-6.8704256,0.0 107.5936179,-6.8707823,0.0</coordinates>
            </LineString>
        </Placemark>
        <Placemark id="64098">
            <name>Jalan Layang Ciroyom</name>
            <styleUrl>#64099</styleUrl>
            <LineString id="64097">
                <coordinates>107.5867539,-6.9131493,0.0 107.5868152,-6.9131915,0.0 107.5868754,-6.9132297,0.0 107.5869632,-6.9132874,0.0</coordinates>
            </LineString>
        </Placemark>
        <Placemark id="64102">
            <name>Jalan Ciroyom</name>
            <styleUrl>#64103</styleUrl>
            <LineString id="64101">
                <coordinates>107.5872252,-6.9135056,0.0 107.5868064,-6.9132825,0.0 107.5867121,-6.9132166,0.0</coordinates>
            </LineString>
        </Placemark>
        <Placemark id="64106">
            <name>Route Segment</name>
            <styleUrl>#64107</styleUrl>
            <LineString id="64105">
                <coordinates>107.5860843,-6.9128486,0.0 107.5860597,-6.9128206,0.0 107.5860543,-6.912807,0.0 107.586055,-6.9127863,0.0 107.5860709,-6.9127681,0.0 107.5860877,-6.9127622,0.0 107.586119,-6.9127619,0.0</coordinates>
            </LineString>
        </Placemark>
        <Placemark id="64110">
            <name>Jalan Dr. Setiabudi</name>
            <styleUrl>#64111</styleUrl>
            <LineString id="64109">
                <coordinates>107.5948433,-6.8593552,0.0 107.5948312,-6.8594241,0.0 107.5948088,-6.859551,0.0</coordinates>
            </LineString>
        </Placemark>
        <Placemark id="64114">
            <name>Jalan Dr. Setiabudi</name>
            <styleUrl>#64115</styleUrl>
            <LineString id="64113">
                <coordinates>107.5948052,-6.8595708,0.0 107.594757,-6.8600369,0.0 107.5947527,-6.8600724,0.0 107.5947487,-6.8601046,0.0</coordinates>
            </LineString>
        </Placemark>
        <Placemark id="64118">
            <name>Jalan Dr. Setiabudi</name>
            <styleUrl>#64119</styleUrl>
            <LineString id="64117">
                <coordinates>107.5948088,-6.859551,0.0 107.5948052,-6.8595708,0.0</coordinates>
            </LineString>
        </Placemark>
        <Placemark id="64122">
            <name>Jalan Dr. Setiabudi</name>
            <styleUrl>#64123</styleUrl>
            <LineString id="64121">
                <coordinates>107.5949303,-6.8588435,0.0 107.594917,-6.8589109,0.0</coordinates>
            </LineString>
        </Placemark>
        <Placemark id="64126">
            <name>Jalan Layang Ciroyom</name>
            <styleUrl>#64127</styleUrl>
            <LineString id="64125">
                <coordinates>107.5893455,-6.911919,0.0 107.589345,-6.9118194,0.0 107.5893383,-6.9117366,0.0</coordinates>
            </LineString>
        </Placemark>
        <Placemark id="64130">
            <name>Jalan Arjuna</name>
            <styleUrl>#64131</styleUrl>
            <LineString id="64129">
                <coordinates>107.5893951,-6.9113257,0.0 107.589384,-6.9113111,0.0 107.5893783,-6.9112937,0.0</coordinates>
            </LineString>
        </Placemark>
        <Placemark id="64134">
            <name>Jalan Arjuna</name>
            <styleUrl>#64135</styleUrl>
            <LineString id="64133">
                <coordinates>107.5893383,-6.9117366,0.0 107.5893578,-6.9116214,0.0 107.5893778,-6.911519,0.0 107.589394,-6.9114111,0.0 107.5893951,-6.9113257,0.0</coordinates>
            </LineString>
        </Placemark>
        <Placemark id="64138">
            <name>Jalan Ciroyom</name>
            <styleUrl>#64139</styleUrl>
            <LineString id="64137">
                <coordinates>107.586119,-6.9127619,0.0 107.5867539,-6.9131493,0.0</coordinates>
            </LineString>
        </Placemark>
        <Placemark id="64142">
            <name>Jalan Pasir Kaliki</name>
            <styleUrl>#64143</styleUrl>
            <LineString id="64141">
                <coordinates>107.5973572,-6.8990747,0.0 107.5973543,-6.8990234,0.0</coordinates>
            </LineString>
        </Placemark>
        <Placemark id="64146">
            <name>Jalan Pasir Kaliki</name>
            <styleUrl>#64147</styleUrl>
            <LineString id="64145">
                <coordinates>107.5973543,-6.8990234,0.0 107.5973503,-6.8989275,0.0</coordinates>
            </LineString>
        </Placemark>
        <Placemark id="64150">
            <name>Jalan Pasir Kaliki</name>
            <styleUrl>#64151</styleUrl>
            <LineString id="64149">
                <coordinates>107.5973452,-6.8999212,0.0 107.5973408,-6.8998291,0.0</coordinates>
            </LineString>
        </Placemark>
        <Placemark id="64154">
            <name>Jalan Pasir Kaliki</name>
            <styleUrl>#64155</styleUrl>
            <LineString id="64153">
                <coordinates>107.5973408,-6.8998291,0.0 107.5973293,-6.8994991,0.0 107.5973312,-6.8994022,0.0 107.5973423,-6.8991445,0.0 107.5973572,-6.8990747,0.0</coordinates>
            </LineString>
        </Placemark>
        <Placemark id="64158">
            <name>Jalan Raya Lembang</name>
            <styleUrl>#64159</styleUrl>
            <LineString id="64157">
                <coordinates>107.6142297,-6.8149459,0.0 107.6145547,-6.8144376,0.0 107.6145626,-6.8144258,0.0 107.6147043,-6.8141963,0.0 107.6147495,-6.8141269,0.0 107.6147783,-6.8140802,0.0 107.6150419,-6.8136622,0.0 107.6150919,-6.8135831,0.0 107.6151623,-6.8134735,0.0 107.615349,-6.8131827,0.0 107.6153978,-6.8131034,0.0 107.6157395,-6.8125659,0.0 107.615748,-6.8125526,0.0 107.6158578,-6.8123797,0.0 107.6162546,-6.811768,0.0 107.6162848,-6.81172,0.0 107.6163166,-6.8116894,0.0 107.6163532,-6.8116608,0.0 107.6163789,-6.811649,0.0</coordinates>
            </LineString>
        </Placemark>
        <Placemark id="64162">
            <name>Jalan Dr. Setiabudi</name>
            <styleUrl>#64163</styleUrl>
            <LineString id="64161">
                <coordinates>107.5946342,-6.8634956,0.0 107.594575,-6.8635338,0.0 107.5945119,-6.8636016,0.0 107.594469,-6.8636686,0.0 107.5943936,-6.8638479,0.0</coordinates>
            </LineString>
        </Placemark>
        <Placemark id="64166">
            <name>Jalan Dr. Setiabudi</name>
            <styleUrl>#64167</styleUrl>
            <LineString id="64165">
                <coordinates>107.5940961,-6.8651081,0.0 107.5940725,-6.8650563,0.0 107.594078,-6.8649955,0.0 107.5941115,-6.864801,0.0</coordinates>
            </LineString>
        </Placemark>
        <Placemark id="64170">
            <name>Jalan Ciroyom</name>
            <styleUrl>#64171</styleUrl>
            <LineString id="64169">
                <coordinates>107.5867121,-6.9132166,0.0 107.586425,-6.9130541,0.0</coordinates>
            </LineString>
        </Placemark>
        <Placemark id="64174">
            <name>Jalan Ciroyom</name>
            <styleUrl>#64175</styleUrl>
            <LineString id="64173">
                <coordinates>107.586425,-6.9130541,0.0 107.5860843,-6.9128486,0.0</coordinates>
            </LineString>
        </Placemark>
    </Document>
</kml>
