<?xml version="1.0" encoding="UTF-8"?>
<kml xmlns="http://www.opengis.net/kml/2.2" xmlns:gx="http://www.google.com/kml/ext/2.2">
    <Document id="74208">
        <Style id="74214">
            <IconStyle id="74215">
                <colorMode>normal</colorMode>
                <scale>1</scale>
                <heading>0</heading>
                <Icon id="74216">
                    <href>http://maps.google.com/mapfiles/kml/pushpin/ylw-pushpin.png</href>
                </Icon>
            </IconStyle>
        </Style>
        <Style id="74219">
            <IconStyle id="74220">
                <colorMode>normal</colorMode>
                <scale>1</scale>
                <heading>0</heading>
                <Icon id="74221">
                    <href>http://maps.google.com/mapfiles/kml/pushpin/ylw-pushpin.png</href>
                </Icon>
            </IconStyle>
        </Style>
        <Style id="74224">
            <LineStyle id="74225">
                <color>ff0000ff</color>
                <colorMode>normal</colorMode>
                <width>4</width>
            </LineStyle>
        </Style>
        <Style id="74228">
            <LineStyle id="74229">
                <color>ff0000ff</color>
                <colorMode>normal</colorMode>
                <width>4</width>
            </LineStyle>
        </Style>
        <Style id="74232">
            <LineStyle id="74233">
                <color>ff0000ff</color>
                <colorMode>normal</colorMode>
                <width>4</width>
            </LineStyle>
        </Style>
        <Style id="74236">
            <LineStyle id="74237">
                <color>ff0000ff</color>
                <colorMode>normal</colorMode>
                <width>4</width>
            </LineStyle>
        </Style>
        <Style id="74240">
            <LineStyle id="74241">
                <color>ff0000ff</color>
                <colorMode>normal</colorMode>
                <width>4</width>
            </LineStyle>
        </Style>
        <Style id="74244">
            <LineStyle id="74245">
                <color>ff0000ff</color>
                <colorMode>normal</colorMode>
                <width>4</width>
            </LineStyle>
        </Style>
        <Style id="74248">
            <LineStyle id="74249">
                <color>ff0000ff</color>
                <colorMode>normal</colorMode>
                <width>4</width>
            </LineStyle>
        </Style>
        <Style id="74252">
            <LineStyle id="74253">
                <color>ff0000ff</color>
                <colorMode>normal</colorMode>
                <width>4</width>
            </LineStyle>
        </Style>
        <Style id="74256">
            <LineStyle id="74257">
                <color>ff0000ff</color>
                <colorMode>normal</colorMode>
                <width>4</width>
            </LineStyle>
        </Style>
        <Style id="74260">
            <LineStyle id="74261">
                <color>ff0000ff</color>
                <colorMode>normal</colorMode>
                <width>4</width>
            </LineStyle>
        </Style>
        <Style id="74264">
            <LineStyle id="74265">
                <color>ff0000ff</color>
                <colorMode>normal</colorMode>
                <width>4</width>
            </LineStyle>
        </Style>
        <Style id="74268">
            <LineStyle id="74269">
                <color>ff0000ff</color>
                <colorMode>normal</colorMode>
                <width>4</width>
            </LineStyle>
        </Style>
        <Style id="74272">
            <LineStyle id="74273">
                <color>ff0000ff</color>
                <colorMode>normal</colorMode>
                <width>4</width>
            </LineStyle>
        </Style>
        <Style id="74276">
            <LineStyle id="74277">
                <color>ff0000ff</color>
                <colorMode>normal</colorMode>
                <width>4</width>
            </LineStyle>
        </Style>
        <Style id="74280">
            <LineStyle id="74281">
                <color>ff0000ff</color>
                <colorMode>normal</colorMode>
                <width>4</width>
            </LineStyle>
        </Style>
        <Style id="74284">
            <LineStyle id="74285">
                <color>ff0000ff</color>
                <colorMode>normal</colorMode>
                <width>4</width>
            </LineStyle>
        </Style>
        <Style id="74288">
            <LineStyle id="74289">
                <color>ff0000ff</color>
                <colorMode>normal</colorMode>
                <width>4</width>
            </LineStyle>
        </Style>
        <Style id="74292">
            <LineStyle id="74293">
                <color>ff0000ff</color>
                <colorMode>normal</colorMode>
                <width>4</width>
            </LineStyle>
        </Style>
        <Style id="74296">
            <LineStyle id="74297">
                <color>ff0000ff</color>
                <colorMode>normal</colorMode>
                <width>4</width>
            </LineStyle>
        </Style>
        <Style id="74300">
            <LineStyle id="74301">
                <color>ff0000ff</color>
                <colorMode>normal</colorMode>
                <width>4</width>
            </LineStyle>
        </Style>
        <ExtendedData>
            <Data name="route-name">
                <value>928: Elang → Melong Asih</value>
            </Data>
            <Data name="source">
                <value>Transport for Bandung</value>
            </Data>
        </ExtendedData>
        <Placemark id="74213">
            <name>Terminal Elang</name>
            <styleUrl>#74214</styleUrl>
            <Point id="74212">
                <coordinates>107.5755571,-6.9135373,0.0</coordinates>
            </Point>
        </Placemark>
        <Placemark id="74218">
            <name>Perumnas Cijerah</name>
            <styleUrl>#74219</styleUrl>
            <Point id="74217">
                <coordinates>107.5589046,-6.9298,0.0</coordinates>
            </Point>
        </Placemark>
        <Placemark id="74223">
            <name>Jalan Melong Asih</name>
            <styleUrl>#74224</styleUrl>
            <LineString id="74222">
                <coordinates>107.5698295,-6.9203328,0.0 107.569432,-6.9202202,0.0 107.5693956,-6.9202092,0.0 107.569259,-6.9201687,0.0 107.5690239,-6.9200977,0.0 107.568966,-6.9200781,0.0 107.568439,-6.9199139,0.0 107.56802,-6.919793,0.0 107.5676324,-6.9197187,0.0 107.5674274,-6.9196845,0.0 107.5673556,-6.9196723,0.0 107.566862,-6.9195903,0.0 107.5665364,-6.9195503,0.0 107.5663205,-6.9195125,0.0 107.5662402,-6.9194965,0.0 107.5661423,-6.9194769,0.0 107.5659981,-6.9194481,0.0 107.5657023,-6.9194166,0.0 107.5656171,-6.9194045,0.0 107.5654555,-6.9193815,0.0</coordinates>
            </LineString>
        </Placemark>
        <Placemark id="74227">
            <name>Route Segment</name>
            <styleUrl>#74228</styleUrl>
            <LineString id="74226">
                <coordinates>107.5586967,-6.9277996,0.0 107.5586622,-6.9277958,0.0 107.5586306,-6.9277883,0.0 107.5586226,-6.9276973,0.0 107.5586233,-6.9276509,0.0 107.5586187,-6.9274589,0.0 107.5586449,-6.9271019,0.0 107.558652,-6.9269558,0.0 107.5586611,-6.9268089,0.0 107.5586682,-6.926488,0.0 107.5586768,-6.9261716,0.0 107.5586866,-6.9258613,0.0 107.5586881,-6.9258162,0.0 107.5586978,-6.9255421,0.0 107.5587114,-6.9252273,0.0 107.5587149,-6.9249293,0.0 107.5587303,-6.9246097,0.0 107.558733,-6.9242808,0.0 107.5587356,-6.9240478,0.0 107.5587365,-6.9239975,0.0 107.5587343,-6.9237063,0.0 107.558742,-6.923674,0.0 107.5587593,-6.9236452,0.0 107.5587811,-6.9236329,0.0 107.5588064,-6.9236251,0.0 107.5588453,-6.9236234,0.0 107.558905,-6.9236274,0.0 107.559251,-6.9236504,0.0 107.5595078,-6.9236617,0.0 107.56,-6.9236905,0.0 107.5604338,-6.9237076,0.0</coordinates>
            </LineString>
        </Placemark>
        <Placemark id="74231">
            <name>Jalan Elang</name>
            <styleUrl>#74232</styleUrl>
            <LineString id="74230">
                <coordinates>107.5755571,-6.9135373,0.0 107.5754392,-6.9138457,0.0 107.5752572,-6.9143562,0.0 107.5749328,-6.9153687,0.0 107.5748897,-6.9155407,0.0</coordinates>
            </LineString>
        </Placemark>
        <Placemark id="74235">
            <name>Jalan Melong Raya</name>
            <styleUrl>#74236</styleUrl>
            <LineString id="74234">
                <coordinates>107.5629069,-6.9237909,0.0 107.562922,-6.9234235,0.0 107.5629335,-6.923132,0.0 107.5629434,-6.9228139,0.0 107.5629524,-6.9224952,0.0 107.5629657,-6.922185,0.0 107.5629703,-6.9218728,0.0 107.5629801,-6.9215594,0.0 107.5629948,-6.9212524,0.0 107.5630076,-6.9209476,0.0</coordinates>
            </LineString>
        </Placemark>
        <Placemark id="74239">
            <name>Jalan Raya Cijerah</name>
            <styleUrl>#74240</styleUrl>
            <LineString id="74238">
                <coordinates>107.5700698,-6.9196362,0.0 107.5701063,-6.9195043,0.0 107.5701539,-6.9193649,0.0 107.5702336,-6.9191564,0.0 107.5703003,-6.91901,0.0 107.570468,-6.9185588,0.0 107.570555,-6.9183325,0.0 107.5706007,-6.918216,0.0 107.5706066,-6.9181993,0.0 107.5706466,-6.9180981,0.0 107.57071,-6.9179149,0.0 107.5707288,-6.9178384,0.0 107.5707434,-6.917782,0.0 107.5707595,-6.9176768,0.0 107.5707809,-6.9175368,0.0 107.5708036,-6.9174068,0.0 107.5708564,-6.9170528,0.0 107.5708964,-6.916782,0.0 107.570926,-6.9166096,0.0 107.5709729,-6.9163041,0.0 107.5710128,-6.9161379,0.0 107.571053,-6.9159991,0.0 107.5711184,-6.9157735,0.0 107.5711273,-6.9157427,0.0 107.5711502,-6.9156749,0.0 107.571235,-6.915424,0.0 107.5712548,-6.9153576,0.0 107.5713267,-6.9151148,0.0 107.571449,-6.9147677,0.0 107.5714752,-6.9147131,0.0 107.5715151,-6.9146659,0.0</coordinates>
            </LineString>
        </Placemark>
        <Placemark id="74243">
            <name>Jalan Melong Raya</name>
            <styleUrl>#74244</styleUrl>
            <LineString id="74242">
                <coordinates>107.5634084,-6.9188942,0.0 107.5631403,-6.9194626,0.0 107.5630832,-6.9196471,0.0 107.5630493,-6.9197799,0.0 107.5630346,-6.919877,0.0</coordinates>
            </LineString>
        </Placemark>
        <Placemark id="74247">
            <name>Route Segment</name>
            <styleUrl>#74248</styleUrl>
            <LineString id="74246">
                <coordinates>107.5604338,-6.9237076,0.0 107.5609508,-6.9237179,0.0 107.5614354,-6.9237435,0.0 107.5619145,-6.9237527,0.0 107.5621425,-6.9237617,0.0 107.562444,-6.9237742,0.0 107.5626577,-6.923783,0.0</coordinates>
            </LineString>
        </Placemark>
        <Placemark id="74251">
            <name>Route Segment</name>
            <styleUrl>#74252</styleUrl>
            <LineString id="74250">
                <coordinates>107.5593449,-6.9278314,0.0 107.5593359,-6.9281692,0.0 107.5593177,-6.9284721,0.0 107.5593226,-6.9287934,0.0 107.559307,-6.9289941,0.0 107.5592714,-6.9291132,0.0 107.5591124,-6.9294052,0.0 107.5589753,-6.929665,0.0 107.5589046,-6.9298,0.0</coordinates>
            </LineString>
        </Placemark>
        <Placemark id="74255">
            <name>Jalan Melong Asih</name>
            <styleUrl>#74256</styleUrl>
            <LineString id="74254">
                <coordinates>107.5654555,-6.9193815,0.0 107.5653273,-6.9193481,0.0</coordinates>
            </LineString>
        </Placemark>
        <Placemark id="74259">
            <name>Jalan Melong Asih</name>
            <styleUrl>#74260</styleUrl>
            <LineString id="74258">
                <coordinates>107.5653273,-6.9193481,0.0 107.5652414,-6.919324,0.0 107.5650728,-6.9192767,0.0 107.5649827,-6.9192556,0.0 107.5646068,-6.9191496,0.0 107.5643519,-6.9190765,0.0 107.5641844,-6.9190202,0.0 107.5640979,-6.9189948,0.0 107.5640446,-6.9189884,0.0 107.5640006,-6.9189861,0.0 107.5639611,-6.9189932,0.0 107.5638409,-6.9190381,0.0 107.5637987,-6.9190447,0.0 107.5637576,-6.9190401,0.0 107.5636399,-6.918991,0.0 107.5635207,-6.9189411,0.0 107.5634084,-6.9188942,0.0</coordinates>
            </LineString>
        </Placemark>
        <Placemark id="74263">
            <name>Route Segment</name>
            <styleUrl>#74264</styleUrl>
            <LineString id="74262">
                <coordinates>107.5626577,-6.923783,0.0 107.5629069,-6.9237909,0.0</coordinates>
            </LineString>
        </Placemark>
        <Placemark id="74267">
            <name>Route Segment</name>
            <styleUrl>#74268</styleUrl>
            <LineString id="74266">
                <coordinates>107.5593449,-6.9278314,0.0 107.5586967,-6.9277996,0.0</coordinates>
            </LineString>
        </Placemark>
        <Placemark id="74271">
            <name>Jalan Melong Raya</name>
            <styleUrl>#74272</styleUrl>
            <LineString id="74270">
                <coordinates>107.5630346,-6.919877,0.0 107.5630417,-6.9199285,0.0 107.5630384,-6.9200092,0.0 107.5630206,-6.9203559,0.0 107.5630134,-6.9206462,0.0 107.5630076,-6.9209476,0.0</coordinates>
            </LineString>
        </Placemark>
        <Placemark id="74275">
            <name>Route Segment</name>
            <styleUrl>#74276</styleUrl>
            <LineString id="74274">
                <coordinates>107.5725721,-6.916133,0.0 107.5726494,-6.9160588,0.0</coordinates>
            </LineString>
        </Placemark>
        <Placemark id="74279">
            <name>Jalan Elang</name>
            <styleUrl>#74280</styleUrl>
            <LineString id="74278">
                <coordinates>107.5748897,-6.9155407,0.0 107.5748405,-6.9157106,0.0 107.5747136,-6.9160776,0.0 107.5746349,-6.9162861,0.0 107.5745343,-6.9165393,0.0 107.5744542,-6.9167428,0.0 107.5744284,-6.9168081,0.0 107.574422,-6.9168274,0.0 107.5743886,-6.9169098,0.0 107.5743593,-6.9169831,0.0</coordinates>
            </LineString>
        </Placemark>
        <Placemark id="74283">
            <name>Jalan Jendral Sudirman</name>
            <styleUrl>#74284</styleUrl>
            <LineString id="74282">
                <coordinates>107.5741781,-6.9171402,0.0 107.5739782,-6.9170834,0.0</coordinates>
            </LineString>
        </Placemark>
        <Placemark id="74287">
            <name>Bunderan Cibeureum</name>
            <styleUrl>#74288</styleUrl>
            <LineString id="74286">
                <coordinates>107.5743593,-6.9169831,0.0 107.5743057,-6.917003,0.0 107.5742604,-6.9170262,0.0 107.5742223,-6.9170598,0.0 107.5741939,-6.9171018,0.0 107.5741781,-6.9171402,0.0</coordinates>
            </LineString>
        </Placemark>
        <Placemark id="74291">
            <name>Jalan Raya Cijerah</name>
            <styleUrl>#74292</styleUrl>
            <LineString id="74290">
                <coordinates>107.5698295,-6.9203328,0.0 107.5698625,-6.9202502,0.0 107.5699734,-6.9199722,0.0 107.5699912,-6.9199186,0.0 107.570031,-6.9197761,0.0 107.5700698,-6.9196362,0.0</coordinates>
            </LineString>
        </Placemark>
        <Placemark id="74295">
            <name>Jalan Jendral Sudirman</name>
            <styleUrl>#74296</styleUrl>
            <LineString id="74294">
                <coordinates>107.5725721,-6.916133,0.0 107.5723979,-6.9159874,0.0 107.5723395,-6.9159333,0.0 107.5722759,-6.9158629,0.0 107.5722121,-6.9157842,0.0 107.5721531,-6.915707,0.0 107.5720994,-6.9156231,0.0 107.5720549,-6.9155598,0.0 107.5719123,-6.9153326,0.0 107.5718695,-6.9152634,0.0 107.5717819,-6.9151024,0.0 107.5717255,-6.9150035,0.0 107.5715151,-6.9146659,0.0</coordinates>
            </LineString>
        </Placemark>
        <Placemark id="74299">
            <name>Jalan Jendral Sudirman</name>
            <styleUrl>#74300</styleUrl>
            <LineString id="74298">
                <coordinates>107.5739782,-6.9170834,0.0 107.573923,-6.9170553,0.0 107.5738704,-6.9170283,0.0 107.5738338,-6.917006,0.0 107.5737998,-6.9169824,0.0 107.5734252,-6.9166919,0.0 107.5732134,-6.9165099,0.0 107.5730056,-6.9163499,0.0 107.5728826,-6.9162495,0.0 107.5727925,-6.9161762,0.0 107.5726494,-6.9160588,0.0</coordinates>
            </LineString>
        </Placemark>
    </Document>
</kml>
