<?xml version="1.0" encoding="UTF-8"?>
<kml xmlns="http://www.opengis.net/kml/2.2" xmlns:gx="http://www.google.com/kml/ext/2.2">
    <Document id="75851">
        <Style id="75857">
            <IconStyle id="75858">
                <colorMode>normal</colorMode>
                <scale>1</scale>
                <heading>0</heading>
                <Icon id="75859">
                    <href>http://maps.google.com/mapfiles/kml/pushpin/ylw-pushpin.png</href>
                </Icon>
            </IconStyle>
        </Style>
        <Style id="75862">
            <IconStyle id="75863">
                <colorMode>normal</colorMode>
                <scale>1</scale>
                <heading>0</heading>
                <Icon id="75864">
                    <href>http://maps.google.com/mapfiles/kml/pushpin/ylw-pushpin.png</href>
                </Icon>
            </IconStyle>
        </Style>
        <Style id="75867">
            <LineStyle id="75868">
                <color>ff356615</color>
                <colorMode>normal</colorMode>
                <width>4</width>
            </LineStyle>
        </Style>
        <Style id="75871">
            <LineStyle id="75872">
                <color>ff356615</color>
                <colorMode>normal</colorMode>
                <width>4</width>
            </LineStyle>
        </Style>
        <Style id="75875">
            <LineStyle id="75876">
                <color>ff356615</color>
                <colorMode>normal</colorMode>
                <width>4</width>
            </LineStyle>
        </Style>
        <Style id="75879">
            <LineStyle id="75880">
                <color>ff356615</color>
                <colorMode>normal</colorMode>
                <width>4</width>
            </LineStyle>
        </Style>
        <Style id="75883">
            <LineStyle id="75884">
                <color>ff356615</color>
                <colorMode>normal</colorMode>
                <width>4</width>
            </LineStyle>
        </Style>
        <Style id="75887">
            <LineStyle id="75888">
                <color>ff356615</color>
                <colorMode>normal</colorMode>
                <width>4</width>
            </LineStyle>
        </Style>
        <Style id="75891">
            <LineStyle id="75892">
                <color>ff356615</color>
                <colorMode>normal</colorMode>
                <width>4</width>
            </LineStyle>
        </Style>
        <Style id="75895">
            <LineStyle id="75896">
                <color>ff356615</color>
                <colorMode>normal</colorMode>
                <width>4</width>
            </LineStyle>
        </Style>
        <Style id="75899">
            <LineStyle id="75900">
                <color>ff356615</color>
                <colorMode>normal</colorMode>
                <width>4</width>
            </LineStyle>
        </Style>
        <Style id="75903">
            <LineStyle id="75904">
                <color>ff356615</color>
                <colorMode>normal</colorMode>
                <width>4</width>
            </LineStyle>
        </Style>
        <Style id="75907">
            <LineStyle id="75908">
                <color>ff356615</color>
                <colorMode>normal</colorMode>
                <width>4</width>
            </LineStyle>
        </Style>
        <Style id="75911">
            <LineStyle id="75912">
                <color>ff356615</color>
                <colorMode>normal</colorMode>
                <width>4</width>
            </LineStyle>
        </Style>
        <Style id="75915">
            <LineStyle id="75916">
                <color>ff356615</color>
                <colorMode>normal</colorMode>
                <width>4</width>
            </LineStyle>
        </Style>
        <Style id="75919">
            <LineStyle id="75920">
                <color>ff356615</color>
                <colorMode>normal</colorMode>
                <width>4</width>
            </LineStyle>
        </Style>
        <Style id="75923">
            <LineStyle id="75924">
                <color>ff356615</color>
                <colorMode>normal</colorMode>
                <width>4</width>
            </LineStyle>
        </Style>
        <Style id="75927">
            <LineStyle id="75928">
                <color>ff356615</color>
                <colorMode>normal</colorMode>
                <width>4</width>
            </LineStyle>
        </Style>
        <Style id="75931">
            <LineStyle id="75932">
                <color>ff356615</color>
                <colorMode>normal</colorMode>
                <width>4</width>
            </LineStyle>
        </Style>
        <Style id="75935">
            <LineStyle id="75936">
                <color>ff356615</color>
                <colorMode>normal</colorMode>
                <width>4</width>
            </LineStyle>
        </Style>
        <Style id="75939">
            <LineStyle id="75940">
                <color>ff356615</color>
                <colorMode>normal</colorMode>
                <width>4</width>
            </LineStyle>
        </Style>
        <Style id="75943">
            <LineStyle id="75944">
                <color>ff356615</color>
                <colorMode>normal</colorMode>
                <width>4</width>
            </LineStyle>
        </Style>
        <Style id="75947">
            <LineStyle id="75948">
                <color>ff356615</color>
                <colorMode>normal</colorMode>
                <width>4</width>
            </LineStyle>
        </Style>
        <Style id="75951">
            <LineStyle id="75952">
                <color>ff356615</color>
                <colorMode>normal</colorMode>
                <width>4</width>
            </LineStyle>
        </Style>
        <Style id="75955">
            <LineStyle id="75956">
                <color>ff356615</color>
                <colorMode>normal</colorMode>
                <width>4</width>
            </LineStyle>
        </Style>
        <Style id="75959">
            <LineStyle id="75960">
                <color>ff356615</color>
                <colorMode>normal</colorMode>
                <width>4</width>
            </LineStyle>
        </Style>
        <Style id="75963">
            <LineStyle id="75964">
                <color>ff356615</color>
                <colorMode>normal</colorMode>
                <width>4</width>
            </LineStyle>
        </Style>
        <Style id="75967">
            <LineStyle id="75968">
                <color>ff356615</color>
                <colorMode>normal</colorMode>
                <width>4</width>
            </LineStyle>
        </Style>
        <Style id="75971">
            <LineStyle id="75972">
                <color>ff356615</color>
                <colorMode>normal</colorMode>
                <width>4</width>
            </LineStyle>
        </Style>
        <Style id="75975">
            <LineStyle id="75976">
                <color>ff356615</color>
                <colorMode>normal</colorMode>
                <width>4</width>
            </LineStyle>
        </Style>
        <Style id="75979">
            <LineStyle id="75980">
                <color>ff356615</color>
                <colorMode>normal</colorMode>
                <width>4</width>
            </LineStyle>
        </Style>
        <Style id="75983">
            <LineStyle id="75984">
                <color>ff356615</color>
                <colorMode>normal</colorMode>
                <width>4</width>
            </LineStyle>
        </Style>
        <Style id="75987">
            <LineStyle id="75988">
                <color>ff356615</color>
                <colorMode>normal</colorMode>
                <width>4</width>
            </LineStyle>
        </Style>
        <Style id="75991">
            <LineStyle id="75992">
                <color>ff356615</color>
                <colorMode>normal</colorMode>
                <width>4</width>
            </LineStyle>
        </Style>
        <Style id="75995">
            <LineStyle id="75996">
                <color>ff356615</color>
                <colorMode>normal</colorMode>
                <width>4</width>
            </LineStyle>
        </Style>
        <Style id="75999">
            <LineStyle id="76000">
                <color>ff356615</color>
                <colorMode>normal</colorMode>
                <width>4</width>
            </LineStyle>
        </Style>
        <Style id="76003">
            <LineStyle id="76004">
                <color>ff356615</color>
                <colorMode>normal</colorMode>
                <width>4</width>
            </LineStyle>
        </Style>
        <Style id="76007">
            <LineStyle id="76008">
                <color>ff356615</color>
                <colorMode>normal</colorMode>
                <width>4</width>
            </LineStyle>
        </Style>
        <Style id="76011">
            <LineStyle id="76012">
                <color>ff356615</color>
                <colorMode>normal</colorMode>
                <width>4</width>
            </LineStyle>
        </Style>
        <Style id="76015">
            <LineStyle id="76016">
                <color>ff356615</color>
                <colorMode>normal</colorMode>
                <width>4</width>
            </LineStyle>
        </Style>
        <Style id="76019">
            <LineStyle id="76020">
                <color>ff356615</color>
                <colorMode>normal</colorMode>
                <width>4</width>
            </LineStyle>
        </Style>
        <Style id="76023">
            <LineStyle id="76024">
                <color>ff356615</color>
                <colorMode>normal</colorMode>
                <width>4</width>
            </LineStyle>
        </Style>
        <Style id="76027">
            <LineStyle id="76028">
                <color>ff356615</color>
                <colorMode>normal</colorMode>
                <width>4</width>
            </LineStyle>
        </Style>
        <Style id="76031">
            <LineStyle id="76032">
                <color>ff356615</color>
                <colorMode>normal</colorMode>
                <width>4</width>
            </LineStyle>
        </Style>
        <Style id="76035">
            <LineStyle id="76036">
                <color>ff356615</color>
                <colorMode>normal</colorMode>
                <width>4</width>
            </LineStyle>
        </Style>
        <Style id="76039">
            <LineStyle id="76040">
                <color>ff356615</color>
                <colorMode>normal</colorMode>
                <width>4</width>
            </LineStyle>
        </Style>
        <Style id="76043">
            <LineStyle id="76044">
                <color>ff356615</color>
                <colorMode>normal</colorMode>
                <width>4</width>
            </LineStyle>
        </Style>
        <Style id="76047">
            <LineStyle id="76048">
                <color>ff356615</color>
                <colorMode>normal</colorMode>
                <width>4</width>
            </LineStyle>
        </Style>
        <Style id="76051">
            <LineStyle id="76052">
                <color>ff356615</color>
                <colorMode>normal</colorMode>
                <width>4</width>
            </LineStyle>
        </Style>
        <Style id="76055">
            <LineStyle id="76056">
                <color>ff356615</color>
                <colorMode>normal</colorMode>
                <width>4</width>
            </LineStyle>
        </Style>
        <Style id="76059">
            <LineStyle id="76060">
                <color>ff356615</color>
                <colorMode>normal</colorMode>
                <width>4</width>
            </LineStyle>
        </Style>
        <Style id="76063">
            <LineStyle id="76064">
                <color>ff356615</color>
                <colorMode>normal</colorMode>
                <width>4</width>
            </LineStyle>
        </Style>
        <Style id="76067">
            <LineStyle id="76068">
                <color>ff356615</color>
                <colorMode>normal</colorMode>
                <width>4</width>
            </LineStyle>
        </Style>
        <Style id="76071">
            <LineStyle id="76072">
                <color>ff356615</color>
                <colorMode>normal</colorMode>
                <width>4</width>
            </LineStyle>
        </Style>
        <Style id="76075">
            <LineStyle id="76076">
                <color>ff356615</color>
                <colorMode>normal</colorMode>
                <width>4</width>
            </LineStyle>
        </Style>
        <Style id="76079">
            <LineStyle id="76080">
                <color>ff356615</color>
                <colorMode>normal</colorMode>
                <width>4</width>
            </LineStyle>
        </Style>
        <Style id="76083">
            <LineStyle id="76084">
                <color>ff356615</color>
                <colorMode>normal</colorMode>
                <width>4</width>
            </LineStyle>
        </Style>
        <Style id="76087">
            <LineStyle id="76088">
                <color>ff356615</color>
                <colorMode>normal</colorMode>
                <width>4</width>
            </LineStyle>
        </Style>
        <Style id="76091">
            <LineStyle id="76092">
                <color>ff356615</color>
                <colorMode>normal</colorMode>
                <width>4</width>
            </LineStyle>
        </Style>
        <ExtendedData>
            <Data name="route-name">
                <value>933: Baleendah → Kalapa</value>
            </Data>
            <Data name="source">
                <value>Transport for Bandung</value>
            </Data>
        </ExtendedData>
        <Placemark id="75856">
            <name>Kompleks Wartawan</name>
            <styleUrl>#75857</styleUrl>
            <Point id="75855">
                <coordinates>107.6314578,-7.0103989,0.0</coordinates>
            </Point>
        </Placemark>
        <Placemark id="75861">
            <name>Terminal Abdul Muis/Kebon Kalapa</name>
            <styleUrl>#75862</styleUrl>
            <Point id="75860">
                <coordinates>107.6058322,-6.9276428,0.0</coordinates>
            </Point>
        </Placemark>
        <Placemark id="75866">
            <name>Jalan Dewi Sartika</name>
            <styleUrl>#75867</styleUrl>
            <LineString id="75865">
                <coordinates>107.6054273,-6.9316877,0.0 107.6055016,-6.9311384,0.0</coordinates>
            </LineString>
        </Placemark>
        <Placemark id="75870">
            <name>Jalan Mohammad Toha</name>
            <styleUrl>#75871</styleUrl>
            <LineString id="75869">
                <coordinates>107.6135242,-6.9605935,0.0 107.6134967,-6.9605112,0.0 107.6134826,-6.9604693,0.0 107.6134509,-6.9603747,0.0 107.6134491,-6.9603694,0.0 107.6134294,-6.9603107,0.0 107.6133311,-6.9600175,0.0 107.6133004,-6.9599258,0.0 107.6132323,-6.9597228,0.0 107.6132181,-6.9596806,0.0 107.6131861,-6.9595851,0.0 107.6131031,-6.9593374,0.0 107.6130538,-6.9591904,0.0 107.6130199,-6.9590893,0.0 107.6129458,-6.9588707,0.0 107.6129406,-6.9588528,0.0 107.6128675,-6.9586348,0.0 107.6128314,-6.9585167,0.0 107.612791,-6.9584068,0.0 107.6126981,-6.9581152,0.0 107.6126235,-6.957907,0.0 107.6124989,-6.9575355,0.0 107.6124531,-6.9573989,0.0 107.6124293,-6.9573278,0.0 107.6123798,-6.9571801,0.0 107.6123336,-6.9570425,0.0 107.61232,-6.9570018,0.0 107.6123085,-6.9569675,0.0 107.6122717,-6.9568578,0.0 107.6122543,-6.9568058,0.0 107.6122153,-6.9566896,0.0 107.6121788,-6.9565808,0.0 107.6121624,-6.9565318,0.0</coordinates>
            </LineString>
        </Placemark>
        <Placemark id="75874">
            <name>Jalan Mohammad Toha</name>
            <styleUrl>#75875</styleUrl>
            <LineString id="75873">
                <coordinates>107.6062697,-6.9369192,0.0 107.6062734,-6.9368359,0.0 107.6062967,-6.9365546,0.0 107.6063142,-6.9363593,0.0 107.6063233,-6.9362301,0.0 107.6063417,-6.936014,0.0 107.6064406,-6.9346805,0.0 107.6064535,-6.9345182,0.0 107.6064952,-6.9339342,0.0 107.606542,-6.9332805,0.0 107.6065448,-6.9332508,0.0 107.6065614,-6.9329988,0.0 107.6065733,-6.9328659,0.0</coordinates>
            </LineString>
        </Placemark>
        <Placemark id="75878">
            <name>Jalan Dayeuhkolot</name>
            <styleUrl>#75879</styleUrl>
            <LineString id="75877">
                <coordinates>107.6265321,-6.9862119,0.0 107.62626,-6.9862068,0.0 107.6259513,-6.9861907,0.0 107.6254938,-6.9861751,0.0 107.6253066,-6.9861719,0.0 107.624845,-6.9861797,0.0 107.6247579,-6.9861812,0.0 107.6243009,-6.9861882,0.0 107.6241566,-6.9861849,0.0 107.6240862,-6.986158,0.0 107.6239396,-6.9860879,0.0 107.623838,-6.9860341,0.0 107.6236997,-6.9859543,0.0 107.6235813,-6.9858646,0.0 107.6234881,-6.9857543,0.0 107.6234397,-6.9856742,0.0 107.6233888,-6.9855798,0.0 107.6233378,-6.9854426,0.0 107.6232353,-6.9851551,0.0 107.6231774,-6.9849985,0.0 107.6231613,-6.9849509,0.0 107.6230909,-6.9847609,0.0 107.6230366,-6.9846724,0.0 107.6229973,-6.9846241,0.0 107.6229191,-6.9845547,0.0 107.6226198,-6.9843696,0.0 107.6223567,-6.9842428,0.0 107.6217907,-6.9839835,0.0 107.6217008,-6.9839389,0.0 107.6216217,-6.9838876,0.0 107.6215211,-6.9837918,0.0 107.6214896,-6.9837387,0.0 107.6214512,-6.9836741,0.0 107.6213941,-6.9835445,0.0 107.621356,-6.9834348,0.0 107.6212898,-6.983244,0.0 107.6212375,-6.9830936,0.0 107.6211273,-6.9827919,0.0 107.6211214,-6.9827781,0.0 107.6210933,-6.9827029,0.0 107.6210059,-6.9824795,0.0 107.6209885,-6.9824289,0.0 107.620819,-6.9819366,0.0 107.6207502,-6.9817348,0.0 107.6206793,-6.9815355,0.0 107.6205775,-6.9812493,0.0 107.6205442,-6.9811487,0.0 107.6203694,-6.9806363,0.0 107.6201403,-6.9800357,0.0 107.6199301,-6.9794243,0.0 107.6198293,-6.9791473,0.0 107.6198194,-6.9791178,0.0 107.6194795,-6.9781434,0.0 107.6194529,-6.9780717,0.0 107.6194036,-6.9779295,0.0 107.6192427,-6.9774649,0.0 107.6189989,-6.9767398,0.0 107.6188276,-6.9762303,0.0 107.6187612,-6.976033,0.0 107.6186775,-6.9757839,0.0 107.6186627,-6.97574,0.0 107.6185203,-6.9753132,0.0 107.6184443,-6.9750836,0.0 107.6184305,-6.9750351,0.0 107.6183416,-6.9747731,0.0 107.6181556,-6.9742373,0.0 107.6181453,-6.9742063,0.0 107.6181183,-6.9741257,0.0 107.6180443,-6.9738994,0.0 107.6179596,-6.9736256,0.0</coordinates>
            </LineString>
        </Placemark>
        <Placemark id="75882">
            <name>Jalan Ibu Inggit Ganarsih</name>
            <styleUrl>#75883</styleUrl>
            <LineString id="75881">
                <coordinates>107.6054273,-6.9316877,0.0 107.6059974,-6.9317627,0.0 107.6060299,-6.9317669,0.0 107.6064523,-6.9318239,0.0 107.606653,-6.9318519,0.0</coordinates>
            </LineString>
        </Placemark>
        <Placemark id="75886">
            <name>Jalan Mohammad Toha</name>
            <styleUrl>#75887</styleUrl>
            <LineString id="75885">
                <coordinates>107.6061651,-6.9376173,0.0 107.6061748,-6.9375256,0.0</coordinates>
            </LineString>
        </Placemark>
        <Placemark id="75890">
            <name>Jalan Mohammad Toha</name>
            <styleUrl>#75891</styleUrl>
            <LineString id="75889">
                <coordinates>107.6094437,-6.9483822,0.0 107.6094101,-6.9482727,0.0</coordinates>
            </LineString>
        </Placemark>
        <Placemark id="75894">
            <name>Jalan Mohammad Toha</name>
            <styleUrl>#75895</styleUrl>
            <LineString id="75893">
                <coordinates>107.6086676,-6.9461425,0.0 107.6086093,-6.945971,0.0 107.6085871,-6.9459059,0.0 107.608562,-6.9458321,0.0 107.6085284,-6.9457333,0.0 107.6084824,-6.9455982,0.0 107.6084779,-6.9455849,0.0 107.6084496,-6.9455018,0.0 107.608427,-6.9454354,0.0 107.608407,-6.9453744,0.0 107.6083491,-6.945205,0.0 107.6082597,-6.9449435,0.0 107.6082426,-6.9448934,0.0 107.6082103,-6.9447985,0.0 107.6080915,-6.9444492,0.0 107.6079672,-6.944084,0.0 107.6078706,-6.9438055,0.0 107.607766,-6.9435054,0.0 107.6077347,-6.9434128,0.0 107.607677,-6.9432421,0.0 107.6076477,-6.9431556,0.0</coordinates>
            </LineString>
        </Placemark>
        <Placemark id="75898">
            <name>Jalan Mohammad Toha</name>
            <styleUrl>#75899</styleUrl>
            <LineString id="75897">
                <coordinates>107.6117909,-6.9555998,0.0 107.6117834,-6.9555778,0.0 107.611748,-6.9554589,0.0 107.6117404,-6.9554321,0.0 107.6116741,-6.9552221,0.0</coordinates>
            </LineString>
        </Placemark>
        <Placemark id="75902">
            <name>Jalan Mohammad Toha</name>
            <styleUrl>#75903</styleUrl>
            <LineString id="75901">
                <coordinates>107.6061483,-6.9378682,0.0 107.6061566,-6.9377293,0.0 107.6061595,-6.9376808,0.0 107.6061651,-6.9376173,0.0</coordinates>
            </LineString>
        </Placemark>
        <Placemark id="75906">
            <name>Jalan Mohammad Toha</name>
            <styleUrl>#75907</styleUrl>
            <LineString id="75905">
                <coordinates>107.6116113,-6.9549027,0.0 107.6115903,-6.9548395,0.0 107.6115496,-6.9547181,0.0 107.6115404,-6.9546891,0.0 107.6115309,-6.9546605,0.0 107.6115168,-6.954618,0.0 107.6115056,-6.9545841,0.0 107.6114306,-6.9543571,0.0 107.6114039,-6.9542777,0.0 107.6113779,-6.9541994,0.0 107.6113491,-6.9541126,0.0 107.6113021,-6.953971,0.0 107.6112433,-6.9537939,0.0 107.6112087,-6.9536897,0.0 107.6111456,-6.953493,0.0 107.6111025,-6.9533696,0.0 107.6110127,-6.9530992,0.0 107.6109821,-6.9530069,0.0 107.6109598,-6.9529395,0.0 107.610882,-6.9527052,0.0 107.6108172,-6.9525101,0.0 107.6107154,-6.9522033,0.0 107.610704,-6.9521688,0.0 107.6106927,-6.9521348,0.0 107.6106289,-6.9519383,0.0 107.6105529,-6.9517136,0.0 107.6105221,-6.9516206,0.0 107.6104355,-6.951364,0.0 107.6103879,-6.9512162,0.0 107.6103079,-6.9509754,0.0 107.6101654,-6.950546,0.0 107.6101111,-6.9503823,0.0 107.609996,-6.9500355,0.0</coordinates>
            </LineString>
        </Placemark>
        <Placemark id="75910">
            <name>Route Segment</name>
            <styleUrl>#75911</styleUrl>
            <LineString id="75909">
                <coordinates>107.6232362,-7.007083,0.0 107.6234311,-7.0071582,0.0 107.623885,-7.0073325,0.0 107.6240593,-7.0073924,0.0 107.6243131,-7.0074774,0.0 107.6243805,-7.0075,0.0 107.6245642,-7.0075616,0.0 107.6246656,-7.0075859,0.0 107.6252697,-7.0077824,0.0 107.6253886,-7.0078205,0.0 107.6257637,-7.0079536,0.0 107.6261231,-7.0081095,0.0</coordinates>
            </LineString>
        </Placemark>
        <Placemark id="75914">
            <name>Jalan Adipati Agung</name>
            <styleUrl>#75915</styleUrl>
            <LineString id="75913">
                <coordinates>107.6232548,-7.0059631,0.0 107.623253,-7.0058864,0.0 107.6232547,-7.0055572,0.0</coordinates>
            </LineString>
        </Placemark>
        <Placemark id="75918">
            <name>Jalan Raya Bandung - Banjaran</name>
            <styleUrl>#75919</styleUrl>
            <LineString id="75917">
                <coordinates>107.6259509,-6.9918554,0.0 107.6259039,-6.9918918,0.0 107.6258576,-6.9919329,0.0 107.6257574,-6.9920307,0.0 107.625702,-6.9920947,0.0 107.6256606,-6.9921476,0.0 107.6255689,-6.9922995,0.0 107.6255181,-6.9923942,0.0 107.6254782,-6.9924763,0.0 107.6253281,-6.992807,0.0 107.6247886,-6.993906,0.0</coordinates>
            </LineString>
        </Placemark>
        <Placemark id="75922">
            <name>Jalan Adipati Agung</name>
            <styleUrl>#75923</styleUrl>
            <LineString id="75921">
                <coordinates>107.6232865,-7.0015264,0.0 107.6233034,-7.0005936,0.0 107.6233063,-7.0004036,0.0 107.6233091,-7.0002905,0.0 107.623308,-6.9999593,0.0 107.6233042,-6.9997048,0.0 107.6233041,-6.9994667,0.0 107.6233054,-6.9993468,0.0 107.6233062,-6.999325,0.0 107.6233106,-6.9991309,0.0 107.6233153,-6.9989068,0.0 107.623317,-6.9987318,0.0 107.6233198,-6.9980454,0.0 107.6233207,-6.9978366,0.0 107.6233066,-6.9976341,0.0 107.6232585,-6.9975644,0.0 107.6232046,-6.9975137,0.0 107.6231733,-6.9974871,0.0 107.622881,-6.9972867,0.0 107.622802,-6.9972296,0.0 107.6225987,-6.9970799,0.0 107.6225949,-6.9970771,0.0 107.6224138,-6.9969437,0.0</coordinates>
            </LineString>
        </Placemark>
        <Placemark id="75926">
            <name>Jalan Mohammad Toha</name>
            <styleUrl>#75927</styleUrl>
            <LineString id="75925">
                <coordinates>107.6061749,-6.938344,0.0 107.6061574,-6.9383237,0.0 107.6061507,-6.9383009,0.0 107.6061483,-6.9378682,0.0</coordinates>
            </LineString>
        </Placemark>
        <Placemark id="75930">
            <name>Jalan Raya Dayeuhkolot</name>
            <styleUrl>#75931</styleUrl>
            <LineString id="75929">
                <coordinates>107.6266256,-6.9906859,0.0 107.6267313,-6.9904912,0.0 107.6269294,-6.9901204,0.0 107.6270175,-6.9900706,0.0</coordinates>
            </LineString>
        </Placemark>
        <Placemark id="75934">
            <name>Route Segment</name>
            <styleUrl>#75935</styleUrl>
            <LineString id="75933">
                <coordinates>107.6263103,-6.9912481,0.0 107.6266256,-6.9906859,0.0</coordinates>
            </LineString>
        </Placemark>
        <Placemark id="75938">
            <name>Jalan Raya Bandung - Banjaran</name>
            <styleUrl>#75939</styleUrl>
            <LineString id="75937">
                <coordinates>107.6259952,-6.9917688,0.0 107.6260563,-6.9916946,0.0</coordinates>
            </LineString>
        </Placemark>
        <Placemark id="75942">
            <name>Jalan Raya Dayeuhkolot</name>
            <styleUrl>#75943</styleUrl>
            <LineString id="75941">
                <coordinates>107.6270175,-6.9900706,0.0 107.6270587,-6.9899778,0.0 107.6271223,-6.9897775,0.0 107.6271464,-6.9896794,0.0 107.6271818,-6.9895338,0.0 107.627188,-6.9894292,0.0 107.6271779,-6.9892848,0.0 107.6271095,-6.9890804,0.0 107.6270998,-6.9890627,0.0 107.6270579,-6.9889866,0.0 107.6269674,-6.9888635,0.0 107.6268568,-6.9887024,0.0 107.6265302,-6.9883084,0.0 107.6264611,-6.9881986,0.0 107.6264282,-6.9880847,0.0 107.6264255,-6.9879463,0.0 107.6264309,-6.9877936,0.0 107.6264548,-6.9874603,0.0 107.6264759,-6.9872074,0.0 107.6264797,-6.9871672,0.0 107.6264985,-6.9869426,0.0 107.6265158,-6.9867397,0.0 107.6265174,-6.986721,0.0 107.6265321,-6.9862119,0.0</coordinates>
            </LineString>
        </Placemark>
        <Placemark id="75946">
            <name>Route Segment</name>
            <styleUrl>#75947</styleUrl>
            <LineString id="75945">
                <coordinates>107.6265341,-7.0083054,0.0 107.6264577,-7.0083016,0.0 107.6264044,-7.0082851,0.0 107.6263089,-7.0082458,0.0 107.6262126,-7.0082003,0.0</coordinates>
            </LineString>
        </Placemark>
        <Placemark id="75950">
            <name>Jalan Mohammad Toha</name>
            <styleUrl>#75951</styleUrl>
            <LineString id="75949">
                <coordinates>107.6061748,-6.9375256,0.0 107.6061856,-6.9374395,0.0</coordinates>
            </LineString>
        </Placemark>
        <Placemark id="75954">
            <name>Jalan Mohammad Toha</name>
            <styleUrl>#75955</styleUrl>
            <LineString id="75953">
                <coordinates>107.6116741,-6.9552221,0.0 107.6116137,-6.9550271,0.0 107.6116113,-6.9549027,0.0</coordinates>
            </LineString>
        </Placemark>
        <Placemark id="75958">
            <name>Jalan Mohammad Toha</name>
            <styleUrl>#75959</styleUrl>
            <LineString id="75957">
                <coordinates>107.6121624,-6.9565318,0.0 107.6120965,-6.9564512,0.0 107.6120562,-6.9563326,0.0 107.6120093,-6.9561968,0.0 107.6119314,-6.9560046,0.0 107.6119023,-6.955933,0.0</coordinates>
            </LineString>
        </Placemark>
        <Placemark id="75962">
            <name>Jalan Mohammad Toha</name>
            <styleUrl>#75963</styleUrl>
            <LineString id="75961">
                <coordinates>107.6062104,-6.9372527,0.0 107.6062327,-6.936977,0.0 107.606243,-6.936943,0.0 107.6062697,-6.9369192,0.0</coordinates>
            </LineString>
        </Placemark>
        <Placemark id="75966">
            <name>Jalan Mohammad Toha</name>
            <styleUrl>#75967</styleUrl>
            <LineString id="75965">
                <coordinates>107.6095322,-6.9486416,0.0 107.6094437,-6.9483822,0.0</coordinates>
            </LineString>
        </Placemark>
        <Placemark id="75970">
            <name>Jalan Mohammad Toha</name>
            <styleUrl>#75971</styleUrl>
            <LineString id="75969">
                <coordinates>107.609996,-6.9500355,0.0 107.6098084,-6.9494703,0.0 107.6097027,-6.9491518,0.0 107.6096343,-6.9489457,0.0 107.6095822,-6.9487887,0.0 107.6095322,-6.9486416,0.0</coordinates>
            </LineString>
        </Placemark>
        <Placemark id="75974">
            <name>Jalan Adipati Agung</name>
            <styleUrl>#75975</styleUrl>
            <LineString id="75973">
                <coordinates>107.6232362,-7.007083,0.0 107.6232553,-7.0065067,0.0 107.6232548,-7.0059631,0.0</coordinates>
            </LineString>
        </Placemark>
        <Placemark id="75978">
            <name>Route Segment</name>
            <styleUrl>#75979</styleUrl>
            <LineString id="75977">
                <coordinates>107.6262126,-7.0082003,0.0 107.626195,-7.0082039,0.0 107.6261771,-7.0082029,0.0 107.62616,-7.0081976,0.0 107.6261398,-7.0081837,0.0 107.6261256,-7.0081639,0.0 107.6261191,-7.0081404,0.0 107.6261193,-7.0081247,0.0 107.6261231,-7.0081095,0.0</coordinates>
            </LineString>
        </Placemark>
        <Placemark id="75982">
            <name>Jalan Mohammad Toha</name>
            <styleUrl>#75983</styleUrl>
            <LineString id="75981">
                <coordinates>107.6094101,-6.9482727,0.0 107.6093038,-6.9479813,0.0</coordinates>
            </LineString>
        </Placemark>
        <Placemark id="75986">
            <name>Jalan Mohammad Toha</name>
            <styleUrl>#75987</styleUrl>
            <LineString id="75985">
                <coordinates>107.6119023,-6.955933,0.0 107.6118903,-6.9558951,0.0 107.6118666,-6.9558199,0.0</coordinates>
            </LineString>
        </Placemark>
        <Placemark id="75990">
            <name>Jalan Raya Bandung - Banjaran</name>
            <styleUrl>#75991</styleUrl>
            <LineString id="75989">
                <coordinates>107.6259509,-6.9918554,0.0 107.6259952,-6.9917688,0.0</coordinates>
            </LineString>
        </Placemark>
        <Placemark id="75994">
            <name>Jalan Dayeuhkolot</name>
            <styleUrl>#75995</styleUrl>
            <LineString id="75993">
                <coordinates>107.6179596,-6.9736256,0.0 107.6178299,-6.9732458,0.0 107.6177978,-6.9731518,0.0 107.6174623,-6.9721692,0.0 107.617423,-6.9720542,0.0 107.6173961,-6.9719753,0.0 107.6173546,-6.9718537,0.0 107.6170113,-6.9708485,0.0 107.6169765,-6.9707466,0.0 107.6169386,-6.9706355,0.0 107.6168176,-6.9702811,0.0 107.6166991,-6.9699343,0.0 107.6165138,-6.9693916,0.0 107.6164324,-6.9691531,0.0 107.6162581,-6.9686427,0.0 107.6162261,-6.968549,0.0 107.6162026,-6.9684801,0.0 107.6161081,-6.9682033,0.0 107.6160722,-6.9680981,0.0 107.615939,-6.9677082,0.0 107.6158435,-6.9674285,0.0 107.6157641,-6.9671958,0.0 107.6155875,-6.9666787,0.0 107.6155668,-6.9666258,0.0 107.6155484,-6.9665641,0.0 107.6154548,-6.9662899,0.0 107.6152535,-6.9657004,0.0 107.615121,-6.9653124,0.0 107.615049,-6.9651016,0.0 107.6150006,-6.9649599,0.0 107.6148467,-6.9645092,0.0 107.6147948,-6.9643572,0.0 107.6146299,-6.9638886,0.0 107.6146073,-6.963808,0.0 107.6145303,-6.9635825,0.0 107.6144992,-6.9634879,0.0 107.6144627,-6.9633845,0.0 107.6143394,-6.9630233,0.0</coordinates>
            </LineString>
        </Placemark>
        <Placemark id="75998">
            <name>Jalan Mohammad Toha</name>
            <styleUrl>#75999</styleUrl>
            <LineString id="75997">
                <coordinates>107.6076477,-6.9431556,0.0 107.6075689,-6.9429228,0.0 107.6074989,-6.9427159,0.0 107.6074151,-6.942468,0.0 107.6074044,-6.9424365,0.0 107.6073267,-6.9422067,0.0 107.6072871,-6.9420857,0.0 107.6072103,-6.9418515,0.0 107.6071736,-6.9417393,0.0 107.6070094,-6.9412381,0.0 107.606932,-6.9410019,0.0 107.6068982,-6.9408986,0.0 107.6067904,-6.9405695,0.0 107.6067424,-6.9404231,0.0 107.6066617,-6.9401765,0.0 107.6066129,-6.9400276,0.0 107.6065833,-6.9399373,0.0 107.6065081,-6.9397106,0.0 107.6064373,-6.939497,0.0 107.6063207,-6.9391297,0.0 107.6063015,-6.9390693,0.0 107.6062885,-6.939027,0.0 107.6062755,-6.9389847,0.0 107.6062595,-6.9389365,0.0 107.6062399,-6.9388618,0.0 107.6062007,-6.9387072,0.0 107.6061889,-6.9386548,0.0 107.6061828,-6.9385203,0.0 107.6061749,-6.938344,0.0</coordinates>
            </LineString>
        </Placemark>
        <Placemark id="76002">
            <name>Jalan Dayeuhkolot</name>
            <styleUrl>#76003</styleUrl>
            <LineString id="76001">
                <coordinates>107.6143394,-6.9630233,0.0 107.6142712,-6.9628213,0.0 107.6142065,-6.9626283,0.0 107.6140679,-6.9622149,0.0 107.6139412,-6.9618372,0.0 107.6138864,-6.9616735,0.0 107.6138487,-6.9615612,0.0 107.6137567,-6.9612851,0.0 107.6137443,-6.9612499,0.0 107.613571,-6.9607329,0.0</coordinates>
            </LineString>
        </Placemark>
        <Placemark id="76006">
            <name>Jalan Mohammad Toha</name>
            <styleUrl>#76007</styleUrl>
            <LineString id="76005">
                <coordinates>107.6061856,-6.9374395,0.0 107.6061929,-6.9373823,0.0 107.6062104,-6.9372527,0.0</coordinates>
            </LineString>
        </Placemark>
        <Placemark id="76010">
            <name>Jalan Mohammad Toha</name>
            <styleUrl>#76011</styleUrl>
            <LineString id="76009">
                <coordinates>107.6093038,-6.9479813,0.0 107.6092951,-6.9479579,0.0 107.6092415,-6.9478107,0.0 107.6091943,-6.9476776,0.0 107.6091509,-6.9475613,0.0 107.6090997,-6.9474124,0.0 107.6090862,-6.9473728,0.0 107.6090786,-6.9473503,0.0 107.6089872,-6.9470817,0.0 107.6087733,-6.946453,0.0 107.6086954,-6.946224,0.0 107.6086676,-6.9461425,0.0</coordinates>
            </LineString>
        </Placemark>
        <Placemark id="76014">
            <name>Jalan Mohammad Toha</name>
            <styleUrl>#76015</styleUrl>
            <LineString id="76013">
                <coordinates>107.6118666,-6.9558199,0.0 107.6118443,-6.955745,0.0 107.6118189,-6.9556789,0.0 107.6117909,-6.9555998,0.0</coordinates>
            </LineString>
        </Placemark>
        <Placemark id="76018">
            <name>Jalan Raya Bandung - Banjaran</name>
            <styleUrl>#76019</styleUrl>
            <LineString id="76017">
                <coordinates>107.6224138,-6.9969437,0.0 107.6226141,-6.9966883,0.0 107.6227836,-6.9964721,0.0 107.6231001,-6.9960724,0.0 107.6233944,-6.9957006,0.0 107.6235629,-6.9954878,0.0 107.6237246,-6.9952836,0.0 107.6238045,-6.9951826,0.0 107.6243916,-6.994441,0.0 107.6245887,-6.9941935,0.0 107.6247886,-6.993906,0.0</coordinates>
            </LineString>
        </Placemark>
        <Placemark id="76022">
            <name>Jalan Dewi Sartika</name>
            <styleUrl>#76023</styleUrl>
            <LineString id="76021">
                <coordinates>107.6055016,-6.9311384,0.0 107.6055192,-6.9309578,0.0 107.6055259,-6.9309078,0.0</coordinates>
            </LineString>
        </Placemark>
        <Placemark id="76026">
            <name>Jalan Dewi Sartika</name>
            <styleUrl>#76027</styleUrl>
            <LineString id="76025">
                <coordinates>107.6055259,-6.9309078,0.0 107.605557,-6.9305299,0.0 107.6055585,-6.9305004,0.0 107.6055781,-6.930239,0.0</coordinates>
            </LineString>
        </Placemark>
        <Placemark id="76030">
            <name>Jalan Dewi Sartika</name>
            <styleUrl>#76031</styleUrl>
            <LineString id="76029">
                <coordinates>107.6055781,-6.930239,0.0 107.6055888,-6.9300028,0.0</coordinates>
            </LineString>
        </Placemark>
        <Placemark id="76034">
            <name>Jalan Dewi Sartika</name>
            <styleUrl>#76035</styleUrl>
            <LineString id="76033">
                <coordinates>107.6055888,-6.9300028,0.0 107.6055993,-6.9298025,0.0</coordinates>
            </LineString>
        </Placemark>
        <Placemark id="76038">
            <name>Jalan Dewi Sartika</name>
            <styleUrl>#76039</styleUrl>
            <LineString id="76037">
                <coordinates>107.6055993,-6.9298025,0.0 107.6056708,-6.9290327,0.0</coordinates>
            </LineString>
        </Placemark>
        <Placemark id="76042">
            <name>Jalan Dewi Sartika</name>
            <styleUrl>#76043</styleUrl>
            <LineString id="76041">
                <coordinates>107.6056708,-6.9290327,0.0 107.6057162,-6.9286824,0.0</coordinates>
            </LineString>
        </Placemark>
        <Placemark id="76046">
            <name>Jalan Dewi Sartika</name>
            <styleUrl>#76047</styleUrl>
            <LineString id="76045">
                <coordinates>107.6057162,-6.9286824,0.0 107.6057961,-6.9281235,0.0</coordinates>
            </LineString>
        </Placemark>
        <Placemark id="76050">
            <name>Jalan Dewi Sartika</name>
            <styleUrl>#76051</styleUrl>
            <LineString id="76049">
                <coordinates>107.6057961,-6.9281235,0.0 107.6058055,-6.928016,0.0 107.6058217,-6.9278434,0.0</coordinates>
            </LineString>
        </Placemark>
        <Placemark id="76054">
            <name>Jalan Dewi Sartika</name>
            <styleUrl>#76055</styleUrl>
            <LineString id="76053">
                <coordinates>107.6058217,-6.9278434,0.0 107.6058322,-6.9276428,0.0</coordinates>
            </LineString>
        </Placemark>
        <Placemark id="76058">
            <name>Route Segment</name>
            <styleUrl>#76059</styleUrl>
            <LineString id="76057">
                <coordinates>107.6265341,-7.0083054,0.0 107.6265755,-7.0083177,0.0 107.6266395,-7.0083377,0.0 107.6267629,-7.0083834,0.0 107.6267716,-7.0083869,0.0 107.6268159,-7.0084045,0.0 107.6269274,-7.008449,0.0 107.6269392,-7.0084536,0.0 107.6270662,-7.0085079,0.0 107.6271074,-7.0085313,0.0 107.6273132,-7.0086343,0.0 107.6275639,-7.0087097,0.0 107.6277083,-7.0087696,0.0 107.6278518,-7.0088321,0.0 107.6279899,-7.0089,0.0 107.6281189,-7.0089812,0.0 107.628281,-7.0091183,0.0 107.6284029,-7.009267,0.0 107.628449,-7.0093428,0.0 107.6285277,-7.0094218,0.0 107.6286132,-7.0094829,0.0 107.6286846,-7.0095279,0.0 107.6288724,-7.0096241,0.0 107.6291008,-7.0097178,0.0 107.6292778,-7.009758,0.0 107.6293216,-7.0097747,0.0 107.6293687,-7.009789,0.0 107.6296339,-7.0098637,0.0 107.6298013,-7.0099124,0.0 107.6300985,-7.0099914,0.0 107.6304517,-7.0100766,0.0 107.6309094,-7.0102136,0.0 107.6313791,-7.0103715,0.0 107.6314578,-7.0103989,0.0</coordinates>
            </LineString>
        </Placemark>
        <Placemark id="76062">
            <name>Jalan Raya Bandung - Banjaran</name>
            <styleUrl>#76063</styleUrl>
            <LineString id="76061">
                <coordinates>107.6260563,-6.9916946,0.0 107.6261843,-6.9914723,0.0 107.6263103,-6.9912481,0.0</coordinates>
            </LineString>
        </Placemark>
        <Placemark id="76066">
            <name>Jalan Adipati Agung</name>
            <styleUrl>#76067</styleUrl>
            <LineString id="76065">
                <coordinates>107.6232846,-7.0041627,0.0 107.6232938,-7.0036099,0.0</coordinates>
            </LineString>
        </Placemark>
        <Placemark id="76070">
            <name>Jalan Adipati Agung</name>
            <styleUrl>#76071</styleUrl>
            <LineString id="76069">
                <coordinates>107.6232745,-7.004775,0.0 107.6232846,-7.0041627,0.0</coordinates>
            </LineString>
        </Placemark>
        <Placemark id="76074">
            <name>Jalan Adipati Agung</name>
            <styleUrl>#76075</styleUrl>
            <LineString id="76073">
                <coordinates>107.6232727,-7.0048802,0.0 107.6232745,-7.004775,0.0</coordinates>
            </LineString>
        </Placemark>
        <Placemark id="76078">
            <name>Jalan Adipati Agung</name>
            <styleUrl>#76079</styleUrl>
            <LineString id="76077">
                <coordinates>107.6232547,-7.0055572,0.0 107.62327,-7.0050452,0.0 107.6232727,-7.0048802,0.0</coordinates>
            </LineString>
        </Placemark>
        <Placemark id="76082">
            <name>Jalan Adipati Agung</name>
            <styleUrl>#76083</styleUrl>
            <LineString id="76081">
                <coordinates>107.6232938,-7.0036099,0.0 107.6232899,-7.0033481,0.0 107.6232874,-7.0031243,0.0 107.6232867,-7.0030565,0.0 107.6232852,-7.0029662,0.0 107.6232809,-7.0024658,0.0 107.6232814,-7.0021999,0.0 107.6232823,-7.002084,0.0 107.6232865,-7.0015264,0.0</coordinates>
            </LineString>
        </Placemark>
        <Placemark id="76086">
            <name>Jalan Mohammad Toha</name>
            <styleUrl>#76087</styleUrl>
            <LineString id="76085">
                <coordinates>107.613571,-6.9607329,0.0 107.6135242,-6.9605935,0.0</coordinates>
            </LineString>
        </Placemark>
        <Placemark id="76090">
            <name>Jalan Mohammad Toha</name>
            <styleUrl>#76091</styleUrl>
            <LineString id="76089">
                <coordinates>107.6065733,-6.9328659,0.0 107.6065797,-6.9327947,0.0 107.606653,-6.9318519,0.0</coordinates>
            </LineString>
        </Placemark>
    </Document>
</kml>
