<?xml version="1.0" encoding="UTF-8"?>
<kml xmlns="http://www.opengis.net/kml/2.2" xmlns:gx="http://www.google.com/kml/ext/2.2">
    <Document id="75750">
        <Style id="75756">
            <LineStyle id="75757">
                <color>ff356615</color>
                <colorMode>normal</colorMode>
                <width>4</width>
            </LineStyle>
        </Style>
        <Style id="75760">
            <LineStyle id="75761">
                <color>ff356615</color>
                <colorMode>normal</colorMode>
                <width>4</width>
            </LineStyle>
        </Style>
        <Style id="75764">
            <LineStyle id="75765">
                <color>ff356615</color>
                <colorMode>normal</colorMode>
                <width>4</width>
            </LineStyle>
        </Style>
        <Style id="75768">
            <LineStyle id="75769">
                <color>ff356615</color>
                <colorMode>normal</colorMode>
                <width>4</width>
            </LineStyle>
        </Style>
        <Style id="75772">
            <LineStyle id="75773">
                <color>ff356615</color>
                <colorMode>normal</colorMode>
                <width>4</width>
            </LineStyle>
        </Style>
        <Style id="75776">
            <LineStyle id="75777">
                <color>ff356615</color>
                <colorMode>normal</colorMode>
                <width>4</width>
            </LineStyle>
        </Style>
        <Style id="75780">
            <LineStyle id="75781">
                <color>ff356615</color>
                <colorMode>normal</colorMode>
                <width>4</width>
            </LineStyle>
        </Style>
        <Style id="75784">
            <LineStyle id="75785">
                <color>ff356615</color>
                <colorMode>normal</colorMode>
                <width>4</width>
            </LineStyle>
        </Style>
        <Style id="75788">
            <LineStyle id="75789">
                <color>ff356615</color>
                <colorMode>normal</colorMode>
                <width>4</width>
            </LineStyle>
        </Style>
        <Style id="75792">
            <LineStyle id="75793">
                <color>ff356615</color>
                <colorMode>normal</colorMode>
                <width>4</width>
            </LineStyle>
        </Style>
        <Style id="75796">
            <LineStyle id="75797">
                <color>ff356615</color>
                <colorMode>normal</colorMode>
                <width>4</width>
            </LineStyle>
        </Style>
        <Style id="75800">
            <LineStyle id="75801">
                <color>ff356615</color>
                <colorMode>normal</colorMode>
                <width>4</width>
            </LineStyle>
        </Style>
        <Style id="75804">
            <LineStyle id="75805">
                <color>ff356615</color>
                <colorMode>normal</colorMode>
                <width>4</width>
            </LineStyle>
        </Style>
        <Style id="75808">
            <LineStyle id="75809">
                <color>ff356615</color>
                <colorMode>normal</colorMode>
                <width>4</width>
            </LineStyle>
        </Style>
        <Style id="75812">
            <LineStyle id="75813">
                <color>ff356615</color>
                <colorMode>normal</colorMode>
                <width>4</width>
            </LineStyle>
        </Style>
        <Style id="75816">
            <LineStyle id="75817">
                <color>ff356615</color>
                <colorMode>normal</colorMode>
                <width>4</width>
            </LineStyle>
        </Style>
        <Style id="75820">
            <LineStyle id="75821">
                <color>ff356615</color>
                <colorMode>normal</colorMode>
                <width>4</width>
            </LineStyle>
        </Style>
        <Style id="75824">
            <LineStyle id="75825">
                <color>ff356615</color>
                <colorMode>normal</colorMode>
                <width>4</width>
            </LineStyle>
        </Style>
        <Style id="75828">
            <LineStyle id="75829">
                <color>ff356615</color>
                <colorMode>normal</colorMode>
                <width>4</width>
            </LineStyle>
        </Style>
        <Style id="75832">
            <LineStyle id="75833">
                <color>ff356615</color>
                <colorMode>normal</colorMode>
                <width>4</width>
            </LineStyle>
        </Style>
        <Style id="75836">
            <LineStyle id="75837">
                <color>ff356615</color>
                <colorMode>normal</colorMode>
                <width>4</width>
            </LineStyle>
        </Style>
        <Style id="75840">
            <LineStyle id="75841">
                <color>ff356615</color>
                <colorMode>normal</colorMode>
                <width>4</width>
            </LineStyle>
        </Style>
        <Style id="75844">
            <LineStyle id="75845">
                <color>ff356615</color>
                <colorMode>normal</colorMode>
                <width>4</width>
            </LineStyle>
        </Style>
        <Style id="75848">
            <LineStyle id="75849">
                <color>ff356615</color>
                <colorMode>normal</colorMode>
                <width>4</width>
            </LineStyle>
        </Style>
        <Style id="75852">
            <LineStyle id="75853">
                <color>ff356615</color>
                <colorMode>normal</colorMode>
                <width>4</width>
            </LineStyle>
        </Style>
        <Style id="75856">
            <LineStyle id="75857">
                <color>ff356615</color>
                <colorMode>normal</colorMode>
                <width>4</width>
            </LineStyle>
        </Style>
        <Style id="75860">
            <LineStyle id="75861">
                <color>ff356615</color>
                <colorMode>normal</colorMode>
                <width>4</width>
            </LineStyle>
        </Style>
        <Style id="75864">
            <LineStyle id="75865">
                <color>ff356615</color>
                <colorMode>normal</colorMode>
                <width>4</width>
            </LineStyle>
        </Style>
        <Style id="75868">
            <LineStyle id="75869">
                <color>ff356615</color>
                <colorMode>normal</colorMode>
                <width>4</width>
            </LineStyle>
        </Style>
        <Style id="75872">
            <LineStyle id="75873">
                <color>ff356615</color>
                <colorMode>normal</colorMode>
                <width>4</width>
            </LineStyle>
        </Style>
        <Style id="75876">
            <LineStyle id="75877">
                <color>ff356615</color>
                <colorMode>normal</colorMode>
                <width>4</width>
            </LineStyle>
        </Style>
        <Style id="75880">
            <LineStyle id="75881">
                <color>ff356615</color>
                <colorMode>normal</colorMode>
                <width>4</width>
            </LineStyle>
        </Style>
        <Style id="75884">
            <LineStyle id="75885">
                <color>ff356615</color>
                <colorMode>normal</colorMode>
                <width>4</width>
            </LineStyle>
        </Style>
        <Style id="75888">
            <LineStyle id="75889">
                <color>ff356615</color>
                <colorMode>normal</colorMode>
                <width>4</width>
            </LineStyle>
        </Style>
        <Style id="75892">
            <LineStyle id="75893">
                <color>ff356615</color>
                <colorMode>normal</colorMode>
                <width>4</width>
            </LineStyle>
        </Style>
        <Style id="75896">
            <LineStyle id="75897">
                <color>ff356615</color>
                <colorMode>normal</colorMode>
                <width>4</width>
            </LineStyle>
        </Style>
        <Style id="75900">
            <LineStyle id="75901">
                <color>ff356615</color>
                <colorMode>normal</colorMode>
                <width>4</width>
            </LineStyle>
        </Style>
        <Style id="75904">
            <LineStyle id="75905">
                <color>ff356615</color>
                <colorMode>normal</colorMode>
                <width>4</width>
            </LineStyle>
        </Style>
        <Style id="75908">
            <LineStyle id="75909">
                <color>ff356615</color>
                <colorMode>normal</colorMode>
                <width>4</width>
            </LineStyle>
        </Style>
        <Style id="75912">
            <LineStyle id="75913">
                <color>ff356615</color>
                <colorMode>normal</colorMode>
                <width>4</width>
            </LineStyle>
        </Style>
        <Style id="75916">
            <LineStyle id="75917">
                <color>ff356615</color>
                <colorMode>normal</colorMode>
                <width>4</width>
            </LineStyle>
        </Style>
        <Style id="75920">
            <LineStyle id="75921">
                <color>ff356615</color>
                <colorMode>normal</colorMode>
                <width>4</width>
            </LineStyle>
        </Style>
        <Style id="75924">
            <LineStyle id="75925">
                <color>ff356615</color>
                <colorMode>normal</colorMode>
                <width>4</width>
            </LineStyle>
        </Style>
        <Style id="75928">
            <LineStyle id="75929">
                <color>ff356615</color>
                <colorMode>normal</colorMode>
                <width>4</width>
            </LineStyle>
        </Style>
        <Style id="75932">
            <LineStyle id="75933">
                <color>ff356615</color>
                <colorMode>normal</colorMode>
                <width>4</width>
            </LineStyle>
        </Style>
        <Style id="75936">
            <LineStyle id="75937">
                <color>ff356615</color>
                <colorMode>normal</colorMode>
                <width>4</width>
            </LineStyle>
        </Style>
        <Style id="75940">
            <LineStyle id="75941">
                <color>ff356615</color>
                <colorMode>normal</colorMode>
                <width>4</width>
            </LineStyle>
        </Style>
        <Style id="75944">
            <LineStyle id="75945">
                <color>ff356615</color>
                <colorMode>normal</colorMode>
                <width>4</width>
            </LineStyle>
        </Style>
        <Style id="75948">
            <LineStyle id="75949">
                <color>ff356615</color>
                <colorMode>normal</colorMode>
                <width>4</width>
            </LineStyle>
        </Style>
        <Style id="75952">
            <LineStyle id="75953">
                <color>ff356615</color>
                <colorMode>normal</colorMode>
                <width>4</width>
            </LineStyle>
        </Style>
        <Style id="75956">
            <LineStyle id="75957">
                <color>ff356615</color>
                <colorMode>normal</colorMode>
                <width>4</width>
            </LineStyle>
        </Style>
        <Style id="75960">
            <LineStyle id="75961">
                <color>ff356615</color>
                <colorMode>normal</colorMode>
                <width>4</width>
            </LineStyle>
        </Style>
        <Style id="75964">
            <LineStyle id="75965">
                <color>ff356615</color>
                <colorMode>normal</colorMode>
                <width>4</width>
            </LineStyle>
        </Style>
        <Style id="75968">
            <LineStyle id="75969">
                <color>ff356615</color>
                <colorMode>normal</colorMode>
                <width>4</width>
            </LineStyle>
        </Style>
        <Style id="75972">
            <LineStyle id="75973">
                <color>ff356615</color>
                <colorMode>normal</colorMode>
                <width>4</width>
            </LineStyle>
        </Style>
        <Style id="75976">
            <LineStyle id="75977">
                <color>ff356615</color>
                <colorMode>normal</colorMode>
                <width>4</width>
            </LineStyle>
        </Style>
        <Style id="75980">
            <LineStyle id="75981">
                <color>ff356615</color>
                <colorMode>normal</colorMode>
                <width>4</width>
            </LineStyle>
        </Style>
        <Style id="75984">
            <LineStyle id="75985">
                <color>ff356615</color>
                <colorMode>normal</colorMode>
                <width>4</width>
            </LineStyle>
        </Style>
        <Style id="75988">
            <LineStyle id="75989">
                <color>ff356615</color>
                <colorMode>normal</colorMode>
                <width>4</width>
            </LineStyle>
        </Style>
        <Style id="75992">
            <LineStyle id="75993">
                <color>ff356615</color>
                <colorMode>normal</colorMode>
                <width>4</width>
            </LineStyle>
        </Style>
        <Style id="75996">
            <LineStyle id="75997">
                <color>ff356615</color>
                <colorMode>normal</colorMode>
                <width>4</width>
            </LineStyle>
        </Style>
        <Style id="76000">
            <LineStyle id="76001">
                <color>ff356615</color>
                <colorMode>normal</colorMode>
                <width>4</width>
            </LineStyle>
        </Style>
        <Style id="76004">
            <LineStyle id="76005">
                <color>ff356615</color>
                <colorMode>normal</colorMode>
                <width>4</width>
            </LineStyle>
        </Style>
        <Style id="76008">
            <LineStyle id="76009">
                <color>ff356615</color>
                <colorMode>normal</colorMode>
                <width>4</width>
            </LineStyle>
        </Style>
        <Style id="76012">
            <LineStyle id="76013">
                <color>ff356615</color>
                <colorMode>normal</colorMode>
                <width>4</width>
            </LineStyle>
        </Style>
        <Style id="76016">
            <LineStyle id="76017">
                <color>ff356615</color>
                <colorMode>normal</colorMode>
                <width>4</width>
            </LineStyle>
        </Style>
        <Style id="76020">
            <LineStyle id="76021">
                <color>ff356615</color>
                <colorMode>normal</colorMode>
                <width>4</width>
            </LineStyle>
        </Style>
        <Style id="76024">
            <LineStyle id="76025">
                <color>ff356615</color>
                <colorMode>normal</colorMode>
                <width>4</width>
            </LineStyle>
        </Style>
        <Style id="76028">
            <LineStyle id="76029">
                <color>ff356615</color>
                <colorMode>normal</colorMode>
                <width>4</width>
            </LineStyle>
        </Style>
        <Style id="76032">
            <LineStyle id="76033">
                <color>ff356615</color>
                <colorMode>normal</colorMode>
                <width>4</width>
            </LineStyle>
        </Style>
        <Style id="76036">
            <LineStyle id="76037">
                <color>ff356615</color>
                <colorMode>normal</colorMode>
                <width>4</width>
            </LineStyle>
        </Style>
        <Style id="76040">
            <LineStyle id="76041">
                <color>ff356615</color>
                <colorMode>normal</colorMode>
                <width>4</width>
            </LineStyle>
        </Style>
        <Style id="76044">
            <LineStyle id="76045">
                <color>ff356615</color>
                <colorMode>normal</colorMode>
                <width>4</width>
            </LineStyle>
        </Style>
        <Style id="76048">
            <LineStyle id="76049">
                <color>ff356615</color>
                <colorMode>normal</colorMode>
                <width>4</width>
            </LineStyle>
        </Style>
        <Style id="76052">
            <LineStyle id="76053">
                <color>ff356615</color>
                <colorMode>normal</colorMode>
                <width>4</width>
            </LineStyle>
        </Style>
        <Style id="76056">
            <LineStyle id="76057">
                <color>ff356615</color>
                <colorMode>normal</colorMode>
                <width>4</width>
            </LineStyle>
        </Style>
        <Style id="76060">
            <LineStyle id="76061">
                <color>ff356615</color>
                <colorMode>normal</colorMode>
                <width>4</width>
            </LineStyle>
        </Style>
        <Style id="76064">
            <LineStyle id="76065">
                <color>ff356615</color>
                <colorMode>normal</colorMode>
                <width>4</width>
            </LineStyle>
        </Style>
        <Style id="76068">
            <LineStyle id="76069">
                <color>ff356615</color>
                <colorMode>normal</colorMode>
                <width>4</width>
            </LineStyle>
        </Style>
        <Style id="76072">
            <LineStyle id="76073">
                <color>ff356615</color>
                <colorMode>normal</colorMode>
                <width>4</width>
            </LineStyle>
        </Style>
        <Style id="76076">
            <LineStyle id="76077">
                <color>ff356615</color>
                <colorMode>normal</colorMode>
                <width>4</width>
            </LineStyle>
        </Style>
        <Style id="76080">
            <LineStyle id="76081">
                <color>ff356615</color>
                <colorMode>normal</colorMode>
                <width>4</width>
            </LineStyle>
        </Style>
        <Style id="76084">
            <IconStyle id="76085">
                <colorMode>normal</colorMode>
                <scale>1</scale>
                <heading>0</heading>
                <Icon id="76086">
                    <href>http://maps.google.com/mapfiles/kml/pushpin/ylw-pushpin.png</href>
                </Icon>
            </IconStyle>
        </Style>
        <Style id="76089">
            <IconStyle id="76090">
                <colorMode>normal</colorMode>
                <scale>1</scale>
                <heading>0</heading>
                <Icon id="76091">
                    <href>http://maps.google.com/mapfiles/kml/pushpin/ylw-pushpin.png</href>
                </Icon>
            </IconStyle>
        </Style>
        <ExtendedData>
            <Data name="route-name">
                <value>933: Kalapa → Baleendah</value>
            </Data>
            <Data name="source">
                <value>Transport for Bandung</value>
            </Data>
        </ExtendedData>
        <Placemark id="75755">
            <name>Jalan Mohammad Toha</name>
            <styleUrl>#75756</styleUrl>
            <LineString id="75754">
                <coordinates>107.6135242,-6.9605935,0.0 107.6134967,-6.9605112,0.0 107.6134826,-6.9604693,0.0 107.6134509,-6.9603747,0.0 107.6134491,-6.9603694,0.0 107.6134294,-6.9603107,0.0 107.6133311,-6.9600175,0.0 107.6133004,-6.9599258,0.0 107.6132323,-6.9597228,0.0 107.6132181,-6.9596806,0.0 107.6131861,-6.9595851,0.0 107.6131031,-6.9593374,0.0 107.6130538,-6.9591904,0.0 107.6130199,-6.9590893,0.0 107.6129458,-6.9588707,0.0 107.6129406,-6.9588528,0.0 107.6128675,-6.9586348,0.0 107.6128314,-6.9585167,0.0 107.612791,-6.9584068,0.0 107.6126981,-6.9581152,0.0 107.6126235,-6.957907,0.0 107.6124989,-6.9575355,0.0 107.6124531,-6.9573989,0.0 107.6124293,-6.9573278,0.0 107.6123798,-6.9571801,0.0 107.6123336,-6.9570425,0.0 107.61232,-6.9570018,0.0 107.6123085,-6.9569675,0.0 107.6122717,-6.9568578,0.0 107.6122543,-6.9568058,0.0 107.6122153,-6.9566896,0.0 107.6121788,-6.9565808,0.0 107.6121624,-6.9565318,0.0</coordinates>
            </LineString>
        </Placemark>
        <Placemark id="75759">
            <name>Jalan Mohammad Toha</name>
            <styleUrl>#75760</styleUrl>
            <LineString id="75758">
                <coordinates>107.6062529,-6.9369183,0.0 107.6062604,-6.9368241,0.0 107.6062815,-6.9365596,0.0 107.6062864,-6.9364942,0.0 107.6062951,-6.936362,0.0 107.6063031,-6.9362328,0.0 107.6063213,-6.9360167,0.0 107.6064258,-6.9346832,0.0 107.6064347,-6.9345209,0.0 107.6064644,-6.934149,0.0 107.6064804,-6.9339369,0.0 107.6065192,-6.9332778,0.0 107.6065207,-6.9332521,0.0 107.6065399,-6.9330001,0.0 107.6065556,-6.9327947,0.0 107.6066275,-6.9318519,0.0</coordinates>
            </LineString>
        </Placemark>
        <Placemark id="75763">
            <name>Jalan Dayeuhkolot</name>
            <styleUrl>#75764</styleUrl>
            <LineString id="75762">
                <coordinates>107.6265321,-6.9862119,0.0 107.62626,-6.9862068,0.0 107.6259513,-6.9861907,0.0 107.6254938,-6.9861751,0.0 107.6253066,-6.9861719,0.0 107.624845,-6.9861797,0.0 107.6247579,-6.9861812,0.0 107.6243009,-6.9861882,0.0 107.6241566,-6.9861849,0.0 107.6240862,-6.986158,0.0 107.6239396,-6.9860879,0.0 107.623838,-6.9860341,0.0 107.6236997,-6.9859543,0.0 107.6235813,-6.9858646,0.0 107.6234881,-6.9857543,0.0 107.6234397,-6.9856742,0.0 107.6233888,-6.9855798,0.0 107.6233378,-6.9854426,0.0 107.6232353,-6.9851551,0.0 107.6231774,-6.9849985,0.0 107.6231613,-6.9849509,0.0 107.6230909,-6.9847609,0.0 107.6230366,-6.9846724,0.0 107.6229973,-6.9846241,0.0 107.6229191,-6.9845547,0.0 107.6226198,-6.9843696,0.0 107.6223567,-6.9842428,0.0 107.6217907,-6.9839835,0.0 107.6217008,-6.9839389,0.0 107.6216217,-6.9838876,0.0 107.6215211,-6.9837918,0.0 107.6214896,-6.9837387,0.0 107.6214512,-6.9836741,0.0 107.6213941,-6.9835445,0.0 107.621356,-6.9834348,0.0 107.6212898,-6.983244,0.0 107.6212375,-6.9830936,0.0 107.6211273,-6.9827919,0.0 107.6211214,-6.9827781,0.0 107.6210933,-6.9827029,0.0 107.6210059,-6.9824795,0.0 107.6209885,-6.9824289,0.0 107.620819,-6.9819366,0.0 107.6207502,-6.9817348,0.0 107.6206793,-6.9815355,0.0 107.6205775,-6.9812493,0.0 107.6205442,-6.9811487,0.0 107.6203694,-6.9806363,0.0 107.6201403,-6.9800357,0.0 107.6199301,-6.9794243,0.0 107.6198293,-6.9791473,0.0 107.6198194,-6.9791178,0.0 107.6194795,-6.9781434,0.0 107.6194529,-6.9780717,0.0 107.6194036,-6.9779295,0.0 107.6192427,-6.9774649,0.0 107.6189989,-6.9767398,0.0 107.6188276,-6.9762303,0.0 107.6187612,-6.976033,0.0 107.6186775,-6.9757839,0.0 107.6186627,-6.97574,0.0 107.6185203,-6.9753132,0.0 107.6184443,-6.9750836,0.0 107.6184305,-6.9750351,0.0 107.6183416,-6.9747731,0.0 107.6181556,-6.9742373,0.0 107.6181453,-6.9742063,0.0 107.6181183,-6.9741257,0.0 107.6180443,-6.9738994,0.0 107.6179596,-6.9736256,0.0</coordinates>
            </LineString>
        </Placemark>
        <Placemark id="75767">
            <name>Jalan Bojongsoang</name>
            <styleUrl>#75768</styleUrl>
            <LineString id="75766">
                <coordinates>107.6334271,-6.982576,0.0 107.6333183,-6.9826588,0.0 107.6331518,-6.9827833,0.0 107.6329595,-6.9828925,0.0 107.632677,-6.9830155,0.0 107.6324623,-6.9830967,0.0 107.6322221,-6.9831765,0.0 107.6319965,-6.9832285,0.0 107.6317677,-6.9832746,0.0 107.6316703,-6.9832899,0.0 107.6314598,-6.9833231,0.0 107.6313168,-6.9833408,0.0 107.6311272,-6.9834023,0.0 107.6310399,-6.9834527,0.0 107.6309193,-6.9835557,0.0 107.6307659,-6.9837107,0.0 107.6305255,-6.9838989,0.0 107.6301666,-6.9841369,0.0 107.6301521,-6.9841458,0.0</coordinates>
            </LineString>
        </Placemark>
        <Placemark id="75771">
            <name>Jalan Bojongsoang</name>
            <styleUrl>#75772</styleUrl>
            <LineString id="75770">
                <coordinates>107.629967,-6.984275,0.0 107.629842,-6.9843655,0.0 107.6297584,-6.9844195,0.0 107.629587,-6.9844922,0.0 107.629441,-6.9845291,0.0 107.6291326,-6.9845669,0.0 107.629002,-6.9845787,0.0 107.6288669,-6.9846967,0.0 107.6286511,-6.9849081,0.0 107.6283903,-6.9851983,0.0 107.62832,-6.9852785,0.0 107.6281685,-6.9854591,0.0 107.6276386,-6.9860824,0.0 107.6276154,-6.986108,0.0 107.6275953,-6.9861306,0.0 107.627565,-6.9861572,0.0 107.6275382,-6.9861699,0.0 107.6275025,-6.9861794,0.0 107.6274602,-6.9861832,0.0 107.6273537,-6.9861862,0.0 107.6272859,-6.9861805,0.0 107.6272097,-6.9861837,0.0 107.6270195,-6.9861916,0.0</coordinates>
            </LineString>
        </Placemark>
        <Placemark id="75775">
            <name>Jalan Bojongsoang</name>
            <styleUrl>#75776</styleUrl>
            <LineString id="75774">
                <coordinates>107.6301521,-6.9841458,0.0 107.629967,-6.984275,0.0</coordinates>
            </LineString>
        </Placemark>
        <Placemark id="75779">
            <name>Jalan Jaksa Naranata</name>
            <styleUrl>#75780</styleUrl>
            <LineString id="75778">
                <coordinates>107.6312405,-7.0048462,0.0 107.6312185,-7.0050869,0.0 107.6312026,-7.0051603,0.0 107.6311757,-7.0052422,0.0 107.631148,-7.0052776,0.0 107.6309071,-7.0054785,0.0 107.6303516,-7.0059344,0.0 107.6303208,-7.0059523,0.0 107.6302832,-7.0059623,0.0 107.6302443,-7.0059663,0.0 107.6297938,-7.0059487,0.0 107.6294679,-7.0059529,0.0 107.6291782,-7.0059567,0.0 107.6287137,-7.0059605,0.0 107.6280322,-7.0059523,0.0 107.6272639,-7.0059498,0.0 107.6268268,-7.0059464,0.0 107.6261913,-7.0059527,0.0</coordinates>
            </LineString>
        </Placemark>
        <Placemark id="75783">
            <name>Jalan Mohammad Toha</name>
            <styleUrl>#75784</styleUrl>
            <LineString id="75782">
                <coordinates>107.6116113,-6.9549027,0.0 107.6116834,-6.9550038,0.0 107.6117349,-6.955158,0.0 107.6118082,-6.9554079,0.0 107.6118897,-6.9556394,0.0</coordinates>
            </LineString>
        </Placemark>
        <Placemark id="75787">
            <name>Jalan Terusan Bojongsoang</name>
            <styleUrl>#75788</styleUrl>
            <LineString id="75786">
                <coordinates>107.6320736,-6.9900649,0.0 107.6320352,-6.9901805,0.0 107.6319793,-6.9903512,0.0 107.6319245,-6.9905522,0.0 107.6318697,-6.9907532,0.0 107.6318415,-6.9908464,0.0 107.6317423,-6.9911484,0.0 107.6316708,-6.99136,0.0 107.6316525,-6.9914167,0.0 107.6315815,-6.9916369,0.0 107.6315,-6.9919241,0.0 107.6314065,-6.992229,0.0 107.6313361,-6.9924993,0.0</coordinates>
            </LineString>
        </Placemark>
        <Placemark id="75791">
            <name>Jalan Ibu Inggit Ganarsih</name>
            <styleUrl>#75792</styleUrl>
            <LineString id="75790">
                <coordinates>107.6054273,-6.9316877,0.0 107.6059933,-6.9317677,0.0 107.6060299,-6.931773,0.0 107.6064553,-6.931835,0.0 107.6066275,-6.9318519,0.0</coordinates>
            </LineString>
        </Placemark>
        <Placemark id="75795">
            <name>Jalan Pungkur</name>
            <styleUrl>#75796</styleUrl>
            <LineString id="75794">
                <coordinates>107.6059177,-6.9273911,0.0 107.6050539,-6.9273113,0.0 107.6049045,-6.927299,0.0 107.6047838,-6.9272891,0.0 107.6042912,-6.9272485,0.0 107.6038271,-6.9272103,0.0 107.6036918,-6.9271992,0.0</coordinates>
            </LineString>
        </Placemark>
        <Placemark id="75799">
            <name>Jalan Otto Iskandardinata</name>
            <styleUrl>#75800</styleUrl>
            <LineString id="75798">
                <coordinates>107.6036918,-6.9271992,0.0 107.6036329,-6.9280445,0.0 107.6035987,-6.9285343,0.0 107.6035394,-6.9293944,0.0 107.603531,-6.9295081,0.0 107.6035279,-6.9295503,0.0 107.6035002,-6.9299478,0.0 107.6034837,-6.930184,0.0 107.6034762,-6.930325,0.0 107.6034705,-6.9303736,0.0 107.6034661,-6.9304369,0.0 107.603397,-6.9314278,0.0</coordinates>
            </LineString>
        </Placemark>
        <Placemark id="75803">
            <name>Jalan Ibu Inggit Ganarsih</name>
            <styleUrl>#75804</styleUrl>
            <LineString id="75802">
                <coordinates>107.6040032,-6.9315065,0.0 107.6041575,-6.931522,0.0 107.6048366,-6.9316106,0.0 107.6054273,-6.9316877,0.0</coordinates>
            </LineString>
        </Placemark>
        <Placemark id="75807">
            <name>Jalan Mohammad Toha</name>
            <styleUrl>#75808</styleUrl>
            <LineString id="75806">
                <coordinates>107.6094437,-6.9483822,0.0 107.6094101,-6.9482727,0.0</coordinates>
            </LineString>
        </Placemark>
        <Placemark id="75811">
            <name>Jalan Mohammad Toha</name>
            <styleUrl>#75812</styleUrl>
            <LineString id="75810">
                <coordinates>107.6086676,-6.9461425,0.0 107.6086093,-6.945971,0.0 107.6085871,-6.9459059,0.0 107.608562,-6.9458321,0.0 107.6085284,-6.9457333,0.0 107.6084824,-6.9455982,0.0 107.6084779,-6.9455849,0.0 107.6084496,-6.9455018,0.0 107.608427,-6.9454354,0.0 107.608407,-6.9453744,0.0 107.6083491,-6.945205,0.0 107.6082597,-6.9449435,0.0 107.6082426,-6.9448934,0.0 107.6082103,-6.9447985,0.0 107.6080915,-6.9444492,0.0 107.6079672,-6.944084,0.0 107.6078706,-6.9438055,0.0 107.607766,-6.9435054,0.0 107.6077347,-6.9434128,0.0 107.607677,-6.9432421,0.0 107.6076477,-6.9431556,0.0</coordinates>
            </LineString>
        </Placemark>
        <Placemark id="75815">
            <name>Jalan Mohammad Toha</name>
            <styleUrl>#75816</styleUrl>
            <LineString id="75814">
                <coordinates>107.6116113,-6.9549027,0.0 107.6115903,-6.9548395,0.0 107.6115496,-6.9547181,0.0 107.6115404,-6.9546891,0.0 107.6115309,-6.9546605,0.0 107.6115168,-6.954618,0.0 107.6115056,-6.9545841,0.0 107.6114306,-6.9543571,0.0 107.6114039,-6.9542777,0.0 107.6113779,-6.9541994,0.0 107.6113491,-6.9541126,0.0 107.6113021,-6.953971,0.0 107.6112433,-6.9537939,0.0 107.6112087,-6.9536897,0.0 107.6111456,-6.953493,0.0 107.6111025,-6.9533696,0.0 107.6110127,-6.9530992,0.0 107.6109821,-6.9530069,0.0 107.6109598,-6.9529395,0.0 107.610882,-6.9527052,0.0 107.6108172,-6.9525101,0.0 107.6107154,-6.9522033,0.0 107.610704,-6.9521688,0.0 107.6106927,-6.9521348,0.0 107.6106289,-6.9519383,0.0 107.6105529,-6.9517136,0.0 107.6105221,-6.9516206,0.0 107.6104355,-6.951364,0.0 107.6103879,-6.9512162,0.0 107.6103079,-6.9509754,0.0 107.6101654,-6.950546,0.0 107.6101111,-6.9503823,0.0 107.609996,-6.9500355,0.0</coordinates>
            </LineString>
        </Placemark>
        <Placemark id="75819">
            <name>Jalan Terusan Bojongsoang</name>
            <styleUrl>#75820</styleUrl>
            <LineString id="75818">
                <coordinates>107.6328922,-6.9855671,0.0 107.6328659,-6.9857289,0.0 107.6328247,-6.9859824,0.0 107.6327896,-6.9861987,0.0 107.6327571,-6.9863987,0.0 107.6326896,-6.9868137,0.0 107.6326529,-6.987015,0.0 107.6324776,-6.987975,0.0 107.6324363,-6.9883896,0.0 107.6324078,-6.9888436,0.0 107.632341,-6.9892213,0.0 107.6323057,-6.9893722,0.0 107.63227,-6.9894981,0.0 107.6322368,-6.9895932,0.0</coordinates>
            </LineString>
        </Placemark>
        <Placemark id="75823">
            <name>Jalan Mohammad Toha</name>
            <styleUrl>#75824</styleUrl>
            <LineString id="75822">
                <coordinates>107.606228,-6.9376212,0.0 107.6062228,-6.9376862,0.0 107.6062191,-6.9378081,0.0</coordinates>
            </LineString>
        </Placemark>
        <Placemark id="75827">
            <name>Jalan Mohammad Toha</name>
            <styleUrl>#75828</styleUrl>
            <LineString id="75826">
                <coordinates>107.6062191,-6.9378081,0.0 107.6061991,-6.9382951,0.0 107.6061936,-6.9383233,0.0 107.6061749,-6.938344,0.0</coordinates>
            </LineString>
        </Placemark>
        <Placemark id="75831">
            <name>Jalan Mohammad Toha</name>
            <styleUrl>#75832</styleUrl>
            <LineString id="75830">
                <coordinates>107.6062333,-6.9375301,0.0 107.606228,-6.9376212,0.0</coordinates>
            </LineString>
        </Placemark>
        <Placemark id="75835">
            <name>Route Segment</name>
            <styleUrl>#75836</styleUrl>
            <LineString id="75834">
                <coordinates>107.6262606,-7.0081311,0.0 107.6264044,-7.0082022,0.0 107.6264534,-7.0082302,0.0 107.6264986,-7.0082598,0.0 107.6265341,-7.0083054,0.0</coordinates>
            </LineString>
        </Placemark>
        <Placemark id="75839">
            <name>Jalan Anggadireja</name>
            <styleUrl>#75840</styleUrl>
            <LineString id="75838">
                <coordinates>107.6261801,-7.0061732,0.0 107.6262168,-7.0063181,0.0 107.6262194,-7.0071084,0.0 107.6262207,-7.0074837,0.0 107.6262398,-7.0079912,0.0 107.6262422,-7.0080365,0.0 107.6262438,-7.0080882,0.0</coordinates>
            </LineString>
        </Placemark>
        <Placemark id="75843">
            <name>Jalan Terusan Bojongsoang</name>
            <styleUrl>#75844</styleUrl>
            <LineString id="75842">
                <coordinates>107.6322368,-6.9895932,0.0 107.6320736,-6.9900649,0.0</coordinates>
            </LineString>
        </Placemark>
        <Placemark id="75847">
            <name>Jalan Terusan Bojongsoang</name>
            <styleUrl>#75848</styleUrl>
            <LineString id="75846">
                <coordinates>107.6313361,-6.9924993,0.0 107.6310419,-6.9935157,0.0</coordinates>
            </LineString>
        </Placemark>
        <Placemark id="75851">
            <name>Jalan Ibu Inggit Ganarsih</name>
            <styleUrl>#75852</styleUrl>
            <LineString id="75850">
                <coordinates>107.603397,-6.9314278,0.0 107.603453,-6.9314349,0.0 107.6039218,-6.9314959,0.0 107.6040032,-6.9315065,0.0</coordinates>
            </LineString>
        </Placemark>
        <Placemark id="75855">
            <name>Jalan Mohammad Toha</name>
            <styleUrl>#75856</styleUrl>
            <LineString id="75854">
                <coordinates>107.606251,-6.9371233,0.0 107.606247,-6.9372812,0.0 107.6062389,-6.9374421,0.0 107.6062333,-6.9375301,0.0</coordinates>
            </LineString>
        </Placemark>
        <Placemark id="75859">
            <name>Jalan Mohammad Toha</name>
            <styleUrl>#75860</styleUrl>
            <LineString id="75858">
                <coordinates>107.6095322,-6.9486416,0.0 107.6094437,-6.9483822,0.0</coordinates>
            </LineString>
        </Placemark>
        <Placemark id="75863">
            <name>Jalan Mohammad Toha</name>
            <styleUrl>#75864</styleUrl>
            <LineString id="75862">
                <coordinates>107.609996,-6.9500355,0.0 107.6098084,-6.9494703,0.0 107.6097027,-6.9491518,0.0 107.6096343,-6.9489457,0.0 107.6095822,-6.9487887,0.0 107.6095322,-6.9486416,0.0</coordinates>
            </LineString>
        </Placemark>
        <Placemark id="75867">
            <name>Jalan Terusan Bojongsoang</name>
            <styleUrl>#75868</styleUrl>
            <LineString id="75866">
                <coordinates>107.6310419,-6.9935157,0.0 107.6309877,-6.9937096,0.0</coordinates>
            </LineString>
        </Placemark>
        <Placemark id="75871">
            <name>Jalan Mohammad Toha</name>
            <styleUrl>#75872</styleUrl>
            <LineString id="75870">
                <coordinates>107.6094101,-6.9482727,0.0 107.6093038,-6.9479813,0.0</coordinates>
            </LineString>
        </Placemark>
        <Placemark id="75875">
            <name>Jalan Mohammad Toha</name>
            <styleUrl>#75876</styleUrl>
            <LineString id="75874">
                <coordinates>107.6119773,-6.9559046,0.0 107.6119986,-6.9559705,0.0 107.6120885,-6.9562234,0.0 107.6121421,-6.9563873,0.0 107.6121542,-6.9564271,0.0 107.6121624,-6.9565318,0.0</coordinates>
            </LineString>
        </Placemark>
        <Placemark id="75879">
            <name>Route Segment</name>
            <styleUrl>#75880</styleUrl>
            <LineString id="75878">
                <coordinates>107.6335002,-6.9825117,0.0 107.6335365,-6.9825707,0.0 107.6335714,-6.9826134,0.0 107.6336174,-6.9826583,0.0 107.6336739,-6.9827042,0.0</coordinates>
            </LineString>
        </Placemark>
        <Placemark id="75883">
            <name>Jalan Dayeuhkolot</name>
            <styleUrl>#75884</styleUrl>
            <LineString id="75882">
                <coordinates>107.6179596,-6.9736256,0.0 107.6178299,-6.9732458,0.0 107.6177978,-6.9731518,0.0 107.6174623,-6.9721692,0.0 107.617423,-6.9720542,0.0 107.6173961,-6.9719753,0.0 107.6173546,-6.9718537,0.0 107.6170113,-6.9708485,0.0 107.6169765,-6.9707466,0.0 107.6169386,-6.9706355,0.0 107.6168176,-6.9702811,0.0 107.6166991,-6.9699343,0.0 107.6165138,-6.9693916,0.0 107.6164324,-6.9691531,0.0 107.6162581,-6.9686427,0.0 107.6162261,-6.968549,0.0 107.6162026,-6.9684801,0.0 107.6161081,-6.9682033,0.0 107.6160722,-6.9680981,0.0 107.615939,-6.9677082,0.0 107.6158435,-6.9674285,0.0 107.6157641,-6.9671958,0.0 107.6155875,-6.9666787,0.0 107.6155668,-6.9666258,0.0 107.6155484,-6.9665641,0.0 107.6154548,-6.9662899,0.0 107.6152535,-6.9657004,0.0 107.615121,-6.9653124,0.0 107.615049,-6.9651016,0.0 107.6150006,-6.9649599,0.0 107.6148467,-6.9645092,0.0 107.6147948,-6.9643572,0.0 107.6146299,-6.9638886,0.0 107.6146073,-6.963808,0.0 107.6145303,-6.9635825,0.0 107.6144992,-6.9634879,0.0 107.6144627,-6.9633845,0.0 107.6143394,-6.9630233,0.0</coordinates>
            </LineString>
        </Placemark>
        <Placemark id="75887">
            <name>Jalan Mohammad Toha</name>
            <styleUrl>#75888</styleUrl>
            <LineString id="75886">
                <coordinates>107.6062529,-6.9369183,0.0 107.6062607,-6.9369403,0.0 107.6062612,-6.9369586,0.0 107.606251,-6.9371233,0.0</coordinates>
            </LineString>
        </Placemark>
        <Placemark id="75891">
            <name>Jalan Mohammad Toha</name>
            <styleUrl>#75892</styleUrl>
            <LineString id="75890">
                <coordinates>107.6076477,-6.9431556,0.0 107.6075689,-6.9429228,0.0 107.6074989,-6.9427159,0.0 107.6074151,-6.942468,0.0 107.6074044,-6.9424365,0.0 107.6073267,-6.9422067,0.0 107.6072871,-6.9420857,0.0 107.6072103,-6.9418515,0.0 107.6071736,-6.9417393,0.0 107.6070094,-6.9412381,0.0 107.606932,-6.9410019,0.0 107.6068982,-6.9408986,0.0 107.6067904,-6.9405695,0.0 107.6067424,-6.9404231,0.0 107.6066617,-6.9401765,0.0 107.6066129,-6.9400276,0.0 107.6065833,-6.9399373,0.0 107.6065081,-6.9397106,0.0 107.6064373,-6.939497,0.0 107.6063207,-6.9391297,0.0 107.6063015,-6.9390693,0.0 107.6062885,-6.939027,0.0 107.6062755,-6.9389847,0.0 107.6062595,-6.9389365,0.0 107.6062399,-6.9388618,0.0 107.6062007,-6.9387072,0.0 107.6061889,-6.9386548,0.0 107.6061828,-6.9385203,0.0 107.6061749,-6.938344,0.0</coordinates>
            </LineString>
        </Placemark>
        <Placemark id="75895">
            <name>Jalan Dayeuhkolot</name>
            <styleUrl>#75896</styleUrl>
            <LineString id="75894">
                <coordinates>107.6143394,-6.9630233,0.0 107.6142712,-6.9628213,0.0 107.6142065,-6.9626283,0.0 107.6140679,-6.9622149,0.0 107.6139412,-6.9618372,0.0 107.6138864,-6.9616735,0.0 107.6138487,-6.9615612,0.0 107.6137567,-6.9612851,0.0 107.6137443,-6.9612499,0.0 107.613571,-6.9607329,0.0</coordinates>
            </LineString>
        </Placemark>
        <Placemark id="75899">
            <name>Jalan Mohammad Toha</name>
            <styleUrl>#75900</styleUrl>
            <LineString id="75898">
                <coordinates>107.6093038,-6.9479813,0.0 107.6092951,-6.9479579,0.0 107.6092415,-6.9478107,0.0 107.6091943,-6.9476776,0.0 107.6091509,-6.9475613,0.0 107.6090997,-6.9474124,0.0 107.6090862,-6.9473728,0.0 107.6090786,-6.9473503,0.0 107.6089872,-6.9470817,0.0 107.6087733,-6.946453,0.0 107.6086954,-6.946224,0.0 107.6086676,-6.9461425,0.0</coordinates>
            </LineString>
        </Placemark>
        <Placemark id="75903">
            <name>Jalan Mohammad Toha</name>
            <styleUrl>#75904</styleUrl>
            <LineString id="75902">
                <coordinates>107.6118947,-6.9556604,0.0 107.611923,-6.9557408,0.0 107.6119415,-6.9557973,0.0</coordinates>
            </LineString>
        </Placemark>
        <Placemark id="75907">
            <name>Jalan Mohammad Toha</name>
            <styleUrl>#75908</styleUrl>
            <LineString id="75906">
                <coordinates>107.6118897,-6.9556394,0.0 107.6118947,-6.9556604,0.0</coordinates>
            </LineString>
        </Placemark>
        <Placemark id="75911">
            <name>Jalan Mohammad Toha</name>
            <styleUrl>#75912</styleUrl>
            <LineString id="75910">
                <coordinates>107.6119415,-6.9557973,0.0 107.6119773,-6.9559046,0.0</coordinates>
            </LineString>
        </Placemark>
        <Placemark id="75915">
            <name>Jalan Dewi Sartika</name>
            <styleUrl>#75916</styleUrl>
            <LineString id="75914">
                <coordinates>107.605817,-6.92756,0.0 107.6058222,-6.9274995,0.0</coordinates>
            </LineString>
        </Placemark>
        <Placemark id="75919">
            <name>Jalan Dewi Sartika</name>
            <styleUrl>#75920</styleUrl>
            <LineString id="75918">
                <coordinates>107.6058222,-6.9274995,0.0 107.6058291,-6.927479,0.0 107.6058504,-6.9274581,0.0 107.6058814,-6.9274381,0.0 107.6059038,-6.9274217,0.0 107.6059122,-6.927408,0.0 107.6059177,-6.9273911,0.0</coordinates>
            </LineString>
        </Placemark>
        <Placemark id="75923">
            <name>Jalan Anggadireja</name>
            <styleUrl>#75924</styleUrl>
            <LineString id="75922">
                <coordinates>107.6261801,-7.0061732,0.0 107.6261913,-7.0059527,0.0</coordinates>
            </LineString>
        </Placemark>
        <Placemark id="75927">
            <name>Jalan Bojongsoang</name>
            <styleUrl>#75928</styleUrl>
            <LineString id="75926">
                <coordinates>107.6270195,-6.9861916,0.0 107.6265321,-6.9862119,0.0</coordinates>
            </LineString>
        </Placemark>
        <Placemark id="75931">
            <name>Jalan Bojongsoang</name>
            <styleUrl>#75932</styleUrl>
            <LineString id="75930">
                <coordinates>107.6335002,-6.9825117,0.0 107.6334271,-6.982576,0.0</coordinates>
            </LineString>
        </Placemark>
        <Placemark id="75935">
            <name>Jalan Terusan Bojongsoang</name>
            <styleUrl>#75936</styleUrl>
            <LineString id="75934">
                <coordinates>107.6336739,-6.9827042,0.0 107.633615,-6.9828912,0.0</coordinates>
            </LineString>
        </Placemark>
        <Placemark id="75939">
            <name>Jalan Dewi Sartika</name>
            <styleUrl>#75940</styleUrl>
            <LineString id="75938">
                <coordinates>107.6058121,-6.9276265,0.0 107.605817,-6.92756,0.0</coordinates>
            </LineString>
        </Placemark>
        <Placemark id="75943">
            <name>Route Segment</name>
            <styleUrl>#75944</styleUrl>
            <LineString id="75942">
                <coordinates>107.6265341,-7.0083054,0.0 107.6265755,-7.0083177,0.0 107.6266395,-7.0083377,0.0 107.6267629,-7.0083834,0.0 107.6267716,-7.0083869,0.0 107.6268159,-7.0084045,0.0 107.6269274,-7.008449,0.0 107.6269392,-7.0084536,0.0 107.6270662,-7.0085079,0.0 107.6271074,-7.0085313,0.0 107.6273132,-7.0086343,0.0 107.6275639,-7.0087097,0.0 107.6277083,-7.0087696,0.0 107.6278518,-7.0088321,0.0 107.6279899,-7.0089,0.0 107.6281189,-7.0089812,0.0 107.628281,-7.0091183,0.0 107.6284029,-7.009267,0.0 107.628449,-7.0093428,0.0 107.6285277,-7.0094218,0.0 107.6286132,-7.0094829,0.0 107.6286846,-7.0095279,0.0 107.6288724,-7.0096241,0.0 107.6291008,-7.0097178,0.0 107.6292778,-7.009758,0.0 107.6293216,-7.0097747,0.0 107.6293687,-7.009789,0.0 107.6296339,-7.0098637,0.0 107.6298013,-7.0099124,0.0 107.6300985,-7.0099914,0.0 107.6304517,-7.0100766,0.0 107.6309094,-7.0102136,0.0 107.6313791,-7.0103715,0.0 107.6314578,-7.0103989,0.0</coordinates>
            </LineString>
        </Placemark>
        <Placemark id="75947">
            <name>Route Segment</name>
            <styleUrl>#75948</styleUrl>
            <LineString id="75946">
                <coordinates>107.6262438,-7.0080882,0.0 107.6262558,-7.0081083,0.0 107.6262606,-7.0081311,0.0</coordinates>
            </LineString>
        </Placemark>
        <Placemark id="75951">
            <name>Jalan Terusan Bojongsoang</name>
            <styleUrl>#75952</styleUrl>
            <LineString id="75950">
                <coordinates>107.6309877,-6.9937096,0.0 107.6309524,-6.9938605,0.0</coordinates>
            </LineString>
        </Placemark>
        <Placemark id="75955">
            <name>Jalan Terusan Bojongsoang</name>
            <styleUrl>#75956</styleUrl>
            <LineString id="75954">
                <coordinates>107.6309524,-6.9938605,0.0 107.6309343,-6.9939642,0.0</coordinates>
            </LineString>
        </Placemark>
        <Placemark id="75959">
            <name>Jalan Terusan Bojongsoang</name>
            <styleUrl>#75960</styleUrl>
            <LineString id="75958">
                <coordinates>107.6309343,-6.9939642,0.0 107.6308714,-6.9943251,0.0</coordinates>
            </LineString>
        </Placemark>
        <Placemark id="75963">
            <name>Jalan Terusan Bojongsoang</name>
            <styleUrl>#75964</styleUrl>
            <LineString id="75962">
                <coordinates>107.6308714,-6.9943251,0.0 107.6308112,-6.9946948,0.0 107.6307767,-6.9949068,0.0</coordinates>
            </LineString>
        </Placemark>
        <Placemark id="75967">
            <name>Jalan Terusan Bojongsoang</name>
            <styleUrl>#75968</styleUrl>
            <LineString id="75966">
                <coordinates>107.6307767,-6.9949068,0.0 107.6307642,-6.9949973,0.0</coordinates>
            </LineString>
        </Placemark>
        <Placemark id="75971">
            <name>Jalan Terusan Bojongsoang</name>
            <styleUrl>#75972</styleUrl>
            <LineString id="75970">
                <coordinates>107.6307642,-6.9949973,0.0 107.6307513,-6.9951191,0.0</coordinates>
            </LineString>
        </Placemark>
        <Placemark id="75975">
            <name>Jalan Terusan Bojongsoang</name>
            <styleUrl>#75976</styleUrl>
            <LineString id="75974">
                <coordinates>107.6307513,-6.9951191,0.0 107.6307466,-6.995583,0.0</coordinates>
            </LineString>
        </Placemark>
        <Placemark id="75979">
            <name>Jalan Terusan Bojongsoang</name>
            <styleUrl>#75980</styleUrl>
            <LineString id="75978">
                <coordinates>107.6307466,-6.995583,0.0 107.6307627,-6.9957461,0.0 107.6308707,-6.9965927,0.0</coordinates>
            </LineString>
        </Placemark>
        <Placemark id="75983">
            <name>Jalan Terusan Bojongsoang</name>
            <styleUrl>#75984</styleUrl>
            <LineString id="75982">
                <coordinates>107.6308707,-6.9965927,0.0 107.6309236,-6.9968209,0.0 107.6309996,-6.9971489,0.0</coordinates>
            </LineString>
        </Placemark>
        <Placemark id="75987">
            <name>Jalan Terusan Bojongsoang</name>
            <styleUrl>#75988</styleUrl>
            <LineString id="75986">
                <coordinates>107.6309996,-6.9971489,0.0 107.6310282,-6.9973015,0.0 107.6310792,-6.997611,0.0 107.6311094,-6.9977754,0.0</coordinates>
            </LineString>
        </Placemark>
        <Placemark id="75991">
            <name>Jalan Terusan Bojongsoang</name>
            <styleUrl>#75992</styleUrl>
            <LineString id="75990">
                <coordinates>107.6311094,-6.9977754,0.0 107.6311198,-6.9978516,0.0</coordinates>
            </LineString>
        </Placemark>
        <Placemark id="75995">
            <name>Jalan Terusan Bojongsoang</name>
            <styleUrl>#75996</styleUrl>
            <LineString id="75994">
                <coordinates>107.6311198,-6.9978516,0.0 107.6311368,-6.9979105,0.0</coordinates>
            </LineString>
        </Placemark>
        <Placemark id="75999">
            <name>Jalan Terusan Bojongsoang</name>
            <styleUrl>#76000</styleUrl>
            <LineString id="75998">
                <coordinates>107.6311368,-6.9979105,0.0 107.6312073,-6.9980755,0.0</coordinates>
            </LineString>
        </Placemark>
        <Placemark id="76003">
            <name>Jalan Terusan Bojongsoang</name>
            <styleUrl>#76004</styleUrl>
            <LineString id="76002">
                <coordinates>107.6312073,-6.9980755,0.0 107.631235,-6.9981448,0.0</coordinates>
            </LineString>
        </Placemark>
        <Placemark id="76007">
            <name>Jalan Terusan Bojongsoang</name>
            <styleUrl>#76008</styleUrl>
            <LineString id="76006">
                <coordinates>107.631235,-6.9981448,0.0 107.6312562,-6.998198,0.0</coordinates>
            </LineString>
        </Placemark>
        <Placemark id="76011">
            <name>Jalan Terusan Bojongsoang</name>
            <styleUrl>#76012</styleUrl>
            <LineString id="76010">
                <coordinates>107.6312562,-6.998198,0.0 107.6313266,-6.9983338,0.0</coordinates>
            </LineString>
        </Placemark>
        <Placemark id="76015">
            <name>Jalan Terusan Bojongsoang</name>
            <styleUrl>#76016</styleUrl>
            <LineString id="76014">
                <coordinates>107.6313266,-6.9983338,0.0 107.6314265,-6.9985454,0.0</coordinates>
            </LineString>
        </Placemark>
        <Placemark id="76019">
            <name>Jalan Terusan Bojongsoang</name>
            <styleUrl>#76020</styleUrl>
            <LineString id="76018">
                <coordinates>107.6314265,-6.9985454,0.0 107.6316025,-6.9989284,0.0</coordinates>
            </LineString>
        </Placemark>
        <Placemark id="76023">
            <name>Jalan Terusan Bojongsoang</name>
            <styleUrl>#76024</styleUrl>
            <LineString id="76022">
                <coordinates>107.6316025,-6.9989284,0.0 107.6316216,-6.9989678,0.0 107.6316458,-6.9990175,0.0 107.6316699,-6.9990672,0.0</coordinates>
            </LineString>
        </Placemark>
        <Placemark id="76027">
            <name>Jalan Terusan Bojongsoang</name>
            <styleUrl>#76028</styleUrl>
            <LineString id="76026">
                <coordinates>107.6316699,-6.9990672,0.0 107.6318386,-6.9995318,0.0</coordinates>
            </LineString>
        </Placemark>
        <Placemark id="76031">
            <name>Jalan Terusan Bojongsoang</name>
            <styleUrl>#76032</styleUrl>
            <LineString id="76030">
                <coordinates>107.6318386,-6.9995318,0.0 107.6318678,-6.9996123,0.0</coordinates>
            </LineString>
        </Placemark>
        <Placemark id="76035">
            <name>Jalan Terusan Bojongsoang</name>
            <styleUrl>#76036</styleUrl>
            <LineString id="76034">
                <coordinates>107.6318678,-6.9996123,0.0 107.6318943,-6.9996808,0.0</coordinates>
            </LineString>
        </Placemark>
        <Placemark id="76039">
            <name>Jalan Terusan Bojongsoang</name>
            <styleUrl>#76040</styleUrl>
            <LineString id="76038">
                <coordinates>107.6318943,-6.9996808,0.0 107.6319395,-6.999798,0.0</coordinates>
            </LineString>
        </Placemark>
        <Placemark id="76043">
            <name>Jalan Terusan Bojongsoang</name>
            <styleUrl>#76044</styleUrl>
            <LineString id="76042">
                <coordinates>107.6319395,-6.999798,0.0 107.6319033,-7.0000422,0.0 107.6318805,-7.0001847,0.0</coordinates>
            </LineString>
        </Placemark>
        <Placemark id="76047">
            <name>Jalan Terusan Bojongsoang</name>
            <styleUrl>#76048</styleUrl>
            <LineString id="76046">
                <coordinates>107.6318805,-7.0001847,0.0 107.6318753,-7.0002118,0.0 107.6318593,-7.0002949,0.0 107.6316539,-7.001362,0.0 107.6316364,-7.0014605,0.0</coordinates>
            </LineString>
        </Placemark>
        <Placemark id="76051">
            <name>Jalan Terusan Bojongsoang</name>
            <styleUrl>#76052</styleUrl>
            <LineString id="76050">
                <coordinates>107.6316364,-7.0014605,0.0 107.6313964,-7.0027517,0.0</coordinates>
            </LineString>
        </Placemark>
        <Placemark id="76055">
            <name>Jalan Terusan Bojongsoang</name>
            <styleUrl>#76056</styleUrl>
            <LineString id="76054">
                <coordinates>107.6313964,-7.0027517,0.0 107.6313132,-7.0032895,0.0</coordinates>
            </LineString>
        </Placemark>
        <Placemark id="76059">
            <name>Jalan Terusan Bojongsoang</name>
            <styleUrl>#76060</styleUrl>
            <LineString id="76058">
                <coordinates>107.6313132,-7.0032895,0.0 107.6312931,-7.0035251,0.0 107.6312636,-7.0039683,0.0</coordinates>
            </LineString>
        </Placemark>
        <Placemark id="76063">
            <name>Jalan Terusan Bojongsoang</name>
            <styleUrl>#76064</styleUrl>
            <LineString id="76062">
                <coordinates>107.6312636,-7.0039683,0.0 107.6312603,-7.0040341,0.0 107.6312535,-7.004168,0.0 107.6312522,-7.0043111,0.0</coordinates>
            </LineString>
        </Placemark>
        <Placemark id="76067">
            <name>Jalan Terusan Bojongsoang</name>
            <styleUrl>#76068</styleUrl>
            <LineString id="76066">
                <coordinates>107.6312522,-7.0043111,0.0 107.6312529,-7.0043683,0.0</coordinates>
            </LineString>
        </Placemark>
        <Placemark id="76071">
            <name>Jalan Terusan Bojongsoang</name>
            <styleUrl>#76072</styleUrl>
            <LineString id="76070">
                <coordinates>107.6312529,-7.0043683,0.0 107.6312562,-7.0044362,0.0 107.6312529,-7.0045307,0.0 107.6312482,-7.0046066,0.0 107.6312405,-7.0048462,0.0</coordinates>
            </LineString>
        </Placemark>
        <Placemark id="76075">
            <name>Jalan Mohammad Toha</name>
            <styleUrl>#76076</styleUrl>
            <LineString id="76074">
                <coordinates>107.613571,-6.9607329,0.0 107.6135242,-6.9605935,0.0</coordinates>
            </LineString>
        </Placemark>
        <Placemark id="76079">
            <name>Jalan Terusan Bojongsoang</name>
            <styleUrl>#76080</styleUrl>
            <LineString id="76078">
                <coordinates>107.633615,-6.9828912,0.0 107.633572,-6.9830355,0.0 107.6335615,-6.9830663,0.0 107.6335302,-6.9831657,0.0 107.6335161,-6.9832054,0.0 107.6334542,-6.9834001,0.0 107.6334443,-6.9834337,0.0 107.6333645,-6.9836962,0.0 107.633295,-6.9839307,0.0 107.63319,-6.9842659,0.0 107.6331142,-6.9845196,0.0 107.6330944,-6.984586,0.0 107.6330745,-6.9846524,0.0 107.6329877,-6.9849885,0.0 107.6329841,-6.98501,0.0 107.632947,-6.985235,0.0 107.6328922,-6.9855671,0.0</coordinates>
            </LineString>
        </Placemark>
        <Placemark id="76083">
            <name>Terminal Abdul Muis/Kebon Kalapa</name>
            <styleUrl>#76084</styleUrl>
            <Point id="76082">
                <coordinates>107.6058121,-6.9276265,0.0</coordinates>
            </Point>
        </Placemark>
        <Placemark id="76088">
            <name>Kompleks Wartawan</name>
            <styleUrl>#76089</styleUrl>
            <Point id="76087">
                <coordinates>107.6314578,-7.0103989,0.0</coordinates>
            </Point>
        </Placemark>
    </Document>
</kml>
