<?xml version="1.0" encoding="UTF-8"?>
<kml xmlns="http://www.opengis.net/kml/2.2" xmlns:gx="http://www.google.com/kml/ext/2.2">
    <Document id="68980">
        <Style id="68986">
            <IconStyle id="68987">
                <colorMode>normal</colorMode>
                <scale>1</scale>
                <heading>0</heading>
                <Icon id="68988">
                    <href>http://maps.google.com/mapfiles/kml/pushpin/ylw-pushpin.png</href>
                </Icon>
            </IconStyle>
        </Style>
        <Style id="68991">
            <IconStyle id="68992">
                <colorMode>normal</colorMode>
                <scale>1</scale>
                <heading>0</heading>
                <Icon id="68993">
                    <href>http://maps.google.com/mapfiles/kml/pushpin/ylw-pushpin.png</href>
                </Icon>
            </IconStyle>
        </Style>
        <Style id="68996">
            <LineStyle id="68997">
                <color>ff356615</color>
                <colorMode>normal</colorMode>
                <width>4</width>
            </LineStyle>
        </Style>
        <Style id="69000">
            <LineStyle id="69001">
                <color>ff356615</color>
                <colorMode>normal</colorMode>
                <width>4</width>
            </LineStyle>
        </Style>
        <Style id="69004">
            <LineStyle id="69005">
                <color>ff356615</color>
                <colorMode>normal</colorMode>
                <width>4</width>
            </LineStyle>
        </Style>
        <Style id="69008">
            <LineStyle id="69009">
                <color>ff356615</color>
                <colorMode>normal</colorMode>
                <width>4</width>
            </LineStyle>
        </Style>
        <Style id="69012">
            <LineStyle id="69013">
                <color>ff356615</color>
                <colorMode>normal</colorMode>
                <width>4</width>
            </LineStyle>
        </Style>
        <Style id="69016">
            <LineStyle id="69017">
                <color>ff356615</color>
                <colorMode>normal</colorMode>
                <width>4</width>
            </LineStyle>
        </Style>
        <Style id="69020">
            <LineStyle id="69021">
                <color>ff356615</color>
                <colorMode>normal</colorMode>
                <width>4</width>
            </LineStyle>
        </Style>
        <Style id="69024">
            <LineStyle id="69025">
                <color>ff356615</color>
                <colorMode>normal</colorMode>
                <width>4</width>
            </LineStyle>
        </Style>
        <Style id="69028">
            <LineStyle id="69029">
                <color>ff356615</color>
                <colorMode>normal</colorMode>
                <width>4</width>
            </LineStyle>
        </Style>
        <Style id="69032">
            <LineStyle id="69033">
                <color>ff356615</color>
                <colorMode>normal</colorMode>
                <width>4</width>
            </LineStyle>
        </Style>
        <Style id="69036">
            <LineStyle id="69037">
                <color>ff356615</color>
                <colorMode>normal</colorMode>
                <width>4</width>
            </LineStyle>
        </Style>
        <Style id="69040">
            <LineStyle id="69041">
                <color>ff356615</color>
                <colorMode>normal</colorMode>
                <width>4</width>
            </LineStyle>
        </Style>
        <Style id="69044">
            <LineStyle id="69045">
                <color>ff356615</color>
                <colorMode>normal</colorMode>
                <width>4</width>
            </LineStyle>
        </Style>
        <Style id="69048">
            <LineStyle id="69049">
                <color>ff356615</color>
                <colorMode>normal</colorMode>
                <width>4</width>
            </LineStyle>
        </Style>
        <Style id="69052">
            <LineStyle id="69053">
                <color>ff356615</color>
                <colorMode>normal</colorMode>
                <width>4</width>
            </LineStyle>
        </Style>
        <Style id="69056">
            <LineStyle id="69057">
                <color>ff356615</color>
                <colorMode>normal</colorMode>
                <width>4</width>
            </LineStyle>
        </Style>
        <Style id="69060">
            <LineStyle id="69061">
                <color>ff356615</color>
                <colorMode>normal</colorMode>
                <width>4</width>
            </LineStyle>
        </Style>
        <Style id="69064">
            <LineStyle id="69065">
                <color>ff356615</color>
                <colorMode>normal</colorMode>
                <width>4</width>
            </LineStyle>
        </Style>
        <Style id="69068">
            <LineStyle id="69069">
                <color>ff356615</color>
                <colorMode>normal</colorMode>
                <width>4</width>
            </LineStyle>
        </Style>
        <Style id="69072">
            <LineStyle id="69073">
                <color>ff356615</color>
                <colorMode>normal</colorMode>
                <width>4</width>
            </LineStyle>
        </Style>
        <Style id="69076">
            <LineStyle id="69077">
                <color>ff356615</color>
                <colorMode>normal</colorMode>
                <width>4</width>
            </LineStyle>
        </Style>
        <Style id="69080">
            <LineStyle id="69081">
                <color>ff356615</color>
                <colorMode>normal</colorMode>
                <width>4</width>
            </LineStyle>
        </Style>
        <Style id="69084">
            <LineStyle id="69085">
                <color>ff356615</color>
                <colorMode>normal</colorMode>
                <width>4</width>
            </LineStyle>
        </Style>
        <Style id="69088">
            <LineStyle id="69089">
                <color>ff356615</color>
                <colorMode>normal</colorMode>
                <width>4</width>
            </LineStyle>
        </Style>
        <Style id="69092">
            <LineStyle id="69093">
                <color>ff356615</color>
                <colorMode>normal</colorMode>
                <width>4</width>
            </LineStyle>
        </Style>
        <Style id="69096">
            <LineStyle id="69097">
                <color>ff356615</color>
                <colorMode>normal</colorMode>
                <width>4</width>
            </LineStyle>
        </Style>
        <Style id="69100">
            <LineStyle id="69101">
                <color>ff356615</color>
                <colorMode>normal</colorMode>
                <width>4</width>
            </LineStyle>
        </Style>
        <Style id="69104">
            <LineStyle id="69105">
                <color>ff356615</color>
                <colorMode>normal</colorMode>
                <width>4</width>
            </LineStyle>
        </Style>
        <Style id="69108">
            <LineStyle id="69109">
                <color>ff356615</color>
                <colorMode>normal</colorMode>
                <width>4</width>
            </LineStyle>
        </Style>
        <Style id="69112">
            <LineStyle id="69113">
                <color>ff356615</color>
                <colorMode>normal</colorMode>
                <width>4</width>
            </LineStyle>
        </Style>
        <Style id="69116">
            <LineStyle id="69117">
                <color>ff356615</color>
                <colorMode>normal</colorMode>
                <width>4</width>
            </LineStyle>
        </Style>
        <Style id="69120">
            <LineStyle id="69121">
                <color>ff356615</color>
                <colorMode>normal</colorMode>
                <width>4</width>
            </LineStyle>
        </Style>
        <Style id="69124">
            <LineStyle id="69125">
                <color>ff356615</color>
                <colorMode>normal</colorMode>
                <width>4</width>
            </LineStyle>
        </Style>
        <Style id="69128">
            <LineStyle id="69129">
                <color>ff356615</color>
                <colorMode>normal</colorMode>
                <width>4</width>
            </LineStyle>
        </Style>
        <Style id="69132">
            <LineStyle id="69133">
                <color>ff356615</color>
                <colorMode>normal</colorMode>
                <width>4</width>
            </LineStyle>
        </Style>
        <Style id="69136">
            <LineStyle id="69137">
                <color>ff356615</color>
                <colorMode>normal</colorMode>
                <width>4</width>
            </LineStyle>
        </Style>
        <Style id="69140">
            <LineStyle id="69141">
                <color>ff356615</color>
                <colorMode>normal</colorMode>
                <width>4</width>
            </LineStyle>
        </Style>
        <Style id="69144">
            <LineStyle id="69145">
                <color>ff356615</color>
                <colorMode>normal</colorMode>
                <width>4</width>
            </LineStyle>
        </Style>
        <Style id="69148">
            <LineStyle id="69149">
                <color>ff356615</color>
                <colorMode>normal</colorMode>
                <width>4</width>
            </LineStyle>
        </Style>
        <Style id="69152">
            <LineStyle id="69153">
                <color>ff356615</color>
                <colorMode>normal</colorMode>
                <width>4</width>
            </LineStyle>
        </Style>
        <Style id="69156">
            <LineStyle id="69157">
                <color>ff356615</color>
                <colorMode>normal</colorMode>
                <width>4</width>
            </LineStyle>
        </Style>
        <Style id="69160">
            <LineStyle id="69161">
                <color>ff356615</color>
                <colorMode>normal</colorMode>
                <width>4</width>
            </LineStyle>
        </Style>
        <Style id="69164">
            <LineStyle id="69165">
                <color>ff356615</color>
                <colorMode>normal</colorMode>
                <width>4</width>
            </LineStyle>
        </Style>
        <Style id="69168">
            <LineStyle id="69169">
                <color>ff356615</color>
                <colorMode>normal</colorMode>
                <width>4</width>
            </LineStyle>
        </Style>
        <Style id="69172">
            <LineStyle id="69173">
                <color>ff356615</color>
                <colorMode>normal</colorMode>
                <width>4</width>
            </LineStyle>
        </Style>
        <Style id="69176">
            <LineStyle id="69177">
                <color>ff356615</color>
                <colorMode>normal</colorMode>
                <width>4</width>
            </LineStyle>
        </Style>
        <Style id="69180">
            <LineStyle id="69181">
                <color>ff356615</color>
                <colorMode>normal</colorMode>
                <width>4</width>
            </LineStyle>
        </Style>
        <Style id="69184">
            <LineStyle id="69185">
                <color>ff356615</color>
                <colorMode>normal</colorMode>
                <width>4</width>
            </LineStyle>
        </Style>
        <Style id="69188">
            <LineStyle id="69189">
                <color>ff356615</color>
                <colorMode>normal</colorMode>
                <width>4</width>
            </LineStyle>
        </Style>
        <Style id="69192">
            <LineStyle id="69193">
                <color>ff356615</color>
                <colorMode>normal</colorMode>
                <width>4</width>
            </LineStyle>
        </Style>
        <Style id="69196">
            <LineStyle id="69197">
                <color>ff356615</color>
                <colorMode>normal</colorMode>
                <width>4</width>
            </LineStyle>
        </Style>
        <Style id="69200">
            <LineStyle id="69201">
                <color>ff356615</color>
                <colorMode>normal</colorMode>
                <width>4</width>
            </LineStyle>
        </Style>
        <Style id="69204">
            <LineStyle id="69205">
                <color>ff356615</color>
                <colorMode>normal</colorMode>
                <width>4</width>
            </LineStyle>
        </Style>
        <Style id="69208">
            <LineStyle id="69209">
                <color>ff356615</color>
                <colorMode>normal</colorMode>
                <width>4</width>
            </LineStyle>
        </Style>
        <Style id="69212">
            <LineStyle id="69213">
                <color>ff356615</color>
                <colorMode>normal</colorMode>
                <width>4</width>
            </LineStyle>
        </Style>
        <Style id="69216">
            <LineStyle id="69217">
                <color>ff356615</color>
                <colorMode>normal</colorMode>
                <width>4</width>
            </LineStyle>
        </Style>
        <Style id="69220">
            <LineStyle id="69221">
                <color>ff356615</color>
                <colorMode>normal</colorMode>
                <width>4</width>
            </LineStyle>
        </Style>
        <Style id="69224">
            <LineStyle id="69225">
                <color>ff356615</color>
                <colorMode>normal</colorMode>
                <width>4</width>
            </LineStyle>
        </Style>
        <Style id="69228">
            <LineStyle id="69229">
                <color>ff356615</color>
                <colorMode>normal</colorMode>
                <width>4</width>
            </LineStyle>
        </Style>
        <Style id="69232">
            <LineStyle id="69233">
                <color>ff356615</color>
                <colorMode>normal</colorMode>
                <width>4</width>
            </LineStyle>
        </Style>
        <Style id="69236">
            <LineStyle id="69237">
                <color>ff356615</color>
                <colorMode>normal</colorMode>
                <width>4</width>
            </LineStyle>
        </Style>
        <Style id="69240">
            <LineStyle id="69241">
                <color>ff356615</color>
                <colorMode>normal</colorMode>
                <width>4</width>
            </LineStyle>
        </Style>
        <Style id="69244">
            <LineStyle id="69245">
                <color>ff356615</color>
                <colorMode>normal</colorMode>
                <width>4</width>
            </LineStyle>
        </Style>
        <Style id="69248">
            <LineStyle id="69249">
                <color>ff356615</color>
                <colorMode>normal</colorMode>
                <width>4</width>
            </LineStyle>
        </Style>
        <Style id="69252">
            <LineStyle id="69253">
                <color>ff356615</color>
                <colorMode>normal</colorMode>
                <width>4</width>
            </LineStyle>
        </Style>
        <Style id="69256">
            <LineStyle id="69257">
                <color>ff356615</color>
                <colorMode>normal</colorMode>
                <width>4</width>
            </LineStyle>
        </Style>
        <Style id="69260">
            <LineStyle id="69261">
                <color>ff356615</color>
                <colorMode>normal</colorMode>
                <width>4</width>
            </LineStyle>
        </Style>
        <Style id="69264">
            <LineStyle id="69265">
                <color>ff356615</color>
                <colorMode>normal</colorMode>
                <width>4</width>
            </LineStyle>
        </Style>
        <Style id="69268">
            <LineStyle id="69269">
                <color>ff356615</color>
                <colorMode>normal</colorMode>
                <width>4</width>
            </LineStyle>
        </Style>
        <Style id="69272">
            <LineStyle id="69273">
                <color>ff356615</color>
                <colorMode>normal</colorMode>
                <width>4</width>
            </LineStyle>
        </Style>
        <Style id="69276">
            <LineStyle id="69277">
                <color>ff356615</color>
                <colorMode>normal</colorMode>
                <width>4</width>
            </LineStyle>
        </Style>
        <Style id="69280">
            <LineStyle id="69281">
                <color>ff356615</color>
                <colorMode>normal</colorMode>
                <width>4</width>
            </LineStyle>
        </Style>
        <Style id="69284">
            <LineStyle id="69285">
                <color>ff356615</color>
                <colorMode>normal</colorMode>
                <width>4</width>
            </LineStyle>
        </Style>
        <Style id="69288">
            <LineStyle id="69289">
                <color>ff356615</color>
                <colorMode>normal</colorMode>
                <width>4</width>
            </LineStyle>
        </Style>
        <Style id="69292">
            <LineStyle id="69293">
                <color>ff356615</color>
                <colorMode>normal</colorMode>
                <width>4</width>
            </LineStyle>
        </Style>
        <Style id="69296">
            <LineStyle id="69297">
                <color>ff356615</color>
                <colorMode>normal</colorMode>
                <width>4</width>
            </LineStyle>
        </Style>
        <Style id="69300">
            <LineStyle id="69301">
                <color>ff356615</color>
                <colorMode>normal</colorMode>
                <width>4</width>
            </LineStyle>
        </Style>
        <Style id="69304">
            <LineStyle id="69305">
                <color>ff356615</color>
                <colorMode>normal</colorMode>
                <width>4</width>
            </LineStyle>
        </Style>
        <Style id="69308">
            <LineStyle id="69309">
                <color>ff356615</color>
                <colorMode>normal</colorMode>
                <width>4</width>
            </LineStyle>
        </Style>
        <Style id="69312">
            <LineStyle id="69313">
                <color>ff356615</color>
                <colorMode>normal</colorMode>
                <width>4</width>
            </LineStyle>
        </Style>
        <Style id="69316">
            <LineStyle id="69317">
                <color>ff356615</color>
                <colorMode>normal</colorMode>
                <width>4</width>
            </LineStyle>
        </Style>
        <Style id="69320">
            <LineStyle id="69321">
                <color>ff356615</color>
                <colorMode>normal</colorMode>
                <width>4</width>
            </LineStyle>
        </Style>
        <Style id="69324">
            <LineStyle id="69325">
                <color>ff356615</color>
                <colorMode>normal</colorMode>
                <width>4</width>
            </LineStyle>
        </Style>
        <Style id="69328">
            <LineStyle id="69329">
                <color>ff356615</color>
                <colorMode>normal</colorMode>
                <width>4</width>
            </LineStyle>
        </Style>
        <Style id="69332">
            <LineStyle id="69333">
                <color>ff356615</color>
                <colorMode>normal</colorMode>
                <width>4</width>
            </LineStyle>
        </Style>
        <Style id="69336">
            <LineStyle id="69337">
                <color>ff356615</color>
                <colorMode>normal</colorMode>
                <width>4</width>
            </LineStyle>
        </Style>
        <Style id="69340">
            <LineStyle id="69341">
                <color>ff356615</color>
                <colorMode>normal</colorMode>
                <width>4</width>
            </LineStyle>
        </Style>
        <Style id="69344">
            <LineStyle id="69345">
                <color>ff356615</color>
                <colorMode>normal</colorMode>
                <width>4</width>
            </LineStyle>
        </Style>
        <Style id="69348">
            <LineStyle id="69349">
                <color>ff356615</color>
                <colorMode>normal</colorMode>
                <width>4</width>
            </LineStyle>
        </Style>
        <Style id="69352">
            <LineStyle id="69353">
                <color>ff356615</color>
                <colorMode>normal</colorMode>
                <width>4</width>
            </LineStyle>
        </Style>
        <Style id="69356">
            <LineStyle id="69357">
                <color>ff356615</color>
                <colorMode>normal</colorMode>
                <width>4</width>
            </LineStyle>
        </Style>
        <Style id="69360">
            <LineStyle id="69361">
                <color>ff356615</color>
                <colorMode>normal</colorMode>
                <width>4</width>
            </LineStyle>
        </Style>
        <Style id="69364">
            <LineStyle id="69365">
                <color>ff356615</color>
                <colorMode>normal</colorMode>
                <width>4</width>
            </LineStyle>
        </Style>
        <Style id="69368">
            <LineStyle id="69369">
                <color>ff356615</color>
                <colorMode>normal</colorMode>
                <width>4</width>
            </LineStyle>
        </Style>
        <Style id="69372">
            <LineStyle id="69373">
                <color>ff356615</color>
                <colorMode>normal</colorMode>
                <width>4</width>
            </LineStyle>
        </Style>
        <Style id="69376">
            <LineStyle id="69377">
                <color>ff356615</color>
                <colorMode>normal</colorMode>
                <width>4</width>
            </LineStyle>
        </Style>
        <Style id="69380">
            <LineStyle id="69381">
                <color>ff356615</color>
                <colorMode>normal</colorMode>
                <width>4</width>
            </LineStyle>
        </Style>
        <Style id="69384">
            <LineStyle id="69385">
                <color>ff356615</color>
                <colorMode>normal</colorMode>
                <width>4</width>
            </LineStyle>
        </Style>
        <Style id="69388">
            <LineStyle id="69389">
                <color>ff356615</color>
                <colorMode>normal</colorMode>
                <width>4</width>
            </LineStyle>
        </Style>
        <Style id="69392">
            <LineStyle id="69393">
                <color>ff356615</color>
                <colorMode>normal</colorMode>
                <width>4</width>
            </LineStyle>
        </Style>
        <Style id="69396">
            <LineStyle id="69397">
                <color>ff356615</color>
                <colorMode>normal</colorMode>
                <width>4</width>
            </LineStyle>
        </Style>
        <Style id="69400">
            <LineStyle id="69401">
                <color>ff356615</color>
                <colorMode>normal</colorMode>
                <width>4</width>
            </LineStyle>
        </Style>
        <Style id="69404">
            <LineStyle id="69405">
                <color>ff356615</color>
                <colorMode>normal</colorMode>
                <width>4</width>
            </LineStyle>
        </Style>
        <Style id="69408">
            <LineStyle id="69409">
                <color>ff356615</color>
                <colorMode>normal</colorMode>
                <width>4</width>
            </LineStyle>
        </Style>
        <Style id="69412">
            <LineStyle id="69413">
                <color>ff356615</color>
                <colorMode>normal</colorMode>
                <width>4</width>
            </LineStyle>
        </Style>
        <Style id="69416">
            <LineStyle id="69417">
                <color>ff356615</color>
                <colorMode>normal</colorMode>
                <width>4</width>
            </LineStyle>
        </Style>
        <Style id="69420">
            <LineStyle id="69421">
                <color>ff356615</color>
                <colorMode>normal</colorMode>
                <width>4</width>
            </LineStyle>
        </Style>
        <Style id="69424">
            <LineStyle id="69425">
                <color>ff356615</color>
                <colorMode>normal</colorMode>
                <width>4</width>
            </LineStyle>
        </Style>
        <Style id="69428">
            <LineStyle id="69429">
                <color>ff356615</color>
                <colorMode>normal</colorMode>
                <width>4</width>
            </LineStyle>
        </Style>
        <Style id="69432">
            <LineStyle id="69433">
                <color>ff356615</color>
                <colorMode>normal</colorMode>
                <width>4</width>
            </LineStyle>
        </Style>
        <Style id="69436">
            <LineStyle id="69437">
                <color>ff356615</color>
                <colorMode>normal</colorMode>
                <width>4</width>
            </LineStyle>
        </Style>
        <Style id="69440">
            <LineStyle id="69441">
                <color>ff356615</color>
                <colorMode>normal</colorMode>
                <width>4</width>
            </LineStyle>
        </Style>
        <Style id="69444">
            <LineStyle id="69445">
                <color>ff356615</color>
                <colorMode>normal</colorMode>
                <width>4</width>
            </LineStyle>
        </Style>
        <Style id="69448">
            <LineStyle id="69449">
                <color>ff356615</color>
                <colorMode>normal</colorMode>
                <width>4</width>
            </LineStyle>
        </Style>
        <Style id="69452">
            <LineStyle id="69453">
                <color>ff356615</color>
                <colorMode>normal</colorMode>
                <width>4</width>
            </LineStyle>
        </Style>
        <Style id="69456">
            <LineStyle id="69457">
                <color>ff356615</color>
                <colorMode>normal</colorMode>
                <width>4</width>
            </LineStyle>
        </Style>
        <Style id="69460">
            <LineStyle id="69461">
                <color>ff356615</color>
                <colorMode>normal</colorMode>
                <width>4</width>
            </LineStyle>
        </Style>
        <Style id="69464">
            <LineStyle id="69465">
                <color>ff356615</color>
                <colorMode>normal</colorMode>
                <width>4</width>
            </LineStyle>
        </Style>
        <Style id="69468">
            <LineStyle id="69469">
                <color>ff356615</color>
                <colorMode>normal</colorMode>
                <width>4</width>
            </LineStyle>
        </Style>
        <Style id="69472">
            <LineStyle id="69473">
                <color>ff356615</color>
                <colorMode>normal</colorMode>
                <width>4</width>
            </LineStyle>
        </Style>
        <Style id="69476">
            <LineStyle id="69477">
                <color>ff356615</color>
                <colorMode>normal</colorMode>
                <width>4</width>
            </LineStyle>
        </Style>
        <Style id="69480">
            <LineStyle id="69481">
                <color>ff356615</color>
                <colorMode>normal</colorMode>
                <width>4</width>
            </LineStyle>
        </Style>
        <Style id="69484">
            <LineStyle id="69485">
                <color>ff356615</color>
                <colorMode>normal</colorMode>
                <width>4</width>
            </LineStyle>
        </Style>
        <Style id="69488">
            <LineStyle id="69489">
                <color>ff356615</color>
                <colorMode>normal</colorMode>
                <width>4</width>
            </LineStyle>
        </Style>
        <Style id="69492">
            <LineStyle id="69493">
                <color>ff356615</color>
                <colorMode>normal</colorMode>
                <width>4</width>
            </LineStyle>
        </Style>
        <Style id="69496">
            <LineStyle id="69497">
                <color>ff356615</color>
                <colorMode>normal</colorMode>
                <width>4</width>
            </LineStyle>
        </Style>
        <Style id="69500">
            <LineStyle id="69501">
                <color>ff356615</color>
                <colorMode>normal</colorMode>
                <width>4</width>
            </LineStyle>
        </Style>
        <Style id="69504">
            <LineStyle id="69505">
                <color>ff356615</color>
                <colorMode>normal</colorMode>
                <width>4</width>
            </LineStyle>
        </Style>
        <ExtendedData>
            <Data name="route-name">
                <value>937: Leuwipanjang → Cimahi → Padalarang</value>
            </Data>
            <Data name="source">
                <value>Transport for Bandung</value>
            </Data>
        </ExtendedData>
        <Placemark id="68985">
            <name>Seberang Terminal Leuwipanjang</name>
            <styleUrl>#68986</styleUrl>
            <Point id="68984">
                <coordinates>107.592997,-6.9469193,0.0</coordinates>
            </Point>
        </Placemark>
        <Placemark id="68990">
            <name>Simpang Pasar Tagog</name>
            <styleUrl>#68991</styleUrl>
            <Point id="68989">
                <coordinates>107.4850025,-6.8425857,0.0</coordinates>
            </Point>
        </Placemark>
        <Placemark id="68995">
            <name>Jalan Jendral Sudirman</name>
            <styleUrl>#68996</styleUrl>
            <LineString id="68994">
                <coordinates>107.5741991,-6.9172935,0.0 107.5741057,-6.9172433,0.0 107.5739928,-6.9171937,0.0 107.5739676,-6.9171826,0.0 107.5739351,-6.917172,0.0 107.5737577,-6.9170672,0.0 107.57361,-6.916953,0.0 107.5735023,-6.9168687,0.0 107.5731624,-6.916607,0.0 107.5730285,-6.9164995,0.0 107.5725721,-6.916133,0.0</coordinates>
            </LineString>
        </Placemark>
        <Placemark id="68999">
            <name>Jalan Raya Purwakarta</name>
            <styleUrl>#69000</styleUrl>
            <LineString id="68998">
                <coordinates>107.484821,-6.8428924,0.0 107.4848596,-6.8428166,0.0 107.4848889,-6.8427625,0.0 107.4849302,-6.8426936,0.0 107.4850025,-6.8425857,0.0</coordinates>
            </LineString>
        </Placemark>
        <Placemark id="69003">
            <name>Jalan Kota Baru Parahyangan</name>
            <styleUrl>#69004</styleUrl>
            <LineString id="69002">
                <coordinates>107.4940543,-6.8517636,0.0 107.4940828,-6.8517621,0.0 107.4941082,-6.8517594,0.0 107.4941315,-6.851755,0.0 107.4941572,-6.8517482,0.0 107.4941813,-6.85174,0.0 107.4942078,-6.8517287,0.0 107.4942327,-6.851716,0.0 107.4942529,-6.8517024,0.0 107.4942697,-6.8516875,0.0 107.4942868,-6.8516703,0.0 107.4943012,-6.8516526,0.0 107.4946927,-6.8510954,0.0 107.4947508,-6.8510173,0.0 107.4948956,-6.8508267,0.0 107.4952692,-6.8503346,0.0</coordinates>
            </LineString>
        </Placemark>
        <Placemark id="69007">
            <name>Jalan Jenderal Sudirman</name>
            <styleUrl>#69008</styleUrl>
            <LineString id="69006">
                <coordinates>107.5363362,-6.8910777,0.0 107.5362772,-6.8910231,0.0 107.5361236,-6.8908514,0.0 107.5360646,-6.8907861,0.0 107.5359392,-6.8906307,0.0 107.5357518,-6.8904127,0.0 107.5352907,-6.8899109,0.0 107.535215,-6.8898285,0.0 107.5349721,-6.8895634,0.0 107.5346935,-6.8892537,0.0 107.5344404,-6.8889696,0.0 107.534337,-6.8888509,0.0</coordinates>
            </LineString>
        </Placemark>
        <Placemark id="69011">
            <name>Jalan Sisinga Mangaraja</name>
            <styleUrl>#69012</styleUrl>
            <LineString id="69010">
                <coordinates>107.5391134,-6.8717381,0.0 107.5386112,-6.8724568,0.0</coordinates>
            </LineString>
        </Placemark>
        <Placemark id="69015">
            <name>Jalan Underpass Ir. Soekarno</name>
            <styleUrl>#69016</styleUrl>
            <LineString id="69014">
                <coordinates>107.5350132,-6.8840951,0.0 107.5351713,-6.8839398,0.0 107.535726,-6.8834335,0.0 107.5359996,-6.8831994,0.0 107.5363838,-6.8828662,0.0</coordinates>
            </LineString>
        </Placemark>
        <Placemark id="69019">
            <name>Jalan Jend. H. Amir Machmud</name>
            <styleUrl>#69020</styleUrl>
            <LineString id="69018">
                <coordinates>107.5619186,-6.8987547,0.0 107.561722,-6.8984577,0.0 107.5612358,-6.8977129,0.0 107.5609323,-6.8972252,0.0</coordinates>
            </LineString>
        </Placemark>
        <Placemark id="69023">
            <name>Jalan Gatot Subroto</name>
            <styleUrl>#69024</styleUrl>
            <LineString id="69022">
                <coordinates>107.5435688,-6.881019,0.0 107.5434709,-6.8810249,0.0 107.5433754,-6.881046,0.0 107.5432819,-6.8810833,0.0 107.5432062,-6.8811229,0.0</coordinates>
            </LineString>
        </Placemark>
        <Placemark id="69027">
            <name>Route Segment</name>
            <styleUrl>#69028</styleUrl>
            <LineString id="69026">
                <coordinates>107.543373,-6.8808407,0.0 107.5434345,-6.8809003,0.0 107.5435688,-6.881019,0.0</coordinates>
            </LineString>
        </Placemark>
        <Placemark id="69031">
            <name>Jalan Raya Gadobangkong</name>
            <styleUrl>#69032</styleUrl>
            <LineString id="69030">
                <coordinates>107.5156622,-6.866132,0.0 107.5160919,-6.8663299,0.0</coordinates>
            </LineString>
        </Placemark>
        <Placemark id="69035">
            <name>Jalan Raya Gadobangkong</name>
            <styleUrl>#69036</styleUrl>
            <LineString id="69034">
                <coordinates>107.5169868,-6.8667469,0.0 107.5172135,-6.866858,0.0 107.5174342,-6.8669686,0.0 107.5176534,-6.8670757,0.0 107.5178625,-6.8671767,0.0 107.5179976,-6.8672401,0.0 107.5183058,-6.8673783,0.0 107.5183672,-6.8673963,0.0 107.5185612,-6.8674533,0.0 107.5190095,-6.8675906,0.0 107.5190798,-6.8676144,0.0 107.5191264,-6.8676288,0.0 107.5191731,-6.8676432,0.0 107.5195447,-6.8677576,0.0 107.5196849,-6.8678007,0.0 107.5200389,-6.8679097,0.0 107.5201726,-6.8679508,0.0 107.5207876,-6.868147,0.0 107.5208297,-6.8681604,0.0 107.5209164,-6.8681885,0.0 107.5212073,-6.8682829,0.0 107.521271,-6.8683036,0.0 107.5214983,-6.8683763,0.0 107.5216087,-6.8684028,0.0 107.5217268,-6.8684273,0.0 107.521842,-6.8684414,0.0 107.5220823,-6.8684515,0.0</coordinates>
            </LineString>
        </Placemark>
        <Placemark id="69039">
            <name>Jalan Soekarno-Hatta</name>
            <styleUrl>#69040</styleUrl>
            <LineString id="69038">
                <coordinates>107.5895751,-6.9456911,0.0 107.5895172,-6.9456683,0.0 107.5893262,-6.9455913,0.0</coordinates>
            </LineString>
        </Placemark>
        <Placemark id="69043">
            <name>Jalan Soekarno-Hatta</name>
            <styleUrl>#69044</styleUrl>
            <LineString id="69042">
                <coordinates>107.5758965,-6.9300827,0.0 107.57589,-6.9300373,0.0 107.5757603,-6.9292592,0.0 107.5756547,-6.9286129,0.0 107.5755467,-6.92786,0.0 107.5754392,-6.9271079,0.0 107.5754153,-6.9269421,0.0</coordinates>
            </LineString>
        </Placemark>
        <Placemark id="69047">
            <name>Jalan Soekarno-Hatta</name>
            <styleUrl>#69048</styleUrl>
            <LineString id="69046">
                <coordinates>107.5829792,-6.9419021,0.0 107.5828343,-6.9417667,0.0 107.5826472,-6.9415943,0.0 107.5825191,-6.9414612,0.0 107.5823656,-6.9412994,0.0 107.5821517,-6.9410625,0.0 107.5821159,-6.9410208,0.0 107.5819058,-6.940788,0.0 107.5815376,-6.9403423,0.0 107.5813405,-6.9400788,0.0 107.5810992,-6.9397324,0.0 107.5810386,-6.9396466,0.0 107.5809044,-6.9394469,0.0 107.580767,-6.9392399,0.0 107.5806266,-6.9390277,0.0 107.5805732,-6.938947,0.0 107.5803271,-6.9385882,0.0 107.5800131,-6.9381376,0.0 107.5798993,-6.9379765,0.0 107.5795452,-6.9374607,0.0 107.5792435,-6.9370194,0.0 107.5790075,-6.9366526,0.0 107.5786923,-6.936176,0.0 107.5786225,-6.936076,0.0 107.5783816,-6.9357321,0.0 107.5779644,-6.9351167,0.0 107.5778937,-6.9350078,0.0 107.5776529,-6.9346197,0.0 107.5774359,-6.9342622,0.0 107.5773742,-6.9341407,0.0 107.5769381,-6.933311,0.0 107.5767071,-6.9327631,0.0 107.5766013,-6.9325102,0.0 107.576479,-6.932218,0.0</coordinates>
            </LineString>
        </Placemark>
        <Placemark id="69051">
            <name>Jalan Soekarno-Hatta</name>
            <styleUrl>#69052</styleUrl>
            <LineString id="69050">
                <coordinates>107.584417,-6.9431127,0.0 107.584274,-6.9430061,0.0</coordinates>
            </LineString>
        </Placemark>
        <Placemark id="69055">
            <name>Jalan Raya Padalarang</name>
            <styleUrl>#69056</styleUrl>
            <LineString id="69054">
                <coordinates>107.4971791,-6.8515469,0.0 107.4969746,-6.8514085,0.0 107.4968492,-6.8513115,0.0 107.4967542,-6.8512441,0.0 107.4966845,-6.8511983,0.0 107.4964572,-6.8510514,0.0 107.4964375,-6.8510397,0.0 107.4964198,-6.8510316,0.0 107.4964035,-6.8510262,0.0 107.4963876,-6.8510228,0.0 107.4963709,-6.8510211,0.0 107.4963507,-6.8510217,0.0</coordinates>
            </LineString>
        </Placemark>
        <Placemark id="69059">
            <name>Jalan Jendral Sudirman</name>
            <styleUrl>#69060</styleUrl>
            <LineString id="69058">
                <coordinates>107.5708773,-6.9135594,0.0 107.5707008,-6.9132508,0.0 107.5705747,-6.9130517,0.0 107.5703429,-6.9126894,0.0</coordinates>
            </LineString>
        </Placemark>
        <Placemark id="69063">
            <name>Jalan Soekarno-Hatta</name>
            <styleUrl>#69064</styleUrl>
            <LineString id="69062">
                <coordinates>107.5750151,-6.9243818,0.0 107.5749916,-6.9241397,0.0 107.5748665,-6.9233028,0.0 107.5748392,-6.9231236,0.0 107.5748317,-6.9230741,0.0 107.5748085,-6.9229569,0.0 107.5747796,-6.9227684,0.0 107.5746727,-6.922073,0.0 107.5745473,-6.9212569,0.0 107.5744906,-6.9209105,0.0 107.5744384,-6.9205542,0.0 107.5743932,-6.9201525,0.0 107.5743484,-6.9197542,0.0 107.5743377,-6.9196051,0.0 107.574331,-6.9194823,0.0</coordinates>
            </LineString>
        </Placemark>
        <Placemark id="69067">
            <name>Jalan Soekarno-Hatta</name>
            <styleUrl>#69068</styleUrl>
            <LineString id="69066">
                <coordinates>107.589865,-6.9458161,0.0 107.5897183,-6.9457513,0.0 107.5896397,-6.9457186,0.0</coordinates>
            </LineString>
        </Placemark>
        <Placemark id="69071">
            <name>Jalan Soekarno-Hatta</name>
            <styleUrl>#69072</styleUrl>
            <LineString id="69070">
                <coordinates>107.592997,-6.9469193,0.0 107.5924922,-6.9467783,0.0 107.5921516,-6.9466864,0.0 107.5920068,-6.9466455,0.0 107.5918917,-6.946617,0.0 107.5916708,-6.9465388,0.0 107.5913956,-6.9464414,0.0 107.5913385,-6.9464212,0.0 107.5911782,-6.9463589,0.0 107.5909136,-6.9462527,0.0 107.5906079,-6.9461252,0.0 107.5904505,-6.9460588,0.0</coordinates>
            </LineString>
        </Placemark>
        <Placemark id="69075">
            <name>Jalan Jend. H. Amir Machmud</name>
            <styleUrl>#69076</styleUrl>
            <LineString id="69074">
                <coordinates>107.5584996,-6.89319,0.0 107.5583845,-6.8929942,0.0 107.5582968,-6.8928484,0.0 107.5582471,-6.892759,0.0 107.558126,-6.8925411,0.0 107.5580399,-6.8924036,0.0 107.5580255,-6.8923792,0.0 107.5579997,-6.8923353,0.0 107.5578961,-6.8921589,0.0 107.557751,-6.8919043,0.0 107.5575682,-6.8915839,0.0 107.557194,-6.8909422,0.0 107.5571049,-6.8907999,0.0 107.5566781,-6.8901125,0.0 107.5566284,-6.8900246,0.0 107.556216,-6.8893169,0.0 107.5561597,-6.8892257,0.0 107.5561065,-6.8891389,0.0 107.5556898,-6.8884357,0.0 107.5556524,-6.888377,0.0</coordinates>
            </LineString>
        </Placemark>
        <Placemark id="69079">
            <name>Jalan Jend. H. Amir Machmud</name>
            <styleUrl>#69080</styleUrl>
            <LineString id="69078">
                <coordinates>107.5359218,-6.8702457,0.0 107.5358294,-6.8702382,0.0 107.5355712,-6.8701428,0.0 107.535302,-6.8700476,0.0 107.5351164,-6.8699829,0.0 107.534761,-6.8698508,0.0</coordinates>
            </LineString>
        </Placemark>
        <Placemark id="69083">
            <name>Jalan Raya Simpang</name>
            <styleUrl>#69084</styleUrl>
            <LineString id="69082">
                <coordinates>107.4975965,-6.8527156,0.0 107.4975599,-6.8526317,0.0</coordinates>
            </LineString>
        </Placemark>
        <Placemark id="69087">
            <name>Jalan Baros</name>
            <styleUrl>#69088</styleUrl>
            <LineString id="69086">
                <coordinates>107.53735,-6.8878165,0.0 107.5372378,-6.8880721,0.0</coordinates>
            </LineString>
        </Placemark>
        <Placemark id="69091">
            <name>Jalan Gatot Subroto</name>
            <styleUrl>#69092</styleUrl>
            <LineString id="69090">
                <coordinates>107.5432961,-6.8803887,0.0 107.5433066,-6.8804909,0.0 107.5433251,-6.8805756,0.0 107.5433577,-6.8806906,0.0 107.5433483,-6.8807772,0.0</coordinates>
            </LineString>
        </Placemark>
        <Placemark id="69095">
            <name>Jalan Sriwijaya Raya</name>
            <styleUrl>#69096</styleUrl>
            <LineString id="69094">
                <coordinates>107.537175,-6.8821695,0.0 107.5373924,-6.8819808,0.0 107.5379177,-6.8815256,0.0 107.5383466,-6.8811511,0.0</coordinates>
            </LineString>
        </Placemark>
        <Placemark id="69099">
            <name>Jalan Raya Padalarang</name>
            <styleUrl>#69100</styleUrl>
            <LineString id="69098">
                <coordinates>107.49156,-6.8475022,0.0 107.4914836,-6.8474473,0.0 107.4910372,-6.8471267,0.0 107.4909821,-6.8470888,0.0 107.4909699,-6.8470781,0.0 107.490762,-6.8469264,0.0 107.4907359,-6.8469074,0.0 107.4906335,-6.8468393,0.0 107.4903123,-6.8466335,0.0 107.4901126,-6.8464761,0.0 107.4897814,-6.8462423,0.0 107.4896493,-6.8461438,0.0 107.4893529,-6.8459362,0.0 107.4892686,-6.8458772,0.0 107.4890069,-6.8456939,0.0 107.4889081,-6.8456314,0.0 107.4885606,-6.8453797,0.0 107.4885245,-6.8453524,0.0 107.488395,-6.8452706,0.0 107.4882293,-6.845166,0.0 107.487907,-6.8449428,0.0 107.4878649,-6.8449136,0.0 107.4878341,-6.8448923,0.0</coordinates>
            </LineString>
        </Placemark>
        <Placemark id="69103">
            <name>Jalan Gatot Subroto</name>
            <styleUrl>#69104</styleUrl>
            <LineString id="69102">
                <coordinates>107.5432062,-6.8811229,0.0 107.5427236,-6.8815424,0.0 107.5425515,-6.8816952,0.0 107.5420171,-6.8821655,0.0 107.541128,-6.8829322,0.0 107.540583,-6.8834021,0.0 107.5403441,-6.8836131,0.0 107.5400962,-6.8838343,0.0 107.5398211,-6.8840779,0.0 107.5392583,-6.8845608,0.0 107.5389646,-6.8848128,0.0 107.5386997,-6.8850437,0.0 107.5384248,-6.8852812,0.0 107.5381703,-6.8855067,0.0 107.5381511,-6.8855251,0.0 107.5381111,-6.8855586,0.0 107.5380634,-6.8855882,0.0</coordinates>
            </LineString>
        </Placemark>
        <Placemark id="69107">
            <name>Jalan Gatot Subroto</name>
            <styleUrl>#69108</styleUrl>
            <LineString id="69106">
                <coordinates>107.5433483,-6.8807772,0.0 107.543373,-6.8808407,0.0</coordinates>
            </LineString>
        </Placemark>
        <Placemark id="69111">
            <name>Jalan Gatot Subroto</name>
            <styleUrl>#69112</styleUrl>
            <LineString id="69110">
                <coordinates>107.5444652,-6.8783241,0.0 107.544451,-6.8783866,0.0 107.5443515,-6.8785233,0.0 107.5443133,-6.8785759,0.0 107.5441059,-6.8788685,0.0 107.5440248,-6.8789876,0.0 107.5439242,-6.8791339,0.0 107.5438905,-6.8791833,0.0 107.5438142,-6.8792937,0.0 107.5437554,-6.8793795,0.0 107.5437169,-6.8794368,0.0 107.543657,-6.8795243,0.0 107.5434841,-6.879778,0.0 107.5434454,-6.8798383,0.0 107.5433605,-6.8799929,0.0 107.5433193,-6.8801087,0.0 107.5432942,-6.8802472,0.0 107.5432923,-6.8803212,0.0 107.5432961,-6.8803887,0.0</coordinates>
            </LineString>
        </Placemark>
        <Placemark id="69115">
            <name>Route Segment</name>
            <styleUrl>#69116</styleUrl>
            <LineString id="69114">
                <coordinates>107.5396782,-6.880004,0.0 107.5397308,-6.8797098,0.0 107.5398213,-6.8791946,0.0 107.5398287,-6.8791606,0.0</coordinates>
            </LineString>
        </Placemark>
        <Placemark id="69119">
            <name>Jalan Sisingamangaraja</name>
            <styleUrl>#69120</styleUrl>
            <LineString id="69118">
                <coordinates>107.5398287,-6.8791606,0.0 107.5397533,-6.8791348,0.0 107.5395016,-6.8790697,0.0 107.5391401,-6.8789747,0.0 107.5391126,-6.8789597,0.0 107.5390937,-6.8789402,0.0</coordinates>
            </LineString>
        </Placemark>
        <Placemark id="69123">
            <name>Jalan Raya Cimareme</name>
            <styleUrl>#69124</styleUrl>
            <LineString id="69122">
                <coordinates>107.5034117,-6.8632727,0.0 107.5034772,-6.8633105,0.0 107.5035566,-6.8633604,0.0 107.5037925,-6.8634899,0.0 107.5039209,-6.8635608,0.0 107.504317,-6.8637653,0.0 107.5043597,-6.8637873,0.0 107.5044255,-6.8638215,0.0 107.5047344,-6.8639832,0.0</coordinates>
            </LineString>
        </Placemark>
        <Placemark id="69127">
            <name>Jalan Gatot Subroto</name>
            <styleUrl>#69128</styleUrl>
            <LineString id="69126">
                <coordinates>107.5376749,-6.8868524,0.0 107.5375407,-6.8872834,0.0 107.5375078,-6.8873908,0.0 107.5374921,-6.8874379,0.0 107.5374798,-6.8874708,0.0 107.5374648,-6.8875121,0.0</coordinates>
            </LineString>
        </Placemark>
        <Placemark id="69131">
            <name>Jalan Pojok Utara</name>
            <styleUrl>#69132</styleUrl>
            <LineString id="69130">
                <coordinates>107.5386112,-6.8724568,0.0 107.5384424,-6.8727065,0.0 107.538312,-6.872906,0.0 107.5380946,-6.8732152,0.0 107.5379377,-6.8734636,0.0 107.5377142,-6.8738045,0.0 107.5374411,-6.8742172,0.0 107.5372654,-6.8745336,0.0 107.5372121,-6.8746265,0.0 107.5370488,-6.8748964,0.0 107.5370265,-6.8749338,0.0 107.5368745,-6.8751618,0.0 107.5366895,-6.8754077,0.0 107.5366116,-6.8754928,0.0 107.5365398,-6.8755501,0.0 107.5364609,-6.8756045,0.0 107.5363712,-6.8756792,0.0 107.5363122,-6.8757527,0.0 107.536249,-6.8758514,0.0 107.5361992,-6.8759398,0.0 107.5361732,-6.8760252,0.0 107.5361726,-6.8760758,0.0</coordinates>
            </LineString>
        </Placemark>
        <Placemark id="69135">
            <name>Jalan Jend. H. Amir Machmud</name>
            <styleUrl>#69136</styleUrl>
            <LineString id="69134">
                <coordinates>107.5605385,-6.8965689,0.0 107.5604549,-6.8964301,0.0 107.5604095,-6.8963547,0.0</coordinates>
            </LineString>
        </Placemark>
        <Placemark id="69139">
            <name>Jalan Jend. H. Amir Machmud</name>
            <styleUrl>#69140</styleUrl>
            <LineString id="69138">
                <coordinates>107.5600306,-6.895741,0.0 107.5598314,-6.8954093,0.0 107.5597806,-6.8953192,0.0 107.5597514,-6.895268,0.0 107.5597097,-6.8952017,0.0 107.5596795,-6.8951484,0.0 107.5595504,-6.8949421,0.0 107.5594638,-6.8948057,0.0 107.5592798,-6.8945128,0.0 107.5590928,-6.8942163,0.0 107.5589968,-6.8940554,0.0 107.5588448,-6.8937845,0.0 107.5586991,-6.8935235,0.0</coordinates>
            </LineString>
        </Placemark>
        <Placemark id="69143">
            <name>Jalan Raya Padalarang</name>
            <styleUrl>#69144</styleUrl>
            <LineString id="69142">
                <coordinates>107.4936922,-6.8490384,0.0 107.4927743,-6.8483862,0.0</coordinates>
            </LineString>
        </Placemark>
        <Placemark id="69147">
            <name>Jalan Jend. H. Amir Machmud</name>
            <styleUrl>#69148</styleUrl>
            <LineString id="69146">
                <coordinates>107.5261248,-6.8684369,0.0 107.5262229,-6.8684691,0.0 107.5263122,-6.8685064,0.0 107.5263898,-6.8685422,0.0 107.5264225,-6.8685573,0.0 107.5266094,-6.8686384,0.0 107.5270877,-6.8688731,0.0 107.5271548,-6.868908,0.0 107.5273141,-6.8689718,0.0 107.5274989,-6.8690436,0.0 107.5275841,-6.8690682,0.0 107.527662,-6.8690849,0.0 107.5277986,-6.8691038,0.0 107.5278876,-6.8691021,0.0 107.5279891,-6.8690928,0.0 107.5281475,-6.8690695,0.0 107.5281996,-6.8690592,0.0 107.5283978,-6.8690203,0.0 107.5284509,-6.8690086,0.0 107.5285738,-6.8689815,0.0 107.5288591,-6.8689212,0.0 107.5289883,-6.8688991,0.0 107.5293786,-6.8688406,0.0 107.5300087,-6.868775,0.0 107.5302545,-6.8687509,0.0 107.5303683,-6.8687397,0.0 107.5306127,-6.8687157,0.0 107.5307996,-6.8686984,0.0 107.5309254,-6.8686864,0.0 107.5311227,-6.8686631,0.0 107.5311768,-6.86866,0.0 107.5313217,-6.8686505,0.0 107.5314385,-6.8686555,0.0 107.5315089,-6.8686615,0.0 107.5315735,-6.8686772,0.0 107.5317099,-6.8687176,0.0 107.5318119,-6.8687546,0.0 107.5318553,-6.8687705,0.0 107.531878,-6.8687794,0.0 107.5319386,-6.8688013,0.0 107.5322086,-6.8688988,0.0 107.5324527,-6.8689916,0.0 107.5327945,-6.8691177,0.0 107.5330853,-6.8692167,0.0</coordinates>
            </LineString>
        </Placemark>
        <Placemark id="69151">
            <name>Jalan Soekarno-Hatta</name>
            <styleUrl>#69152</styleUrl>
            <LineString id="69150">
                <coordinates>107.5759595,-6.9304856,0.0 107.575943,-6.930415,0.0</coordinates>
            </LineString>
        </Placemark>
        <Placemark id="69155">
            <name>Jalan Jend. H. Amir Machmud</name>
            <styleUrl>#69156</styleUrl>
            <LineString id="69154">
                <coordinates>107.5470087,-6.8765884,0.0 107.5468201,-6.8764737,0.0 107.5462018,-6.8760976,0.0 107.5461771,-6.8760913,0.0 107.5461516,-6.8760916,0.0 107.546127,-6.8760985,0.0 107.5461059,-6.8761108,0.0 107.5460886,-6.8761279,0.0 107.546043,-6.8761965,0.0 107.5459671,-6.8762377,0.0</coordinates>
            </LineString>
        </Placemark>
        <Placemark id="69159">
            <name>Jalan Layang Kota Baru Parahyangan</name>
            <styleUrl>#69160</styleUrl>
            <LineString id="69158">
                <coordinates>107.494909,-6.852067,0.0 107.4948639,-6.8521257,0.0 107.4948502,-6.8521421,0.0 107.4948346,-6.8521589,0.0 107.4948188,-6.8521743,0.0 107.4947997,-6.8521915,0.0 107.4947778,-6.852209,0.0 107.4947547,-6.8522251,0.0 107.4947307,-6.8522396,0.0 107.4947024,-6.8522548,0.0 107.494574,-6.8523146,0.0 107.4945559,-6.8523251,0.0 107.4945407,-6.8523358,0.0 107.4945258,-6.8523487,0.0 107.4945104,-6.8523648,0.0 107.494498,-6.8523805,0.0 107.4944862,-6.8523976,0.0 107.4944522,-6.8524499,0.0</coordinates>
            </LineString>
        </Placemark>
        <Placemark id="69163">
            <name>Jalan Raya Padalarang</name>
            <styleUrl>#69164</styleUrl>
            <LineString id="69162">
                <coordinates>107.4974224,-6.8519939,0.0 107.4973814,-6.8518888,0.0 107.4973343,-6.8517847,0.0 107.4972822,-6.8516803,0.0 107.4972419,-6.8516172,0.0 107.4972188,-6.8515916,0.0 107.4971791,-6.8515469,0.0</coordinates>
            </LineString>
        </Placemark>
        <Placemark id="69167">
            <name>Jalan Raya Padalarang</name>
            <styleUrl>#69168</styleUrl>
            <LineString id="69166">
                <coordinates>107.4952692,-6.8503346,0.0 107.4952808,-6.8503091,0.0 107.4952861,-6.8502932,0.0 107.4952909,-6.85028,0.0 107.4952935,-6.8502677,0.0 107.4952932,-6.8502556,0.0 107.4952907,-6.8502438,0.0 107.4952858,-6.8502323,0.0 107.4952782,-6.8502204,0.0 107.4952748,-6.8502171,0.0 107.4952678,-6.8502099,0.0 107.49526,-6.8502033,0.0 107.4951383,-6.8501109,0.0</coordinates>
            </LineString>
        </Placemark>
        <Placemark id="69171">
            <name>Jalan Urip Soemohardjo</name>
            <styleUrl>#69172</styleUrl>
            <LineString id="69170">
                <coordinates>107.534337,-6.8888509,0.0 107.5352141,-6.8880987,0.0 107.5353989,-6.8879375,0.0 107.5356704,-6.8877061,0.0 107.5357066,-6.8876755,0.0 107.5361455,-6.8872919,0.0 107.5364684,-6.8870194,0.0</coordinates>
            </LineString>
        </Placemark>
        <Placemark id="69175">
            <name>Jalan Raya Cimareme</name>
            <styleUrl>#69176</styleUrl>
            <LineString id="69174">
                <coordinates>107.4987182,-6.8581066,0.0 107.4987288,-6.8582512,0.0 107.4987562,-6.8584531,0.0 107.4987799,-6.8586327,0.0 107.4988095,-6.8588159,0.0 107.498846,-6.8589418,0.0 107.4988952,-6.8590747,0.0 107.4989519,-6.859192,0.0 107.499024,-6.8593264,0.0 107.4991209,-6.8594557,0.0 107.4992202,-6.8595603,0.0 107.4993675,-6.8597221,0.0 107.4995891,-6.8599902,0.0 107.4997744,-6.8601871,0.0 107.4998426,-6.8602605,0.0 107.5001629,-6.8605893,0.0 107.500195,-6.8606217,0.0 107.5003415,-6.860773,0.0 107.5004973,-6.8609384,0.0 107.5006628,-6.8611039,0.0 107.5010094,-6.8614382,0.0 107.5010639,-6.8614908,0.0 107.5012224,-6.8616525,0.0 107.5014146,-6.8618608,0.0 107.5015639,-6.8620124,0.0 107.5016093,-6.8620563,0.0 107.5018806,-6.8623184,0.0 107.5021156,-6.8625154,0.0 107.5022805,-6.8626367,0.0 107.5025833,-6.8628122,0.0 107.5028237,-6.8629469,0.0 107.502934,-6.8630015,0.0 107.5031549,-6.8631253,0.0 107.5031733,-6.8631354,0.0 107.5032331,-6.8631683,0.0 107.5033168,-6.8632144,0.0 107.5034117,-6.8632727,0.0</coordinates>
            </LineString>
        </Placemark>
        <Placemark id="69179">
            <name>Jalan Sisingamangaraja</name>
            <styleUrl>#69180</styleUrl>
            <LineString id="69178">
                <coordinates>107.5383018,-6.8772177,0.0 107.5385903,-6.8773719,0.0 107.5387485,-6.8774421,0.0 107.539211,-6.8776236,0.0 107.5392397,-6.8776553,0.0 107.5392545,-6.8776881,0.0 107.5392578,-6.8777222,0.0 107.5392548,-6.8777787,0.0 107.5392449,-6.8778755,0.0 107.539221,-6.8780109,0.0 107.5391863,-6.8781845,0.0 107.5390942,-6.8786917,0.0 107.5390667,-6.8788345,0.0 107.539065,-6.8788765,0.0 107.5390807,-6.8789198,0.0 107.5390937,-6.8789402,0.0</coordinates>
            </LineString>
        </Placemark>
        <Placemark id="69183">
            <name>Jalan Jend. H. Amir Machmud</name>
            <styleUrl>#69184</styleUrl>
            <LineString id="69182">
                <coordinates>107.5471213,-6.876653,0.0 107.5470087,-6.8765884,0.0</coordinates>
            </LineString>
        </Placemark>
        <Placemark id="69187">
            <name>Jalan Jend. H. Amir Machmud</name>
            <styleUrl>#69188</styleUrl>
            <LineString id="69186">
                <coordinates>107.548903,-6.8778074,0.0 107.548341,-6.8774399,0.0 107.54804,-6.8772387,0.0 107.5479168,-6.8771586,0.0 107.5474888,-6.8768836,0.0 107.5471213,-6.876653,0.0</coordinates>
            </LineString>
        </Placemark>
        <Placemark id="69191">
            <name>Jalan Sisingamangaraja</name>
            <styleUrl>#69192</styleUrl>
            <LineString id="69190">
                <coordinates>107.5365606,-6.8763792,0.0 107.5367153,-6.8764606,0.0 107.5374675,-6.8768096,0.0 107.5376889,-6.8769157,0.0 107.5379246,-6.8770329,0.0 107.5382366,-6.877185,0.0 107.5382615,-6.8771977,0.0</coordinates>
            </LineString>
        </Placemark>
        <Placemark id="69195">
            <name>Jalan Sisingamangaraja</name>
            <styleUrl>#69196</styleUrl>
            <LineString id="69194">
                <coordinates>107.5364238,-6.8762896,0.0 107.5364736,-6.8763261,0.0</coordinates>
            </LineString>
        </Placemark>
        <Placemark id="69199">
            <name>Jalan Jendral Sudirman</name>
            <styleUrl>#69200</styleUrl>
            <LineString id="69198">
                <coordinates>107.5698951,-6.9119365,0.0 107.5697893,-6.9117669,0.0 107.569777,-6.9117459,0.0 107.5696479,-6.9115248,0.0 107.5696333,-6.9115004,0.0 107.569579,-6.9114097,0.0 107.5692741,-6.9108999,0.0 107.5691136,-6.9106315,0.0 107.5689887,-6.9104164,0.0</coordinates>
            </LineString>
        </Placemark>
        <Placemark id="69203">
            <name>Jalan Sisingamangaraja</name>
            <styleUrl>#69204</styleUrl>
            <LineString id="69202">
                <coordinates>107.5364736,-6.8763261,0.0 107.5365606,-6.8763792,0.0</coordinates>
            </LineString>
        </Placemark>
        <Placemark id="69207">
            <name>Jalan Sisingamangaraja</name>
            <styleUrl>#69208</styleUrl>
            <LineString id="69206">
                <coordinates>107.5382615,-6.8771977,0.0 107.5383018,-6.8772177,0.0</coordinates>
            </LineString>
        </Placemark>
        <Placemark id="69211">
            <name>Jalan Raya Cimareme</name>
            <styleUrl>#69212</styleUrl>
            <LineString id="69210">
                <coordinates>107.5047344,-6.8639832,0.0 107.5049911,-6.8641067,0.0 107.5050586,-6.8641392,0.0 107.5051499,-6.8641787,0.0 107.5051913,-6.8641937,0.0 107.5052503,-6.8642111,0.0 107.5053149,-6.8642263,0.0 107.5053817,-6.8642351,0.0 107.5054411,-6.8642368,0.0 107.5054978,-6.8642341,0.0 107.5055404,-6.864229,0.0</coordinates>
            </LineString>
        </Placemark>
        <Placemark id="69215">
            <name>Jalan Raya Gadobangkong</name>
            <styleUrl>#69216</styleUrl>
            <LineString id="69214">
                <coordinates>107.5063671,-6.864027,0.0 107.5065856,-6.8639771,0.0 107.5070193,-6.863866,0.0 107.5077676,-6.863685,0.0 107.5082119,-6.8635741,0.0 107.5086465,-6.8634599,0.0 107.5087248,-6.8634388,0.0 107.5094028,-6.8632576,0.0 107.5094818,-6.863253,0.0 107.5095628,-6.8632583,0.0 107.5096207,-6.8632683,0.0 107.5097112,-6.8632909,0.0 107.5098225,-6.8633262,0.0 107.5099964,-6.863395,0.0 107.5100491,-6.8634203,0.0 107.510072,-6.8634302,0.0 107.5104217,-6.8635854,0.0 107.5106152,-6.8636745,0.0 107.5106923,-6.8637105,0.0 107.510966,-6.8638385,0.0 107.5111617,-6.8639301,0.0 107.5113852,-6.8640346,0.0 107.5119852,-6.8643131,0.0 107.5120662,-6.8643533,0.0 107.5123015,-6.8644685,0.0 107.5125224,-6.8645767,0.0 107.5128242,-6.8647258,0.0 107.5130197,-6.8648201,0.0 107.513398,-6.865018,0.0 107.5134421,-6.8650411,0.0 107.513879,-6.8652552,0.0 107.5140447,-6.8653343,0.0 107.5150775,-6.8658424,0.0 107.5151703,-6.8658917,0.0 107.5152076,-6.8659101,0.0 107.5156233,-6.8661135,0.0 107.5156622,-6.866132,0.0</coordinates>
            </LineString>
        </Placemark>
        <Placemark id="69219">
            <name>Jalan Raya Gadobangkong</name>
            <styleUrl>#69220</styleUrl>
            <LineString id="69218">
                <coordinates>107.5160919,-6.8663299,0.0 107.5162566,-6.8664082,0.0 107.5164712,-6.8665071,0.0 107.5167612,-6.8666428,0.0 107.5169868,-6.8667469,0.0</coordinates>
            </LineString>
        </Placemark>
        <Placemark id="69223">
            <name>Jalan Jend. H. Amir Machmud</name>
            <styleUrl>#69224</styleUrl>
            <LineString id="69222">
                <coordinates>107.5586991,-6.8935235,0.0 107.5586896,-6.8935077,0.0</coordinates>
            </LineString>
        </Placemark>
        <Placemark id="69227">
            <name>Jalan Jend. H. Amir Machmud</name>
            <styleUrl>#69228</styleUrl>
            <LineString id="69226">
                <coordinates>107.5586388,-6.8934232,0.0 107.5584996,-6.89319,0.0</coordinates>
            </LineString>
        </Placemark>
        <Placemark id="69231">
            <name>Jalan Jendral Sudirman</name>
            <styleUrl>#69232</styleUrl>
            <LineString id="69230">
                <coordinates>107.5715151,-6.9146659,0.0 107.5714243,-6.9145091,0.0 107.571384,-6.9144417,0.0 107.5710851,-6.913941,0.0 107.5709375,-6.9136862,0.0 107.5708773,-6.9135594,0.0</coordinates>
            </LineString>
        </Placemark>
        <Placemark id="69235">
            <name>Jalan Jend. H. Amir Machmud</name>
            <styleUrl>#69236</styleUrl>
            <LineString id="69234">
                <coordinates>107.5532991,-6.8845055,0.0 107.5532758,-6.8844655,0.0 107.5532307,-6.8843827,0.0 107.5531006,-6.8841655,0.0 107.5529605,-6.8839307,0.0 107.5529416,-6.883899,0.0 107.5528472,-6.8837408,0.0 107.5527794,-6.8836271,0.0 107.5527092,-6.8835093,0.0 107.5526121,-6.8833467,0.0 107.5525863,-6.8833033,0.0 107.5524109,-6.8830094,0.0 107.5522959,-6.8828167,0.0 107.5522386,-6.8827206,0.0 107.5521505,-6.8825808,0.0 107.5520864,-6.8824613,0.0 107.5519526,-6.8822389,0.0 107.5518285,-6.882035,0.0 107.5516065,-6.8816734,0.0 107.5515108,-6.8815261,0.0 107.5513286,-6.8812206,0.0 107.5513112,-6.8811893,0.0 107.5510818,-6.8808273,0.0 107.5510407,-6.8807588,0.0 107.5509549,-6.8806153,0.0 107.5507239,-6.8802572,0.0 107.550617,-6.8800913,0.0 107.5505345,-6.8799545,0.0 107.5504164,-6.8797669,0.0 107.5503819,-6.8797123,0.0 107.5503366,-6.8796404,0.0 107.5501318,-6.8792963,0.0 107.5500491,-6.8791569,0.0 107.5499778,-6.8790409,0.0 107.5498734,-6.8788724,0.0 107.5498308,-6.8788036,0.0 107.549812,-6.8787698,0.0</coordinates>
            </LineString>
        </Placemark>
        <Placemark id="69239">
            <name>Jalan Gatot Subroto</name>
            <styleUrl>#69240</styleUrl>
            <LineString id="69238">
                <coordinates>107.5380634,-6.8855882,0.0 107.5380178,-6.8857717,0.0 107.5379471,-6.8859998,0.0 107.5378602,-6.8863004,0.0 107.5377663,-6.8865739,0.0 107.5376749,-6.8868524,0.0</coordinates>
            </LineString>
        </Placemark>
        <Placemark id="69243">
            <name>Jalan Jend. H. Amir Machmud</name>
            <styleUrl>#69244</styleUrl>
            <LineString id="69242">
                <coordinates>107.549812,-6.8787698,0.0 107.5497459,-6.8787214,0.0 107.5497311,-6.8787014,0.0 107.5496078,-6.8784837,0.0 107.5495062,-6.8783419,0.0 107.5493651,-6.8781649,0.0 107.5493436,-6.8781455,0.0</coordinates>
            </LineString>
        </Placemark>
        <Placemark id="69247">
            <name>Jalan Jend. H. Amir Machmud</name>
            <styleUrl>#69248</styleUrl>
            <LineString id="69246">
                <coordinates>107.565673,-6.9049534,0.0 107.5653296,-6.9043922,0.0 107.5651363,-6.9040727,0.0 107.5647726,-6.9034716,0.0 107.5647281,-6.9033981,0.0 107.5646958,-6.9033447,0.0 107.5644297,-6.902905,0.0 107.5643428,-6.9027614,0.0 107.5642879,-6.9026706,0.0 107.5639096,-6.9020454,0.0 107.5636843,-6.9016737,0.0 107.5636389,-6.901598,0.0 107.5635866,-6.9015056,0.0 107.5635485,-6.901452,0.0 107.5635096,-6.9013988,0.0 107.5633165,-6.9010686,0.0 107.5632168,-6.9009003,0.0 107.562808,-6.9002247,0.0 107.5626899,-6.9000295,0.0 107.5625298,-6.8997648,0.0 107.5622867,-6.899363,0.0 107.5622663,-6.8993293,0.0 107.5619186,-6.8987547,0.0</coordinates>
            </LineString>
        </Placemark>
        <Placemark id="69251">
            <name>Jalan Baros</name>
            <styleUrl>#69252</styleUrl>
            <LineString id="69250">
                <coordinates>107.5366629,-6.8894348,0.0 107.5366353,-6.8895225,0.0 107.5366216,-6.8896125,0.0 107.5366128,-6.8897184,0.0 107.536637,-6.8901554,0.0 107.5366757,-6.8906933,0.0 107.5366796,-6.8907688,0.0 107.5366818,-6.8908514,0.0 107.536685,-6.8909739,0.0</coordinates>
            </LineString>
        </Placemark>
        <Placemark id="69255">
            <name>Jalan Jend. H. Amir Machmud</name>
            <styleUrl>#69256</styleUrl>
            <LineString id="69254">
                <coordinates>107.533145,-6.8692367,0.0 107.5331785,-6.8692495,0.0 107.5335628,-6.8693791,0.0 107.5337126,-6.8694306,0.0 107.5337447,-6.8694416,0.0 107.5339049,-6.8694966,0.0 107.5341763,-6.8696061,0.0 107.5342233,-6.8696235,0.0 107.5343842,-6.869692,0.0</coordinates>
            </LineString>
        </Placemark>
        <Placemark id="69259">
            <name>Jalan Jend. H. Amir Machmud</name>
            <styleUrl>#69260</styleUrl>
            <LineString id="69258">
                <coordinates>107.5330853,-6.8692167,0.0 107.533145,-6.8692367,0.0</coordinates>
            </LineString>
        </Placemark>
        <Placemark id="69263">
            <name>Route Segment</name>
            <styleUrl>#69264</styleUrl>
            <LineString id="69262">
                <coordinates>107.536685,-6.8909739,0.0 107.5366507,-6.8910105,0.0 107.5366198,-6.8910391,0.0 107.5365675,-6.8910711,0.0 107.5365119,-6.8910944,0.0 107.536469,-6.8911037,0.0 107.5364327,-6.8911037,0.0 107.5363798,-6.8910944,0.0 107.5363362,-6.8910777,0.0</coordinates>
            </LineString>
        </Placemark>
        <Placemark id="69267">
            <name>Jalan Raya Padalarang</name>
            <styleUrl>#69268</styleUrl>
            <LineString id="69266">
                <coordinates>107.4877737,-6.844887,0.0 107.4877596,-6.8448818,0.0 107.4876893,-6.8448364,0.0 107.4876471,-6.8448083,0.0 107.4875667,-6.8447494,0.0 107.4874631,-6.8446785,0.0 107.4871379,-6.8444559,0.0 107.486887,-6.8442868,0.0 107.4865499,-6.8440606,0.0 107.4863402,-6.843933,0.0 107.48588,-6.8435779,0.0 107.4857616,-6.8434987,0.0 107.4857018,-6.8434587,0.0 107.4855846,-6.8433884,0.0 107.4854307,-6.8432912,0.0 107.4850702,-6.8430764,0.0 107.4849638,-6.8430131,0.0 107.484888,-6.8429487,0.0 107.484821,-6.8428924,0.0</coordinates>
            </LineString>
        </Placemark>
        <Placemark id="69271">
            <name>Jalan Raya Caringin</name>
            <styleUrl>#69272</styleUrl>
            <LineString id="69270">
                <coordinates>107.4977859,-6.8538237,0.0 107.4978121,-6.8539405,0.0</coordinates>
            </LineString>
        </Placemark>
        <Placemark id="69275">
            <name>Jalan Raya Simpang</name>
            <styleUrl>#69276</styleUrl>
            <LineString id="69274">
                <coordinates>107.4975965,-6.8527156,0.0 107.4975988,-6.8527427,0.0 107.4976134,-6.8528859,0.0 107.497658,-6.8531891,0.0 107.4976818,-6.8533539,0.0 107.4977128,-6.8535065,0.0 107.4977859,-6.8538237,0.0</coordinates>
            </LineString>
        </Placemark>
        <Placemark id="69279">
            <name>Jalan Soekarno-Hatta</name>
            <styleUrl>#69280</styleUrl>
            <LineString id="69278">
                <coordinates>107.574331,-6.9194823,0.0 107.574311,-6.919126,0.0 107.5743029,-6.9182666,0.0 107.5743009,-6.9181345,0.0 107.5742921,-6.9175385,0.0 107.5742914,-6.9174917,0.0 107.5742937,-6.9173779,0.0</coordinates>
            </LineString>
        </Placemark>
        <Placemark id="69283">
            <name>Jalan Raya Gadobangkong</name>
            <styleUrl>#69284</styleUrl>
            <LineString id="69282">
                <coordinates>107.5238237,-6.8685111,0.0 107.5237614,-6.8685286,0.0 107.5234058,-6.868517,0.0 107.5232773,-6.8685128,0.0 107.5226323,-6.8684891,0.0 107.5221789,-6.868477,0.0 107.5220823,-6.8684515,0.0</coordinates>
            </LineString>
        </Placemark>
        <Placemark id="69287">
            <name>Jalan Jend. H. Amir Machmud</name>
            <styleUrl>#69288</styleUrl>
            <LineString id="69286">
                <coordinates>107.5363431,-6.8704044,0.0 107.5363908,-6.8704221,0.0 107.5364884,-6.8704594,0.0 107.5365376,-6.8704766,0.0 107.5365778,-6.8704906,0.0 107.5366787,-6.8705296,0.0 107.5373836,-6.8707918,0.0 107.5376817,-6.8709329,0.0 107.5379552,-6.8710821,0.0 107.538003,-6.8711086,0.0 107.5381559,-6.8711974,0.0 107.5382103,-6.8712287,0.0 107.5383378,-6.871298,0.0 107.538881,-6.871595,0.0 107.5391134,-6.8717381,0.0</coordinates>
            </LineString>
        </Placemark>
        <Placemark id="69291">
            <name>Jalan Soekarno-Hatta</name>
            <styleUrl>#69292</styleUrl>
            <LineString id="69290">
                <coordinates>107.584274,-6.9430061,0.0 107.5841772,-6.942931,0.0 107.5839709,-6.9427711,0.0 107.5834854,-6.9423721,0.0</coordinates>
            </LineString>
        </Placemark>
        <Placemark id="69295">
            <name>Jalan Raya Padalarang</name>
            <styleUrl>#69296</styleUrl>
            <LineString id="69294">
                <coordinates>107.4974571,-6.8521186,0.0 107.4974224,-6.8519939,0.0</coordinates>
            </LineString>
        </Placemark>
        <Placemark id="69299">
            <name>Jalan Jend. H. Amir Machmud</name>
            <styleUrl>#69300</styleUrl>
            <LineString id="69298">
                <coordinates>107.549261,-6.8780613,0.0 107.5491797,-6.8780009,0.0 107.5490452,-6.8779037,0.0 107.548903,-6.8778074,0.0</coordinates>
            </LineString>
        </Placemark>
        <Placemark id="69303">
            <name>Jalan Jendral Sudirman</name>
            <styleUrl>#69304</styleUrl>
            <LineString id="69302">
                <coordinates>107.5703429,-6.9126894,0.0 107.5701276,-6.9123274,0.0 107.5698951,-6.9119365,0.0</coordinates>
            </LineString>
        </Placemark>
        <Placemark id="69307">
            <name>Jalan Sriwijaya Raya</name>
            <styleUrl>#69308</styleUrl>
            <LineString id="69306">
                <coordinates>107.5383466,-6.8811511,0.0 107.5387934,-6.8807622,0.0 107.5390256,-6.8805614,0.0 107.5391513,-6.8804551,0.0 107.5392258,-6.8803921,0.0 107.5396782,-6.880004,0.0</coordinates>
            </LineString>
        </Placemark>
        <Placemark id="69311">
            <name>Jalan Sriwijaya Raya</name>
            <styleUrl>#69312</styleUrl>
            <LineString id="69310">
                <coordinates>107.5363838,-6.8828662,0.0 107.537175,-6.8821695,0.0</coordinates>
            </LineString>
        </Placemark>
        <Placemark id="69315">
            <name>Jalan Raya Padalarang</name>
            <styleUrl>#69316</styleUrl>
            <LineString id="69314">
                <coordinates>107.4975599,-6.8526317,0.0 107.4974957,-6.8522961,0.0</coordinates>
            </LineString>
        </Placemark>
        <Placemark id="69319">
            <name>Jalan Raya Padalarang</name>
            <styleUrl>#69320</styleUrl>
            <LineString id="69318">
                <coordinates>107.4927743,-6.8483862,0.0 107.4925682,-6.848238,0.0 107.4923123,-6.8480664,0.0 107.4918328,-6.8477344,0.0 107.49156,-6.8475022,0.0</coordinates>
            </LineString>
        </Placemark>
        <Placemark id="69323">
            <name>Jalan Raya Padalarang</name>
            <styleUrl>#69324</styleUrl>
            <LineString id="69322">
                <coordinates>107.4878341,-6.8448923,0.0 107.4878051,-6.8448954,0.0 107.4877737,-6.844887,0.0</coordinates>
            </LineString>
        </Placemark>
        <Placemark id="69327">
            <name>Jalan Gatot Subroto</name>
            <styleUrl>#69328</styleUrl>
            <LineString id="69326">
                <coordinates>107.5374242,-6.8876162,0.0 107.53735,-6.8878165,0.0</coordinates>
            </LineString>
        </Placemark>
        <Placemark id="69331">
            <name>Jalan Gatot Subroto</name>
            <styleUrl>#69332</styleUrl>
            <LineString id="69330">
                <coordinates>107.5374648,-6.8875121,0.0 107.5374242,-6.8876162,0.0</coordinates>
            </LineString>
        </Placemark>
        <Placemark id="69335">
            <name>Jalan Sisingamangaraja</name>
            <styleUrl>#69336</styleUrl>
            <LineString id="69334">
                <coordinates>107.5361726,-6.8760758,0.0 107.53622,-6.8761376,0.0 107.5364238,-6.8762896,0.0</coordinates>
            </LineString>
        </Placemark>
        <Placemark id="69339">
            <name>Jalan Kota Baru Parahyangan</name>
            <styleUrl>#69340</styleUrl>
            <LineString id="69338">
                <coordinates>107.4961444,-6.8512857,0.0 107.4960897,-6.8514097,0.0 107.4960736,-6.851442,0.0 107.4960591,-6.8514673,0.0 107.4960425,-6.8514915,0.0 107.4960261,-6.8515122,0.0 107.4960063,-6.8515313,0.0 107.4959822,-6.8515478,0.0 107.4959607,-6.8515595,0.0 107.4959397,-6.8515682,0.0 107.4959165,-6.8515759,0.0 107.4958879,-6.8515837,0.0 107.4958484,-6.8515932,0.0 107.4958073,-6.8516017,0.0 107.4957661,-6.8516091,0.0 107.49555,-6.8516434,0.0 107.4954972,-6.8516542,0.0 107.4954416,-6.8516674,0.0 107.4953935,-6.8516805,0.0 107.4953499,-6.8516958,0.0 107.4953074,-6.8517131,0.0 107.4952644,-6.8517336,0.0 107.4952276,-6.8517532,0.0 107.4951894,-6.8517762,0.0 107.4951386,-6.8518103,0.0 107.4951033,-6.8518359,0.0 107.4950728,-6.8518613,0.0 107.4950439,-6.8518894,0.0 107.495014,-6.8519245,0.0 107.494909,-6.852067,0.0</coordinates>
            </LineString>
        </Placemark>
        <Placemark id="69343">
            <name>Jalan Jend. H. Amir Machmud</name>
            <styleUrl>#69344</styleUrl>
            <LineString id="69342">
                <coordinates>107.5556524,-6.888377,0.0 107.5554234,-6.8880103,0.0 107.5552322,-6.8876864,0.0 107.5550315,-6.8873463,0.0 107.5548919,-6.8871098,0.0 107.5548167,-6.8869883,0.0 107.5546245,-6.8866774,0.0 107.5543949,-6.8863155,0.0 107.5541879,-6.8860004,0.0 107.5541319,-6.8859141,0.0 107.5540996,-6.8858644,0.0</coordinates>
            </LineString>
        </Placemark>
        <Placemark id="69347">
            <name>Jalan Jend. H. Amir Machmud</name>
            <styleUrl>#69348</styleUrl>
            <LineString id="69346">
                <coordinates>107.5540996,-6.8858644,0.0 107.5539786,-6.8856737,0.0 107.5538495,-6.8854676,0.0 107.5537567,-6.8853142,0.0 107.5536309,-6.8850994,0.0 107.5533096,-6.8845788,0.0 107.5532991,-6.8845055,0.0</coordinates>
            </LineString>
        </Placemark>
        <Placemark id="69351">
            <name>Jalan Jend. H. Amir Machmud</name>
            <styleUrl>#69352</styleUrl>
            <LineString id="69350">
                <coordinates>107.5493436,-6.8781455,0.0 107.549261,-6.8780613,0.0</coordinates>
            </LineString>
        </Placemark>
        <Placemark id="69355">
            <name>Jalan Soekarno-Hatta</name>
            <styleUrl>#69356</styleUrl>
            <LineString id="69354">
                <coordinates>107.5754153,-6.9269421,0.0 107.5753833,-6.9267408,0.0 107.5753762,-6.9266961,0.0 107.5753118,-6.9262905,0.0 107.5752379,-6.9258248,0.0 107.5750983,-6.9248687,0.0 107.5750637,-6.9246314,0.0</coordinates>
            </LineString>
        </Placemark>
        <Placemark id="69359">
            <name>Jalan Soekarno-Hatta</name>
            <styleUrl>#69360</styleUrl>
            <LineString id="69358">
                <coordinates>107.5750637,-6.9246314,0.0 107.5750151,-6.9243818,0.0</coordinates>
            </LineString>
        </Placemark>
        <Placemark id="69363">
            <name>Jalan Gatot Subroto</name>
            <styleUrl>#69364</styleUrl>
            <LineString id="69362">
                <coordinates>107.5459671,-6.8762377,0.0 107.5458574,-6.8763919,0.0 107.545628,-6.8767142,0.0 107.5453107,-6.8771677,0.0 107.5452289,-6.8772766,0.0 107.5451738,-6.8773525,0.0 107.545096,-6.8774617,0.0 107.5444652,-6.8783241,0.0</coordinates>
            </LineString>
        </Placemark>
        <Placemark id="69367">
            <name>Jalan Jend. H. Amir Machmud</name>
            <styleUrl>#69368</styleUrl>
            <LineString id="69366">
                <coordinates>107.534761,-6.8698508,0.0 107.5344209,-6.8697253,0.0 107.5343842,-6.869692,0.0</coordinates>
            </LineString>
        </Placemark>
        <Placemark id="69371">
            <name>Jalan Dustira</name>
            <styleUrl>#69372</styleUrl>
            <LineString id="69370">
                <coordinates>107.5364684,-6.8870194,0.0 107.5359459,-6.8864349,0.0 107.5358725,-6.8863526,0.0 107.5354638,-6.8858941,0.0 107.5351739,-6.8855689,0.0</coordinates>
            </LineString>
        </Placemark>
        <Placemark id="69375">
            <name>Jalan Raya Caringin</name>
            <styleUrl>#69376</styleUrl>
            <LineString id="69374">
                <coordinates>107.4987021,-6.8578894,0.0 107.4987182,-6.8581066,0.0</coordinates>
            </LineString>
        </Placemark>
        <Placemark id="69379">
            <name>Jalan Raya Caringin</name>
            <styleUrl>#69380</styleUrl>
            <LineString id="69378">
                <coordinates>107.4978121,-6.8539405,0.0 107.4978195,-6.8539756,0.0 107.497921,-6.8543483,0.0 107.4979689,-6.8545091,0.0 107.4980044,-6.8546237,0.0 107.4980409,-6.8547619,0.0 107.4980626,-6.8548322,0.0 107.4980832,-6.8548991,0.0 107.4981365,-6.855064,0.0 107.4981795,-6.8551922,0.0 107.4982118,-6.8553041,0.0 107.4982291,-6.855364,0.0 107.4982378,-6.8553939,0.0 107.4982496,-6.8554342,0.0 107.4982975,-6.8555796,0.0 107.4983226,-6.8556685,0.0 107.4983772,-6.8558679,0.0 107.4983981,-6.8559365,0.0 107.4984229,-6.8560363,0.0 107.4984955,-6.8563195,0.0 107.498506,-6.8563653,0.0 107.4985165,-6.856411,0.0 107.4985642,-6.8566145,0.0 107.4986032,-6.8567807,0.0 107.4986178,-6.8568699,0.0 107.4986213,-6.8568936,0.0 107.4986408,-6.8570257,0.0 107.4986583,-6.8572813,0.0 107.4986651,-6.8573652,0.0 107.4986693,-6.8574167,0.0 107.4986734,-6.8574856,0.0 107.4986774,-6.8575545,0.0 107.4986922,-6.857755,0.0 107.4987011,-6.8578756,0.0 107.4987021,-6.8578894,0.0</coordinates>
            </LineString>
        </Placemark>
        <Placemark id="69383">
            <name>Jalan Kota Baru Parahyangan</name>
            <styleUrl>#69384</styleUrl>
            <LineString id="69382">
                <coordinates>107.4934922,-6.8523177,0.0 107.4934922,-6.8522266,0.0 107.4935001,-6.8521613,0.0 107.4935127,-6.8521063,0.0 107.4935344,-6.8520506,0.0 107.4935642,-6.8520008,0.0 107.493597,-6.8519537,0.0 107.4936319,-6.8519114,0.0 107.493668,-6.851876,0.0 107.4937065,-6.8518461,0.0 107.493751,-6.8518207,0.0 107.493795,-6.8518006,0.0 107.4938418,-6.8517845,0.0 107.4938843,-6.8517736,0.0 107.4939237,-6.8517673,0.0 107.4939593,-6.8517637,0.0 107.4940018,-6.8517618,0.0 107.4940543,-6.8517636,0.0</coordinates>
            </LineString>
        </Placemark>
        <Placemark id="69387">
            <name>Jalan Underpass Ir. Soekarno</name>
            <styleUrl>#69388</styleUrl>
            <LineString id="69386">
                <coordinates>107.5346616,-6.8843934,0.0 107.5350132,-6.8840951,0.0</coordinates>
            </LineString>
        </Placemark>
        <Placemark id="69391">
            <name>Jalan Raya Padalarang</name>
            <styleUrl>#69392</styleUrl>
            <LineString id="69390">
                <coordinates>107.4940096,-6.8492687,0.0 107.4936922,-6.8490384,0.0</coordinates>
            </LineString>
        </Placemark>
        <Placemark id="69395">
            <name>Jalan Underpass Ir. Soekarno</name>
            <styleUrl>#69396</styleUrl>
            <LineString id="69394">
                <coordinates>107.5351739,-6.8855689,0.0 107.5351401,-6.8854879,0.0 107.5345982,-6.884846,0.0 107.5345583,-6.8847825,0.0 107.5345323,-6.8847104,0.0 107.5345274,-6.8846105,0.0 107.5345557,-6.8845207,0.0 107.5346001,-6.884453,0.0 107.5346616,-6.8843934,0.0</coordinates>
            </LineString>
        </Placemark>
        <Placemark id="69399">
            <name>Jalan Jend. H. Amir Machmud</name>
            <styleUrl>#69400</styleUrl>
            <LineString id="69398">
                <coordinates>107.5586896,-6.8935077,0.0 107.5586388,-6.8934232,0.0</coordinates>
            </LineString>
        </Placemark>
        <Placemark id="69403">
            <name>Jalan Soekarno-Hatta</name>
            <styleUrl>#69404</styleUrl>
            <LineString id="69402">
                <coordinates>107.5887948,-6.9453883,0.0 107.5885801,-6.945301,0.0 107.5879943,-6.9450641,0.0 107.587259,-6.9447649,0.0 107.5871849,-6.9447358,0.0 107.5870163,-6.9446608,0.0 107.5867864,-6.9445625,0.0 107.5867185,-6.9445286,0.0</coordinates>
            </LineString>
        </Placemark>
        <Placemark id="69407">
            <name>Jalan Soekarno-Hatta</name>
            <styleUrl>#69408</styleUrl>
            <LineString id="69406">
                <coordinates>107.5893262,-6.9455913,0.0 107.589053,-6.9454919,0.0 107.5887948,-6.9453883,0.0</coordinates>
            </LineString>
        </Placemark>
        <Placemark id="69411">
            <name>Bunderan Cibeureum</name>
            <styleUrl>#69412</styleUrl>
            <LineString id="69410">
                <coordinates>107.5742937,-6.9173779,0.0 107.5742396,-6.9173432,0.0 107.5741991,-6.9172935,0.0</coordinates>
            </LineString>
        </Placemark>
        <Placemark id="69415">
            <name>Jalan Soekarno-Hatta</name>
            <styleUrl>#69416</styleUrl>
            <LineString id="69414">
                <coordinates>107.5850394,-6.943526,0.0 107.5847447,-6.9433369,0.0 107.5845911,-6.9432329,0.0 107.5845615,-6.9432139,0.0 107.584417,-6.9431127,0.0</coordinates>
            </LineString>
        </Placemark>
        <Placemark id="69419">
            <name>Jalan Soekarno-Hatta</name>
            <styleUrl>#69420</styleUrl>
            <LineString id="69418">
                <coordinates>107.5904505,-6.9460588,0.0 107.5903535,-6.9460161,0.0 107.5901033,-6.9459059,0.0 107.589865,-6.9458161,0.0</coordinates>
            </LineString>
        </Placemark>
        <Placemark id="69423">
            <name>Jalan Soekarno-Hatta</name>
            <styleUrl>#69424</styleUrl>
            <LineString id="69422">
                <coordinates>107.5867185,-6.9445286,0.0 107.5861314,-6.9442147,0.0 107.5860309,-6.9441644,0.0 107.5855178,-6.9438847,0.0 107.5853222,-6.9437698,0.0 107.5851699,-6.9436711,0.0 107.5850394,-6.943526,0.0</coordinates>
            </LineString>
        </Placemark>
        <Placemark id="69427">
            <name>Jalan Soekarno-Hatta</name>
            <styleUrl>#69428</styleUrl>
            <LineString id="69426">
                <coordinates>107.5896397,-6.9457186,0.0 107.5895751,-6.9456911,0.0</coordinates>
            </LineString>
        </Placemark>
        <Placemark id="69431">
            <name>Jalan Soekarno-Hatta</name>
            <styleUrl>#69432</styleUrl>
            <LineString id="69430">
                <coordinates>107.576479,-6.932218,0.0 107.5764599,-6.9321597,0.0 107.576348,-6.931824,0.0 107.5762905,-6.9316298,0.0 107.5761656,-6.9312071,0.0 107.5760418,-6.9307684,0.0</coordinates>
            </LineString>
        </Placemark>
        <Placemark id="69435">
            <name>Jalan Soekarno-Hatta</name>
            <styleUrl>#69436</styleUrl>
            <LineString id="69434">
                <coordinates>107.5760418,-6.9307684,0.0 107.5759903,-6.9305942,0.0 107.5759805,-6.9305597,0.0 107.5759595,-6.9304856,0.0</coordinates>
            </LineString>
        </Placemark>
        <Placemark id="69439">
            <name>Jalan Soekarno-Hatta</name>
            <styleUrl>#69440</styleUrl>
            <LineString id="69438">
                <coordinates>107.575943,-6.930415,0.0 107.5759394,-6.9303894,0.0 107.5758965,-6.9300827,0.0</coordinates>
            </LineString>
        </Placemark>
        <Placemark id="69443">
            <name>Jalan Kota Baru Parahyangan</name>
            <styleUrl>#69444</styleUrl>
            <LineString id="69442">
                <coordinates>107.4944522,-6.8524499,0.0 107.4944162,-6.8525103,0.0 107.4943818,-6.8525601,0.0 107.4943432,-6.8526068,0.0 107.4943051,-6.8526422,0.0 107.4942576,-6.8526775,0.0 107.4942009,-6.8527087,0.0 107.4941496,-6.8527293,0.0 107.4940916,-6.852747,0.0 107.4940257,-6.8527557,0.0 107.4939522,-6.8527551,0.0 107.4938894,-6.8527455,0.0 107.4938183,-6.8527241,0.0 107.4937587,-6.8526983,0.0 107.4936969,-6.8526597,0.0 107.4936415,-6.8526143,0.0</coordinates>
            </LineString>
        </Placemark>
        <Placemark id="69447">
            <name>Jalan Kota Baru Parahyangan</name>
            <styleUrl>#69448</styleUrl>
            <LineString id="69446">
                <coordinates>107.4936415,-6.8526143,0.0 107.4935908,-6.8525552,0.0 107.4935414,-6.8524786,0.0 107.493508,-6.8523961,0.0 107.4934922,-6.8523177,0.0</coordinates>
            </LineString>
        </Placemark>
        <Placemark id="69451">
            <name>Jalan Raya Padalarang</name>
            <styleUrl>#69452</styleUrl>
            <LineString id="69450">
                <coordinates>107.4951383,-6.8501109,0.0 107.4949029,-6.8499353,0.0 107.4943204,-6.8495005,0.0 107.4940096,-6.8492687,0.0</coordinates>
            </LineString>
        </Placemark>
        <Placemark id="69455">
            <name>Jalan Jend. H. Amir Machmud</name>
            <styleUrl>#69456</styleUrl>
            <LineString id="69454">
                <coordinates>107.5359218,-6.8702457,0.0 107.5362685,-6.8703754,0.0 107.5363078,-6.8703903,0.0</coordinates>
            </LineString>
        </Placemark>
        <Placemark id="69459">
            <name>Jalan Jend. H. Amir Machmud</name>
            <styleUrl>#69460</styleUrl>
            <LineString id="69458">
                <coordinates>107.5363078,-6.8703903,0.0 107.5363431,-6.8704044,0.0</coordinates>
            </LineString>
        </Placemark>
        <Placemark id="69463">
            <name>Jalan Jendral Sudirman</name>
            <styleUrl>#69464</styleUrl>
            <LineString id="69462">
                <coordinates>107.5725721,-6.916133,0.0 107.5723979,-6.9159874,0.0 107.5723395,-6.9159333,0.0 107.5722759,-6.9158629,0.0 107.5722121,-6.9157842,0.0 107.5721531,-6.915707,0.0 107.5720994,-6.9156231,0.0 107.5720549,-6.9155598,0.0 107.5719123,-6.9153326,0.0 107.5718695,-6.9152634,0.0 107.5717819,-6.9151024,0.0 107.5717255,-6.9150035,0.0 107.5715151,-6.9146659,0.0</coordinates>
            </LineString>
        </Placemark>
        <Placemark id="69467">
            <name>Jalan Soekarno-Hatta</name>
            <styleUrl>#69468</styleUrl>
            <LineString id="69466">
                <coordinates>107.5834854,-6.9423721,0.0 107.5830509,-6.941969,0.0 107.5829792,-6.9419021,0.0</coordinates>
            </LineString>
        </Placemark>
        <Placemark id="69471">
            <name>Jalan Jend. H. Amir Machmud</name>
            <styleUrl>#69472</styleUrl>
            <LineString id="69470">
                <coordinates>107.5603175,-6.8962042,0.0 107.5602833,-6.896152,0.0 107.5600306,-6.895741,0.0</coordinates>
            </LineString>
        </Placemark>
        <Placemark id="69475">
            <name>Jalan Jend. H. Amir Machmud</name>
            <styleUrl>#69476</styleUrl>
            <LineString id="69474">
                <coordinates>107.5609323,-6.8972252,0.0 107.5607448,-6.8969157,0.0 107.5606211,-6.896708,0.0 107.5605385,-6.8965689,0.0</coordinates>
            </LineString>
        </Placemark>
        <Placemark id="69479">
            <name>Jalan Raya Gadobangkong</name>
            <styleUrl>#69480</styleUrl>
            <LineString id="69478">
                <coordinates>107.5238237,-6.8685111,0.0 107.5238605,-6.8685121,0.0 107.524111,-6.8685186,0.0 107.5242475,-6.8685297,0.0 107.5243947,-6.8685238,0.0 107.5245213,-6.8685157,0.0 107.5246659,-6.8685002,0.0 107.5248121,-6.8684764,0.0 107.5250106,-6.8684338,0.0 107.5252251,-6.8683845,0.0 107.5253284,-6.8683626,0.0 107.5254235,-6.8683509,0.0 107.525547,-6.8683413,0.0 107.525671,-6.8683467,0.0 107.5258493,-6.8683639,0.0 107.5260715,-6.8684195,0.0 107.5261248,-6.8684369,0.0</coordinates>
            </LineString>
        </Placemark>
        <Placemark id="69483">
            <name>Jalan Jend. H. Amir Machmud</name>
            <styleUrl>#69484</styleUrl>
            <LineString id="69482">
                <coordinates>107.5604095,-6.8963547,0.0 107.5603175,-6.8962042,0.0</coordinates>
            </LineString>
        </Placemark>
        <Placemark id="69487">
            <name>Jalan Raya Padalarang</name>
            <styleUrl>#69488</styleUrl>
            <LineString id="69486">
                <coordinates>107.4974957,-6.8522961,0.0 107.4974571,-6.8521186,0.0</coordinates>
            </LineString>
        </Placemark>
        <Placemark id="69491">
            <name>Jalan Raya Cimareme</name>
            <styleUrl>#69492</styleUrl>
            <LineString id="69490">
                <coordinates>107.5055404,-6.864229,0.0 107.5056235,-6.864215,0.0 107.505703,-6.8641943,0.0 107.5063671,-6.864027,0.0</coordinates>
            </LineString>
        </Placemark>
        <Placemark id="69495">
            <name>Jalan Kota Baru Parahyangan</name>
            <styleUrl>#69496</styleUrl>
            <LineString id="69494">
                <coordinates>107.4963507,-6.8510217,0.0 107.4963301,-6.8510254,0.0 107.4963132,-6.8510299,0.0 107.4962963,-6.8510362,0.0 107.4962787,-6.8510449,0.0 107.4962614,-6.8510578,0.0 107.4962484,-6.8510712,0.0 107.4962343,-6.85109,0.0 107.4962221,-6.8511106,0.0 107.4962098,-6.8511338,0.0 107.4961976,-6.8511597,0.0 107.4961619,-6.8512443,0.0 107.4961444,-6.8512857,0.0</coordinates>
            </LineString>
        </Placemark>
        <Placemark id="69499">
            <name>Jalan Jend. H. Amir Machmud</name>
            <styleUrl>#69500</styleUrl>
            <LineString id="69498">
                <coordinates>107.5689887,-6.9104164,0.0 107.5689617,-6.9103691,0.0 107.5688997,-6.9102637,0.0 107.5688731,-6.910217,0.0 107.5688157,-6.9101246,0.0 107.5686493,-6.9098587,0.0 107.5683186,-6.9093322,0.0 107.5676739,-6.9082679,0.0 107.5674722,-6.9079333,0.0 107.5673325,-6.9077024,0.0 107.5672438,-6.907556,0.0 107.5668478,-6.9069015,0.0 107.5666139,-6.9065148,0.0 107.5664877,-6.9063062,0.0 107.5663055,-6.9060051,0.0 107.5659443,-6.9054074,0.0 107.565924,-6.9053734,0.0 107.565673,-6.9049534,0.0</coordinates>
            </LineString>
        </Placemark>
        <Placemark id="69503">
            <name>Jalan Baros</name>
            <styleUrl>#69504</styleUrl>
            <LineString id="69502">
                <coordinates>107.5372378,-6.8880721,0.0 107.5371821,-6.8882052,0.0 107.5369394,-6.8887796,0.0 107.5366629,-6.8894348,0.0</coordinates>
            </LineString>
        </Placemark>
    </Document>
</kml>
