<?xml version="1.0" encoding="UTF-8"?>
<kml xmlns="http://www.opengis.net/kml/2.2" xmlns:gx="http://www.google.com/kml/ext/2.2">
    <Document id="73853">
        <Style id="73859">
            <IconStyle id="73860">
                <colorMode>normal</colorMode>
                <scale>1</scale>
                <heading>0</heading>
                <Icon id="73861">
                    <href>http://maps.google.com/mapfiles/kml/pushpin/ylw-pushpin.png</href>
                </Icon>
            </IconStyle>
        </Style>
        <Style id="73864">
            <IconStyle id="73865">
                <colorMode>normal</colorMode>
                <scale>1</scale>
                <heading>0</heading>
                <Icon id="73866">
                    <href>http://maps.google.com/mapfiles/kml/pushpin/ylw-pushpin.png</href>
                </Icon>
            </IconStyle>
        </Style>
        <Style id="73869">
            <LineStyle id="73870">
                <color>ff38EDF7</color>
                <colorMode>normal</colorMode>
                <width>4</width>
            </LineStyle>
        </Style>
        <Style id="73873">
            <LineStyle id="73874">
                <color>ff38EDF7</color>
                <colorMode>normal</colorMode>
                <width>4</width>
            </LineStyle>
        </Style>
        <Style id="73877">
            <LineStyle id="73878">
                <color>ff38EDF7</color>
                <colorMode>normal</colorMode>
                <width>4</width>
            </LineStyle>
        </Style>
        <Style id="73881">
            <LineStyle id="73882">
                <color>ff38EDF7</color>
                <colorMode>normal</colorMode>
                <width>4</width>
            </LineStyle>
        </Style>
        <Style id="73885">
            <LineStyle id="73886">
                <color>ff38EDF7</color>
                <colorMode>normal</colorMode>
                <width>4</width>
            </LineStyle>
        </Style>
        <Style id="73889">
            <LineStyle id="73890">
                <color>ff38EDF7</color>
                <colorMode>normal</colorMode>
                <width>4</width>
            </LineStyle>
        </Style>
        <Style id="73893">
            <LineStyle id="73894">
                <color>ff38EDF7</color>
                <colorMode>normal</colorMode>
                <width>4</width>
            </LineStyle>
        </Style>
        <Style id="73897">
            <LineStyle id="73898">
                <color>ff38EDF7</color>
                <colorMode>normal</colorMode>
                <width>4</width>
            </LineStyle>
        </Style>
        <Style id="73901">
            <LineStyle id="73902">
                <color>ff38EDF7</color>
                <colorMode>normal</colorMode>
                <width>4</width>
            </LineStyle>
        </Style>
        <Style id="73905">
            <LineStyle id="73906">
                <color>ff38EDF7</color>
                <colorMode>normal</colorMode>
                <width>4</width>
            </LineStyle>
        </Style>
        <Style id="73909">
            <LineStyle id="73910">
                <color>ff38EDF7</color>
                <colorMode>normal</colorMode>
                <width>4</width>
            </LineStyle>
        </Style>
        <Style id="73913">
            <LineStyle id="73914">
                <color>ff38EDF7</color>
                <colorMode>normal</colorMode>
                <width>4</width>
            </LineStyle>
        </Style>
        <Style id="73917">
            <LineStyle id="73918">
                <color>ff38EDF7</color>
                <colorMode>normal</colorMode>
                <width>4</width>
            </LineStyle>
        </Style>
        <Style id="73921">
            <LineStyle id="73922">
                <color>ff38EDF7</color>
                <colorMode>normal</colorMode>
                <width>4</width>
            </LineStyle>
        </Style>
        <Style id="73925">
            <LineStyle id="73926">
                <color>ff38EDF7</color>
                <colorMode>normal</colorMode>
                <width>4</width>
            </LineStyle>
        </Style>
        <Style id="73929">
            <LineStyle id="73930">
                <color>ff38EDF7</color>
                <colorMode>normal</colorMode>
                <width>4</width>
            </LineStyle>
        </Style>
        <Style id="73933">
            <LineStyle id="73934">
                <color>ff38EDF7</color>
                <colorMode>normal</colorMode>
                <width>4</width>
            </LineStyle>
        </Style>
        <Style id="73937">
            <LineStyle id="73938">
                <color>ff38EDF7</color>
                <colorMode>normal</colorMode>
                <width>4</width>
            </LineStyle>
        </Style>
        <Style id="73941">
            <LineStyle id="73942">
                <color>ff38EDF7</color>
                <colorMode>normal</colorMode>
                <width>4</width>
            </LineStyle>
        </Style>
        <Style id="73945">
            <LineStyle id="73946">
                <color>ff38EDF7</color>
                <colorMode>normal</colorMode>
                <width>4</width>
            </LineStyle>
        </Style>
        <Style id="73949">
            <LineStyle id="73950">
                <color>ff38EDF7</color>
                <colorMode>normal</colorMode>
                <width>4</width>
            </LineStyle>
        </Style>
        <Style id="73953">
            <LineStyle id="73954">
                <color>ff38EDF7</color>
                <colorMode>normal</colorMode>
                <width>4</width>
            </LineStyle>
        </Style>
        <Style id="73957">
            <LineStyle id="73958">
                <color>ff38EDF7</color>
                <colorMode>normal</colorMode>
                <width>4</width>
            </LineStyle>
        </Style>
        <Style id="73961">
            <LineStyle id="73962">
                <color>ff38EDF7</color>
                <colorMode>normal</colorMode>
                <width>4</width>
            </LineStyle>
        </Style>
        <Style id="73965">
            <LineStyle id="73966">
                <color>ff38EDF7</color>
                <colorMode>normal</colorMode>
                <width>4</width>
            </LineStyle>
        </Style>
        <Style id="73969">
            <LineStyle id="73970">
                <color>ff38EDF7</color>
                <colorMode>normal</colorMode>
                <width>4</width>
            </LineStyle>
        </Style>
        <Style id="73973">
            <LineStyle id="73974">
                <color>ff38EDF7</color>
                <colorMode>normal</colorMode>
                <width>4</width>
            </LineStyle>
        </Style>
        <Style id="73977">
            <LineStyle id="73978">
                <color>ff38EDF7</color>
                <colorMode>normal</colorMode>
                <width>4</width>
            </LineStyle>
        </Style>
        <Style id="73981">
            <LineStyle id="73982">
                <color>ff38EDF7</color>
                <colorMode>normal</colorMode>
                <width>4</width>
            </LineStyle>
        </Style>
        <Style id="73985">
            <LineStyle id="73986">
                <color>ff38EDF7</color>
                <colorMode>normal</colorMode>
                <width>4</width>
            </LineStyle>
        </Style>
        <Style id="73989">
            <LineStyle id="73990">
                <color>ff38EDF7</color>
                <colorMode>normal</colorMode>
                <width>4</width>
            </LineStyle>
        </Style>
        <Style id="73993">
            <LineStyle id="73994">
                <color>ff38EDF7</color>
                <colorMode>normal</colorMode>
                <width>4</width>
            </LineStyle>
        </Style>
        <Style id="73997">
            <LineStyle id="73998">
                <color>ff38EDF7</color>
                <colorMode>normal</colorMode>
                <width>4</width>
            </LineStyle>
        </Style>
        <Style id="74001">
            <LineStyle id="74002">
                <color>ff38EDF7</color>
                <colorMode>normal</colorMode>
                <width>4</width>
            </LineStyle>
        </Style>
        <Style id="74005">
            <LineStyle id="74006">
                <color>ff38EDF7</color>
                <colorMode>normal</colorMode>
                <width>4</width>
            </LineStyle>
        </Style>
        <Style id="74009">
            <LineStyle id="74010">
                <color>ff38EDF7</color>
                <colorMode>normal</colorMode>
                <width>4</width>
            </LineStyle>
        </Style>
        <Style id="74013">
            <LineStyle id="74014">
                <color>ff38EDF7</color>
                <colorMode>normal</colorMode>
                <width>4</width>
            </LineStyle>
        </Style>
        <Style id="74017">
            <LineStyle id="74018">
                <color>ff38EDF7</color>
                <colorMode>normal</colorMode>
                <width>4</width>
            </LineStyle>
        </Style>
        <Style id="74021">
            <LineStyle id="74022">
                <color>ff38EDF7</color>
                <colorMode>normal</colorMode>
                <width>4</width>
            </LineStyle>
        </Style>
        <Style id="74025">
            <LineStyle id="74026">
                <color>ff38EDF7</color>
                <colorMode>normal</colorMode>
                <width>4</width>
            </LineStyle>
        </Style>
        <Style id="74029">
            <LineStyle id="74030">
                <color>ff38EDF7</color>
                <colorMode>normal</colorMode>
                <width>4</width>
            </LineStyle>
        </Style>
        <Style id="74033">
            <LineStyle id="74034">
                <color>ff38EDF7</color>
                <colorMode>normal</colorMode>
                <width>4</width>
            </LineStyle>
        </Style>
        <Style id="74037">
            <LineStyle id="74038">
                <color>ff38EDF7</color>
                <colorMode>normal</colorMode>
                <width>4</width>
            </LineStyle>
        </Style>
        <Style id="74041">
            <LineStyle id="74042">
                <color>ff38EDF7</color>
                <colorMode>normal</colorMode>
                <width>4</width>
            </LineStyle>
        </Style>
        <Style id="74045">
            <LineStyle id="74046">
                <color>ff38EDF7</color>
                <colorMode>normal</colorMode>
                <width>4</width>
            </LineStyle>
        </Style>
        <Style id="74049">
            <LineStyle id="74050">
                <color>ff38EDF7</color>
                <colorMode>normal</colorMode>
                <width>4</width>
            </LineStyle>
        </Style>
        <Style id="74053">
            <LineStyle id="74054">
                <color>ff38EDF7</color>
                <colorMode>normal</colorMode>
                <width>4</width>
            </LineStyle>
        </Style>
        <Style id="74057">
            <LineStyle id="74058">
                <color>ff38EDF7</color>
                <colorMode>normal</colorMode>
                <width>4</width>
            </LineStyle>
        </Style>
        <Style id="74061">
            <LineStyle id="74062">
                <color>ff38EDF7</color>
                <colorMode>normal</colorMode>
                <width>4</width>
            </LineStyle>
        </Style>
        <Style id="74065">
            <LineStyle id="74066">
                <color>ff38EDF7</color>
                <colorMode>normal</colorMode>
                <width>4</width>
            </LineStyle>
        </Style>
        <Style id="74069">
            <LineStyle id="74070">
                <color>ff38EDF7</color>
                <colorMode>normal</colorMode>
                <width>4</width>
            </LineStyle>
        </Style>
        <Style id="74073">
            <LineStyle id="74074">
                <color>ff38EDF7</color>
                <colorMode>normal</colorMode>
                <width>4</width>
            </LineStyle>
        </Style>
        <Style id="74077">
            <LineStyle id="74078">
                <color>ff38EDF7</color>
                <colorMode>normal</colorMode>
                <width>4</width>
            </LineStyle>
        </Style>
        <Style id="74081">
            <LineStyle id="74082">
                <color>ff38EDF7</color>
                <colorMode>normal</colorMode>
                <width>4</width>
            </LineStyle>
        </Style>
        <Style id="74085">
            <LineStyle id="74086">
                <color>ff38EDF7</color>
                <colorMode>normal</colorMode>
                <width>4</width>
            </LineStyle>
        </Style>
        <Style id="74089">
            <LineStyle id="74090">
                <color>ff38EDF7</color>
                <colorMode>normal</colorMode>
                <width>4</width>
            </LineStyle>
        </Style>
        <Style id="74093">
            <LineStyle id="74094">
                <color>ff38EDF7</color>
                <colorMode>normal</colorMode>
                <width>4</width>
            </LineStyle>
        </Style>
        <Style id="74097">
            <LineStyle id="74098">
                <color>ff38EDF7</color>
                <colorMode>normal</colorMode>
                <width>4</width>
            </LineStyle>
        </Style>
        <Style id="74101">
            <LineStyle id="74102">
                <color>ff38EDF7</color>
                <colorMode>normal</colorMode>
                <width>4</width>
            </LineStyle>
        </Style>
        <Style id="74105">
            <LineStyle id="74106">
                <color>ff38EDF7</color>
                <colorMode>normal</colorMode>
                <width>4</width>
            </LineStyle>
        </Style>
        <Style id="74109">
            <LineStyle id="74110">
                <color>ff38EDF7</color>
                <colorMode>normal</colorMode>
                <width>4</width>
            </LineStyle>
        </Style>
        <Style id="74113">
            <LineStyle id="74114">
                <color>ff38EDF7</color>
                <colorMode>normal</colorMode>
                <width>4</width>
            </LineStyle>
        </Style>
        <Style id="74117">
            <LineStyle id="74118">
                <color>ff38EDF7</color>
                <colorMode>normal</colorMode>
                <width>4</width>
            </LineStyle>
        </Style>
        <Style id="74121">
            <LineStyle id="74122">
                <color>ff38EDF7</color>
                <colorMode>normal</colorMode>
                <width>4</width>
            </LineStyle>
        </Style>
        <Style id="74125">
            <LineStyle id="74126">
                <color>ff38EDF7</color>
                <colorMode>normal</colorMode>
                <width>4</width>
            </LineStyle>
        </Style>
        <Style id="74129">
            <LineStyle id="74130">
                <color>ff38EDF7</color>
                <colorMode>normal</colorMode>
                <width>4</width>
            </LineStyle>
        </Style>
        <Style id="74133">
            <LineStyle id="74134">
                <color>ff38EDF7</color>
                <colorMode>normal</colorMode>
                <width>4</width>
            </LineStyle>
        </Style>
        <Style id="74137">
            <LineStyle id="74138">
                <color>ff38EDF7</color>
                <colorMode>normal</colorMode>
                <width>4</width>
            </LineStyle>
        </Style>
        <Style id="74141">
            <LineStyle id="74142">
                <color>ff38EDF7</color>
                <colorMode>normal</colorMode>
                <width>4</width>
            </LineStyle>
        </Style>
        <Style id="74145">
            <LineStyle id="74146">
                <color>ff38EDF7</color>
                <colorMode>normal</colorMode>
                <width>4</width>
            </LineStyle>
        </Style>
        <Style id="74149">
            <LineStyle id="74150">
                <color>ff38EDF7</color>
                <colorMode>normal</colorMode>
                <width>4</width>
            </LineStyle>
        </Style>
        <Style id="74153">
            <LineStyle id="74154">
                <color>ff38EDF7</color>
                <colorMode>normal</colorMode>
                <width>4</width>
            </LineStyle>
        </Style>
        <Style id="74157">
            <LineStyle id="74158">
                <color>ff38EDF7</color>
                <colorMode>normal</colorMode>
                <width>4</width>
            </LineStyle>
        </Style>
        <Style id="74161">
            <LineStyle id="74162">
                <color>ff38EDF7</color>
                <colorMode>normal</colorMode>
                <width>4</width>
            </LineStyle>
        </Style>
        <Style id="74165">
            <LineStyle id="74166">
                <color>ff38EDF7</color>
                <colorMode>normal</colorMode>
                <width>4</width>
            </LineStyle>
        </Style>
        <Style id="74169">
            <LineStyle id="74170">
                <color>ff38EDF7</color>
                <colorMode>normal</colorMode>
                <width>4</width>
            </LineStyle>
        </Style>
        <Style id="74173">
            <LineStyle id="74174">
                <color>ff38EDF7</color>
                <colorMode>normal</colorMode>
                <width>4</width>
            </LineStyle>
        </Style>
        <Style id="74177">
            <LineStyle id="74178">
                <color>ff38EDF7</color>
                <colorMode>normal</colorMode>
                <width>4</width>
            </LineStyle>
        </Style>
        <Style id="74181">
            <LineStyle id="74182">
                <color>ff38EDF7</color>
                <colorMode>normal</colorMode>
                <width>4</width>
            </LineStyle>
        </Style>
        <Style id="74185">
            <LineStyle id="74186">
                <color>ff38EDF7</color>
                <colorMode>normal</colorMode>
                <width>4</width>
            </LineStyle>
        </Style>
        <Style id="74189">
            <LineStyle id="74190">
                <color>ff38EDF7</color>
                <colorMode>normal</colorMode>
                <width>4</width>
            </LineStyle>
        </Style>
        <Style id="74193">
            <LineStyle id="74194">
                <color>ff38EDF7</color>
                <colorMode>normal</colorMode>
                <width>4</width>
            </LineStyle>
        </Style>
        <Style id="74197">
            <LineStyle id="74198">
                <color>ff38EDF7</color>
                <colorMode>normal</colorMode>
                <width>4</width>
            </LineStyle>
        </Style>
        <Style id="74201">
            <LineStyle id="74202">
                <color>ff38EDF7</color>
                <colorMode>normal</colorMode>
                <width>4</width>
            </LineStyle>
        </Style>
        <Style id="74205">
            <LineStyle id="74206">
                <color>ff38EDF7</color>
                <colorMode>normal</colorMode>
                <width>4</width>
            </LineStyle>
        </Style>
        <ExtendedData>
            <Data name="route-name">
                <value>938: Tegallega → Mahmud</value>
            </Data>
            <Data name="source">
                <value>Transport for Bandung</value>
            </Data>
        </ExtendedData>
        <Placemark id="73858">
            <name>Terminal Tegallega</name>
            <styleUrl>#73859</styleUrl>
            <Point id="73857">
                <coordinates>107.6028846,-6.934073,0.0</coordinates>
            </Point>
        </Placemark>
        <Placemark id="73863">
            <name>Terminal Mahmud</name>
            <styleUrl>#73864</styleUrl>
            <Point id="73862">
                <coordinates>107.5409382,-6.9707276,0.0</coordinates>
            </Point>
        </Placemark>
        <Placemark id="73868">
            <name>Jalan Otto Iskandardinata</name>
            <styleUrl>#73869</styleUrl>
            <LineString id="73867">
                <coordinates>107.6032238,-6.935481,0.0 107.6032173,-6.935578,0.0 107.6032076,-6.9357215,0.0 107.6031855,-6.936049,0.0 107.6031741,-6.936219,0.0 107.6031624,-6.9363928,0.0 107.6031505,-6.9365689,0.0</coordinates>
            </LineString>
        </Placemark>
        <Placemark id="73872">
            <name>Jalan Otto Iskandardinata</name>
            <styleUrl>#73873</styleUrl>
            <LineString id="73871">
                <coordinates>107.603088,-6.9372221,0.0 107.6030728,-6.9373193,0.0</coordinates>
            </LineString>
        </Placemark>
        <Placemark id="73876">
            <name>Jalan Burujul</name>
            <styleUrl>#73877</styleUrl>
            <LineString id="73875">
                <coordinates>107.5580192,-6.9699843,0.0 107.5585136,-6.9694312,0.0 107.5586145,-6.9693142,0.0 107.5590588,-6.9687945,0.0 107.5591666,-6.9686496,0.0 107.5592194,-6.9685332,0.0 107.559249,-6.9684212,0.0 107.5592971,-6.9682369,0.0 107.5593776,-6.9680007,0.0 107.5594139,-6.9678755,0.0 107.5594677,-6.9677052,0.0 107.559489,-6.9676513,0.0 107.5595125,-6.9676015,0.0 107.5595485,-6.967539,0.0 107.55967,-6.967363,0.0 107.5596808,-6.9673398,0.0 107.5596848,-6.9673247,0.0 107.5597412,-6.9670686,0.0</coordinates>
            </LineString>
        </Placemark>
        <Placemark id="73880">
            <name>Jalan Burujul</name>
            <styleUrl>#73881</styleUrl>
            <LineString id="73879">
                <coordinates>107.5614515,-6.9631455,0.0 107.5614253,-6.9631801,0.0 107.561335,-6.9633212,0.0 107.5610154,-6.9638208,0.0 107.5608023,-6.9641796,0.0 107.560717,-6.9643235,0.0 107.5605764,-6.9645734,0.0 107.5603745,-6.9649322,0.0 107.5599059,-6.9657244,0.0 107.5598605,-6.9658056,0.0 107.5598417,-6.9658601,0.0 107.5598271,-6.965911,0.0 107.5597978,-6.9663779,0.0 107.5597859,-6.9665998,0.0 107.5597776,-6.9667071,0.0 107.5597553,-6.9669291,0.0 107.5597412,-6.9670686,0.0</coordinates>
            </LineString>
        </Placemark>
        <Placemark id="73884">
            <name>Jalan Cigondewah Kaler</name>
            <styleUrl>#73885</styleUrl>
            <LineString id="73883">
                <coordinates>107.5641471,-6.9522319,0.0 107.5637249,-6.9529069,0.0</coordinates>
            </LineString>
        </Placemark>
        <Placemark id="73888">
            <name>Jalan Cibolerang</name>
            <styleUrl>#73889</styleUrl>
            <LineString id="73887">
                <coordinates>107.568724,-6.9495311,0.0 107.5686906,-6.9495476,0.0 107.5686582,-6.949553,0.0 107.5683151,-6.94949,0.0 107.5682908,-6.9494826,0.0 107.5682439,-6.9494709,0.0 107.5679171,-6.9494038,0.0 107.5676791,-6.949348,0.0 107.5674042,-6.9492911,0.0 107.5672296,-6.9492564,0.0 107.5670948,-6.9492242,0.0 107.5667846,-6.9491295,0.0 107.5666643,-6.9491018,0.0 107.5665981,-6.9490865,0.0 107.5664662,-6.949056,0.0 107.5660174,-6.9488855,0.0 107.5659284,-6.9488489,0.0 107.5657479,-6.9487884,0.0 107.565655,-6.9487566,0.0</coordinates>
            </LineString>
        </Placemark>
        <Placemark id="73892">
            <name>Jalan Cigondewah Kaler</name>
            <styleUrl>#73893</styleUrl>
            <LineString id="73891">
                <coordinates>107.5643974,-6.9518503,0.0 107.5641471,-6.9522319,0.0</coordinates>
            </LineString>
        </Placemark>
        <Placemark id="73896">
            <name>Jalan Terusan Holis</name>
            <styleUrl>#73897</styleUrl>
            <LineString id="73895">
                <coordinates>107.5684402,-6.9436218,0.0 107.5684429,-6.9436817,0.0 107.5684342,-6.9437383,0.0 107.5684241,-6.9437916,0.0 107.5683577,-6.9439932,0.0 107.5682945,-6.9441533,0.0 107.568223,-6.9443873,0.0 107.5681894,-6.9444945,0.0 107.5681733,-6.9445437,0.0 107.5681552,-6.9445996,0.0 107.5681445,-6.9446276,0.0 107.5680875,-6.9447594,0.0 107.5680432,-6.9449052,0.0 107.5679742,-6.9451335,0.0 107.5679313,-6.9453005,0.0 107.5678971,-6.9454237,0.0 107.5678354,-6.9456201,0.0 107.567777,-6.9457612,0.0 107.567771,-6.9458377,0.0 107.5677781,-6.945888,0.0</coordinates>
            </LineString>
        </Placemark>
        <Placemark id="73900">
            <name>Jalan Caringin</name>
            <styleUrl>#73901</styleUrl>
            <LineString id="73899">
                <coordinates>107.5699154,-6.9404816,0.0 107.5699794,-6.9405211,0.0 107.5702351,-6.9406826,0.0 107.5704485,-6.9408221,0.0 107.5706744,-6.9409677,0.0 107.5708146,-6.9410871,0.0 107.5708568,-6.9411343,0.0 107.5709162,-6.9412183,0.0 107.5711215,-6.9415682,0.0 107.5711634,-6.9416382,0.0 107.5712839,-6.9418432,0.0 107.5714112,-6.9420309,0.0 107.5714779,-6.9421334,0.0 107.5716471,-6.942342,0.0 107.5717935,-6.9425076,0.0 107.5719578,-6.9426534,0.0 107.5720665,-6.942735,0.0 107.572131,-6.9427751,0.0 107.5723374,-6.942919,0.0 107.5725798,-6.943084,0.0 107.5727408,-6.9431861,0.0 107.5729784,-6.9433209,0.0 107.5731789,-6.9434321,0.0 107.5735833,-6.9436519,0.0 107.5737585,-6.94374,0.0 107.5740771,-6.9438953,0.0 107.5741843,-6.9439409,0.0 107.5742349,-6.9439603,0.0 107.5744372,-6.9440288,0.0 107.5745299,-6.9440555,0.0 107.5747935,-6.944121,0.0 107.5749692,-6.9441712,0.0 107.5751833,-6.9442324,0.0 107.5752767,-6.9442595,0.0 107.5755729,-6.9443327,0.0 107.5756802,-6.9443647,0.0 107.5757086,-6.9443731,0.0 107.5757827,-6.9443952,0.0 107.5759189,-6.9444379,0.0 107.5760085,-6.9444746,0.0 107.5760831,-6.9444995,0.0 107.5761896,-6.9445262,0.0 107.5762488,-6.9445297,0.0 107.576288,-6.9445109,0.0 107.5763286,-6.9444805,0.0 107.5763467,-6.9444525,0.0 107.5763712,-6.9443872,0.0 107.5764178,-6.9442142,0.0 107.5764406,-6.9440731,0.0 107.5764995,-6.9437736,0.0 107.5765975,-6.9432646,0.0 107.5766163,-6.9432104,0.0 107.5766377,-6.9431785,0.0 107.5766602,-6.9431619,0.0 107.5766874,-6.9431479,0.0 107.5767425,-6.9431441,0.0</coordinates>
            </LineString>
        </Placemark>
        <Placemark id="73904">
            <name>Jalan Taman Kopo Indah 2</name>
            <styleUrl>#73905</styleUrl>
            <LineString id="73903">
                <coordinates>107.5593794,-6.9618611,0.0 107.5594064,-6.9619032,0.0 107.55942,-6.9619512,0.0 107.5594191,-6.962001,0.0</coordinates>
            </LineString>
        </Placemark>
        <Placemark id="73908">
            <name>Jalan Taman Kopo Indah 2</name>
            <styleUrl>#73909</styleUrl>
            <LineString id="73907">
                <coordinates>107.5630578,-6.9525884,0.0 107.5629203,-6.9529138,0.0 107.5628316,-6.9531232,0.0 107.5628016,-6.9531915,0.0 107.5627808,-6.9532568,0.0 107.5627578,-6.9533402,0.0 107.5627307,-6.9534321,0.0 107.5626628,-6.9536424,0.0 107.5626132,-6.9538083,0.0 107.5624432,-6.9542407,0.0 107.5622199,-6.9547917,0.0 107.5619166,-6.9555405,0.0 107.5616796,-6.9563855,0.0 107.5616541,-6.9564719,0.0 107.5613505,-6.9575658,0.0 107.5612313,-6.9579952,0.0 107.5612011,-6.958088,0.0 107.5609885,-6.9585515,0.0 107.5608893,-6.9587538,0.0 107.5605172,-6.959517,0.0 107.5603386,-6.9598941,0.0 107.5600544,-6.9604698,0.0 107.5595589,-6.9614988,0.0 107.5593794,-6.9618611,0.0</coordinates>
            </LineString>
        </Placemark>
        <Placemark id="73912">
            <name>Jalan Taman Kopo Indah 2</name>
            <styleUrl>#73913</styleUrl>
            <LineString id="73911">
                <coordinates>107.5594191,-6.962001,0.0 107.5600147,-6.9623125,0.0 107.5605257,-6.9625627,0.0 107.5612009,-6.9629002,0.0 107.561506,-6.9630666,0.0</coordinates>
            </LineString>
        </Placemark>
        <Placemark id="73916">
            <name>Jalan Caringin</name>
            <styleUrl>#73917</styleUrl>
            <LineString id="73915">
                <coordinates>107.5782919,-6.9437034,0.0 107.5784825,-6.9437716,0.0 107.579021,-6.9439642,0.0 107.5792046,-6.9440298,0.0 107.5797094,-6.9442104,0.0 107.5798101,-6.9442464,0.0 107.5801167,-6.9443561,0.0 107.5804521,-6.944476,0.0 107.5806275,-6.9445387,0.0 107.581029,-6.9446823,0.0 107.5812296,-6.9447541,0.0 107.5812581,-6.9447642,0.0 107.5814921,-6.9448479,0.0 107.5817225,-6.9449304,0.0 107.5818937,-6.9449916,0.0 107.5821081,-6.9450683,0.0 107.5822263,-6.9451105,0.0 107.5823013,-6.9451374,0.0 107.5823626,-6.9451593,0.0 107.5826031,-6.9452453,0.0 107.5827966,-6.9453145,0.0 107.5828684,-6.9453402,0.0 107.583021,-6.9453948,0.0 107.5830978,-6.9454222,0.0 107.5831273,-6.9454328,0.0 107.5832827,-6.9454884,0.0 107.5836727,-6.9456279,0.0 107.583916,-6.9457121,0.0 107.5841436,-6.945791,0.0</coordinates>
            </LineString>
        </Placemark>
        <Placemark id="73920">
            <name>Jalan Kyai Haji Wahid Hasyim</name>
            <styleUrl>#73921</styleUrl>
            <LineString id="73919">
                <coordinates>107.5892156,-6.9462748,0.0 107.5891756,-6.9463347,0.0 107.5887787,-6.9469287,0.0</coordinates>
            </LineString>
        </Placemark>
        <Placemark id="73924">
            <name>Jalan Soekarno-Hatta</name>
            <styleUrl>#73925</styleUrl>
            <LineString id="73923">
                <coordinates>107.5941295,-6.9471881,0.0 107.5940994,-6.9471816,0.0 107.5935081,-6.9470531,0.0 107.5934828,-6.9470467,0.0 107.5932915,-6.9469987,0.0 107.592997,-6.9469193,0.0</coordinates>
            </LineString>
        </Placemark>
        <Placemark id="73928">
            <name>Jalan Soekarno-Hatta</name>
            <styleUrl>#73929</styleUrl>
            <LineString id="73927">
                <coordinates>107.592997,-6.9469193,0.0 107.5924922,-6.9467783,0.0 107.5921516,-6.9466864,0.0 107.5920068,-6.9466455,0.0 107.5918917,-6.946617,0.0 107.5916708,-6.9465388,0.0 107.5913956,-6.9464414,0.0 107.5913385,-6.9464212,0.0 107.5911782,-6.9463589,0.0 107.5909136,-6.9462527,0.0 107.5906079,-6.9461252,0.0 107.5904505,-6.9460588,0.0</coordinates>
            </LineString>
        </Placemark>
        <Placemark id="73932">
            <name>Jalan Peta</name>
            <styleUrl>#73933</styleUrl>
            <LineString id="73931">
                <coordinates>107.6030728,-6.9373193,0.0 107.6029983,-6.9373153,0.0</coordinates>
            </LineString>
        </Placemark>
        <Placemark id="73936">
            <name>Jalan Leuwi Panjang</name>
            <styleUrl>#73937</styleUrl>
            <LineString id="73935">
                <coordinates>107.5969723,-6.9383546,0.0 107.5968615,-6.9387441,0.0 107.5968452,-6.9388088,0.0 107.5968139,-6.9389435,0.0 107.5967878,-6.9390978,0.0 107.5966221,-6.9399458,0.0 107.5966054,-6.9400414,0.0 107.5966114,-6.9401199,0.0 107.5966329,-6.9401738,0.0 107.5966745,-6.9402803,0.0 107.5966973,-6.9403529,0.0 107.5967087,-6.9404168,0.0 107.5967033,-6.940486,0.0 107.5965833,-6.9410971,0.0 107.5965417,-6.9412841,0.0 107.5964954,-6.9414186,0.0 107.5964519,-6.9415138,0.0 107.5963654,-6.9416968,0.0 107.5962371,-6.9419225,0.0 107.596167,-6.9420457,0.0 107.5961146,-6.942194,0.0 107.5960889,-6.9422916,0.0 107.5960698,-6.9423867,0.0 107.5960376,-6.9425466,0.0 107.595975,-6.942858,0.0 107.5959473,-6.9430231,0.0 107.5959444,-6.9430421,0.0 107.5958988,-6.9432792,0.0 107.5957265,-6.944081,0.0 107.5957205,-6.9441083,0.0 107.5956449,-6.9446452,0.0 107.595546,-6.9450223,0.0 107.5954987,-6.9452012,0.0 107.5954628,-6.9453245,0.0 107.5954333,-6.945459,0.0 107.5954118,-6.9455715,0.0 107.5953998,-6.9456593,0.0 107.5953844,-6.9458471,0.0 107.5953773,-6.945973,0.0</coordinates>
            </LineString>
        </Placemark>
        <Placemark id="73940">
            <name>Jalan Leuwi Panjang</name>
            <styleUrl>#73941</styleUrl>
            <LineString id="73939">
                <coordinates>107.5953773,-6.945973,0.0 107.5953699,-6.9460639,0.0 107.5953572,-6.9462205,0.0 107.5953554,-6.946242,0.0 107.5952938,-6.9469212,0.0</coordinates>
            </LineString>
        </Placemark>
        <Placemark id="73944">
            <name>Jalan Peta</name>
            <styleUrl>#73945</styleUrl>
            <LineString id="73943">
                <coordinates>107.6021772,-6.9372552,0.0 107.602016,-6.9372409,0.0 107.6019146,-6.9372385,0.0 107.601703,-6.9372304,0.0 107.6014696,-6.937233,0.0 107.6010236,-6.9372742,0.0 107.6000125,-6.9374564,0.0 107.5998296,-6.9374914,0.0 107.5994727,-6.9375618,0.0</coordinates>
            </LineString>
        </Placemark>
        <Placemark id="73948">
            <name>Route Segment</name>
            <styleUrl>#73949</styleUrl>
            <LineString id="73947">
                <coordinates>107.541957,-6.9657637,0.0 107.5417784,-6.9656325,0.0 107.5415289,-6.9654328,0.0 107.5413613,-6.965285,0.0 107.5411992,-6.9650944,0.0 107.5410743,-6.9649031,0.0 107.5408443,-6.964541,0.0</coordinates>
            </LineString>
        </Placemark>
        <Placemark id="73952">
            <name>Jalan Taman Kopo Indah 3</name>
            <styleUrl>#73953</styleUrl>
            <LineString id="73951">
                <coordinates>107.5480748,-6.9726218,0.0 107.5479997,-6.9727253,0.0</coordinates>
            </LineString>
        </Placemark>
        <Placemark id="73956">
            <name>Route Segment</name>
            <styleUrl>#73957</styleUrl>
            <LineString id="73955">
                <coordinates>107.5415216,-6.9698412,0.0 107.5408315,-6.9703037,0.0</coordinates>
            </LineString>
        </Placemark>
        <Placemark id="73960">
            <name>Jalan Peta</name>
            <styleUrl>#73961</styleUrl>
            <LineString id="73959">
                <coordinates>107.5994727,-6.9375618,0.0 107.5993708,-6.9375805,0.0</coordinates>
            </LineString>
        </Placemark>
        <Placemark id="73964">
            <name>Jalan Peta</name>
            <styleUrl>#73965</styleUrl>
            <LineString id="73963">
                <coordinates>107.5993708,-6.9375805,0.0 107.5988884,-6.9376814,0.0 107.5984434,-6.9377562,0.0 107.5983423,-6.9377695,0.0 107.5980891,-6.9378047,0.0 107.5978299,-6.9378174,0.0 107.5975831,-6.9378255,0.0 107.5972383,-6.9378114,0.0 107.5971376,-6.937801,0.0</coordinates>
            </LineString>
        </Placemark>
        <Placemark id="73968">
            <name>Route Segment</name>
            <styleUrl>#73969</styleUrl>
            <LineString id="73967">
                <coordinates>107.5485107,-6.9691934,0.0 107.5481634,-6.9690111,0.0</coordinates>
            </LineString>
        </Placemark>
        <Placemark id="73972">
            <name>Route Segment</name>
            <styleUrl>#73973</styleUrl>
            <LineString id="73971">
                <coordinates>107.5505304,-6.9701787,0.0 107.5493039,-6.9695825,0.0</coordinates>
            </LineString>
        </Placemark>
        <Placemark id="73976">
            <name>Route Segment</name>
            <styleUrl>#73977</styleUrl>
            <LineString id="73975">
                <coordinates>107.5408226,-6.9644199,0.0 107.5405482,-6.9644546,0.0 107.5403267,-6.9645326,0.0 107.5402485,-6.9645536,0.0 107.5400969,-6.9645459,0.0 107.5400027,-6.964536,0.0 107.5399428,-6.9645442,0.0 107.5398557,-6.9645672,0.0 107.5398096,-6.9646035,0.0 107.5397701,-6.9646624,0.0 107.5397383,-6.9647818,0.0 107.5397269,-6.9649186,0.0 107.5397466,-6.965072,0.0 107.5397855,-6.9652058,0.0 107.5399196,-6.96555,0.0 107.5400484,-6.965936,0.0 107.5404909,-6.9670995,0.0 107.5406465,-6.9674802,0.0 107.5407886,-6.9678552,0.0 107.5409797,-6.9684267,0.0 107.5412071,-6.9690124,0.0 107.5413264,-6.9693452,0.0 107.5414116,-6.9695129,0.0 107.5414941,-6.9696454,0.0 107.5415444,-6.9697334,0.0 107.54158,-6.9697986,0.0</coordinates>
            </LineString>
        </Placemark>
        <Placemark id="73980">
            <name>Route Segment</name>
            <styleUrl>#73981</styleUrl>
            <LineString id="73979">
                <coordinates>107.5406336,-6.9707629,0.0 107.5407205,-6.9707647,0.0 107.5409382,-6.9707276,0.0</coordinates>
            </LineString>
        </Placemark>
        <Placemark id="73984">
            <name>Jalan Terusan Holis</name>
            <styleUrl>#73985</styleUrl>
            <LineString id="73983">
                <coordinates>107.5688884,-6.9464275,0.0 107.5688975,-6.9465081,0.0 107.5688995,-6.9466225,0.0 107.5688995,-6.9467876,0.0 107.5688908,-6.9470139,0.0 107.5688835,-6.9471191,0.0 107.5688747,-6.9474322,0.0 107.5688767,-6.9476684,0.0 107.5688751,-6.9481471,0.0 107.5688782,-6.9484434,0.0 107.5688761,-6.9485498,0.0 107.5688566,-6.9487172,0.0 107.5688163,-6.9489928,0.0 107.5687882,-6.9491599,0.0 107.5687695,-6.9492783,0.0 107.5687439,-6.9494288,0.0 107.5687325,-6.9494851,0.0 107.568724,-6.9495311,0.0</coordinates>
            </LineString>
        </Placemark>
        <Placemark id="73988">
            <name>Jalan Terusan Holis</name>
            <styleUrl>#73989</styleUrl>
            <LineString id="73987">
                <coordinates>107.5677781,-6.945888,0.0 107.5678159,-6.9459263,0.0 107.5678307,-6.9459389,0.0 107.5678492,-6.9459484,0.0 107.5680452,-6.9460242,0.0 107.5681063,-6.9460444,0.0 107.5683091,-6.9461163,0.0 107.5683262,-6.9461213,0.0 107.5683413,-6.9461276,0.0 107.5684979,-6.9462058,0.0 107.5687118,-6.9463037,0.0 107.5688231,-6.9463609,0.0 107.5688499,-6.9463763,0.0 107.5688747,-6.9463968,0.0 107.5688834,-6.9464118,0.0 107.5688884,-6.9464275,0.0</coordinates>
            </LineString>
        </Placemark>
        <Placemark id="73992">
            <name>Jalan Terusan Holis</name>
            <styleUrl>#73993</styleUrl>
            <LineString id="73991">
                <coordinates>107.5672604,-6.9424065,0.0 107.5672977,-6.942465,0.0 107.5673282,-6.9425024,0.0 107.5676969,-6.9428338,0.0 107.5677878,-6.9429307,0.0 107.5679071,-6.9430434,0.0 107.5680627,-6.9431878,0.0 107.5681353,-6.9432567,0.0 107.5681988,-6.9433123,0.0 107.5682619,-6.9433753,0.0 107.5683349,-6.9434521,0.0 107.5683765,-6.943494,0.0 107.5684134,-6.9435486,0.0 107.5684402,-6.9436218,0.0</coordinates>
            </LineString>
        </Placemark>
        <Placemark id="73996">
            <name>Jalan Cicukang</name>
            <styleUrl>#73997</styleUrl>
            <LineString id="73995">
                <coordinates>107.5491632,-6.9734406,0.0 107.5489178,-6.9733028,0.0 107.5487541,-6.9732113,0.0 107.5486693,-6.9731584,0.0 107.5486039,-6.9731145,0.0 107.5484492,-6.973009,0.0 107.5484117,-6.9729811,0.0 107.5482618,-6.9728801,0.0 107.5479997,-6.9727253,0.0</coordinates>
            </LineString>
        </Placemark>
        <Placemark id="74000">
            <name>Jalan Cicukang</name>
            <styleUrl>#74001</styleUrl>
            <LineString id="73999">
                <coordinates>107.5492812,-6.9735019,0.0 107.5491632,-6.9734406,0.0</coordinates>
            </LineString>
        </Placemark>
        <Placemark id="74004">
            <name>Jalan Tengah</name>
            <styleUrl>#74005</styleUrl>
            <LineString id="74003">
                <coordinates>107.5526811,-6.9766551,0.0 107.5529767,-6.9761338,0.0 107.5530324,-6.976043,0.0 107.5533231,-6.9755951,0.0 107.5534808,-6.9753362,0.0 107.5535398,-6.9752304,0.0 107.553674,-6.9749854,0.0 107.5540843,-6.9742267,0.0 107.5542842,-6.9738746,0.0 107.5544357,-6.973589,0.0 107.5544643,-6.9735358,0.0 107.5546024,-6.9732971,0.0 107.5547116,-6.9731072,0.0</coordinates>
            </LineString>
        </Placemark>
        <Placemark id="74008">
            <name>Jalan Tengah</name>
            <styleUrl>#74009</styleUrl>
            <LineString id="74007">
                <coordinates>107.5554536,-6.972186,0.0 107.5554952,-6.9721687,0.0 107.5557728,-6.9718945,0.0 107.5558167,-6.9718511,0.0 107.5558633,-6.9718146,0.0 107.5559204,-6.9717853,0.0 107.5559781,-6.9717757,0.0 107.5560518,-6.971776,0.0 107.5562087,-6.9717773,0.0 107.5563964,-6.9718053,0.0 107.5565606,-6.9718577,0.0</coordinates>
            </LineString>
        </Placemark>
        <Placemark id="74012">
            <name>Route Segment</name>
            <styleUrl>#74013</styleUrl>
            <LineString id="74011">
                <coordinates>107.5464501,-6.968116,0.0 107.5455028,-6.9676275,0.0</coordinates>
            </LineString>
        </Placemark>
        <Placemark id="74016">
            <name>Route Segment</name>
            <styleUrl>#74017</styleUrl>
            <LineString id="74015">
                <coordinates>107.5481634,-6.9690111,0.0 107.5464501,-6.968116,0.0</coordinates>
            </LineString>
        </Placemark>
        <Placemark id="74020">
            <name>Jalan Tengah</name>
            <styleUrl>#74021</styleUrl>
            <LineString id="74019">
                <coordinates>107.5547116,-6.9731072,0.0 107.5547747,-6.9730025,0.0 107.5548568,-6.9728662,0.0 107.5548877,-6.972785,0.0 107.5549078,-6.9726865,0.0 107.5549287,-6.9725191,0.0 107.5549663,-6.9722658,0.0 107.5549896,-6.9721767,0.0 107.555017,-6.9721257,0.0 107.5550553,-6.9720822,0.0</coordinates>
            </LineString>
        </Placemark>
        <Placemark id="74024">
            <name>Jalan Burujul</name>
            <styleUrl>#74025</styleUrl>
            <LineString id="74023">
                <coordinates>107.5565606,-6.9718577,0.0 107.5566083,-6.9717342,0.0 107.5566622,-6.9716081,0.0 107.5567148,-6.9714954,0.0 107.5567506,-6.97143,0.0 107.5567867,-6.971374,0.0 107.556839,-6.9713087,0.0 107.5569282,-6.9712023,0.0 107.5570375,-6.9710726,0.0 107.5572505,-6.9708013,0.0 107.5574676,-6.9705417,0.0 107.5575141,-6.9704898,0.0 107.5577885,-6.9702149,0.0 107.5580192,-6.9699843,0.0</coordinates>
            </LineString>
        </Placemark>
        <Placemark id="74028">
            <name>Jalan Cicukang</name>
            <styleUrl>#74029</styleUrl>
            <LineString id="74027">
                <coordinates>107.5507372,-6.9750709,0.0 107.5507459,-6.9750145,0.0 107.5507591,-6.9749491,0.0 107.5507705,-6.9748996,0.0 107.5507777,-6.974851,0.0 107.550751,-6.9747479,0.0 107.5507304,-6.9746926,0.0 107.5507025,-6.9746272,0.0</coordinates>
            </LineString>
        </Placemark>
        <Placemark id="74032">
            <name>Jalan Cicukang</name>
            <styleUrl>#74033</styleUrl>
            <LineString id="74031">
                <coordinates>107.5507025,-6.9746272,0.0 107.5506666,-6.9745786,0.0 107.5506098,-6.9745204,0.0 107.5504217,-6.9743952,0.0 107.5502931,-6.9743159,0.0 107.5501349,-6.9742153,0.0 107.5500409,-6.9741435,0.0 107.5499484,-6.974055,0.0 107.5498793,-6.9739758,0.0 107.5497777,-6.9738456,0.0 107.5496252,-6.9736989,0.0 107.549542,-6.9736416,0.0 107.5494864,-6.9736097,0.0 107.5494032,-6.9735638,0.0 107.5493189,-6.9735204,0.0 107.5492812,-6.9735019,0.0</coordinates>
            </LineString>
        </Placemark>
        <Placemark id="74036">
            <name>Jalan Tengah</name>
            <styleUrl>#74037</styleUrl>
            <LineString id="74035">
                <coordinates>107.5550553,-6.9720822,0.0 107.5550685,-6.9720722,0.0 107.5550866,-6.9720646,0.0 107.5550997,-6.9720629,0.0 107.5551125,-6.9720649,0.0 107.555404,-6.9721846,0.0 107.5554536,-6.972186,0.0</coordinates>
            </LineString>
        </Placemark>
        <Placemark id="74040">
            <name>Route Segment</name>
            <styleUrl>#74041</styleUrl>
            <LineString id="74039">
                <coordinates>107.5408315,-6.9703037,0.0 107.5407651,-6.970351,0.0 107.5407282,-6.9703895,0.0 107.5407042,-6.9704288,0.0 107.5406892,-6.9704807,0.0 107.5406599,-6.970594,0.0 107.5406336,-6.9707629,0.0</coordinates>
            </LineString>
        </Placemark>
        <Placemark id="74044">
            <name>Route Segment</name>
            <styleUrl>#74045</styleUrl>
            <LineString id="74043">
                <coordinates>107.5493039,-6.9695825,0.0 107.5492555,-6.9695583,0.0 107.5485107,-6.9691934,0.0</coordinates>
            </LineString>
        </Placemark>
        <Placemark id="74048">
            <name>Route Segment</name>
            <styleUrl>#74049</styleUrl>
            <LineString id="74047">
                <coordinates>107.54158,-6.9697986,0.0 107.5415216,-6.9698412,0.0</coordinates>
            </LineString>
        </Placemark>
        <Placemark id="74052">
            <name>Jalan Caringin</name>
            <styleUrl>#74053</styleUrl>
            <LineString id="74051">
                <coordinates>107.5698621,-6.9404542,0.0 107.5699154,-6.9404816,0.0</coordinates>
            </LineString>
        </Placemark>
        <Placemark id="74056">
            <name>Jalan Caringin</name>
            <styleUrl>#74057</styleUrl>
            <LineString id="74055">
                <coordinates>107.5685684,-6.9399332,0.0 107.5691931,-6.9401776,0.0 107.5695314,-6.940319,0.0 107.5698126,-6.9404303,0.0 107.5698621,-6.9404542,0.0</coordinates>
            </LineString>
        </Placemark>
        <Placemark id="74060">
            <name>Route Segment</name>
            <styleUrl>#74061</styleUrl>
            <LineString id="74059">
                <coordinates>107.5685684,-6.9399332,0.0 107.5681769,-6.9404592,0.0 107.5680916,-6.9405928,0.0 107.5680264,-6.9407297,0.0 107.5678519,-6.9411788,0.0 107.5677943,-6.9413147,0.0 107.5676348,-6.9416649,0.0 107.5675716,-6.9418088,0.0 107.5674965,-6.9419795,0.0 107.5672604,-6.9424065,0.0</coordinates>
            </LineString>
        </Placemark>
        <Placemark id="74064">
            <name>Jalan Caringin</name>
            <styleUrl>#74065</styleUrl>
            <LineString id="74063">
                <coordinates>107.5767425,-6.9431441,0.0 107.5768726,-6.9431735,0.0 107.5770442,-6.9432234,0.0 107.5772027,-6.9432793,0.0 107.5776395,-6.9434434,0.0 107.5777263,-6.9434805,0.0 107.5779238,-6.9435553,0.0 107.5781639,-6.9436591,0.0 107.5782919,-6.9437034,0.0</coordinates>
            </LineString>
        </Placemark>
        <Placemark id="74068">
            <name>Jalan Caringin</name>
            <styleUrl>#74069</styleUrl>
            <LineString id="74067">
                <coordinates>107.5860591,-6.9463521,0.0 107.5860161,-6.9463406,0.0 107.58576,-6.9462721,0.0 107.5857209,-6.9462616,0.0 107.5855655,-6.9462201,0.0 107.5854608,-6.9461921,0.0 107.5853214,-6.9461542,0.0 107.585238,-6.9461305,0.0 107.5851148,-6.946098,0.0 107.5850822,-6.946091,0.0 107.5846307,-6.9459596,0.0 107.5844601,-6.9458999,0.0 107.5844085,-6.9458827,0.0 107.584196,-6.9458091,0.0 107.5841436,-6.945791,0.0</coordinates>
            </LineString>
        </Placemark>
        <Placemark id="74072">
            <name>Jalan Otto Iskandardinata</name>
            <styleUrl>#74073</styleUrl>
            <LineString id="74071">
                <coordinates>107.6031033,-6.9370152,0.0 107.6030927,-6.9371305,0.0 107.603088,-6.9372221,0.0</coordinates>
            </LineString>
        </Placemark>
        <Placemark id="74076">
            <name>Jalan Taman Kopo Indah 3</name>
            <styleUrl>#74077</styleUrl>
            <LineString id="74075">
                <coordinates>107.5490975,-6.9711742,0.0 107.549143,-6.9711245,0.0 107.549208,-6.971074,0.0 107.549255,-6.9710413,0.0 107.5493442,-6.970988,0.0</coordinates>
            </LineString>
        </Placemark>
        <Placemark id="74080">
            <name>Jalan Taman Kopo Indah 3</name>
            <styleUrl>#74081</styleUrl>
            <LineString id="74079">
                <coordinates>107.5480758,-6.9725425,0.0 107.5487446,-6.9716498,0.0 107.5488798,-6.9714675,0.0 107.5489997,-6.9713041,0.0 107.5490975,-6.9711742,0.0</coordinates>
            </LineString>
        </Placemark>
        <Placemark id="74084">
            <name>Jalan Leuwi Panjang</name>
            <styleUrl>#74085</styleUrl>
            <LineString id="74083">
                <coordinates>107.5952938,-6.9469212,0.0 107.5952796,-6.9471244,0.0 107.5952745,-6.9472037,0.0</coordinates>
            </LineString>
        </Placemark>
        <Placemark id="74088">
            <name>Jalan Otto Iskandardinata</name>
            <styleUrl>#74089</styleUrl>
            <LineString id="74087">
                <coordinates>107.6031782,-6.9351372,0.0 107.6032137,-6.9352454,0.0 107.6032252,-6.9353491,0.0 107.6032238,-6.935481,0.0</coordinates>
            </LineString>
        </Placemark>
        <Placemark id="74092">
            <name>Jalan Otto Iskandardinata</name>
            <styleUrl>#74093</styleUrl>
            <LineString id="74091">
                <coordinates>107.6031505,-6.9365689,0.0 107.6031322,-6.9367751,0.0 107.6031033,-6.9370152,0.0</coordinates>
            </LineString>
        </Placemark>
        <Placemark id="74096">
            <name>Jalan Otto Iskandardinata</name>
            <styleUrl>#74097</styleUrl>
            <LineString id="74095">
                <coordinates>107.6032159,-6.9342862,0.0 107.6031855,-6.9349893,0.0 107.6031782,-6.9351372,0.0</coordinates>
            </LineString>
        </Placemark>
        <Placemark id="74100">
            <name>Jalan Leuwi Panjang</name>
            <styleUrl>#74101</styleUrl>
            <LineString id="74099">
                <coordinates>107.5971376,-6.937801,0.0 107.5969723,-6.9383546,0.0</coordinates>
            </LineString>
        </Placemark>
        <Placemark id="74104">
            <name>Route Segment</name>
            <styleUrl>#74105</styleUrl>
            <LineString id="74103">
                <coordinates>107.5505855,-6.9703788,0.0 107.550604,-6.9703239,0.0 107.5505955,-6.9702712,0.0 107.5505304,-6.9701787,0.0</coordinates>
            </LineString>
        </Placemark>
        <Placemark id="74108">
            <name>Route Segment</name>
            <styleUrl>#74109</styleUrl>
            <LineString id="74107">
                <coordinates>107.5422244,-6.965925,0.0 107.541957,-6.9657637,0.0</coordinates>
            </LineString>
        </Placemark>
        <Placemark id="74112">
            <name>Route Segment</name>
            <styleUrl>#74113</styleUrl>
            <LineString id="74111">
                <coordinates>107.5422781,-6.9659497,0.0 107.5422244,-6.965925,0.0</coordinates>
            </LineString>
        </Placemark>
        <Placemark id="74116">
            <name>Route Segment</name>
            <styleUrl>#74117</styleUrl>
            <LineString id="74115">
                <coordinates>107.5425873,-6.9661269,0.0 107.5422781,-6.9659497,0.0</coordinates>
            </LineString>
        </Placemark>
        <Placemark id="74120">
            <name>Route Segment</name>
            <styleUrl>#74121</styleUrl>
            <LineString id="74119">
                <coordinates>107.5455028,-6.9676275,0.0 107.5425873,-6.9661269,0.0</coordinates>
            </LineString>
        </Placemark>
        <Placemark id="74124">
            <name>Jalan Taman Kopo Indah 3</name>
            <styleUrl>#74125</styleUrl>
            <LineString id="74123">
                <coordinates>107.5493442,-6.970988,0.0 107.5499305,-6.9707047,0.0 107.549994,-6.9706722,0.0 107.5505855,-6.9703788,0.0</coordinates>
            </LineString>
        </Placemark>
        <Placemark id="74128">
            <name>Route Segment</name>
            <styleUrl>#74129</styleUrl>
            <LineString id="74127">
                <coordinates>107.5408443,-6.964541,0.0 107.5408226,-6.9644199,0.0</coordinates>
            </LineString>
        </Placemark>
        <Placemark id="74132">
            <name>Route Segment</name>
            <styleUrl>#74133</styleUrl>
            <LineString id="74131">
                <coordinates>107.589865,-6.9458161,0.0 107.5897952,-6.9458,0.0 107.5897588,-6.9457958,0.0 107.5897153,-6.9457947,0.0 107.5896789,-6.9458028,0.0 107.5896329,-6.9458203,0.0 107.5895627,-6.9458537,0.0 107.5894961,-6.9459067,0.0</coordinates>
            </LineString>
        </Placemark>
        <Placemark id="74136">
            <name>Jalan Soekarno-Hatta</name>
            <styleUrl>#74137</styleUrl>
            <LineString id="74135">
                <coordinates>107.5904505,-6.9460588,0.0 107.5903535,-6.9460161,0.0 107.5901033,-6.9459059,0.0 107.589865,-6.9458161,0.0</coordinates>
            </LineString>
        </Placemark>
        <Placemark id="74140">
            <name>Jalan Leuwi Panjang</name>
            <styleUrl>#74141</styleUrl>
            <LineString id="74139">
                <coordinates>107.5952745,-6.9472037,0.0 107.5952613,-6.9473935,0.0</coordinates>
            </LineString>
        </Placemark>
        <Placemark id="74144">
            <name>Jalan Soekarno-Hatta</name>
            <styleUrl>#74145</styleUrl>
            <LineString id="74143">
                <coordinates>107.5951905,-6.9473813,0.0 107.5950491,-6.9473517,0.0 107.5950013,-6.9473417,0.0</coordinates>
            </LineString>
        </Placemark>
        <Placemark id="74148">
            <name>Jalan Caringin</name>
            <styleUrl>#74149</styleUrl>
            <LineString id="74147">
                <coordinates>107.5887787,-6.9469287,0.0 107.5887556,-6.9469221,0.0 107.5887425,-6.946918,0.0 107.5884884,-6.9468382,0.0 107.5882168,-6.9467643,0.0 107.5880465,-6.9467243,0.0 107.5879339,-6.9467105,0.0</coordinates>
            </LineString>
        </Placemark>
        <Placemark id="74152">
            <name>Jalan Soekarno-Hatta</name>
            <styleUrl>#74153</styleUrl>
            <LineString id="74151">
                <coordinates>107.5952613,-6.9473935,0.0 107.5951905,-6.9473813,0.0</coordinates>
            </LineString>
        </Placemark>
        <Placemark id="74156">
            <name>Jalan Soekarno-Hatta</name>
            <styleUrl>#74157</styleUrl>
            <LineString id="74155">
                <coordinates>107.5950013,-6.9473417,0.0 107.5949328,-6.9473294,0.0 107.5947235,-6.9472941,0.0 107.5941295,-6.9471881,0.0</coordinates>
            </LineString>
        </Placemark>
        <Placemark id="74160">
            <name>Route Segment</name>
            <styleUrl>#74161</styleUrl>
            <LineString id="74159">
                <coordinates>107.6028846,-6.934073,0.0 107.6032159,-6.9342862,0.0</coordinates>
            </LineString>
        </Placemark>
        <Placemark id="74164">
            <name>Jalan Kyai Haji Wahid Hasyim</name>
            <styleUrl>#74165</styleUrl>
            <LineString id="74163">
                <coordinates>107.5894961,-6.9459067,0.0 107.5894312,-6.9459422,0.0</coordinates>
            </LineString>
        </Placemark>
        <Placemark id="74168">
            <name>Route Segment</name>
            <styleUrl>#74169</styleUrl>
            <LineString id="74167">
                <coordinates>107.5637249,-6.9529069,0.0 107.5632644,-6.9526846,0.0 107.5630911,-6.9526029,0.0 107.5630578,-6.9525884,0.0</coordinates>
            </LineString>
        </Placemark>
        <Placemark id="74172">
            <name>Jalan Cicukang</name>
            <styleUrl>#74173</styleUrl>
            <LineString id="74171">
                <coordinates>107.5526811,-6.9766551,0.0 107.5525521,-6.9765835,0.0 107.5524428,-6.9765303,0.0 107.5523235,-6.9764657,0.0 107.5522309,-6.9764178,0.0 107.5521344,-6.9763592,0.0 107.5520806,-6.9763242,0.0 107.5520038,-6.9762592,0.0 107.5519219,-6.9761825,0.0 107.5518416,-6.9760992,0.0 107.5517053,-6.9759373,0.0 107.5515896,-6.9758268,0.0 107.5515269,-6.9757677,0.0 107.5514323,-6.9756824,0.0 107.5513478,-6.9755995,0.0 107.5511923,-6.9754797,0.0 107.5510294,-6.9753648,0.0 107.5510024,-6.9753458,0.0 107.550793,-6.9751925,0.0 107.5507524,-6.9751345,0.0 107.5507372,-6.9750709,0.0</coordinates>
            </LineString>
        </Placemark>
        <Placemark id="74176">
            <name>Jalan Taman Kopo Indah 3</name>
            <styleUrl>#74177</styleUrl>
            <LineString id="74175">
                <coordinates>107.5480748,-6.9726218,0.0 107.5480758,-6.9725425,0.0</coordinates>
            </LineString>
        </Placemark>
        <Placemark id="74180">
            <name>Route Segment</name>
            <styleUrl>#74181</styleUrl>
            <LineString id="74179">
                <coordinates>107.5614515,-6.9631455,0.0 107.561506,-6.9630666,0.0</coordinates>
            </LineString>
        </Placemark>
        <Placemark id="74184">
            <name>Jalan Cigondewah Kaler</name>
            <styleUrl>#74185</styleUrl>
            <LineString id="74183">
                <coordinates>107.5653879,-6.9491371,0.0 107.5654194,-6.9491971,0.0 107.5654262,-6.9492956,0.0 107.5654314,-6.9493835,0.0 107.5654286,-6.949452,0.0 107.5654127,-6.9496658,0.0 107.5653707,-6.9499532,0.0 107.5653148,-6.950326,0.0 107.565233,-6.9505443,0.0 107.5651431,-6.9507054,0.0 107.5649467,-6.951013,0.0 107.5649074,-6.9510753,0.0 107.5648047,-6.9512326,0.0 107.564647,-6.9514718,0.0 107.5645292,-6.9516504,0.0 107.5643974,-6.9518503,0.0</coordinates>
            </LineString>
        </Placemark>
        <Placemark id="74188">
            <name>Jalan Caringin</name>
            <styleUrl>#74189</styleUrl>
            <LineString id="74187">
                <coordinates>107.5879339,-6.9467105,0.0 107.5878145,-6.9466985,0.0 107.5876442,-6.9466779,0.0 107.5873538,-6.946648,0.0 107.5872231,-6.9466332,0.0 107.5869092,-6.9465759,0.0 107.5866933,-6.9465307,0.0 107.5864184,-6.9464481,0.0 107.5863678,-6.9464346,0.0 107.5861181,-6.9463679,0.0</coordinates>
            </LineString>
        </Placemark>
        <Placemark id="74192">
            <name>Jalan Caringin</name>
            <styleUrl>#74193</styleUrl>
            <LineString id="74191">
                <coordinates>107.5861181,-6.9463679,0.0 107.5860591,-6.9463521,0.0</coordinates>
            </LineString>
        </Placemark>
        <Placemark id="74196">
            <name>Jalan Cibolerang</name>
            <styleUrl>#74197</styleUrl>
            <LineString id="74195">
                <coordinates>107.5653879,-6.9491371,0.0 107.5654194,-6.9490853,0.0 107.565473,-6.9489985,0.0 107.5656017,-6.9487638,0.0 107.5656272,-6.9487555,0.0 107.5656413,-6.9487538,0.0 107.565655,-6.9487566,0.0</coordinates>
            </LineString>
        </Placemark>
        <Placemark id="74200">
            <name>Jalan Peta</name>
            <styleUrl>#74201</styleUrl>
            <LineString id="74199">
                <coordinates>107.6029983,-6.9373153,0.0 107.6028855,-6.9373037,0.0 107.6028514,-6.9373009,0.0 107.6021772,-6.9372552,0.0</coordinates>
            </LineString>
        </Placemark>
        <Placemark id="74204">
            <name>Jalan Kyai Haji Wahid Hasyim</name>
            <styleUrl>#74205</styleUrl>
            <LineString id="74203">
                <coordinates>107.5894312,-6.9459422,0.0 107.5893766,-6.9460274,0.0 107.5892156,-6.9462748,0.0</coordinates>
            </LineString>
        </Placemark>
    </Document>
</kml>
