<?xml version="1.0" encoding="UTF-8"?>
<kml xmlns="http://www.opengis.net/kml/2.2" xmlns:gx="http://www.google.com/kml/ext/2.2">
    <Document id="70420">
        <Style id="70426">
            <IconStyle id="70427">
                <colorMode>normal</colorMode>
                <scale>1</scale>
                <heading>0</heading>
                <Icon id="70428">
                    <href>http://maps.google.com/mapfiles/kml/pushpin/ylw-pushpin.png</href>
                </Icon>
            </IconStyle>
        </Style>
        <Style id="70431">
            <IconStyle id="70432">
                <colorMode>normal</colorMode>
                <scale>1</scale>
                <heading>0</heading>
                <Icon id="70433">
                    <href>http://maps.google.com/mapfiles/kml/pushpin/ylw-pushpin.png</href>
                </Icon>
            </IconStyle>
        </Style>
        <Style id="70436">
            <LineStyle id="70437">
                <color>ff0027ff</color>
                <colorMode>normal</colorMode>
                <width>4</width>
            </LineStyle>
        </Style>
        <Style id="70440">
            <LineStyle id="70441">
                <color>ff0027ff</color>
                <colorMode>normal</colorMode>
                <width>4</width>
            </LineStyle>
        </Style>
        <Style id="70444">
            <LineStyle id="70445">
                <color>ff0027ff</color>
                <colorMode>normal</colorMode>
                <width>4</width>
            </LineStyle>
        </Style>
        <Style id="70448">
            <LineStyle id="70449">
                <color>ff0027ff</color>
                <colorMode>normal</colorMode>
                <width>4</width>
            </LineStyle>
        </Style>
        <Style id="70452">
            <LineStyle id="70453">
                <color>ff0027ff</color>
                <colorMode>normal</colorMode>
                <width>4</width>
            </LineStyle>
        </Style>
        <Style id="70456">
            <LineStyle id="70457">
                <color>ff0027ff</color>
                <colorMode>normal</colorMode>
                <width>4</width>
            </LineStyle>
        </Style>
        <Style id="70460">
            <LineStyle id="70461">
                <color>ff0027ff</color>
                <colorMode>normal</colorMode>
                <width>4</width>
            </LineStyle>
        </Style>
        <Style id="70464">
            <LineStyle id="70465">
                <color>ff0027ff</color>
                <colorMode>normal</colorMode>
                <width>4</width>
            </LineStyle>
        </Style>
        <Style id="70468">
            <LineStyle id="70469">
                <color>ff0027ff</color>
                <colorMode>normal</colorMode>
                <width>4</width>
            </LineStyle>
        </Style>
        <Style id="70472">
            <LineStyle id="70473">
                <color>ff0027ff</color>
                <colorMode>normal</colorMode>
                <width>4</width>
            </LineStyle>
        </Style>
        <Style id="70476">
            <LineStyle id="70477">
                <color>ff0027ff</color>
                <colorMode>normal</colorMode>
                <width>4</width>
            </LineStyle>
        </Style>
        <Style id="70480">
            <LineStyle id="70481">
                <color>ff0027ff</color>
                <colorMode>normal</colorMode>
                <width>4</width>
            </LineStyle>
        </Style>
        <Style id="70484">
            <LineStyle id="70485">
                <color>ff0027ff</color>
                <colorMode>normal</colorMode>
                <width>4</width>
            </LineStyle>
        </Style>
        <Style id="70488">
            <LineStyle id="70489">
                <color>ff0027ff</color>
                <colorMode>normal</colorMode>
                <width>4</width>
            </LineStyle>
        </Style>
        <Style id="70492">
            <LineStyle id="70493">
                <color>ff0027ff</color>
                <colorMode>normal</colorMode>
                <width>4</width>
            </LineStyle>
        </Style>
        <Style id="70496">
            <LineStyle id="70497">
                <color>ff0027ff</color>
                <colorMode>normal</colorMode>
                <width>4</width>
            </LineStyle>
        </Style>
        <Style id="70500">
            <LineStyle id="70501">
                <color>ff0027ff</color>
                <colorMode>normal</colorMode>
                <width>4</width>
            </LineStyle>
        </Style>
        <Style id="70504">
            <LineStyle id="70505">
                <color>ff0027ff</color>
                <colorMode>normal</colorMode>
                <width>4</width>
            </LineStyle>
        </Style>
        <Style id="70508">
            <LineStyle id="70509">
                <color>ff0027ff</color>
                <colorMode>normal</colorMode>
                <width>4</width>
            </LineStyle>
        </Style>
        <Style id="70512">
            <LineStyle id="70513">
                <color>ff0027ff</color>
                <colorMode>normal</colorMode>
                <width>4</width>
            </LineStyle>
        </Style>
        <Style id="70516">
            <LineStyle id="70517">
                <color>ff0027ff</color>
                <colorMode>normal</colorMode>
                <width>4</width>
            </LineStyle>
        </Style>
        <Style id="70520">
            <LineStyle id="70521">
                <color>ff0027ff</color>
                <colorMode>normal</colorMode>
                <width>4</width>
            </LineStyle>
        </Style>
        <Style id="70524">
            <LineStyle id="70525">
                <color>ff0027ff</color>
                <colorMode>normal</colorMode>
                <width>4</width>
            </LineStyle>
        </Style>
        <Style id="70528">
            <LineStyle id="70529">
                <color>ff0027ff</color>
                <colorMode>normal</colorMode>
                <width>4</width>
            </LineStyle>
        </Style>
        <Style id="70532">
            <LineStyle id="70533">
                <color>ff0027ff</color>
                <colorMode>normal</colorMode>
                <width>4</width>
            </LineStyle>
        </Style>
        <Style id="70536">
            <LineStyle id="70537">
                <color>ff0027ff</color>
                <colorMode>normal</colorMode>
                <width>4</width>
            </LineStyle>
        </Style>
        <Style id="70540">
            <LineStyle id="70541">
                <color>ff0027ff</color>
                <colorMode>normal</colorMode>
                <width>4</width>
            </LineStyle>
        </Style>
        <Style id="70544">
            <LineStyle id="70545">
                <color>ff0027ff</color>
                <colorMode>normal</colorMode>
                <width>4</width>
            </LineStyle>
        </Style>
        <Style id="70548">
            <LineStyle id="70549">
                <color>ff0027ff</color>
                <colorMode>normal</colorMode>
                <width>4</width>
            </LineStyle>
        </Style>
        <Style id="70552">
            <LineStyle id="70553">
                <color>ff0027ff</color>
                <colorMode>normal</colorMode>
                <width>4</width>
            </LineStyle>
        </Style>
        <Style id="70556">
            <LineStyle id="70557">
                <color>ff0027ff</color>
                <colorMode>normal</colorMode>
                <width>4</width>
            </LineStyle>
        </Style>
        <Style id="70560">
            <LineStyle id="70561">
                <color>ff0027ff</color>
                <colorMode>normal</colorMode>
                <width>4</width>
            </LineStyle>
        </Style>
        <Style id="70564">
            <LineStyle id="70565">
                <color>ff0027ff</color>
                <colorMode>normal</colorMode>
                <width>4</width>
            </LineStyle>
        </Style>
        <Style id="70568">
            <LineStyle id="70569">
                <color>ff0027ff</color>
                <colorMode>normal</colorMode>
                <width>4</width>
            </LineStyle>
        </Style>
        <Style id="70572">
            <LineStyle id="70573">
                <color>ff0027ff</color>
                <colorMode>normal</colorMode>
                <width>4</width>
            </LineStyle>
        </Style>
        <Style id="70576">
            <LineStyle id="70577">
                <color>ff0027ff</color>
                <colorMode>normal</colorMode>
                <width>4</width>
            </LineStyle>
        </Style>
        <Style id="70580">
            <LineStyle id="70581">
                <color>ff0027ff</color>
                <colorMode>normal</colorMode>
                <width>4</width>
            </LineStyle>
        </Style>
        <Style id="70584">
            <LineStyle id="70585">
                <color>ff0027ff</color>
                <colorMode>normal</colorMode>
                <width>4</width>
            </LineStyle>
        </Style>
        <Style id="70588">
            <LineStyle id="70589">
                <color>ff0027ff</color>
                <colorMode>normal</colorMode>
                <width>4</width>
            </LineStyle>
        </Style>
        <Style id="70592">
            <LineStyle id="70593">
                <color>ff0027ff</color>
                <colorMode>normal</colorMode>
                <width>4</width>
            </LineStyle>
        </Style>
        <Style id="70596">
            <LineStyle id="70597">
                <color>ff0027ff</color>
                <colorMode>normal</colorMode>
                <width>4</width>
            </LineStyle>
        </Style>
        <Style id="70600">
            <LineStyle id="70601">
                <color>ff0027ff</color>
                <colorMode>normal</colorMode>
                <width>4</width>
            </LineStyle>
        </Style>
        <Style id="70604">
            <LineStyle id="70605">
                <color>ff0027ff</color>
                <colorMode>normal</colorMode>
                <width>4</width>
            </LineStyle>
        </Style>
        <Style id="70608">
            <LineStyle id="70609">
                <color>ff0027ff</color>
                <colorMode>normal</colorMode>
                <width>4</width>
            </LineStyle>
        </Style>
        <Style id="70612">
            <LineStyle id="70613">
                <color>ff0027ff</color>
                <colorMode>normal</colorMode>
                <width>4</width>
            </LineStyle>
        </Style>
        <Style id="70616">
            <LineStyle id="70617">
                <color>ff0027ff</color>
                <colorMode>normal</colorMode>
                <width>4</width>
            </LineStyle>
        </Style>
        <Style id="70620">
            <LineStyle id="70621">
                <color>ff0027ff</color>
                <colorMode>normal</colorMode>
                <width>4</width>
            </LineStyle>
        </Style>
        <Style id="70624">
            <LineStyle id="70625">
                <color>ff0027ff</color>
                <colorMode>normal</colorMode>
                <width>4</width>
            </LineStyle>
        </Style>
        <Style id="70628">
            <LineStyle id="70629">
                <color>ff0027ff</color>
                <colorMode>normal</colorMode>
                <width>4</width>
            </LineStyle>
        </Style>
        <Style id="70632">
            <LineStyle id="70633">
                <color>ff0027ff</color>
                <colorMode>normal</colorMode>
                <width>4</width>
            </LineStyle>
        </Style>
        <Style id="70636">
            <LineStyle id="70637">
                <color>ff0027ff</color>
                <colorMode>normal</colorMode>
                <width>4</width>
            </LineStyle>
        </Style>
        <Style id="70640">
            <LineStyle id="70641">
                <color>ff0027ff</color>
                <colorMode>normal</colorMode>
                <width>4</width>
            </LineStyle>
        </Style>
        <Style id="70644">
            <LineStyle id="70645">
                <color>ff0027ff</color>
                <colorMode>normal</colorMode>
                <width>4</width>
            </LineStyle>
        </Style>
        <Style id="70648">
            <LineStyle id="70649">
                <color>ff0027ff</color>
                <colorMode>normal</colorMode>
                <width>4</width>
            </LineStyle>
        </Style>
        <Style id="70652">
            <LineStyle id="70653">
                <color>ff0027ff</color>
                <colorMode>normal</colorMode>
                <width>4</width>
            </LineStyle>
        </Style>
        <Style id="70656">
            <LineStyle id="70657">
                <color>ff0027ff</color>
                <colorMode>normal</colorMode>
                <width>4</width>
            </LineStyle>
        </Style>
        <Style id="70660">
            <LineStyle id="70661">
                <color>ff0027ff</color>
                <colorMode>normal</colorMode>
                <width>4</width>
            </LineStyle>
        </Style>
        <Style id="70664">
            <LineStyle id="70665">
                <color>ff0027ff</color>
                <colorMode>normal</colorMode>
                <width>4</width>
            </LineStyle>
        </Style>
        <ExtendedData>
            <Data name="route-name">
                <value>943: Cimahi → Padalarang</value>
            </Data>
            <Data name="source">
                <value>Transport for Bandung</value>
            </Data>
        </ExtendedData>
        <Placemark id="70425">
            <name>Pasar Antri</name>
            <styleUrl>#70426</styleUrl>
            <Point id="70424">
                <coordinates>107.5379919,-6.8807505,0.0</coordinates>
            </Point>
        </Placemark>
        <Placemark id="70430">
            <name>Simpang Pasar Tagog</name>
            <styleUrl>#70431</styleUrl>
            <Point id="70429">
                <coordinates>107.4850025,-6.8425857,0.0</coordinates>
            </Point>
        </Placemark>
        <Placemark id="70435">
            <name>Jalan Raya Purwakarta</name>
            <styleUrl>#70436</styleUrl>
            <LineString id="70434">
                <coordinates>107.484821,-6.8428924,0.0 107.4848596,-6.8428166,0.0 107.4848889,-6.8427625,0.0 107.4849302,-6.8426936,0.0 107.4850025,-6.8425857,0.0</coordinates>
            </LineString>
        </Placemark>
        <Placemark id="70439">
            <name>Jalan Kota Baru Parahyangan</name>
            <styleUrl>#70440</styleUrl>
            <LineString id="70438">
                <coordinates>107.4940543,-6.8517636,0.0 107.4940828,-6.8517621,0.0 107.4941082,-6.8517594,0.0 107.4941315,-6.851755,0.0 107.4941572,-6.8517482,0.0 107.4941813,-6.85174,0.0 107.4942078,-6.8517287,0.0 107.4942327,-6.851716,0.0 107.4942529,-6.8517024,0.0 107.4942697,-6.8516875,0.0 107.4942868,-6.8516703,0.0 107.4943012,-6.8516526,0.0 107.4946927,-6.8510954,0.0 107.4947508,-6.8510173,0.0 107.4948956,-6.8508267,0.0 107.4952692,-6.8503346,0.0</coordinates>
            </LineString>
        </Placemark>
        <Placemark id="70443">
            <name>Jalan Sisinga Mangaraja</name>
            <styleUrl>#70444</styleUrl>
            <LineString id="70442">
                <coordinates>107.5391134,-6.8717381,0.0 107.5386112,-6.8724568,0.0</coordinates>
            </LineString>
        </Placemark>
        <Placemark id="70447">
            <name>Jalan Raya Gadobangkong</name>
            <styleUrl>#70448</styleUrl>
            <LineString id="70446">
                <coordinates>107.5156622,-6.866132,0.0 107.5160919,-6.8663299,0.0</coordinates>
            </LineString>
        </Placemark>
        <Placemark id="70451">
            <name>Jalan Raya Gadobangkong</name>
            <styleUrl>#70452</styleUrl>
            <LineString id="70450">
                <coordinates>107.5169868,-6.8667469,0.0 107.5172135,-6.866858,0.0 107.5174342,-6.8669686,0.0 107.5176534,-6.8670757,0.0 107.5178625,-6.8671767,0.0 107.5179976,-6.8672401,0.0 107.5183058,-6.8673783,0.0 107.5183672,-6.8673963,0.0 107.5185612,-6.8674533,0.0 107.5190095,-6.8675906,0.0 107.5190798,-6.8676144,0.0 107.5191264,-6.8676288,0.0 107.5191731,-6.8676432,0.0 107.5195447,-6.8677576,0.0 107.5196849,-6.8678007,0.0 107.5200389,-6.8679097,0.0 107.5201726,-6.8679508,0.0 107.5207876,-6.868147,0.0 107.5208297,-6.8681604,0.0 107.5209164,-6.8681885,0.0 107.5212073,-6.8682829,0.0 107.521271,-6.8683036,0.0 107.5214983,-6.8683763,0.0 107.5216087,-6.8684028,0.0 107.5217268,-6.8684273,0.0 107.521842,-6.8684414,0.0 107.5220823,-6.8684515,0.0</coordinates>
            </LineString>
        </Placemark>
        <Placemark id="70455">
            <name>Jalan Raya Padalarang</name>
            <styleUrl>#70456</styleUrl>
            <LineString id="70454">
                <coordinates>107.4971791,-6.8515469,0.0 107.4969746,-6.8514085,0.0 107.4968492,-6.8513115,0.0 107.4967542,-6.8512441,0.0 107.4966845,-6.8511983,0.0 107.4964572,-6.8510514,0.0 107.4964375,-6.8510397,0.0 107.4964198,-6.8510316,0.0 107.4964035,-6.8510262,0.0 107.4963876,-6.8510228,0.0 107.4963709,-6.8510211,0.0 107.4963507,-6.8510217,0.0</coordinates>
            </LineString>
        </Placemark>
        <Placemark id="70459">
            <name>Jalan Jend. H. Amir Machmud</name>
            <styleUrl>#70460</styleUrl>
            <LineString id="70458">
                <coordinates>107.5359218,-6.8702457,0.0 107.5358294,-6.8702382,0.0 107.5355712,-6.8701428,0.0 107.535302,-6.8700476,0.0 107.5351164,-6.8699829,0.0 107.534761,-6.8698508,0.0</coordinates>
            </LineString>
        </Placemark>
        <Placemark id="70463">
            <name>Jalan Raya Simpang</name>
            <styleUrl>#70464</styleUrl>
            <LineString id="70462">
                <coordinates>107.4975965,-6.8527156,0.0 107.4975599,-6.8526317,0.0</coordinates>
            </LineString>
        </Placemark>
        <Placemark id="70467">
            <name>Jalan Raya Padalarang</name>
            <styleUrl>#70468</styleUrl>
            <LineString id="70466">
                <coordinates>107.49156,-6.8475022,0.0 107.4914836,-6.8474473,0.0 107.4910372,-6.8471267,0.0 107.4909821,-6.8470888,0.0 107.4909699,-6.8470781,0.0 107.490762,-6.8469264,0.0 107.4907359,-6.8469074,0.0 107.4906335,-6.8468393,0.0 107.4903123,-6.8466335,0.0 107.4901126,-6.8464761,0.0 107.4897814,-6.8462423,0.0 107.4896493,-6.8461438,0.0 107.4893529,-6.8459362,0.0 107.4892686,-6.8458772,0.0 107.4890069,-6.8456939,0.0 107.4889081,-6.8456314,0.0 107.4885606,-6.8453797,0.0 107.4885245,-6.8453524,0.0 107.488395,-6.8452706,0.0 107.4882293,-6.845166,0.0 107.487907,-6.8449428,0.0 107.4878649,-6.8449136,0.0 107.4878341,-6.8448923,0.0</coordinates>
            </LineString>
        </Placemark>
        <Placemark id="70471">
            <name>Route Segment</name>
            <styleUrl>#70472</styleUrl>
            <LineString id="70470">
                <coordinates>107.5396782,-6.880004,0.0 107.5397308,-6.8797098,0.0 107.5398213,-6.8791946,0.0 107.5398287,-6.8791606,0.0</coordinates>
            </LineString>
        </Placemark>
        <Placemark id="70475">
            <name>Jalan Sisingamangaraja</name>
            <styleUrl>#70476</styleUrl>
            <LineString id="70474">
                <coordinates>107.5398287,-6.8791606,0.0 107.5397533,-6.8791348,0.0 107.5395016,-6.8790697,0.0 107.5391401,-6.8789747,0.0 107.5391126,-6.8789597,0.0 107.5390937,-6.8789402,0.0</coordinates>
            </LineString>
        </Placemark>
        <Placemark id="70479">
            <name>Jalan Raya Cimareme</name>
            <styleUrl>#70480</styleUrl>
            <LineString id="70478">
                <coordinates>107.5034117,-6.8632727,0.0 107.5034772,-6.8633105,0.0 107.5035566,-6.8633604,0.0 107.5037925,-6.8634899,0.0 107.5039209,-6.8635608,0.0 107.504317,-6.8637653,0.0 107.5043597,-6.8637873,0.0 107.5044255,-6.8638215,0.0 107.5047344,-6.8639832,0.0</coordinates>
            </LineString>
        </Placemark>
        <Placemark id="70483">
            <name>Jalan Pojok Utara</name>
            <styleUrl>#70484</styleUrl>
            <LineString id="70482">
                <coordinates>107.5386112,-6.8724568,0.0 107.5384424,-6.8727065,0.0 107.538312,-6.872906,0.0 107.5380946,-6.8732152,0.0 107.5379377,-6.8734636,0.0 107.5377142,-6.8738045,0.0 107.5374411,-6.8742172,0.0 107.5372654,-6.8745336,0.0 107.5372121,-6.8746265,0.0 107.5370488,-6.8748964,0.0 107.5370265,-6.8749338,0.0 107.5368745,-6.8751618,0.0 107.5366895,-6.8754077,0.0 107.5366116,-6.8754928,0.0 107.5365398,-6.8755501,0.0 107.5364609,-6.8756045,0.0 107.5363712,-6.8756792,0.0 107.5363122,-6.8757527,0.0 107.536249,-6.8758514,0.0 107.5361992,-6.8759398,0.0 107.5361732,-6.8760252,0.0 107.5361726,-6.8760758,0.0</coordinates>
            </LineString>
        </Placemark>
        <Placemark id="70487">
            <name>Jalan Raya Padalarang</name>
            <styleUrl>#70488</styleUrl>
            <LineString id="70486">
                <coordinates>107.4936922,-6.8490384,0.0 107.4927743,-6.8483862,0.0</coordinates>
            </LineString>
        </Placemark>
        <Placemark id="70491">
            <name>Jalan Jend. H. Amir Machmud</name>
            <styleUrl>#70492</styleUrl>
            <LineString id="70490">
                <coordinates>107.5261248,-6.8684369,0.0 107.5262229,-6.8684691,0.0 107.5263122,-6.8685064,0.0 107.5263898,-6.8685422,0.0 107.5264225,-6.8685573,0.0 107.5266094,-6.8686384,0.0 107.5270877,-6.8688731,0.0 107.5271548,-6.868908,0.0 107.5273141,-6.8689718,0.0 107.5274989,-6.8690436,0.0 107.5275841,-6.8690682,0.0 107.527662,-6.8690849,0.0 107.5277986,-6.8691038,0.0 107.5278876,-6.8691021,0.0 107.5279891,-6.8690928,0.0 107.5281475,-6.8690695,0.0 107.5281996,-6.8690592,0.0 107.5283978,-6.8690203,0.0 107.5284509,-6.8690086,0.0 107.5285738,-6.8689815,0.0 107.5288591,-6.8689212,0.0 107.5289883,-6.8688991,0.0 107.5293786,-6.8688406,0.0 107.5300087,-6.868775,0.0 107.5302545,-6.8687509,0.0 107.5303683,-6.8687397,0.0 107.5306127,-6.8687157,0.0 107.5307996,-6.8686984,0.0 107.5309254,-6.8686864,0.0 107.5311227,-6.8686631,0.0 107.5311768,-6.86866,0.0 107.5313217,-6.8686505,0.0 107.5314385,-6.8686555,0.0 107.5315089,-6.8686615,0.0 107.5315735,-6.8686772,0.0 107.5317099,-6.8687176,0.0 107.5318119,-6.8687546,0.0 107.5318553,-6.8687705,0.0 107.531878,-6.8687794,0.0 107.5319386,-6.8688013,0.0 107.5322086,-6.8688988,0.0 107.5324527,-6.8689916,0.0 107.5327945,-6.8691177,0.0 107.5330853,-6.8692167,0.0</coordinates>
            </LineString>
        </Placemark>
        <Placemark id="70495">
            <name>Jalan Layang Kota Baru Parahyangan</name>
            <styleUrl>#70496</styleUrl>
            <LineString id="70494">
                <coordinates>107.494909,-6.852067,0.0 107.4948639,-6.8521257,0.0 107.4948502,-6.8521421,0.0 107.4948346,-6.8521589,0.0 107.4948188,-6.8521743,0.0 107.4947997,-6.8521915,0.0 107.4947778,-6.852209,0.0 107.4947547,-6.8522251,0.0 107.4947307,-6.8522396,0.0 107.4947024,-6.8522548,0.0 107.494574,-6.8523146,0.0 107.4945559,-6.8523251,0.0 107.4945407,-6.8523358,0.0 107.4945258,-6.8523487,0.0 107.4945104,-6.8523648,0.0 107.494498,-6.8523805,0.0 107.4944862,-6.8523976,0.0 107.4944522,-6.8524499,0.0</coordinates>
            </LineString>
        </Placemark>
        <Placemark id="70499">
            <name>Jalan Raya Padalarang</name>
            <styleUrl>#70500</styleUrl>
            <LineString id="70498">
                <coordinates>107.4974224,-6.8519939,0.0 107.4973814,-6.8518888,0.0 107.4973343,-6.8517847,0.0 107.4972822,-6.8516803,0.0 107.4972419,-6.8516172,0.0 107.4972188,-6.8515916,0.0 107.4971791,-6.8515469,0.0</coordinates>
            </LineString>
        </Placemark>
        <Placemark id="70503">
            <name>Jalan Raya Padalarang</name>
            <styleUrl>#70504</styleUrl>
            <LineString id="70502">
                <coordinates>107.4952692,-6.8503346,0.0 107.4952808,-6.8503091,0.0 107.4952861,-6.8502932,0.0 107.4952909,-6.85028,0.0 107.4952935,-6.8502677,0.0 107.4952932,-6.8502556,0.0 107.4952907,-6.8502438,0.0 107.4952858,-6.8502323,0.0 107.4952782,-6.8502204,0.0 107.4952748,-6.8502171,0.0 107.4952678,-6.8502099,0.0 107.49526,-6.8502033,0.0 107.4951383,-6.8501109,0.0</coordinates>
            </LineString>
        </Placemark>
        <Placemark id="70507">
            <name>Jalan Raya Cimareme</name>
            <styleUrl>#70508</styleUrl>
            <LineString id="70506">
                <coordinates>107.4987182,-6.8581066,0.0 107.4987288,-6.8582512,0.0 107.4987562,-6.8584531,0.0 107.4987799,-6.8586327,0.0 107.4988095,-6.8588159,0.0 107.498846,-6.8589418,0.0 107.4988952,-6.8590747,0.0 107.4989519,-6.859192,0.0 107.499024,-6.8593264,0.0 107.4991209,-6.8594557,0.0 107.4992202,-6.8595603,0.0 107.4993675,-6.8597221,0.0 107.4995891,-6.8599902,0.0 107.4997744,-6.8601871,0.0 107.4998426,-6.8602605,0.0 107.5001629,-6.8605893,0.0 107.500195,-6.8606217,0.0 107.5003415,-6.860773,0.0 107.5004973,-6.8609384,0.0 107.5006628,-6.8611039,0.0 107.5010094,-6.8614382,0.0 107.5010639,-6.8614908,0.0 107.5012224,-6.8616525,0.0 107.5014146,-6.8618608,0.0 107.5015639,-6.8620124,0.0 107.5016093,-6.8620563,0.0 107.5018806,-6.8623184,0.0 107.5021156,-6.8625154,0.0 107.5022805,-6.8626367,0.0 107.5025833,-6.8628122,0.0 107.5028237,-6.8629469,0.0 107.502934,-6.8630015,0.0 107.5031549,-6.8631253,0.0 107.5031733,-6.8631354,0.0 107.5032331,-6.8631683,0.0 107.5033168,-6.8632144,0.0 107.5034117,-6.8632727,0.0</coordinates>
            </LineString>
        </Placemark>
        <Placemark id="70511">
            <name>Jalan Sisingamangaraja</name>
            <styleUrl>#70512</styleUrl>
            <LineString id="70510">
                <coordinates>107.5383018,-6.8772177,0.0 107.5385903,-6.8773719,0.0 107.5387485,-6.8774421,0.0 107.539211,-6.8776236,0.0 107.5392397,-6.8776553,0.0 107.5392545,-6.8776881,0.0 107.5392578,-6.8777222,0.0 107.5392548,-6.8777787,0.0 107.5392449,-6.8778755,0.0 107.539221,-6.8780109,0.0 107.5391863,-6.8781845,0.0 107.5390942,-6.8786917,0.0 107.5390667,-6.8788345,0.0 107.539065,-6.8788765,0.0 107.5390807,-6.8789198,0.0 107.5390937,-6.8789402,0.0</coordinates>
            </LineString>
        </Placemark>
        <Placemark id="70515">
            <name>Jalan Sisingamangaraja</name>
            <styleUrl>#70516</styleUrl>
            <LineString id="70514">
                <coordinates>107.5365606,-6.8763792,0.0 107.5367153,-6.8764606,0.0 107.5374675,-6.8768096,0.0 107.5376889,-6.8769157,0.0 107.5379246,-6.8770329,0.0 107.5382366,-6.877185,0.0 107.5382615,-6.8771977,0.0</coordinates>
            </LineString>
        </Placemark>
        <Placemark id="70519">
            <name>Jalan Sisingamangaraja</name>
            <styleUrl>#70520</styleUrl>
            <LineString id="70518">
                <coordinates>107.5364238,-6.8762896,0.0 107.5364736,-6.8763261,0.0</coordinates>
            </LineString>
        </Placemark>
        <Placemark id="70523">
            <name>Jalan Sisingamangaraja</name>
            <styleUrl>#70524</styleUrl>
            <LineString id="70522">
                <coordinates>107.5364736,-6.8763261,0.0 107.5365606,-6.8763792,0.0</coordinates>
            </LineString>
        </Placemark>
        <Placemark id="70527">
            <name>Route Segment</name>
            <styleUrl>#70528</styleUrl>
            <LineString id="70526">
                <coordinates>107.538273,-6.8810675,0.0 107.5383206,-6.8811231,0.0</coordinates>
            </LineString>
        </Placemark>
        <Placemark id="70531">
            <name>Jalan Sisingamangaraja</name>
            <styleUrl>#70532</styleUrl>
            <LineString id="70530">
                <coordinates>107.5382615,-6.8771977,0.0 107.5383018,-6.8772177,0.0</coordinates>
            </LineString>
        </Placemark>
        <Placemark id="70535">
            <name>Jalan Raya Cimareme</name>
            <styleUrl>#70536</styleUrl>
            <LineString id="70534">
                <coordinates>107.5047344,-6.8639832,0.0 107.5049911,-6.8641067,0.0 107.5050586,-6.8641392,0.0 107.5051499,-6.8641787,0.0 107.5051913,-6.8641937,0.0 107.5052503,-6.8642111,0.0 107.5053149,-6.8642263,0.0 107.5053817,-6.8642351,0.0 107.5054411,-6.8642368,0.0 107.5054978,-6.8642341,0.0 107.5055404,-6.864229,0.0</coordinates>
            </LineString>
        </Placemark>
        <Placemark id="70539">
            <name>Jalan Raya Gadobangkong</name>
            <styleUrl>#70540</styleUrl>
            <LineString id="70538">
                <coordinates>107.5063671,-6.864027,0.0 107.5065856,-6.8639771,0.0 107.5070193,-6.863866,0.0 107.5077676,-6.863685,0.0 107.5082119,-6.8635741,0.0 107.5086465,-6.8634599,0.0 107.5087248,-6.8634388,0.0 107.5094028,-6.8632576,0.0 107.5094818,-6.863253,0.0 107.5095628,-6.8632583,0.0 107.5096207,-6.8632683,0.0 107.5097112,-6.8632909,0.0 107.5098225,-6.8633262,0.0 107.5099964,-6.863395,0.0 107.5100491,-6.8634203,0.0 107.510072,-6.8634302,0.0 107.5104217,-6.8635854,0.0 107.5106152,-6.8636745,0.0 107.5106923,-6.8637105,0.0 107.510966,-6.8638385,0.0 107.5111617,-6.8639301,0.0 107.5113852,-6.8640346,0.0 107.5119852,-6.8643131,0.0 107.5120662,-6.8643533,0.0 107.5123015,-6.8644685,0.0 107.5125224,-6.8645767,0.0 107.5128242,-6.8647258,0.0 107.5130197,-6.8648201,0.0 107.513398,-6.865018,0.0 107.5134421,-6.8650411,0.0 107.513879,-6.8652552,0.0 107.5140447,-6.8653343,0.0 107.5150775,-6.8658424,0.0 107.5151703,-6.8658917,0.0 107.5152076,-6.8659101,0.0 107.5156233,-6.8661135,0.0 107.5156622,-6.866132,0.0</coordinates>
            </LineString>
        </Placemark>
        <Placemark id="70543">
            <name>Jalan Raya Gadobangkong</name>
            <styleUrl>#70544</styleUrl>
            <LineString id="70542">
                <coordinates>107.5160919,-6.8663299,0.0 107.5162566,-6.8664082,0.0 107.5164712,-6.8665071,0.0 107.5167612,-6.8666428,0.0 107.5169868,-6.8667469,0.0</coordinates>
            </LineString>
        </Placemark>
        <Placemark id="70547">
            <name>Route Segment</name>
            <styleUrl>#70548</styleUrl>
            <LineString id="70546">
                <coordinates>107.5383206,-6.8811231,0.0 107.5383466,-6.8811511,0.0</coordinates>
            </LineString>
        </Placemark>
        <Placemark id="70551">
            <name>Jalan Jend. H. Amir Machmud</name>
            <styleUrl>#70552</styleUrl>
            <LineString id="70550">
                <coordinates>107.533145,-6.8692367,0.0 107.5331785,-6.8692495,0.0 107.5335628,-6.8693791,0.0 107.5337126,-6.8694306,0.0 107.5337447,-6.8694416,0.0 107.5339049,-6.8694966,0.0 107.5341763,-6.8696061,0.0 107.5342233,-6.8696235,0.0 107.5343842,-6.869692,0.0</coordinates>
            </LineString>
        </Placemark>
        <Placemark id="70555">
            <name>Jalan Jend. H. Amir Machmud</name>
            <styleUrl>#70556</styleUrl>
            <LineString id="70554">
                <coordinates>107.5330853,-6.8692167,0.0 107.533145,-6.8692367,0.0</coordinates>
            </LineString>
        </Placemark>
        <Placemark id="70559">
            <name>Jalan Raya Padalarang</name>
            <styleUrl>#70560</styleUrl>
            <LineString id="70558">
                <coordinates>107.4877737,-6.844887,0.0 107.4877596,-6.8448818,0.0 107.4876893,-6.8448364,0.0 107.4876471,-6.8448083,0.0 107.4875667,-6.8447494,0.0 107.4874631,-6.8446785,0.0 107.4871379,-6.8444559,0.0 107.486887,-6.8442868,0.0 107.4865499,-6.8440606,0.0 107.4863402,-6.843933,0.0 107.48588,-6.8435779,0.0 107.4857616,-6.8434987,0.0 107.4857018,-6.8434587,0.0 107.4855846,-6.8433884,0.0 107.4854307,-6.8432912,0.0 107.4850702,-6.8430764,0.0 107.4849638,-6.8430131,0.0 107.484888,-6.8429487,0.0 107.484821,-6.8428924,0.0</coordinates>
            </LineString>
        </Placemark>
        <Placemark id="70563">
            <name>Jalan Raya Caringin</name>
            <styleUrl>#70564</styleUrl>
            <LineString id="70562">
                <coordinates>107.4977859,-6.8538237,0.0 107.4978121,-6.8539405,0.0</coordinates>
            </LineString>
        </Placemark>
        <Placemark id="70567">
            <name>Jalan Raya Simpang</name>
            <styleUrl>#70568</styleUrl>
            <LineString id="70566">
                <coordinates>107.4975965,-6.8527156,0.0 107.4975988,-6.8527427,0.0 107.4976134,-6.8528859,0.0 107.497658,-6.8531891,0.0 107.4976818,-6.8533539,0.0 107.4977128,-6.8535065,0.0 107.4977859,-6.8538237,0.0</coordinates>
            </LineString>
        </Placemark>
        <Placemark id="70571">
            <name>Jalan Raya Gadobangkong</name>
            <styleUrl>#70572</styleUrl>
            <LineString id="70570">
                <coordinates>107.5238237,-6.8685111,0.0 107.5237614,-6.8685286,0.0 107.5234058,-6.868517,0.0 107.5232773,-6.8685128,0.0 107.5226323,-6.8684891,0.0 107.5221789,-6.868477,0.0 107.5220823,-6.8684515,0.0</coordinates>
            </LineString>
        </Placemark>
        <Placemark id="70575">
            <name>Jalan Jend. H. Amir Machmud</name>
            <styleUrl>#70576</styleUrl>
            <LineString id="70574">
                <coordinates>107.5363431,-6.8704044,0.0 107.5363908,-6.8704221,0.0 107.5364884,-6.8704594,0.0 107.5365376,-6.8704766,0.0 107.5365778,-6.8704906,0.0 107.5366787,-6.8705296,0.0 107.5373836,-6.8707918,0.0 107.5376817,-6.8709329,0.0 107.5379552,-6.8710821,0.0 107.538003,-6.8711086,0.0 107.5381559,-6.8711974,0.0 107.5382103,-6.8712287,0.0 107.5383378,-6.871298,0.0 107.538881,-6.871595,0.0 107.5391134,-6.8717381,0.0</coordinates>
            </LineString>
        </Placemark>
        <Placemark id="70579">
            <name>Jalan Raya Padalarang</name>
            <styleUrl>#70580</styleUrl>
            <LineString id="70578">
                <coordinates>107.4974571,-6.8521186,0.0 107.4974224,-6.8519939,0.0</coordinates>
            </LineString>
        </Placemark>
        <Placemark id="70583">
            <name>Jalan Sriwijaya Raya</name>
            <styleUrl>#70584</styleUrl>
            <LineString id="70582">
                <coordinates>107.5383466,-6.8811511,0.0 107.5387934,-6.8807622,0.0 107.5390256,-6.8805614,0.0 107.5391513,-6.8804551,0.0 107.5392258,-6.8803921,0.0 107.5396782,-6.880004,0.0</coordinates>
            </LineString>
        </Placemark>
        <Placemark id="70587">
            <name>Jalan Raya Padalarang</name>
            <styleUrl>#70588</styleUrl>
            <LineString id="70586">
                <coordinates>107.4975599,-6.8526317,0.0 107.4974957,-6.8522961,0.0</coordinates>
            </LineString>
        </Placemark>
        <Placemark id="70591">
            <name>Jalan Raya Padalarang</name>
            <styleUrl>#70592</styleUrl>
            <LineString id="70590">
                <coordinates>107.4927743,-6.8483862,0.0 107.4925682,-6.848238,0.0 107.4923123,-6.8480664,0.0 107.4918328,-6.8477344,0.0 107.49156,-6.8475022,0.0</coordinates>
            </LineString>
        </Placemark>
        <Placemark id="70595">
            <name>Jalan Raya Padalarang</name>
            <styleUrl>#70596</styleUrl>
            <LineString id="70594">
                <coordinates>107.4878341,-6.8448923,0.0 107.4878051,-6.8448954,0.0 107.4877737,-6.844887,0.0</coordinates>
            </LineString>
        </Placemark>
        <Placemark id="70599">
            <name>Jalan Sisingamangaraja</name>
            <styleUrl>#70600</styleUrl>
            <LineString id="70598">
                <coordinates>107.5361726,-6.8760758,0.0 107.53622,-6.8761376,0.0 107.5364238,-6.8762896,0.0</coordinates>
            </LineString>
        </Placemark>
        <Placemark id="70603">
            <name>Jalan Kota Baru Parahyangan</name>
            <styleUrl>#70604</styleUrl>
            <LineString id="70602">
                <coordinates>107.4961444,-6.8512857,0.0 107.4960897,-6.8514097,0.0 107.4960736,-6.851442,0.0 107.4960591,-6.8514673,0.0 107.4960425,-6.8514915,0.0 107.4960261,-6.8515122,0.0 107.4960063,-6.8515313,0.0 107.4959822,-6.8515478,0.0 107.4959607,-6.8515595,0.0 107.4959397,-6.8515682,0.0 107.4959165,-6.8515759,0.0 107.4958879,-6.8515837,0.0 107.4958484,-6.8515932,0.0 107.4958073,-6.8516017,0.0 107.4957661,-6.8516091,0.0 107.49555,-6.8516434,0.0 107.4954972,-6.8516542,0.0 107.4954416,-6.8516674,0.0 107.4953935,-6.8516805,0.0 107.4953499,-6.8516958,0.0 107.4953074,-6.8517131,0.0 107.4952644,-6.8517336,0.0 107.4952276,-6.8517532,0.0 107.4951894,-6.8517762,0.0 107.4951386,-6.8518103,0.0 107.4951033,-6.8518359,0.0 107.4950728,-6.8518613,0.0 107.4950439,-6.8518894,0.0 107.495014,-6.8519245,0.0 107.494909,-6.852067,0.0</coordinates>
            </LineString>
        </Placemark>
        <Placemark id="70607">
            <name>Jalan Jend. H. Amir Machmud</name>
            <styleUrl>#70608</styleUrl>
            <LineString id="70606">
                <coordinates>107.534761,-6.8698508,0.0 107.5344209,-6.8697253,0.0 107.5343842,-6.869692,0.0</coordinates>
            </LineString>
        </Placemark>
        <Placemark id="70611">
            <name>Jalan Raya Caringin</name>
            <styleUrl>#70612</styleUrl>
            <LineString id="70610">
                <coordinates>107.4987021,-6.8578894,0.0 107.4987182,-6.8581066,0.0</coordinates>
            </LineString>
        </Placemark>
        <Placemark id="70615">
            <name>Jalan Raya Caringin</name>
            <styleUrl>#70616</styleUrl>
            <LineString id="70614">
                <coordinates>107.4978121,-6.8539405,0.0 107.4978195,-6.8539756,0.0 107.497921,-6.8543483,0.0 107.4979689,-6.8545091,0.0 107.4980044,-6.8546237,0.0 107.4980409,-6.8547619,0.0 107.4980626,-6.8548322,0.0 107.4980832,-6.8548991,0.0 107.4981365,-6.855064,0.0 107.4981795,-6.8551922,0.0 107.4982118,-6.8553041,0.0 107.4982291,-6.855364,0.0 107.4982378,-6.8553939,0.0 107.4982496,-6.8554342,0.0 107.4982975,-6.8555796,0.0 107.4983226,-6.8556685,0.0 107.4983772,-6.8558679,0.0 107.4983981,-6.8559365,0.0 107.4984229,-6.8560363,0.0 107.4984955,-6.8563195,0.0 107.498506,-6.8563653,0.0 107.4985165,-6.856411,0.0 107.4985642,-6.8566145,0.0 107.4986032,-6.8567807,0.0 107.4986178,-6.8568699,0.0 107.4986213,-6.8568936,0.0 107.4986408,-6.8570257,0.0 107.4986583,-6.8572813,0.0 107.4986651,-6.8573652,0.0 107.4986693,-6.8574167,0.0 107.4986734,-6.8574856,0.0 107.4986774,-6.8575545,0.0 107.4986922,-6.857755,0.0 107.4987011,-6.8578756,0.0 107.4987021,-6.8578894,0.0</coordinates>
            </LineString>
        </Placemark>
        <Placemark id="70619">
            <name>Jalan Kota Baru Parahyangan</name>
            <styleUrl>#70620</styleUrl>
            <LineString id="70618">
                <coordinates>107.4934922,-6.8523177,0.0 107.4934922,-6.8522266,0.0 107.4935001,-6.8521613,0.0 107.4935127,-6.8521063,0.0 107.4935344,-6.8520506,0.0 107.4935642,-6.8520008,0.0 107.493597,-6.8519537,0.0 107.4936319,-6.8519114,0.0 107.493668,-6.851876,0.0 107.4937065,-6.8518461,0.0 107.493751,-6.8518207,0.0 107.493795,-6.8518006,0.0 107.4938418,-6.8517845,0.0 107.4938843,-6.8517736,0.0 107.4939237,-6.8517673,0.0 107.4939593,-6.8517637,0.0 107.4940018,-6.8517618,0.0 107.4940543,-6.8517636,0.0</coordinates>
            </LineString>
        </Placemark>
        <Placemark id="70623">
            <name>Jalan Raya Padalarang</name>
            <styleUrl>#70624</styleUrl>
            <LineString id="70622">
                <coordinates>107.4940096,-6.8492687,0.0 107.4936922,-6.8490384,0.0</coordinates>
            </LineString>
        </Placemark>
        <Placemark id="70627">
            <name>Jalan Kota Baru Parahyangan</name>
            <styleUrl>#70628</styleUrl>
            <LineString id="70626">
                <coordinates>107.4944522,-6.8524499,0.0 107.4944162,-6.8525103,0.0 107.4943818,-6.8525601,0.0 107.4943432,-6.8526068,0.0 107.4943051,-6.8526422,0.0 107.4942576,-6.8526775,0.0 107.4942009,-6.8527087,0.0 107.4941496,-6.8527293,0.0 107.4940916,-6.852747,0.0 107.4940257,-6.8527557,0.0 107.4939522,-6.8527551,0.0 107.4938894,-6.8527455,0.0 107.4938183,-6.8527241,0.0 107.4937587,-6.8526983,0.0 107.4936969,-6.8526597,0.0 107.4936415,-6.8526143,0.0</coordinates>
            </LineString>
        </Placemark>
        <Placemark id="70631">
            <name>Jalan Kota Baru Parahyangan</name>
            <styleUrl>#70632</styleUrl>
            <LineString id="70630">
                <coordinates>107.4936415,-6.8526143,0.0 107.4935908,-6.8525552,0.0 107.4935414,-6.8524786,0.0 107.493508,-6.8523961,0.0 107.4934922,-6.8523177,0.0</coordinates>
            </LineString>
        </Placemark>
        <Placemark id="70635">
            <name>Jalan Raya Padalarang</name>
            <styleUrl>#70636</styleUrl>
            <LineString id="70634">
                <coordinates>107.4951383,-6.8501109,0.0 107.4949029,-6.8499353,0.0 107.4943204,-6.8495005,0.0 107.4940096,-6.8492687,0.0</coordinates>
            </LineString>
        </Placemark>
        <Placemark id="70639">
            <name>Jalan Jend. H. Amir Machmud</name>
            <styleUrl>#70640</styleUrl>
            <LineString id="70638">
                <coordinates>107.5359218,-6.8702457,0.0 107.5362685,-6.8703754,0.0 107.5363078,-6.8703903,0.0</coordinates>
            </LineString>
        </Placemark>
        <Placemark id="70643">
            <name>Jalan Jend. H. Amir Machmud</name>
            <styleUrl>#70644</styleUrl>
            <LineString id="70642">
                <coordinates>107.5363078,-6.8703903,0.0 107.5363431,-6.8704044,0.0</coordinates>
            </LineString>
        </Placemark>
        <Placemark id="70647">
            <name>Route Segment</name>
            <styleUrl>#70648</styleUrl>
            <LineString id="70646">
                <coordinates>107.5379919,-6.8807505,0.0 107.538199,-6.8809854,0.0 107.538273,-6.8810675,0.0</coordinates>
            </LineString>
        </Placemark>
        <Placemark id="70651">
            <name>Jalan Raya Gadobangkong</name>
            <styleUrl>#70652</styleUrl>
            <LineString id="70650">
                <coordinates>107.5238237,-6.8685111,0.0 107.5238605,-6.8685121,0.0 107.524111,-6.8685186,0.0 107.5242475,-6.8685297,0.0 107.5243947,-6.8685238,0.0 107.5245213,-6.8685157,0.0 107.5246659,-6.8685002,0.0 107.5248121,-6.8684764,0.0 107.5250106,-6.8684338,0.0 107.5252251,-6.8683845,0.0 107.5253284,-6.8683626,0.0 107.5254235,-6.8683509,0.0 107.525547,-6.8683413,0.0 107.525671,-6.8683467,0.0 107.5258493,-6.8683639,0.0 107.5260715,-6.8684195,0.0 107.5261248,-6.8684369,0.0</coordinates>
            </LineString>
        </Placemark>
        <Placemark id="70655">
            <name>Jalan Raya Padalarang</name>
            <styleUrl>#70656</styleUrl>
            <LineString id="70654">
                <coordinates>107.4974957,-6.8522961,0.0 107.4974571,-6.8521186,0.0</coordinates>
            </LineString>
        </Placemark>
        <Placemark id="70659">
            <name>Jalan Raya Cimareme</name>
            <styleUrl>#70660</styleUrl>
            <LineString id="70658">
                <coordinates>107.5055404,-6.864229,0.0 107.5056235,-6.864215,0.0 107.505703,-6.8641943,0.0 107.5063671,-6.864027,0.0</coordinates>
            </LineString>
        </Placemark>
        <Placemark id="70663">
            <name>Jalan Kota Baru Parahyangan</name>
            <styleUrl>#70664</styleUrl>
            <LineString id="70662">
                <coordinates>107.4963507,-6.8510217,0.0 107.4963301,-6.8510254,0.0 107.4963132,-6.8510299,0.0 107.4962963,-6.8510362,0.0 107.4962787,-6.8510449,0.0 107.4962614,-6.8510578,0.0 107.4962484,-6.8510712,0.0 107.4962343,-6.85109,0.0 107.4962221,-6.8511106,0.0 107.4962098,-6.8511338,0.0 107.4961976,-6.8511597,0.0 107.4961619,-6.8512443,0.0 107.4961444,-6.8512857,0.0</coordinates>
            </LineString>
        </Placemark>
    </Document>
</kml>
