<?xml version="1.0" encoding="UTF-8"?>
<kml xmlns="http://www.opengis.net/kml/2.2" xmlns:gx="http://www.google.com/kml/ext/2.2">
    <Document id="65494">
        <Style id="65500">
            <LineStyle id="65501">
                <color>ffFF0000</color>
                <colorMode>normal</colorMode>
                <width>4</width>
            </LineStyle>
        </Style>
        <Style id="65504">
            <LineStyle id="65505">
                <color>ffFF0000</color>
                <colorMode>normal</colorMode>
                <width>4</width>
            </LineStyle>
        </Style>
        <Style id="65508">
            <LineStyle id="65509">
                <color>ffFF0000</color>
                <colorMode>normal</colorMode>
                <width>4</width>
            </LineStyle>
        </Style>
        <Style id="65512">
            <LineStyle id="65513">
                <color>ffFF0000</color>
                <colorMode>normal</colorMode>
                <width>4</width>
            </LineStyle>
        </Style>
        <Style id="65516">
            <LineStyle id="65517">
                <color>ffFF0000</color>
                <colorMode>normal</colorMode>
                <width>4</width>
            </LineStyle>
        </Style>
        <Style id="65520">
            <LineStyle id="65521">
                <color>ffFF0000</color>
                <colorMode>normal</colorMode>
                <width>4</width>
            </LineStyle>
        </Style>
        <Style id="65524">
            <LineStyle id="65525">
                <color>ffFF0000</color>
                <colorMode>normal</colorMode>
                <width>4</width>
            </LineStyle>
        </Style>
        <Style id="65528">
            <LineStyle id="65529">
                <color>ffFF0000</color>
                <colorMode>normal</colorMode>
                <width>4</width>
            </LineStyle>
        </Style>
        <Style id="65532">
            <LineStyle id="65533">
                <color>ffFF0000</color>
                <colorMode>normal</colorMode>
                <width>4</width>
            </LineStyle>
        </Style>
        <Style id="65536">
            <LineStyle id="65537">
                <color>ffFF0000</color>
                <colorMode>normal</colorMode>
                <width>4</width>
            </LineStyle>
        </Style>
        <Style id="65540">
            <LineStyle id="65541">
                <color>ffFF0000</color>
                <colorMode>normal</colorMode>
                <width>4</width>
            </LineStyle>
        </Style>
        <Style id="65544">
            <LineStyle id="65545">
                <color>ffFF0000</color>
                <colorMode>normal</colorMode>
                <width>4</width>
            </LineStyle>
        </Style>
        <Style id="65548">
            <LineStyle id="65549">
                <color>ffFF0000</color>
                <colorMode>normal</colorMode>
                <width>4</width>
            </LineStyle>
        </Style>
        <Style id="65552">
            <LineStyle id="65553">
                <color>ffFF0000</color>
                <colorMode>normal</colorMode>
                <width>4</width>
            </LineStyle>
        </Style>
        <Style id="65556">
            <LineStyle id="65557">
                <color>ffFF0000</color>
                <colorMode>normal</colorMode>
                <width>4</width>
            </LineStyle>
        </Style>
        <Style id="65560">
            <LineStyle id="65561">
                <color>ffFF0000</color>
                <colorMode>normal</colorMode>
                <width>4</width>
            </LineStyle>
        </Style>
        <Style id="65564">
            <LineStyle id="65565">
                <color>ffFF0000</color>
                <colorMode>normal</colorMode>
                <width>4</width>
            </LineStyle>
        </Style>
        <Style id="65568">
            <LineStyle id="65569">
                <color>ffFF0000</color>
                <colorMode>normal</colorMode>
                <width>4</width>
            </LineStyle>
        </Style>
        <Style id="65572">
            <LineStyle id="65573">
                <color>ffFF0000</color>
                <colorMode>normal</colorMode>
                <width>4</width>
            </LineStyle>
        </Style>
        <Style id="65576">
            <LineStyle id="65577">
                <color>ffFF0000</color>
                <colorMode>normal</colorMode>
                <width>4</width>
            </LineStyle>
        </Style>
        <Style id="65580">
            <LineStyle id="65581">
                <color>ffFF0000</color>
                <colorMode>normal</colorMode>
                <width>4</width>
            </LineStyle>
        </Style>
        <Style id="65584">
            <LineStyle id="65585">
                <color>ffFF0000</color>
                <colorMode>normal</colorMode>
                <width>4</width>
            </LineStyle>
        </Style>
        <Style id="65588">
            <LineStyle id="65589">
                <color>ffFF0000</color>
                <colorMode>normal</colorMode>
                <width>4</width>
            </LineStyle>
        </Style>
        <Style id="65592">
            <LineStyle id="65593">
                <color>ffFF0000</color>
                <colorMode>normal</colorMode>
                <width>4</width>
            </LineStyle>
        </Style>
        <Style id="65596">
            <LineStyle id="65597">
                <color>ffFF0000</color>
                <colorMode>normal</colorMode>
                <width>4</width>
            </LineStyle>
        </Style>
        <Style id="65600">
            <LineStyle id="65601">
                <color>ffFF0000</color>
                <colorMode>normal</colorMode>
                <width>4</width>
            </LineStyle>
        </Style>
        <Style id="65604">
            <LineStyle id="65605">
                <color>ffFF0000</color>
                <colorMode>normal</colorMode>
                <width>4</width>
            </LineStyle>
        </Style>
        <Style id="65608">
            <IconStyle id="65609">
                <colorMode>normal</colorMode>
                <scale>1</scale>
                <heading>0</heading>
                <Icon id="65610">
                    <href>http://maps.google.com/mapfiles/kml/pushpin/ylw-pushpin.png</href>
                </Icon>
            </IconStyle>
        </Style>
        <Style id="65613">
            <IconStyle id="65614">
                <colorMode>normal</colorMode>
                <scale>1</scale>
                <heading>0</heading>
                <Icon id="65615">
                    <href>http://maps.google.com/mapfiles/kml/pushpin/ylw-pushpin.png</href>
                </Icon>
            </IconStyle>
        </Style>
        <ExtendedData>
            <Data name="route-name">
                <value>946: Sarijadi → Pesantren</value>
            </Data>
            <Data name="source">
                <value>Transport for Bandung</value>
            </Data>
        </ExtendedData>
        <Placemark id="65499">
            <name>Route Segment</name>
            <styleUrl>#65500</styleUrl>
            <LineString id="65498">
                <coordinates>107.5644988,-6.8696332,0.0 107.5643934,-6.8698992,0.0 107.5643068,-6.8700916,0.0 107.5641467,-6.870438,0.0 107.5641138,-6.8704843,0.0 107.564077,-6.8705002,0.0 107.5640143,-6.870499,0.0 107.5636626,-6.8703681,0.0 107.5636093,-6.8704557,0.0 107.5633939,-6.8708851,0.0 107.563309,-6.8710897,0.0</coordinates>
            </LineString>
        </Placemark>
        <Placemark id="65503">
            <name>Jalan Kampus Polban</name>
            <styleUrl>#65504</styleUrl>
            <LineString id="65502">
                <coordinates>107.5749019,-6.8723534,0.0 107.5749826,-6.8725881,0.0 107.5750232,-6.8728908,0.0 107.575015,-6.873062,0.0 107.574979,-6.8732726,0.0 107.5749207,-6.8734287,0.0 107.574793,-6.8736512,0.0 107.5746502,-6.8738588,0.0 107.5744507,-6.874061,0.0 107.5743334,-6.8741854,0.0 107.5742894,-6.8742357,0.0 107.5742537,-6.8742787,0.0</coordinates>
            </LineString>
        </Placemark>
        <Placemark id="65507">
            <name>Route Segment</name>
            <styleUrl>#65508</styleUrl>
            <LineString id="65506">
                <coordinates>107.5693877,-6.8700955,0.0 107.5689625,-6.8699743,0.0 107.5686203,-6.869904,0.0 107.5685894,-6.8699047,0.0 107.5685636,-6.8699124,0.0 107.5685408,-6.8699245,0.0 107.5685254,-6.8699463,0.0 107.568409,-6.8702693,0.0 107.5683926,-6.8702959,0.0 107.5683708,-6.8703098,0.0 107.568344,-6.8703198,0.0 107.5683148,-6.8703232,0.0 107.5678935,-6.8701623,0.0 107.567435,-6.869947,0.0 107.5673557,-6.8699093,0.0 107.5669989,-6.8697602,0.0 107.5664893,-6.8695728,0.0 107.5662902,-6.8695006,0.0 107.5661415,-6.8694414,0.0 107.5659086,-6.8693487,0.0 107.5655938,-6.8691965,0.0 107.5654154,-6.8691195,0.0</coordinates>
            </LineString>
        </Placemark>
        <Placemark id="65511">
            <name>Jalan Pasantren</name>
            <styleUrl>#65512</styleUrl>
            <LineString id="65510">
                <coordinates>107.5600656,-6.8760988,0.0 107.5599837,-6.8763713,0.0 107.5599825,-6.8763734,0.0 107.5597445,-6.8769573,0.0 107.5596384,-6.8771932,0.0 107.5596267,-6.8772198,0.0 107.5595,-6.8775007,0.0 107.5593402,-6.87781,0.0 107.5592899,-6.8779132,0.0 107.5592468,-6.8780507,0.0 107.5590598,-6.8787935,0.0 107.5590201,-6.8789379,0.0 107.5589379,-6.8792234,0.0 107.5588583,-6.8795124,0.0 107.5587988,-6.87977,0.0 107.5587425,-6.879934,0.0 107.5586544,-6.880128,0.0 107.5583766,-6.8806983,0.0 107.5583168,-6.8808708,0.0 107.5582806,-6.881028,0.0 107.5582445,-6.8812425,0.0 107.5582223,-6.8813674,0.0 107.5581841,-6.8814901,0.0 107.5580523,-6.8817985,0.0 107.5578702,-6.8822236,0.0 107.557834,-6.8823136,0.0 107.5577988,-6.8823935,0.0 107.5575444,-6.8829467,0.0 107.5574932,-6.8830863,0.0 107.557459,-6.8832408,0.0 107.5574197,-6.8834832,0.0 107.5573827,-6.8837211,0.0 107.5573579,-6.8838837,0.0 107.5573374,-6.8839858,0.0 107.5572572,-6.8843882,0.0 107.5572037,-6.8846212,0.0 107.5571865,-6.8846913,0.0 107.5571258,-6.8849852,0.0 107.5570163,-6.8853633,0.0 107.5569267,-6.8856048,0.0 107.5568246,-6.8858151,0.0 107.5567173,-6.885993,0.0 107.5563547,-6.8865937,0.0 107.5562165,-6.8868224,0.0 107.5561192,-6.8869761,0.0 107.556043,-6.8871207,0.0 107.5559721,-6.8872942,0.0 107.5558756,-6.8874939,0.0 107.5557872,-6.887633,0.0 107.5556761,-6.8877811,0.0</coordinates>
            </LineString>
        </Placemark>
        <Placemark id="65515">
            <name>Route Segment</name>
            <styleUrl>#65516</styleUrl>
            <LineString id="65514">
                <coordinates>107.5727584,-6.8651284,0.0 107.5727586,-6.8651897,0.0 107.5727432,-6.8652409,0.0 107.572713,-6.8652854,0.0 107.5725274,-6.8653873,0.0 107.5724604,-6.8654175,0.0 107.5723255,-6.8655123,0.0 107.5721887,-6.8656428,0.0 107.5719382,-6.8659375,0.0 107.5719137,-6.8659667,0.0 107.5718215,-6.8660906,0.0 107.5717089,-6.8662864,0.0 107.571383,-6.8666751,0.0 107.5712757,-6.8668496,0.0 107.5712355,-6.8669493,0.0 107.5711577,-6.8671478,0.0 107.5711271,-6.8673892,0.0 107.5709959,-6.86768,0.0 107.5707436,-6.8683046,0.0 107.5706182,-6.8684684,0.0 107.5705122,-6.8685669,0.0 107.5704335,-6.8686124,0.0 107.5702592,-6.8686138,0.0 107.5698304,-6.8685288,0.0</coordinates>
            </LineString>
        </Placemark>
        <Placemark id="65519">
            <name>Route Segment</name>
            <styleUrl>#65520</styleUrl>
            <LineString id="65518">
                <coordinates>107.5621444,-6.8708342,0.0 107.5622559,-6.8708557,0.0 107.5623395,-6.8708637,0.0 107.5623972,-6.8708577,0.0 107.5624529,-6.8708504,0.0 107.5625512,-6.8708376,0.0 107.562592,-6.8708328,0.0 107.5626326,-6.8708391,0.0 107.5626902,-6.8708551,0.0 107.5628638,-6.8709205,0.0 107.5629658,-6.8709589,0.0 107.563309,-6.8710897,0.0</coordinates>
            </LineString>
        </Placemark>
        <Placemark id="65523">
            <name>Jalan Sariasih</name>
            <styleUrl>#65524</styleUrl>
            <LineString id="65522">
                <coordinates>107.5781315,-6.8759874,0.0 107.5774753,-6.87569,0.0 107.5774086,-6.8756601,0.0 107.5765243,-6.8752757,0.0 107.5762661,-6.8751665,0.0 107.5759542,-6.8750264,0.0 107.5758513,-6.8749793,0.0 107.5756273,-6.8748735,0.0</coordinates>
            </LineString>
        </Placemark>
        <Placemark id="65527">
            <name>Jalan Pasantren</name>
            <styleUrl>#65528</styleUrl>
            <LineString id="65526">
                <coordinates>107.5615683,-6.8710104,0.0 107.5615678,-6.87113,0.0 107.5616207,-6.8715022,0.0 107.5616259,-6.8715606,0.0 107.5616207,-6.8716207,0.0 107.5615925,-6.8717702,0.0 107.5615465,-6.8718472,0.0 107.5615344,-6.871872,0.0 107.561498,-6.8719649,0.0 107.5614832,-6.8721033,0.0 107.5614979,-6.8721965,0.0 107.5615301,-6.8723428,0.0 107.5615322,-6.8723843,0.0 107.561522,-6.8724317,0.0 107.5612922,-6.8728884,0.0 107.561228,-6.873016,0.0 107.5609518,-6.873565,0.0 107.5607295,-6.8741298,0.0 107.5606822,-6.8742599,0.0 107.5606128,-6.8744607,0.0 107.5604842,-6.8747831,0.0 107.5603559,-6.875184,0.0 107.5603042,-6.8753877,0.0 107.5600656,-6.8760988,0.0</coordinates>
            </LineString>
        </Placemark>
        <Placemark id="65531">
            <name>Jalan Kampus Polban</name>
            <styleUrl>#65532</styleUrl>
            <LineString id="65530">
                <coordinates>107.5749019,-6.8723534,0.0 107.5748654,-6.8723303,0.0 107.5748245,-6.8722931,0.0 107.5748031,-6.8722698,0.0 107.5747836,-6.8722531,0.0 107.5747337,-6.8722288,0.0</coordinates>
            </LineString>
        </Placemark>
        <Placemark id="65535">
            <name>Jalan Kampus Polban</name>
            <styleUrl>#65536</styleUrl>
            <LineString id="65534">
                <coordinates>107.5743985,-6.8718688,0.0 107.5744081,-6.8716733,0.0 107.5744229,-6.8714975,0.0 107.5745694,-6.8707679,0.0 107.574554,-6.8704297,0.0 107.5745852,-6.8701387,0.0 107.5746689,-6.8698424,0.0 107.5746509,-6.8697113,0.0 107.5745966,-6.8696168,0.0 107.5744851,-6.8695478,0.0 107.5736831,-6.869317,0.0 107.5733043,-6.869208,0.0 107.5730303,-6.869121,0.0 107.5726533,-6.8689981,0.0 107.572068,-6.8688657,0.0 107.571972,-6.8687999,0.0 107.5719313,-6.8686827,0.0 107.5719385,-6.8686093,0.0 107.5719968,-6.8684305,0.0 107.5720925,-6.8682955,0.0 107.5723633,-6.8679984,0.0 107.5724702,-6.867798,0.0 107.5726209,-6.867317,0.0 107.5727269,-6.8669955,0.0 107.5727771,-6.8668437,0.0</coordinates>
            </LineString>
        </Placemark>
        <Placemark id="65539">
            <name>Jalan Kampus Polban</name>
            <styleUrl>#65540</styleUrl>
            <LineString id="65538">
                <coordinates>107.5747337,-6.8722288,0.0 107.5746516,-6.8721984,0.0</coordinates>
            </LineString>
        </Placemark>
        <Placemark id="65543">
            <name>Route Segment</name>
            <styleUrl>#65544</styleUrl>
            <LineString id="65542">
                <coordinates>107.5745374,-6.8722326,0.0 107.574509,-6.8722192,0.0 107.5744856,-6.8721982,0.0 107.5744697,-6.872172,0.0 107.5744619,-6.8721424,0.0 107.5744629,-6.8721118,0.0 107.5744726,-6.8720827,0.0 107.5744817,-6.8720678,0.0</coordinates>
            </LineString>
        </Placemark>
        <Placemark id="65547">
            <name>Jalan Kampus Polban</name>
            <styleUrl>#65548</styleUrl>
            <LineString id="65546">
                <coordinates>107.5744817,-6.8720678,0.0 107.5744501,-6.8720229,0.0 107.5744068,-6.8719422,0.0 107.5743985,-6.8718688,0.0</coordinates>
            </LineString>
        </Placemark>
        <Placemark id="65551">
            <name>Jalan Geger Kalong Hilir</name>
            <styleUrl>#65552</styleUrl>
            <LineString id="65550">
                <coordinates>107.5728132,-6.8647975,0.0 107.5728929,-6.8647947,0.0 107.5729628,-6.8648002,0.0 107.5730271,-6.8648135,0.0 107.5730995,-6.8648528,0.0 107.5731267,-6.8648791,0.0 107.5731638,-6.8649409,0.0 107.5732923,-6.8651957,0.0 107.573318,-6.8652605,0.0 107.5733503,-6.8653386,0.0 107.5733533,-6.8654206,0.0 107.5733382,-6.8655342,0.0 107.5733118,-6.8656656,0.0 107.5732732,-6.8658116,0.0 107.5732481,-6.8659013,0.0 107.5732131,-6.8659948,0.0 107.5731589,-6.8660837,0.0 107.5731119,-6.8661404,0.0 107.5730174,-6.8662398,0.0 107.5729907,-6.8662819,0.0 107.5729535,-6.8663586,0.0 107.5729433,-6.8663812,0.0</coordinates>
            </LineString>
        </Placemark>
        <Placemark id="65555">
            <name>Jalan Kampus Polban</name>
            <styleUrl>#65556</styleUrl>
            <LineString id="65554">
                <coordinates>107.5728545,-6.8665842,0.0 107.5729017,-6.8664592,0.0 107.5729433,-6.8663812,0.0</coordinates>
            </LineString>
        </Placemark>
        <Placemark id="65559">
            <name>Route Segment</name>
            <styleUrl>#65560</styleUrl>
            <LineString id="65558">
                <coordinates>107.5615683,-6.8710104,0.0 107.5616133,-6.8709362,0.0 107.5616669,-6.8708696,0.0 107.5617256,-6.8708005,0.0 107.5617682,-6.8707625,0.0 107.561795,-6.8707532,0.0 107.5618129,-6.8707512,0.0 107.5618319,-6.8707532,0.0 107.5618782,-6.8707639,0.0 107.5619587,-6.8707822,0.0 107.5620435,-6.8707963,0.0 107.5621444,-6.8708342,0.0</coordinates>
            </LineString>
        </Placemark>
        <Placemark id="65563">
            <name>Jalan Terusan Sari Asih</name>
            <styleUrl>#65564</styleUrl>
            <LineString id="65562">
                <coordinates>107.57442,-6.8743572,0.0 107.5743222,-6.8743016,0.0</coordinates>
            </LineString>
        </Placemark>
        <Placemark id="65567">
            <name>Jalan Sariasih</name>
            <styleUrl>#65568</styleUrl>
            <LineString id="65566">
                <coordinates>107.5743222,-6.8743016,0.0 107.5742537,-6.8742787,0.0</coordinates>
            </LineString>
        </Placemark>
        <Placemark id="65571">
            <name>Route Segment</name>
            <styleUrl>#65572</styleUrl>
            <LineString id="65570">
                <coordinates>107.565269,-6.8690462,0.0 107.5650787,-6.8689464,0.0 107.5649688,-6.8689051,0.0 107.5649245,-6.8688945,0.0 107.5648776,-6.8689051,0.0 107.5648411,-6.8689373,0.0 107.5647393,-6.8691232,0.0 107.5646867,-6.8692216,0.0 107.5645316,-6.8695614,0.0 107.5644988,-6.8696332,0.0</coordinates>
            </LineString>
        </Placemark>
        <Placemark id="65575">
            <name>Route Segment</name>
            <styleUrl>#65576</styleUrl>
            <LineString id="65574">
                <coordinates>107.5654154,-6.8691195,0.0 107.565269,-6.8690462,0.0</coordinates>
            </LineString>
        </Placemark>
        <Placemark id="65579">
            <name>Jalan Terusan Sari Asih</name>
            <styleUrl>#65580</styleUrl>
            <LineString id="65578">
                <coordinates>107.5756273,-6.8748735,0.0 107.5751036,-6.8746422,0.0 107.57442,-6.8743572,0.0</coordinates>
            </LineString>
        </Placemark>
        <Placemark id="65583">
            <name>Jalan Kampus Polban</name>
            <styleUrl>#65584</styleUrl>
            <LineString id="65582">
                <coordinates>107.5727771,-6.8668437,0.0 107.5727828,-6.8668203,0.0 107.5728545,-6.8665842,0.0</coordinates>
            </LineString>
        </Placemark>
        <Placemark id="65587">
            <name>Jalan Sariwangi</name>
            <styleUrl>#65588</styleUrl>
            <LineString id="65586">
                <coordinates>107.5697717,-6.8687273,0.0 107.5696948,-6.8690139,0.0 107.5696825,-6.8690598,0.0 107.5696191,-6.8692959,0.0 107.5693877,-6.8700955,0.0</coordinates>
            </LineString>
        </Placemark>
        <Placemark id="65591">
            <name>Jalan Sariwangi</name>
            <styleUrl>#65592</styleUrl>
            <LineString id="65590">
                <coordinates>107.5698304,-6.8685288,0.0 107.5697717,-6.8687273,0.0</coordinates>
            </LineString>
        </Placemark>
        <Placemark id="65595">
            <name>Route Segment</name>
            <styleUrl>#65596</styleUrl>
            <LineString id="65594">
                <coordinates>107.5746516,-6.8721984,0.0 107.5746283,-6.8722194,0.0 107.5745998,-6.8722327,0.0 107.5745686,-6.8722372,0.0 107.5745374,-6.8722326,0.0</coordinates>
            </LineString>
        </Placemark>
        <Placemark id="65599">
            <name>Route Segment</name>
            <styleUrl>#65600</styleUrl>
            <LineString id="65598">
                <coordinates>107.5728132,-6.8647975,0.0 107.5727701,-6.8648772,0.0 107.5727579,-6.8649326,0.0 107.5727581,-6.8650203,0.0</coordinates>
            </LineString>
        </Placemark>
        <Placemark id="65603">
            <name>Route Segment</name>
            <styleUrl>#65604</styleUrl>
            <LineString id="65602">
                <coordinates>107.5727581,-6.8650203,0.0 107.5727584,-6.8651284,0.0</coordinates>
            </LineString>
        </Placemark>
        <Placemark id="65607">
            <name>Timur Simpang Sarimanah Sariasih</name>
            <styleUrl>#65608</styleUrl>
            <Point id="65606">
                <coordinates>107.5781315,-6.8759874,0.0</coordinates>
            </Point>
        </Placemark>
        <Placemark id="65612">
            <name>Simpang Pesantren Amir Machmud</name>
            <styleUrl>#65613</styleUrl>
            <Point id="65611">
                <coordinates>107.5556761,-6.8877811,0.0</coordinates>
            </Point>
        </Placemark>
    </Document>
</kml>
