<?xml version="1.0" encoding="UTF-8"?>
<kml xmlns="http://www.opengis.net/kml/2.2" xmlns:gx="http://www.google.com/kml/ext/2.2">
    <Document id="65089">
        <Style id="65095">
            <IconStyle id="65096">
                <colorMode>normal</colorMode>
                <scale>1</scale>
                <heading>0</heading>
                <Icon id="65097">
                    <href>http://maps.google.com/mapfiles/kml/pushpin/ylw-pushpin.png</href>
                </Icon>
            </IconStyle>
        </Style>
        <Style id="65100">
            <IconStyle id="65101">
                <colorMode>normal</colorMode>
                <scale>1</scale>
                <heading>0</heading>
                <Icon id="65102">
                    <href>http://maps.google.com/mapfiles/kml/pushpin/ylw-pushpin.png</href>
                </Icon>
            </IconStyle>
        </Style>
        <Style id="65105">
            <LineStyle id="65106">
                <color>ffFF0000</color>
                <colorMode>normal</colorMode>
                <width>4</width>
            </LineStyle>
        </Style>
        <Style id="65109">
            <LineStyle id="65110">
                <color>ffFF0000</color>
                <colorMode>normal</colorMode>
                <width>4</width>
            </LineStyle>
        </Style>
        <Style id="65113">
            <LineStyle id="65114">
                <color>ffFF0000</color>
                <colorMode>normal</colorMode>
                <width>4</width>
            </LineStyle>
        </Style>
        <Style id="65117">
            <LineStyle id="65118">
                <color>ffFF0000</color>
                <colorMode>normal</colorMode>
                <width>4</width>
            </LineStyle>
        </Style>
        <Style id="65121">
            <LineStyle id="65122">
                <color>ffFF0000</color>
                <colorMode>normal</colorMode>
                <width>4</width>
            </LineStyle>
        </Style>
        <Style id="65125">
            <LineStyle id="65126">
                <color>ffFF0000</color>
                <colorMode>normal</colorMode>
                <width>4</width>
            </LineStyle>
        </Style>
        <Style id="65129">
            <LineStyle id="65130">
                <color>ffFF0000</color>
                <colorMode>normal</colorMode>
                <width>4</width>
            </LineStyle>
        </Style>
        <Style id="65133">
            <LineStyle id="65134">
                <color>ffFF0000</color>
                <colorMode>normal</colorMode>
                <width>4</width>
            </LineStyle>
        </Style>
        <Style id="65137">
            <LineStyle id="65138">
                <color>ffFF0000</color>
                <colorMode>normal</colorMode>
                <width>4</width>
            </LineStyle>
        </Style>
        <Style id="65141">
            <LineStyle id="65142">
                <color>ffFF0000</color>
                <colorMode>normal</colorMode>
                <width>4</width>
            </LineStyle>
        </Style>
        <Style id="65145">
            <LineStyle id="65146">
                <color>ffFF0000</color>
                <colorMode>normal</colorMode>
                <width>4</width>
            </LineStyle>
        </Style>
        <Style id="65149">
            <LineStyle id="65150">
                <color>ffFF0000</color>
                <colorMode>normal</colorMode>
                <width>4</width>
            </LineStyle>
        </Style>
        <Style id="65153">
            <LineStyle id="65154">
                <color>ffFF0000</color>
                <colorMode>normal</colorMode>
                <width>4</width>
            </LineStyle>
        </Style>
        <Style id="65157">
            <LineStyle id="65158">
                <color>ffFF0000</color>
                <colorMode>normal</colorMode>
                <width>4</width>
            </LineStyle>
        </Style>
        <Style id="65161">
            <LineStyle id="65162">
                <color>ffFF0000</color>
                <colorMode>normal</colorMode>
                <width>4</width>
            </LineStyle>
        </Style>
        <Style id="65165">
            <LineStyle id="65166">
                <color>ffFF0000</color>
                <colorMode>normal</colorMode>
                <width>4</width>
            </LineStyle>
        </Style>
        <Style id="65169">
            <LineStyle id="65170">
                <color>ffFF0000</color>
                <colorMode>normal</colorMode>
                <width>4</width>
            </LineStyle>
        </Style>
        <Style id="65173">
            <LineStyle id="65174">
                <color>ffFF0000</color>
                <colorMode>normal</colorMode>
                <width>4</width>
            </LineStyle>
        </Style>
        <Style id="65177">
            <LineStyle id="65178">
                <color>ffFF0000</color>
                <colorMode>normal</colorMode>
                <width>4</width>
            </LineStyle>
        </Style>
        <Style id="65181">
            <LineStyle id="65182">
                <color>ffFF0000</color>
                <colorMode>normal</colorMode>
                <width>4</width>
            </LineStyle>
        </Style>
        <Style id="65185">
            <LineStyle id="65186">
                <color>ffFF0000</color>
                <colorMode>normal</colorMode>
                <width>4</width>
            </LineStyle>
        </Style>
        <Style id="65189">
            <LineStyle id="65190">
                <color>ffFF0000</color>
                <colorMode>normal</colorMode>
                <width>4</width>
            </LineStyle>
        </Style>
        <Style id="65193">
            <LineStyle id="65194">
                <color>ffFF0000</color>
                <colorMode>normal</colorMode>
                <width>4</width>
            </LineStyle>
        </Style>
        <Style id="65197">
            <LineStyle id="65198">
                <color>ffFF0000</color>
                <colorMode>normal</colorMode>
                <width>4</width>
            </LineStyle>
        </Style>
        <Style id="65201">
            <LineStyle id="65202">
                <color>ffFF0000</color>
                <colorMode>normal</colorMode>
                <width>4</width>
            </LineStyle>
        </Style>
        <Style id="65205">
            <LineStyle id="65206">
                <color>ffFF0000</color>
                <colorMode>normal</colorMode>
                <width>4</width>
            </LineStyle>
        </Style>
        <Style id="65209">
            <LineStyle id="65210">
                <color>ffFF0000</color>
                <colorMode>normal</colorMode>
                <width>4</width>
            </LineStyle>
        </Style>
        <Style id="65213">
            <LineStyle id="65214">
                <color>ffFF0000</color>
                <colorMode>normal</colorMode>
                <width>4</width>
            </LineStyle>
        </Style>
        <Style id="65217">
            <LineStyle id="65218">
                <color>ffFF0000</color>
                <colorMode>normal</colorMode>
                <width>4</width>
            </LineStyle>
        </Style>
        <Style id="65221">
            <LineStyle id="65222">
                <color>ffFF0000</color>
                <colorMode>normal</colorMode>
                <width>4</width>
            </LineStyle>
        </Style>
        <Style id="65225">
            <LineStyle id="65226">
                <color>ffFF0000</color>
                <colorMode>normal</colorMode>
                <width>4</width>
            </LineStyle>
        </Style>
        <ExtendedData>
            <Data name="route-name">
                <value>946: Pesantren → Sarijadi</value>
            </Data>
            <Data name="source">
                <value>Transport for Bandung</value>
            </Data>
        </ExtendedData>
        <Placemark id="65094">
            <name>Simpang Pesantren Amir Machmud</name>
            <styleUrl>#65095</styleUrl>
            <Point id="65093">
                <coordinates>107.5556761,-6.8877811,0.0</coordinates>
            </Point>
        </Placemark>
        <Placemark id="65099">
            <name>Timur Simpang Sarimanah Sariasih</name>
            <styleUrl>#65100</styleUrl>
            <Point id="65098">
                <coordinates>107.5781315,-6.8759874,0.0</coordinates>
            </Point>
        </Placemark>
        <Placemark id="65104">
            <name>Route Segment</name>
            <styleUrl>#65105</styleUrl>
            <LineString id="65103">
                <coordinates>107.5644988,-6.8696332,0.0 107.5643934,-6.8698992,0.0 107.5643068,-6.8700916,0.0 107.5641467,-6.870438,0.0 107.5641138,-6.8704843,0.0 107.564077,-6.8705002,0.0 107.5640143,-6.870499,0.0 107.5636626,-6.8703681,0.0 107.5636093,-6.8704557,0.0 107.5633939,-6.8708851,0.0 107.563309,-6.8710897,0.0</coordinates>
            </LineString>
        </Placemark>
        <Placemark id="65108">
            <name>Jalan Kampus Polban</name>
            <styleUrl>#65109</styleUrl>
            <LineString id="65107">
                <coordinates>107.5749019,-6.8723534,0.0 107.5749826,-6.8725881,0.0 107.5750232,-6.8728908,0.0 107.575015,-6.873062,0.0 107.574979,-6.8732726,0.0 107.5749207,-6.8734287,0.0 107.574793,-6.8736512,0.0 107.5746502,-6.8738588,0.0 107.5744507,-6.874061,0.0 107.5743334,-6.8741854,0.0 107.5742894,-6.8742357,0.0 107.5742537,-6.8742787,0.0</coordinates>
            </LineString>
        </Placemark>
        <Placemark id="65112">
            <name>Route Segment</name>
            <styleUrl>#65113</styleUrl>
            <LineString id="65111">
                <coordinates>107.5717143,-6.8643513,0.0 107.5717454,-6.8643351,0.0 107.571773,-6.8643258,0.0 107.571791,-6.8643228,0.0 107.5718111,-6.8643248,0.0 107.5719593,-6.8643541,0.0 107.5719799,-6.8643568,0.0 107.5720001,-6.8643567,0.0 107.5721731,-6.8643494,0.0 107.5722111,-6.8643558,0.0 107.5722567,-6.8643811,0.0 107.5723085,-6.864417,0.0 107.5723783,-6.8644904,0.0 107.5724389,-6.8645537,0.0 107.5725917,-6.8647058,0.0 107.5727017,-6.8647695,0.0 107.5727744,-6.8647924,0.0 107.5728132,-6.8647975,0.0</coordinates>
            </LineString>
        </Placemark>
        <Placemark id="65116">
            <name>Route Segment</name>
            <styleUrl>#65117</styleUrl>
            <LineString id="65115">
                <coordinates>107.5693877,-6.8700955,0.0 107.5689625,-6.8699743,0.0 107.5686203,-6.869904,0.0 107.5685894,-6.8699047,0.0 107.5685636,-6.8699124,0.0 107.5685408,-6.8699245,0.0 107.5685254,-6.8699463,0.0 107.568409,-6.8702693,0.0 107.5683926,-6.8702959,0.0 107.5683708,-6.8703098,0.0 107.568344,-6.8703198,0.0 107.5683148,-6.8703232,0.0 107.5678935,-6.8701623,0.0 107.567435,-6.869947,0.0 107.5673557,-6.8699093,0.0 107.5669989,-6.8697602,0.0 107.5664893,-6.8695728,0.0 107.5662902,-6.8695006,0.0 107.5661415,-6.8694414,0.0 107.5659086,-6.8693487,0.0 107.5655938,-6.8691965,0.0 107.5654154,-6.8691195,0.0</coordinates>
            </LineString>
        </Placemark>
        <Placemark id="65120">
            <name>Jalan Pasantren</name>
            <styleUrl>#65121</styleUrl>
            <LineString id="65119">
                <coordinates>107.5600656,-6.8760988,0.0 107.5599837,-6.8763713,0.0 107.5599825,-6.8763734,0.0 107.5597445,-6.8769573,0.0 107.5596384,-6.8771932,0.0 107.5596267,-6.8772198,0.0 107.5595,-6.8775007,0.0 107.5593402,-6.87781,0.0 107.5592899,-6.8779132,0.0 107.5592468,-6.8780507,0.0 107.5590598,-6.8787935,0.0 107.5590201,-6.8789379,0.0 107.5589379,-6.8792234,0.0 107.5588583,-6.8795124,0.0 107.5587988,-6.87977,0.0 107.5587425,-6.879934,0.0 107.5586544,-6.880128,0.0 107.5583766,-6.8806983,0.0 107.5583168,-6.8808708,0.0 107.5582806,-6.881028,0.0 107.5582445,-6.8812425,0.0 107.5582223,-6.8813674,0.0 107.5581841,-6.8814901,0.0 107.5580523,-6.8817985,0.0 107.5578702,-6.8822236,0.0 107.557834,-6.8823136,0.0 107.5577988,-6.8823935,0.0 107.5575444,-6.8829467,0.0 107.5574932,-6.8830863,0.0 107.557459,-6.8832408,0.0 107.5574197,-6.8834832,0.0 107.5573827,-6.8837211,0.0 107.5573579,-6.8838837,0.0 107.5573374,-6.8839858,0.0 107.5572572,-6.8843882,0.0 107.5572037,-6.8846212,0.0 107.5571865,-6.8846913,0.0 107.5571258,-6.8849852,0.0 107.5570163,-6.8853633,0.0 107.5569267,-6.8856048,0.0 107.5568246,-6.8858151,0.0 107.5567173,-6.885993,0.0 107.5563547,-6.8865937,0.0 107.5562165,-6.8868224,0.0 107.5561192,-6.8869761,0.0 107.556043,-6.8871207,0.0 107.5559721,-6.8872942,0.0 107.5558756,-6.8874939,0.0 107.5557872,-6.887633,0.0 107.5556761,-6.8877811,0.0</coordinates>
            </LineString>
        </Placemark>
        <Placemark id="65124">
            <name>Route Segment</name>
            <styleUrl>#65125</styleUrl>
            <LineString id="65123">
                <coordinates>107.5621444,-6.8708342,0.0 107.5622559,-6.8708557,0.0 107.5623395,-6.8708637,0.0 107.5623972,-6.8708577,0.0 107.5624529,-6.8708504,0.0 107.5625512,-6.8708376,0.0 107.562592,-6.8708328,0.0 107.5626326,-6.8708391,0.0 107.5626902,-6.8708551,0.0 107.5628638,-6.8709205,0.0 107.5629658,-6.8709589,0.0 107.563309,-6.8710897,0.0</coordinates>
            </LineString>
        </Placemark>
        <Placemark id="65128">
            <name>Jalan Sariasih</name>
            <styleUrl>#65129</styleUrl>
            <LineString id="65127">
                <coordinates>107.5781315,-6.8759874,0.0 107.5774753,-6.87569,0.0 107.5774086,-6.8756601,0.0 107.5765243,-6.8752757,0.0 107.5762661,-6.8751665,0.0 107.5759542,-6.8750264,0.0 107.5758513,-6.8749793,0.0 107.5756273,-6.8748735,0.0</coordinates>
            </LineString>
        </Placemark>
        <Placemark id="65132">
            <name>Jalan Sariwangi</name>
            <styleUrl>#65133</styleUrl>
            <LineString id="65131">
                <coordinates>107.5717143,-6.8643513,0.0 107.5715829,-6.8647541,0.0</coordinates>
            </LineString>
        </Placemark>
        <Placemark id="65136">
            <name>Jalan Pasantren</name>
            <styleUrl>#65137</styleUrl>
            <LineString id="65135">
                <coordinates>107.5615683,-6.8710104,0.0 107.5615678,-6.87113,0.0 107.5616207,-6.8715022,0.0 107.5616259,-6.8715606,0.0 107.5616207,-6.8716207,0.0 107.5615925,-6.8717702,0.0 107.5615465,-6.8718472,0.0 107.5615344,-6.871872,0.0 107.561498,-6.8719649,0.0 107.5614832,-6.8721033,0.0 107.5614979,-6.8721965,0.0 107.5615301,-6.8723428,0.0 107.5615322,-6.8723843,0.0 107.561522,-6.8724317,0.0 107.5612922,-6.8728884,0.0 107.561228,-6.873016,0.0 107.5609518,-6.873565,0.0 107.5607295,-6.8741298,0.0 107.5606822,-6.8742599,0.0 107.5606128,-6.8744607,0.0 107.5604842,-6.8747831,0.0 107.5603559,-6.875184,0.0 107.5603042,-6.8753877,0.0 107.5600656,-6.8760988,0.0</coordinates>
            </LineString>
        </Placemark>
        <Placemark id="65140">
            <name>Jalan Kampus Polban</name>
            <styleUrl>#65141</styleUrl>
            <LineString id="65139">
                <coordinates>107.5743985,-6.8718688,0.0 107.5744081,-6.8716733,0.0 107.5744229,-6.8714975,0.0 107.5745694,-6.8707679,0.0 107.574554,-6.8704297,0.0 107.5745852,-6.8701387,0.0 107.5746689,-6.8698424,0.0 107.5746509,-6.8697113,0.0 107.5745966,-6.8696168,0.0 107.5744851,-6.8695478,0.0 107.5736831,-6.869317,0.0 107.5733043,-6.869208,0.0 107.5730303,-6.869121,0.0 107.5726533,-6.8689981,0.0 107.572068,-6.8688657,0.0 107.571972,-6.8687999,0.0 107.5719313,-6.8686827,0.0 107.5719385,-6.8686093,0.0 107.5719968,-6.8684305,0.0 107.5720925,-6.8682955,0.0 107.5723633,-6.8679984,0.0 107.5724702,-6.867798,0.0 107.5726209,-6.867317,0.0 107.5727269,-6.8669955,0.0 107.5727771,-6.8668437,0.0</coordinates>
            </LineString>
        </Placemark>
        <Placemark id="65144">
            <name>Jalan Kampus Polban</name>
            <styleUrl>#65145</styleUrl>
            <LineString id="65143">
                <coordinates>107.5743985,-6.8718688,0.0 107.5744641,-6.8719106,0.0 107.5745105,-6.8719596,0.0 107.5745558,-6.8720246,0.0</coordinates>
            </LineString>
        </Placemark>
        <Placemark id="65148">
            <name>Jalan Kampus Polban</name>
            <styleUrl>#65149</styleUrl>
            <LineString id="65147">
                <coordinates>107.5747629,-6.8721027,0.0 107.5748111,-6.8721533,0.0 107.5748956,-6.8723031,0.0 107.5749019,-6.8723534,0.0</coordinates>
            </LineString>
        </Placemark>
        <Placemark id="65152">
            <name>Jalan Geger Kalong Hilir</name>
            <styleUrl>#65153</styleUrl>
            <LineString id="65151">
                <coordinates>107.5728132,-6.8647975,0.0 107.5728929,-6.8647947,0.0 107.5729628,-6.8648002,0.0 107.5730271,-6.8648135,0.0 107.5730995,-6.8648528,0.0 107.5731267,-6.8648791,0.0 107.5731638,-6.8649409,0.0 107.5732923,-6.8651957,0.0 107.573318,-6.8652605,0.0 107.5733503,-6.8653386,0.0 107.5733533,-6.8654206,0.0 107.5733382,-6.8655342,0.0 107.5733118,-6.8656656,0.0 107.5732732,-6.8658116,0.0 107.5732481,-6.8659013,0.0 107.5732131,-6.8659948,0.0 107.5731589,-6.8660837,0.0 107.5731119,-6.8661404,0.0 107.5730174,-6.8662398,0.0 107.5729907,-6.8662819,0.0 107.5729535,-6.8663586,0.0 107.5729433,-6.8663812,0.0</coordinates>
            </LineString>
        </Placemark>
        <Placemark id="65156">
            <name>Jalan Kampus Polban</name>
            <styleUrl>#65157</styleUrl>
            <LineString id="65155">
                <coordinates>107.5728545,-6.8665842,0.0 107.5729017,-6.8664592,0.0 107.5729433,-6.8663812,0.0</coordinates>
            </LineString>
        </Placemark>
        <Placemark id="65160">
            <name>Route Segment</name>
            <styleUrl>#65161</styleUrl>
            <LineString id="65159">
                <coordinates>107.5615683,-6.8710104,0.0 107.5616133,-6.8709362,0.0 107.5616669,-6.8708696,0.0 107.5617256,-6.8708005,0.0 107.5617682,-6.8707625,0.0 107.561795,-6.8707532,0.0 107.5618129,-6.8707512,0.0 107.5618319,-6.8707532,0.0 107.5618782,-6.8707639,0.0 107.5619587,-6.8707822,0.0 107.5620435,-6.8707963,0.0 107.5621444,-6.8708342,0.0</coordinates>
            </LineString>
        </Placemark>
        <Placemark id="65164">
            <name>Jalan Terusan Sari Asih</name>
            <styleUrl>#65165</styleUrl>
            <LineString id="65163">
                <coordinates>107.57442,-6.8743572,0.0 107.5743222,-6.8743016,0.0</coordinates>
            </LineString>
        </Placemark>
        <Placemark id="65168">
            <name>Jalan Sariasih</name>
            <styleUrl>#65169</styleUrl>
            <LineString id="65167">
                <coordinates>107.5743222,-6.8743016,0.0 107.5742537,-6.8742787,0.0</coordinates>
            </LineString>
        </Placemark>
        <Placemark id="65172">
            <name>Route Segment</name>
            <styleUrl>#65173</styleUrl>
            <LineString id="65171">
                <coordinates>107.565269,-6.8690462,0.0 107.5650787,-6.8689464,0.0 107.5649688,-6.8689051,0.0 107.5649245,-6.8688945,0.0 107.5648776,-6.8689051,0.0 107.5648411,-6.8689373,0.0 107.5647393,-6.8691232,0.0 107.5646867,-6.8692216,0.0 107.5645316,-6.8695614,0.0 107.5644988,-6.8696332,0.0</coordinates>
            </LineString>
        </Placemark>
        <Placemark id="65176">
            <name>Route Segment</name>
            <styleUrl>#65177</styleUrl>
            <LineString id="65175">
                <coordinates>107.5654154,-6.8691195,0.0 107.565269,-6.8690462,0.0</coordinates>
            </LineString>
        </Placemark>
        <Placemark id="65180">
            <name>Jalan Terusan Sari Asih</name>
            <styleUrl>#65181</styleUrl>
            <LineString id="65179">
                <coordinates>107.5756273,-6.8748735,0.0 107.5751036,-6.8746422,0.0 107.57442,-6.8743572,0.0</coordinates>
            </LineString>
        </Placemark>
        <Placemark id="65184">
            <name>Jalan Kampus Polban</name>
            <styleUrl>#65185</styleUrl>
            <LineString id="65183">
                <coordinates>107.5727771,-6.8668437,0.0 107.5727828,-6.8668203,0.0 107.5728545,-6.8665842,0.0</coordinates>
            </LineString>
        </Placemark>
        <Placemark id="65188">
            <name>Jalan Sariwangi</name>
            <styleUrl>#65189</styleUrl>
            <LineString id="65187">
                <coordinates>107.5697717,-6.8687273,0.0 107.5696948,-6.8690139,0.0 107.5696825,-6.8690598,0.0 107.5696191,-6.8692959,0.0 107.5693877,-6.8700955,0.0</coordinates>
            </LineString>
        </Placemark>
        <Placemark id="65192">
            <name>Jalan Sariwangi</name>
            <styleUrl>#65193</styleUrl>
            <LineString id="65191">
                <coordinates>107.5700313,-6.867883,0.0 107.5698304,-6.8685288,0.0</coordinates>
            </LineString>
        </Placemark>
        <Placemark id="65196">
            <name>Jalan Sariwangi</name>
            <styleUrl>#65197</styleUrl>
            <LineString id="65195">
                <coordinates>107.5703577,-6.8669106,0.0 107.5702729,-6.8671666,0.0 107.5700313,-6.867883,0.0</coordinates>
            </LineString>
        </Placemark>
        <Placemark id="65200">
            <name>Jalan Sariwangi</name>
            <styleUrl>#65201</styleUrl>
            <LineString id="65199">
                <coordinates>107.5705482,-6.8663418,0.0 107.5703577,-6.8669106,0.0</coordinates>
            </LineString>
        </Placemark>
        <Placemark id="65204">
            <name>Jalan Sariwangi</name>
            <styleUrl>#65205</styleUrl>
            <LineString id="65203">
                <coordinates>107.5710961,-6.8653644,0.0 107.5710285,-6.8654326,0.0 107.5709815,-6.8654991,0.0 107.5705482,-6.8663418,0.0</coordinates>
            </LineString>
        </Placemark>
        <Placemark id="65208">
            <name>Jalan Sariwangi</name>
            <styleUrl>#65209</styleUrl>
            <LineString id="65207">
                <coordinates>107.5712389,-6.8652674,0.0 107.5710961,-6.8653644,0.0</coordinates>
            </LineString>
        </Placemark>
        <Placemark id="65212">
            <name>Jalan Sariwangi</name>
            <styleUrl>#65213</styleUrl>
            <LineString id="65211">
                <coordinates>107.5715829,-6.8647541,0.0 107.5714411,-6.8650677,0.0 107.5713913,-6.865135,0.0 107.5712389,-6.8652674,0.0</coordinates>
            </LineString>
        </Placemark>
        <Placemark id="65216">
            <name>Jalan Sariwangi</name>
            <styleUrl>#65217</styleUrl>
            <LineString id="65215">
                <coordinates>107.5698304,-6.8685288,0.0 107.5697717,-6.8687273,0.0</coordinates>
            </LineString>
        </Placemark>
        <Placemark id="65220">
            <name>Route Segment</name>
            <styleUrl>#65221</styleUrl>
            <LineString id="65219">
                <coordinates>107.5745558,-6.8720246,0.0 107.5746045,-6.8720299,0.0 107.5746457,-6.8720561,0.0 107.5746674,-6.8720883,0.0</coordinates>
            </LineString>
        </Placemark>
        <Placemark id="65224">
            <name>Jalan Kampus Polban</name>
            <styleUrl>#65225</styleUrl>
            <LineString id="65223">
                <coordinates>107.5746674,-6.8720883,0.0 107.5747117,-6.8720885,0.0 107.5747629,-6.8721027,0.0</coordinates>
            </LineString>
        </Placemark>
    </Document>
</kml>
