<?xml version="1.0" encoding="UTF-8"?>
<kml xmlns="http://www.opengis.net/kml/2.2" xmlns:gx="http://www.google.com/kml/ext/2.2">
    <Document id="66167">
        <Style id="66173">
            <IconStyle id="66174">
                <colorMode>normal</colorMode>
                <scale>1</scale>
                <heading>0</heading>
                <Icon id="66175">
                    <href>http://maps.google.com/mapfiles/kml/pushpin/ylw-pushpin.png</href>
                </Icon>
            </IconStyle>
        </Style>
        <Style id="66178">
            <IconStyle id="66179">
                <colorMode>normal</colorMode>
                <scale>1</scale>
                <heading>0</heading>
                <Icon id="66180">
                    <href>http://maps.google.com/mapfiles/kml/pushpin/ylw-pushpin.png</href>
                </Icon>
            </IconStyle>
        </Style>
        <Style id="66183">
            <LineStyle id="66184">
                <color>ffC98304</color>
                <colorMode>normal</colorMode>
                <width>4</width>
            </LineStyle>
        </Style>
        <Style id="66187">
            <LineStyle id="66188">
                <color>ffC98304</color>
                <colorMode>normal</colorMode>
                <width>4</width>
            </LineStyle>
        </Style>
        <Style id="66191">
            <LineStyle id="66192">
                <color>ffC98304</color>
                <colorMode>normal</colorMode>
                <width>4</width>
            </LineStyle>
        </Style>
        <Style id="66195">
            <LineStyle id="66196">
                <color>ffC98304</color>
                <colorMode>normal</colorMode>
                <width>4</width>
            </LineStyle>
        </Style>
        <Style id="66199">
            <LineStyle id="66200">
                <color>ffC98304</color>
                <colorMode>normal</colorMode>
                <width>4</width>
            </LineStyle>
        </Style>
        <Style id="66203">
            <LineStyle id="66204">
                <color>ffC98304</color>
                <colorMode>normal</colorMode>
                <width>4</width>
            </LineStyle>
        </Style>
        <Style id="66207">
            <LineStyle id="66208">
                <color>ffC98304</color>
                <colorMode>normal</colorMode>
                <width>4</width>
            </LineStyle>
        </Style>
        <Style id="66211">
            <LineStyle id="66212">
                <color>ffC98304</color>
                <colorMode>normal</colorMode>
                <width>4</width>
            </LineStyle>
        </Style>
        <Style id="66215">
            <LineStyle id="66216">
                <color>ffC98304</color>
                <colorMode>normal</colorMode>
                <width>4</width>
            </LineStyle>
        </Style>
        <Style id="66219">
            <LineStyle id="66220">
                <color>ffC98304</color>
                <colorMode>normal</colorMode>
                <width>4</width>
            </LineStyle>
        </Style>
        <Style id="66223">
            <LineStyle id="66224">
                <color>ffC98304</color>
                <colorMode>normal</colorMode>
                <width>4</width>
            </LineStyle>
        </Style>
        <Style id="66227">
            <LineStyle id="66228">
                <color>ffC98304</color>
                <colorMode>normal</colorMode>
                <width>4</width>
            </LineStyle>
        </Style>
        <Style id="66231">
            <LineStyle id="66232">
                <color>ffC98304</color>
                <colorMode>normal</colorMode>
                <width>4</width>
            </LineStyle>
        </Style>
        <Style id="66235">
            <LineStyle id="66236">
                <color>ffC98304</color>
                <colorMode>normal</colorMode>
                <width>4</width>
            </LineStyle>
        </Style>
        <Style id="66239">
            <LineStyle id="66240">
                <color>ffC98304</color>
                <colorMode>normal</colorMode>
                <width>4</width>
            </LineStyle>
        </Style>
        <Style id="66243">
            <LineStyle id="66244">
                <color>ffC98304</color>
                <colorMode>normal</colorMode>
                <width>4</width>
            </LineStyle>
        </Style>
        <Style id="66247">
            <LineStyle id="66248">
                <color>ffC98304</color>
                <colorMode>normal</colorMode>
                <width>4</width>
            </LineStyle>
        </Style>
        <Style id="66251">
            <LineStyle id="66252">
                <color>ffC98304</color>
                <colorMode>normal</colorMode>
                <width>4</width>
            </LineStyle>
        </Style>
        <Style id="66255">
            <LineStyle id="66256">
                <color>ffC98304</color>
                <colorMode>normal</colorMode>
                <width>4</width>
            </LineStyle>
        </Style>
        <Style id="66259">
            <LineStyle id="66260">
                <color>ffC98304</color>
                <colorMode>normal</colorMode>
                <width>4</width>
            </LineStyle>
        </Style>
        <Style id="66263">
            <LineStyle id="66264">
                <color>ffC98304</color>
                <colorMode>normal</colorMode>
                <width>4</width>
            </LineStyle>
        </Style>
        <Style id="66267">
            <LineStyle id="66268">
                <color>ffC98304</color>
                <colorMode>normal</colorMode>
                <width>4</width>
            </LineStyle>
        </Style>
        <Style id="66271">
            <LineStyle id="66272">
                <color>ffC98304</color>
                <colorMode>normal</colorMode>
                <width>4</width>
            </LineStyle>
        </Style>
        <Style id="66275">
            <LineStyle id="66276">
                <color>ffC98304</color>
                <colorMode>normal</colorMode>
                <width>4</width>
            </LineStyle>
        </Style>
        <Style id="66279">
            <LineStyle id="66280">
                <color>ffC98304</color>
                <colorMode>normal</colorMode>
                <width>4</width>
            </LineStyle>
        </Style>
        <Style id="66283">
            <LineStyle id="66284">
                <color>ffC98304</color>
                <colorMode>normal</colorMode>
                <width>4</width>
            </LineStyle>
        </Style>
        <Style id="66287">
            <LineStyle id="66288">
                <color>ffC98304</color>
                <colorMode>normal</colorMode>
                <width>4</width>
            </LineStyle>
        </Style>
        <Style id="66291">
            <LineStyle id="66292">
                <color>ffC98304</color>
                <colorMode>normal</colorMode>
                <width>4</width>
            </LineStyle>
        </Style>
        <Style id="66295">
            <LineStyle id="66296">
                <color>ffC98304</color>
                <colorMode>normal</colorMode>
                <width>4</width>
            </LineStyle>
        </Style>
        <Style id="66299">
            <LineStyle id="66300">
                <color>ffC98304</color>
                <colorMode>normal</colorMode>
                <width>4</width>
            </LineStyle>
        </Style>
        <ExtendedData>
            <Data name="route-name">
                <value>951: Cimahi → Permata via Puri Cipageran</value>
            </Data>
            <Data name="source">
                <value>Transport for Bandung</value>
            </Data>
        </ExtendedData>
        <Placemark id="66172">
            <name>Terminal Pasar Atas Cimahi</name>
            <styleUrl>#66173</styleUrl>
            <Point id="66171">
                <coordinates>107.5434855,-6.8698358,0.0</coordinates>
            </Point>
        </Placemark>
        <Placemark id="66177">
            <name>Borma Pemata Cimahi</name>
            <styleUrl>#66178</styleUrl>
            <Point id="66176">
                <coordinates>107.5200253,-6.8614179,0.0</coordinates>
            </Point>
        </Placemark>
        <Placemark id="66182">
            <name>Jalan Cipageran</name>
            <styleUrl>#66183</styleUrl>
            <LineString id="66181">
                <coordinates>107.5436392,-6.8570058,0.0 107.5436414,-6.856933,0.0 107.543642,-6.8568665,0.0 107.5436151,-6.8565103,0.0 107.5436023,-6.8564144,0.0 107.5435884,-6.8563149,0.0 107.5435632,-6.8562537,0.0 107.5435341,-6.8562193,0.0 107.543455,-6.8561515,0.0 107.5433827,-6.8560728,0.0 107.5433309,-6.8559452,0.0 107.5433175,-6.8559066,0.0 107.5432046,-6.8555922,0.0 107.5431892,-6.8555209,0.0 107.5431873,-6.8554965,0.0 107.5431867,-6.8554719,0.0 107.5431819,-6.8552633,0.0 107.5431637,-6.8550196,0.0 107.5431503,-6.8549783,0.0 107.5431329,-6.8549477,0.0 107.5431027,-6.8549251,0.0 107.5426548,-6.8548139,0.0 107.5423952,-6.8547513,0.0 107.5422666,-6.8547092,0.0</coordinates>
            </LineString>
        </Placemark>
        <Placemark id="66186">
            <name>Jalan Puri Cipageran Indah Raya</name>
            <styleUrl>#66187</styleUrl>
            <LineString id="66185">
                <coordinates>107.5408033,-6.8567809,0.0 107.5407216,-6.8569752,0.0 107.5403988,-6.8577018,0.0 107.5399534,-6.8586828,0.0</coordinates>
            </LineString>
        </Placemark>
        <Placemark id="66190">
            <name>Route Segment</name>
            <styleUrl>#66191</styleUrl>
            <LineString id="66189">
                <coordinates>107.5399534,-6.8586828,0.0 107.539803,-6.85861,0.0 107.5396449,-6.8585376,0.0 107.5391404,-6.8583158,0.0</coordinates>
            </LineString>
        </Placemark>
        <Placemark id="66194">
            <name>Jalan Puri Cipageran Indah Raya</name>
            <styleUrl>#66195</styleUrl>
            <LineString id="66193">
                <coordinates>107.5422666,-6.8547092,0.0 107.5421874,-6.8549576,0.0 107.5420391,-6.8553444,0.0 107.5418673,-6.8557352,0.0 107.5417725,-6.8559716,0.0 107.5415737,-6.8564367,0.0 107.541488,-6.8564813,0.0 107.5411736,-6.8566082,0.0 107.5408718,-6.8567326,0.0 107.5408302,-6.8567526,0.0 107.5408033,-6.8567809,0.0</coordinates>
            </LineString>
        </Placemark>
        <Placemark id="66198">
            <name>Route Segment</name>
            <styleUrl>#66199</styleUrl>
            <LineString id="66197">
                <coordinates>107.5365396,-6.8597346,0.0 107.5365986,-6.8596727,0.0 107.5366863,-6.8595488,0.0 107.536738,-6.8594755,0.0 107.5367904,-6.8594161,0.0 107.536859,-6.8593597,0.0 107.5370647,-6.8592208,0.0 107.5373587,-6.8590712,0.0 107.5377913,-6.85881,0.0 107.537922,-6.8587299,0.0 107.5379777,-6.8587092,0.0 107.5380327,-6.8587132,0.0 107.5385492,-6.8589482,0.0</coordinates>
            </LineString>
        </Placemark>
        <Placemark id="66202">
            <name>Route Segment</name>
            <styleUrl>#66203</styleUrl>
            <LineString id="66201">
                <coordinates>107.5391404,-6.8583158,0.0 107.5388668,-6.8589655,0.0 107.538828,-6.8590607,0.0</coordinates>
            </LineString>
        </Placemark>
        <Placemark id="66206">
            <name>Route Segment</name>
            <styleUrl>#66207</styleUrl>
            <LineString id="66205">
                <coordinates>107.5312085,-6.8608221,0.0 107.5312447,-6.860765,0.0 107.5313426,-6.8606088,0.0 107.5313861,-6.8605415,0.0 107.5315554,-6.8602623,0.0 107.5315989,-6.8602204,0.0 107.5316343,-6.8601912,0.0 107.5316824,-6.8601778,0.0 107.5317087,-6.8601839,0.0 107.5317337,-6.8601977,0.0 107.5319428,-6.860349,0.0 107.5321406,-6.8604858,0.0 107.5322938,-6.8605899,0.0 107.5323327,-6.8605975,0.0 107.5323699,-6.8605847,0.0 107.5324403,-6.860502,0.0 107.5326697,-6.8600669,0.0 107.5327951,-6.8598085,0.0 107.5329735,-6.8594626,0.0 107.5330844,-6.8592417,0.0</coordinates>
            </LineString>
        </Placemark>
        <Placemark id="66210">
            <name>Jalan Somawinata</name>
            <styleUrl>#66211</styleUrl>
            <LineString id="66209">
                <coordinates>107.5267038,-6.8603927,0.0 107.5270722,-6.8606024,0.0 107.5272582,-6.8607172,0.0 107.5273652,-6.8608025,0.0 107.5274623,-6.8608921,0.0 107.5276613,-6.8610745,0.0 107.5278043,-6.8612046,0.0 107.527845,-6.8612417,0.0 107.5280418,-6.861431,0.0 107.5281206,-6.8615068,0.0 107.5282817,-6.8616527,0.0 107.5284211,-6.8617838,0.0 107.5285332,-6.8618721,0.0 107.528593,-6.861918,0.0 107.5286755,-6.8619746,0.0 107.5287278,-6.8620045,0.0 107.5287532,-6.8620182,0.0 107.5288448,-6.8620678,0.0 107.5288922,-6.8620821,0.0 107.5289722,-6.8620838,0.0 107.5290579,-6.8620895,0.0 107.5291166,-6.8621024,0.0 107.529165,-6.8621131,0.0 107.5293078,-6.8621826,0.0 107.5294542,-6.8622668,0.0 107.5295084,-6.8622858,0.0 107.5295395,-6.8622923,0.0 107.5295649,-6.8622822,0.0 107.5296058,-6.8622523,0.0 107.5296696,-6.8621293,0.0 107.5297442,-6.861998,0.0 107.5298259,-6.8618539,0.0 107.5298669,-6.8617834,0.0 107.5299359,-6.8616658,0.0 107.5299968,-6.8616051,0.0 107.5300604,-6.8615322,0.0 107.5300806,-6.8615274,0.0 107.5301014,-6.8615251,0.0 107.5301249,-6.861524,0.0 107.5301466,-6.8615341,0.0 107.5304249,-6.8616997,0.0 107.530556,-6.8617762,0.0 107.5305735,-6.8617763,0.0 107.5305882,-6.8617642,0.0 107.5307043,-6.8616065,0.0 107.5307742,-6.8615061,0.0 107.5310115,-6.8611417,0.0 107.5312085,-6.8608221,0.0</coordinates>
            </LineString>
        </Placemark>
        <Placemark id="66214">
            <name>Route Segment</name>
            <styleUrl>#66215</styleUrl>
            <LineString id="66213">
                <coordinates>107.5240113,-6.8598277,0.0 107.5244375,-6.8599693,0.0 107.5245157,-6.8599974,0.0 107.5247989,-6.8600943,0.0 107.5249563,-6.8601507,0.0 107.5253388,-6.860292,0.0 107.525757,-6.86046,0.0 107.526066,-6.8606083,0.0 107.526091,-6.8606204,0.0 107.5261351,-6.8606222,0.0 107.5261659,-6.8606137,0.0 107.5261994,-6.860589,0.0 107.5262797,-6.8604367,0.0 107.526299,-6.8604156,0.0 107.5263195,-6.8604009,0.0 107.5263362,-6.8603929,0.0 107.5263525,-6.8603901,0.0 107.5265846,-6.8603918,0.0 107.5267038,-6.8603927,0.0</coordinates>
            </LineString>
        </Placemark>
        <Placemark id="66218">
            <name>Jalan Giok II</name>
            <styleUrl>#66219</styleUrl>
            <LineString id="66217">
                <coordinates>107.5212365,-6.8604663,0.0 107.5211487,-6.8608667,0.0 107.5211193,-6.8609765,0.0 107.5210744,-6.8610054,0.0 107.521018,-6.86104,0.0 107.5209363,-6.8610859,0.0 107.5208733,-6.8611186,0.0 107.5206256,-6.8610571,0.0</coordinates>
            </LineString>
        </Placemark>
        <Placemark id="66222">
            <name>Jalan Kolonel Masturi</name>
            <styleUrl>#66223</styleUrl>
            <LineString id="66221">
                <coordinates>107.5424478,-6.8690062,0.0 107.5425085,-6.8687957,0.0 107.5427001,-6.868113,0.0 107.5427629,-6.8678773,0.0 107.5428086,-6.8677071,0.0 107.5428339,-6.8675921,0.0 107.542879,-6.8674024,0.0 107.5428915,-6.8673487,0.0 107.5429078,-6.8672784,0.0 107.5430326,-6.8668683,0.0 107.5430789,-6.8667146,0.0 107.543152,-6.866499,0.0 107.5432144,-6.8663149,0.0 107.5432552,-6.8661839,0.0 107.5433753,-6.8658036,0.0 107.5435089,-6.8653683,0.0 107.5436253,-6.8649968,0.0 107.5436676,-6.8648586,0.0 107.543809,-6.864374,0.0 107.5438983,-6.8640547,0.0 107.5439514,-6.8638623,0.0 107.5439725,-6.863785,0.0 107.5440137,-6.8636338,0.0 107.5440562,-6.8634781,0.0 107.5440878,-6.8633622,0.0 107.5441531,-6.8631236,0.0 107.5442186,-6.8628662,0.0 107.5443251,-6.8624211,0.0 107.5443481,-6.8623262,0.0 107.5444538,-6.8619137,0.0 107.544598,-6.8612677,0.0</coordinates>
            </LineString>
        </Placemark>
        <Placemark id="66226">
            <name>Jalan Kolonel Masturi</name>
            <styleUrl>#66227</styleUrl>
            <LineString id="66225">
                <coordinates>107.544598,-6.8612677,0.0 107.5446408,-6.8610365,0.0 107.5446846,-6.8608429,0.0 107.5447619,-6.8605065,0.0 107.5447809,-6.8604258,0.0 107.5447891,-6.8603911,0.0 107.5448315,-6.8601783,0.0 107.5448732,-6.8599896,0.0 107.5449019,-6.8598807,0.0 107.5449904,-6.8595352,0.0 107.5450276,-6.8594068,0.0 107.5450967,-6.8591733,0.0 107.5451504,-6.8589427,0.0 107.5452182,-6.858612,0.0</coordinates>
            </LineString>
        </Placemark>
        <Placemark id="66230">
            <name>Jalan Puri Cipageran Indah 1</name>
            <styleUrl>#66231</styleUrl>
            <LineString id="66229">
                <coordinates>107.534489,-6.8610851,0.0 107.5353156,-6.8605507,0.0 107.536101,-6.8600127,0.0 107.5364271,-6.8598238,0.0 107.5365396,-6.8597346,0.0</coordinates>
            </LineString>
        </Placemark>
        <Placemark id="66234">
            <name>Route Segment</name>
            <styleUrl>#66235</styleUrl>
            <LineString id="66233">
                <coordinates>107.534489,-6.8610851,0.0 107.5343453,-6.8608303,0.0 107.5341838,-6.860555,0.0 107.5340952,-6.8603776,0.0 107.5340498,-6.8602472,0.0 107.5339166,-6.8599086,0.0 107.5338511,-6.8597045,0.0 107.5338337,-6.8596499,0.0 107.5338148,-6.8596292,0.0 107.5337304,-6.8595781,0.0 107.5330844,-6.8592417,0.0</coordinates>
            </LineString>
        </Placemark>
        <Placemark id="66238">
            <name>Route Segment</name>
            <styleUrl>#66239</styleUrl>
            <LineString id="66237">
                <coordinates>107.5237432,-6.8607627,0.0 107.5233885,-6.8607052,0.0 107.5232044,-6.8606731,0.0 107.5229722,-6.8606557,0.0 107.5227464,-6.8606357,0.0 107.5226073,-6.8606238,0.0 107.5220261,-6.8605709,0.0 107.5219121,-6.8605558,0.0 107.521683,-6.8605254,0.0 107.5215161,-6.8605033,0.0 107.5212365,-6.8604663,0.0</coordinates>
            </LineString>
        </Placemark>
        <Placemark id="66242">
            <name>Route Segment</name>
            <styleUrl>#66243</styleUrl>
            <LineString id="66241">
                <coordinates>107.5205286,-6.8614307,0.0 107.5205045,-6.8615316,0.0</coordinates>
            </LineString>
        </Placemark>
        <Placemark id="66246">
            <name>Route Segment</name>
            <styleUrl>#66247</styleUrl>
            <LineString id="66245">
                <coordinates>107.5206256,-6.8610571,0.0 107.5206135,-6.861096,0.0 107.5205286,-6.8614307,0.0</coordinates>
            </LineString>
        </Placemark>
        <Placemark id="66250">
            <name>Route Segment</name>
            <styleUrl>#66251</styleUrl>
            <LineString id="66249">
                <coordinates>107.5385492,-6.8589482,0.0 107.538828,-6.8590607,0.0</coordinates>
            </LineString>
        </Placemark>
        <Placemark id="66254">
            <name>Route Segment</name>
            <styleUrl>#66255</styleUrl>
            <LineString id="66253">
                <coordinates>107.5425041,-6.8690363,0.0 107.542767,-6.8691754,0.0</coordinates>
            </LineString>
        </Placemark>
        <Placemark id="66258">
            <name>Route Segment</name>
            <styleUrl>#66259</styleUrl>
            <LineString id="66257">
                <coordinates>107.5424478,-6.8690062,0.0 107.5425041,-6.8690363,0.0</coordinates>
            </LineString>
        </Placemark>
        <Placemark id="66262">
            <name>Route Segment</name>
            <styleUrl>#66263</styleUrl>
            <LineString id="66261">
                <coordinates>107.5205045,-6.8615316,0.0 107.5204521,-6.8615181,0.0 107.5202738,-6.8614754,0.0 107.5202153,-6.8614614,0.0 107.5200253,-6.8614179,0.0</coordinates>
            </LineString>
        </Placemark>
        <Placemark id="66266">
            <name>Route Segment</name>
            <styleUrl>#66267</styleUrl>
            <LineString id="66265">
                <coordinates>107.5434855,-6.8698358,0.0 107.543447,-6.8698103,0.0</coordinates>
            </LineString>
        </Placemark>
        <Placemark id="66270">
            <name>Route Segment</name>
            <styleUrl>#66271</styleUrl>
            <LineString id="66269">
                <coordinates>107.5435599,-6.8696345,0.0 107.5432561,-6.8694486,0.0</coordinates>
            </LineString>
        </Placemark>
        <Placemark id="66274">
            <name>Route Segment</name>
            <styleUrl>#66275</styleUrl>
            <LineString id="66273">
                <coordinates>107.5432561,-6.8694486,0.0 107.5430132,-6.8693159,0.0</coordinates>
            </LineString>
        </Placemark>
        <Placemark id="66278">
            <name>Route Segment</name>
            <styleUrl>#66279</styleUrl>
            <LineString id="66277">
                <coordinates>107.5430132,-6.8693159,0.0 107.542767,-6.8691754,0.0</coordinates>
            </LineString>
        </Placemark>
        <Placemark id="66282">
            <name>Route Segment</name>
            <styleUrl>#66283</styleUrl>
            <LineString id="66281">
                <coordinates>107.5434938,-6.8697372,0.0 107.5435599,-6.8696345,0.0</coordinates>
            </LineString>
        </Placemark>
        <Placemark id="66286">
            <name>Route Segment</name>
            <styleUrl>#66287</styleUrl>
            <LineString id="66285">
                <coordinates>107.543447,-6.8698103,0.0 107.5434938,-6.8697372,0.0</coordinates>
            </LineString>
        </Placemark>
        <Placemark id="66290">
            <name>Jalan Haji Gofur</name>
            <styleUrl>#66291</styleUrl>
            <LineString id="66289">
                <coordinates>107.5238884,-6.860269,0.0 107.5239585,-6.8600434,0.0 107.523965,-6.8600169,0.0 107.5240113,-6.8598277,0.0</coordinates>
            </LineString>
        </Placemark>
        <Placemark id="66294">
            <name>Jalan Haji Gofur</name>
            <styleUrl>#66295</styleUrl>
            <LineString id="66293">
                <coordinates>107.5237432,-6.8607627,0.0 107.5238024,-6.8605534,0.0 107.5238884,-6.860269,0.0</coordinates>
            </LineString>
        </Placemark>
        <Placemark id="66298">
            <name>Jalan Cipageran</name>
            <styleUrl>#66299</styleUrl>
            <LineString id="66297">
                <coordinates>107.5452182,-6.858612,0.0 107.5446702,-6.8583363,0.0 107.5442259,-6.8580911,0.0 107.5442025,-6.8580782,0.0 107.5439039,-6.8578809,0.0 107.5435955,-6.8577004,0.0 107.5435614,-6.8576733,0.0 107.5435429,-6.8576524,0.0 107.5435292,-6.8576237,0.0 107.5435307,-6.8575746,0.0 107.5435446,-6.8575358,0.0 107.5435561,-6.8574931,0.0 107.5436151,-6.8572773,0.0 107.5436392,-6.8570058,0.0</coordinates>
            </LineString>
        </Placemark>
    </Document>
</kml>
