<?xml version="1.0" encoding="UTF-8"?>
<kml xmlns="http://www.opengis.net/kml/2.2" xmlns:gx="http://www.google.com/kml/ext/2.2">
    <Document id="74329">
        <Style id="74335">
            <IconStyle id="74336">
                <colorMode>normal</colorMode>
                <scale>1</scale>
                <heading>0</heading>
                <Icon id="74337">
                    <href>http://maps.google.com/mapfiles/kml/pushpin/ylw-pushpin.png</href>
                </Icon>
            </IconStyle>
        </Style>
        <Style id="74340">
            <IconStyle id="74341">
                <colorMode>normal</colorMode>
                <scale>1</scale>
                <heading>0</heading>
                <Icon id="74342">
                    <href>http://maps.google.com/mapfiles/kml/pushpin/ylw-pushpin.png</href>
                </Icon>
            </IconStyle>
        </Style>
        <Style id="74345">
            <LineStyle id="74346">
                <color>ff356615</color>
                <colorMode>normal</colorMode>
                <width>4</width>
            </LineStyle>
        </Style>
        <Style id="74349">
            <LineStyle id="74350">
                <color>ff356615</color>
                <colorMode>normal</colorMode>
                <width>4</width>
            </LineStyle>
        </Style>
        <Style id="74353">
            <LineStyle id="74354">
                <color>ff356615</color>
                <colorMode>normal</colorMode>
                <width>4</width>
            </LineStyle>
        </Style>
        <Style id="74357">
            <LineStyle id="74358">
                <color>ff356615</color>
                <colorMode>normal</colorMode>
                <width>4</width>
            </LineStyle>
        </Style>
        <Style id="74361">
            <LineStyle id="74362">
                <color>ff356615</color>
                <colorMode>normal</colorMode>
                <width>4</width>
            </LineStyle>
        </Style>
        <Style id="74365">
            <LineStyle id="74366">
                <color>ff356615</color>
                <colorMode>normal</colorMode>
                <width>4</width>
            </LineStyle>
        </Style>
        <Style id="74369">
            <LineStyle id="74370">
                <color>ff356615</color>
                <colorMode>normal</colorMode>
                <width>4</width>
            </LineStyle>
        </Style>
        <Style id="74373">
            <LineStyle id="74374">
                <color>ff356615</color>
                <colorMode>normal</colorMode>
                <width>4</width>
            </LineStyle>
        </Style>
        <Style id="74377">
            <LineStyle id="74378">
                <color>ff356615</color>
                <colorMode>normal</colorMode>
                <width>4</width>
            </LineStyle>
        </Style>
        <Style id="74381">
            <LineStyle id="74382">
                <color>ff356615</color>
                <colorMode>normal</colorMode>
                <width>4</width>
            </LineStyle>
        </Style>
        <Style id="74385">
            <LineStyle id="74386">
                <color>ff356615</color>
                <colorMode>normal</colorMode>
                <width>4</width>
            </LineStyle>
        </Style>
        <Style id="74389">
            <LineStyle id="74390">
                <color>ff356615</color>
                <colorMode>normal</colorMode>
                <width>4</width>
            </LineStyle>
        </Style>
        <Style id="74393">
            <LineStyle id="74394">
                <color>ff356615</color>
                <colorMode>normal</colorMode>
                <width>4</width>
            </LineStyle>
        </Style>
        <Style id="74397">
            <LineStyle id="74398">
                <color>ff356615</color>
                <colorMode>normal</colorMode>
                <width>4</width>
            </LineStyle>
        </Style>
        <Style id="74401">
            <LineStyle id="74402">
                <color>ff356615</color>
                <colorMode>normal</colorMode>
                <width>4</width>
            </LineStyle>
        </Style>
        <Style id="74405">
            <LineStyle id="74406">
                <color>ff356615</color>
                <colorMode>normal</colorMode>
                <width>4</width>
            </LineStyle>
        </Style>
        <Style id="74409">
            <LineStyle id="74410">
                <color>ff356615</color>
                <colorMode>normal</colorMode>
                <width>4</width>
            </LineStyle>
        </Style>
        <Style id="74413">
            <LineStyle id="74414">
                <color>ff356615</color>
                <colorMode>normal</colorMode>
                <width>4</width>
            </LineStyle>
        </Style>
        <Style id="74417">
            <LineStyle id="74418">
                <color>ff356615</color>
                <colorMode>normal</colorMode>
                <width>4</width>
            </LineStyle>
        </Style>
        <Style id="74421">
            <LineStyle id="74422">
                <color>ff356615</color>
                <colorMode>normal</colorMode>
                <width>4</width>
            </LineStyle>
        </Style>
        <Style id="74425">
            <LineStyle id="74426">
                <color>ff356615</color>
                <colorMode>normal</colorMode>
                <width>4</width>
            </LineStyle>
        </Style>
        <Style id="74429">
            <LineStyle id="74430">
                <color>ff356615</color>
                <colorMode>normal</colorMode>
                <width>4</width>
            </LineStyle>
        </Style>
        <Style id="74433">
            <LineStyle id="74434">
                <color>ff356615</color>
                <colorMode>normal</colorMode>
                <width>4</width>
            </LineStyle>
        </Style>
        <Style id="74437">
            <LineStyle id="74438">
                <color>ff356615</color>
                <colorMode>normal</colorMode>
                <width>4</width>
            </LineStyle>
        </Style>
        <Style id="74441">
            <LineStyle id="74442">
                <color>ff356615</color>
                <colorMode>normal</colorMode>
                <width>4</width>
            </LineStyle>
        </Style>
        <Style id="74445">
            <LineStyle id="74446">
                <color>ff356615</color>
                <colorMode>normal</colorMode>
                <width>4</width>
            </LineStyle>
        </Style>
        <Style id="74449">
            <LineStyle id="74450">
                <color>ff356615</color>
                <colorMode>normal</colorMode>
                <width>4</width>
            </LineStyle>
        </Style>
        <Style id="74453">
            <LineStyle id="74454">
                <color>ff356615</color>
                <colorMode>normal</colorMode>
                <width>4</width>
            </LineStyle>
        </Style>
        <Style id="74457">
            <LineStyle id="74458">
                <color>ff356615</color>
                <colorMode>normal</colorMode>
                <width>4</width>
            </LineStyle>
        </Style>
        <Style id="74461">
            <LineStyle id="74462">
                <color>ff356615</color>
                <colorMode>normal</colorMode>
                <width>4</width>
            </LineStyle>
        </Style>
        <Style id="74465">
            <LineStyle id="74466">
                <color>ff356615</color>
                <colorMode>normal</colorMode>
                <width>4</width>
            </LineStyle>
        </Style>
        <Style id="74469">
            <LineStyle id="74470">
                <color>ff356615</color>
                <colorMode>normal</colorMode>
                <width>4</width>
            </LineStyle>
        </Style>
        <Style id="74473">
            <LineStyle id="74474">
                <color>ff356615</color>
                <colorMode>normal</colorMode>
                <width>4</width>
            </LineStyle>
        </Style>
        <Style id="74477">
            <LineStyle id="74478">
                <color>ff356615</color>
                <colorMode>normal</colorMode>
                <width>4</width>
            </LineStyle>
        </Style>
        <Style id="74481">
            <LineStyle id="74482">
                <color>ff356615</color>
                <colorMode>normal</colorMode>
                <width>4</width>
            </LineStyle>
        </Style>
        <Style id="74485">
            <LineStyle id="74486">
                <color>ff356615</color>
                <colorMode>normal</colorMode>
                <width>4</width>
            </LineStyle>
        </Style>
        <Style id="74489">
            <LineStyle id="74490">
                <color>ff356615</color>
                <colorMode>normal</colorMode>
                <width>4</width>
            </LineStyle>
        </Style>
        <Style id="74493">
            <LineStyle id="74494">
                <color>ff356615</color>
                <colorMode>normal</colorMode>
                <width>4</width>
            </LineStyle>
        </Style>
        <Style id="74497">
            <LineStyle id="74498">
                <color>ff356615</color>
                <colorMode>normal</colorMode>
                <width>4</width>
            </LineStyle>
        </Style>
        <Style id="74501">
            <LineStyle id="74502">
                <color>ff356615</color>
                <colorMode>normal</colorMode>
                <width>4</width>
            </LineStyle>
        </Style>
        <Style id="74505">
            <LineStyle id="74506">
                <color>ff356615</color>
                <colorMode>normal</colorMode>
                <width>4</width>
            </LineStyle>
        </Style>
        <Style id="74509">
            <LineStyle id="74510">
                <color>ff356615</color>
                <colorMode>normal</colorMode>
                <width>4</width>
            </LineStyle>
        </Style>
        <Style id="74513">
            <LineStyle id="74514">
                <color>ff356615</color>
                <colorMode>normal</colorMode>
                <width>4</width>
            </LineStyle>
        </Style>
        <Style id="74517">
            <LineStyle id="74518">
                <color>ff356615</color>
                <colorMode>normal</colorMode>
                <width>4</width>
            </LineStyle>
        </Style>
        <Style id="74521">
            <LineStyle id="74522">
                <color>ff356615</color>
                <colorMode>normal</colorMode>
                <width>4</width>
            </LineStyle>
        </Style>
        <Style id="74525">
            <LineStyle id="74526">
                <color>ff356615</color>
                <colorMode>normal</colorMode>
                <width>4</width>
            </LineStyle>
        </Style>
        <Style id="74529">
            <LineStyle id="74530">
                <color>ff356615</color>
                <colorMode>normal</colorMode>
                <width>4</width>
            </LineStyle>
        </Style>
        <Style id="74533">
            <LineStyle id="74534">
                <color>ff356615</color>
                <colorMode>normal</colorMode>
                <width>4</width>
            </LineStyle>
        </Style>
        <Style id="74537">
            <LineStyle id="74538">
                <color>ff356615</color>
                <colorMode>normal</colorMode>
                <width>4</width>
            </LineStyle>
        </Style>
        <Style id="74541">
            <LineStyle id="74542">
                <color>ff356615</color>
                <colorMode>normal</colorMode>
                <width>4</width>
            </LineStyle>
        </Style>
        <ExtendedData>
            <Data name="route-name">
                <value>956: Leuwipanjang → Soreang</value>
            </Data>
            <Data name="source">
                <value>Transport for Bandung</value>
            </Data>
        </ExtendedData>
        <Placemark id="74334">
            <name>Seberang Terminal Leuwipanjang</name>
            <styleUrl>#74335</styleUrl>
            <Point id="74333">
                <coordinates>107.592997,-6.9469193,0.0</coordinates>
            </Point>
        </Placemark>
        <Placemark id="74339">
            <name>Terminal Soreang</name>
            <styleUrl>#74340</styleUrl>
            <Point id="74338">
                <coordinates>107.5199924,-7.0279983,0.0</coordinates>
            </Point>
        </Placemark>
        <Placemark id="74344">
            <name>Jalan Kopo Sayati</name>
            <styleUrl>#74345</styleUrl>
            <LineString id="74343">
                <coordinates>107.5616424,-6.9766092,0.0 107.5614118,-6.9769497,0.0 107.561228,-6.9772315,0.0 107.5611647,-6.9773356,0.0 107.5611004,-6.9774681,0.0 107.5610749,-6.9775413,0.0 107.5610662,-6.9775976,0.0 107.5610505,-6.9777227,0.0 107.5610527,-6.977918,0.0 107.5610635,-6.9781745,0.0 107.5611378,-6.9790483,0.0 107.5611782,-6.9793371,0.0 107.5611848,-6.9793837,0.0 107.5611949,-6.9794136,0.0 107.5612143,-6.9794788,0.0 107.5612318,-6.9795294,0.0 107.5612491,-6.9795724,0.0 107.5612878,-6.9796406,0.0 107.5614118,-6.979827,0.0 107.5615509,-6.980042,0.0 107.561624,-6.9801502,0.0 107.5618956,-6.9805378,0.0 107.5619416,-6.9806082,0.0 107.5620157,-6.9807055,0.0 107.5620592,-6.9807601,0.0 107.5623403,-6.9811661,0.0 107.5624229,-6.9812958,0.0</coordinates>
            </LineString>
        </Placemark>
        <Placemark id="74348">
            <name>Jalan Raya Kopo Katapang</name>
            <styleUrl>#74349</styleUrl>
            <LineString id="74347">
                <coordinates>107.5624123,-6.9849508,0.0 107.5623749,-6.9849675,0.0 107.5622241,-6.9850372,0.0 107.5621377,-6.9850624,0.0 107.5620226,-6.9850792,0.0 107.5619466,-6.9850883,0.0 107.5618809,-6.9850903,0.0 107.5617595,-6.9850943,0.0 107.5616552,-6.9850925,0.0 107.5613529,-6.9850951,0.0 107.5613233,-6.9850973,0.0 107.5612955,-6.985105,0.0 107.561269,-6.9851197,0.0 107.5611993,-6.9851737,0.0 107.5611164,-6.9852374,0.0 107.5609888,-6.9853541,0.0 107.5609636,-6.9853784,0.0 107.5606021,-6.9857266,0.0 107.5604904,-6.9858353,0.0 107.5602163,-6.9861108,0.0 107.5600509,-6.9862723,0.0 107.5600171,-6.9863053,0.0 107.559721,-6.9865945,0.0 107.5596595,-6.9866546,0.0 107.5594762,-6.9868335,0.0 107.5590215,-6.9872887,0.0 107.5589284,-6.9873714,0.0 107.558739,-6.987583,0.0 107.5585385,-6.9877928,0.0 107.5583581,-6.9879785,0.0 107.5578596,-6.9885034,0.0 107.5576631,-6.9887098,0.0 107.5576231,-6.9887527,0.0 107.5575323,-6.9888535,0.0 107.5574378,-6.9889633,0.0 107.5573759,-6.9890366,0.0 107.5573408,-6.9890832,0.0 107.5572561,-6.9891956,0.0 107.5570978,-6.9894445,0.0 107.5570036,-6.989609,0.0 107.5569557,-6.9897107,0.0 107.5568135,-6.9899517,0.0 107.5567894,-6.9900022,0.0 107.5567719,-6.9900422,0.0 107.5566533,-6.9903052,0.0 107.55659,-6.9904491,0.0 107.5563548,-6.9909713,0.0 107.5563427,-6.9909998,0.0 107.5561019,-6.9915802,0.0 107.5560619,-6.9916784,0.0 107.5558636,-6.9921661,0.0 107.5558017,-6.9923291,0.0 107.5557215,-6.992515,0.0 107.5557051,-6.9925559,0.0 107.5556823,-6.9926166,0.0 107.5556176,-6.9927749,0.0 107.5555904,-6.9928415,0.0 107.5555191,-6.9930171,0.0 107.5554694,-6.9931463,0.0 107.555397,-6.9933347,0.0 107.5552943,-6.9935897,0.0 107.5551917,-6.9939687,0.0 107.5551721,-6.9940336,0.0 107.5551155,-6.9942192,0.0 107.5550362,-6.9944789,0.0 107.5549977,-6.994612,0.0 107.5549387,-6.994833,0.0 107.5548394,-6.9952003,0.0 107.5546998,-6.9956631,0.0 107.5545962,-6.9960072,0.0 107.5545275,-6.9962907,0.0 107.5544331,-6.9966146,0.0 107.5543696,-6.9968262,0.0 107.5543352,-6.9969348,0.0 107.5542732,-6.9971419,0.0 107.5542551,-6.9972072,0.0 107.5542047,-6.9973898,0.0 107.554042,-6.9979785,0.0 107.5538998,-6.9984524,0.0 107.5538748,-6.9985574,0.0 107.5538179,-6.9987406,0.0 107.5537628,-6.998925,0.0 107.5537003,-6.9991261,0.0 107.5535967,-6.9994596,0.0 107.5534965,-6.9998204,0.0 107.5532723,-7.0005907,0.0 107.553194,-7.0008723,0.0 107.5531237,-7.001105,0.0 107.5530611,-7.0012941,0.0 107.5529246,-7.0017397,0.0 107.5528862,-7.0018659,0.0 107.5528089,-7.0021343,0.0 107.5526651,-7.0026203,0.0 107.5526381,-7.0027116,0.0 107.5525471,-7.0030132,0.0 107.5525249,-7.003094,0.0 107.5524476,-7.0033797,0.0 107.55242,-7.0034825,0.0 107.5524009,-7.0035512,0.0 107.5523501,-7.0037214,0.0 107.552279,-7.0039823,0.0 107.5522135,-7.004168,0.0 107.5521786,-7.0042785,0.0 107.5521637,-7.0043357,0.0 107.5519936,-7.0048815,0.0 107.5518766,-7.0052617,0.0 107.5518055,-7.0055466,0.0 107.5517798,-7.0056335,0.0 107.5517401,-7.0057706,0.0 107.5517087,-7.0058659,0.0 107.5516202,-7.0061643,0.0 107.5515692,-7.006326,0.0 107.5515371,-7.0064274,0.0 107.5515074,-7.006517,0.0 107.551486,-7.0065859,0.0 107.5514606,-7.0066713,0.0 107.5514318,-7.0067701,0.0 107.5513561,-7.0070298,0.0 107.5509493,-7.0084164,0.0 107.5507416,-7.0091313,0.0 107.5507052,-7.0092363,0.0 107.5506351,-7.0094777,0.0 107.5505789,-7.0096859,0.0 107.5504956,-7.0099717,0.0 107.5503867,-7.0103456,0.0 107.5500896,-7.0113653,0.0 107.5500214,-7.0116025,0.0 107.549894,-7.0120454,0.0 107.5498663,-7.0121294,0.0 107.5496316,-7.0127664,0.0 107.54955,-7.0129838,0.0 107.5494565,-7.0132363,0.0 107.5494126,-7.0133548,0.0 107.5492203,-7.0138694,0.0 107.5486857,-7.0152998,0.0 107.5485349,-7.0157191,0.0 107.5484692,-7.0158988,0.0 107.5484212,-7.0160086,0.0 107.5483679,-7.0161311,0.0</coordinates>
            </LineString>
        </Placemark>
        <Placemark id="74352">
            <name>Jalan Raya Bandung - Soreang</name>
            <styleUrl>#74353</styleUrl>
            <LineString id="74351">
                <coordinates>107.5375392,-7.0212523,0.0 107.537889,-7.0211185,0.0 107.5387815,-7.0207666,0.0 107.539178,-7.0206196,0.0</coordinates>
            </LineString>
        </Placemark>
        <Placemark id="74356">
            <name>Jalan Raya Bandung - Soreang</name>
            <styleUrl>#74357</styleUrl>
            <LineString id="74355">
                <coordinates>107.5629078,-6.9847046,0.0 107.5628155,-6.9847505,0.0 107.5624123,-6.9849508,0.0</coordinates>
            </LineString>
        </Placemark>
        <Placemark id="74360">
            <name>Jalan Raya Soreang</name>
            <styleUrl>#74361</styleUrl>
            <LineString id="74359">
                <coordinates>107.521691,-7.0277389,0.0 107.5211824,-7.0279953,0.0</coordinates>
            </LineString>
        </Placemark>
        <Placemark id="74364">
            <name>Jalan Kyai Haji Wahid Hasyim</name>
            <styleUrl>#74365</styleUrl>
            <LineString id="74363">
                <coordinates>107.5885139,-6.9473494,0.0 107.5884113,-6.9475034,0.0 107.5883768,-6.9475593,0.0 107.5882575,-6.947753,0.0 107.588049,-6.948085,0.0 107.5879201,-6.9482681,0.0 107.5876372,-6.9486822,0.0 107.5873753,-6.9490662,0.0 107.5873389,-6.9491201,0.0 107.5870424,-6.949559,0.0 107.5868126,-6.9499008,0.0 107.5866637,-6.9501105,0.0 107.5865833,-6.9502384,0.0 107.586475,-6.9503972,0.0 107.5863853,-6.9505347,0.0 107.5861141,-6.9509476,0.0 107.5860559,-6.951042,0.0 107.5858684,-6.9513706,0.0 107.5858048,-6.9514576,0.0 107.5857381,-6.9515503,0.0 107.5857155,-6.9515817,0.0 107.5856791,-6.951638,0.0 107.5856054,-6.9517506,0.0 107.5854775,-6.951937,0.0 107.5853961,-6.9520643,0.0 107.585189,-6.9523961,0.0 107.5850737,-6.952576,0.0 107.584923,-6.9528112,0.0 107.5848736,-6.9528895,0.0 107.5847914,-6.95302,0.0 107.584475,-6.9535253,0.0</coordinates>
            </LineString>
        </Placemark>
        <Placemark id="74368">
            <name>Jalan Kopo Sayati</name>
            <styleUrl>#74369</styleUrl>
            <LineString id="74367">
                <coordinates>107.5826744,-6.9562265,0.0 107.5827999,-6.9560379,0.0 107.5828479,-6.9559674,0.0 107.5830419,-6.9556872,0.0 107.5834,-6.9551487,0.0 107.5834572,-6.9550655,0.0 107.5835095,-6.9549885,0.0 107.5835179,-6.9549761,0.0 107.5837527,-6.9546268,0.0 107.5838435,-6.9544997,0.0 107.5839523,-6.9543305,0.0 107.5840051,-6.9542525,0.0 107.5840432,-6.9541961,0.0 107.5841119,-6.954093,0.0 107.584203,-6.953949,0.0 107.5842417,-6.9538925,0.0 107.584259,-6.9538607,0.0 107.5844647,-6.9535419,0.0 107.584475,-6.9535253,0.0</coordinates>
            </LineString>
        </Placemark>
        <Placemark id="74372">
            <name>Jalan Kyai Haji Wahid Hasyim</name>
            <styleUrl>#74373</styleUrl>
            <LineString id="74371">
                <coordinates>107.5892156,-6.9462748,0.0 107.5891756,-6.9463347,0.0 107.5887787,-6.9469287,0.0</coordinates>
            </LineString>
        </Placemark>
        <Placemark id="74376">
            <name>Jalan Soekarno-Hatta</name>
            <styleUrl>#74377</styleUrl>
            <LineString id="74375">
                <coordinates>107.592997,-6.9469193,0.0 107.5924922,-6.9467783,0.0 107.5921516,-6.9466864,0.0 107.5920068,-6.9466455,0.0 107.5918917,-6.946617,0.0 107.5916708,-6.9465388,0.0 107.5913956,-6.9464414,0.0 107.5913385,-6.9464212,0.0 107.5911782,-6.9463589,0.0 107.5909136,-6.9462527,0.0 107.5906079,-6.9461252,0.0 107.5904505,-6.9460588,0.0</coordinates>
            </LineString>
        </Placemark>
        <Placemark id="74380">
            <name>Jalan Raya Soreang</name>
            <styleUrl>#74381</styleUrl>
            <LineString id="74379">
                <coordinates>107.5208731,-7.0282067,0.0 107.5208162,-7.028193,0.0 107.5206019,-7.0281477,0.0 107.5199924,-7.0279983,0.0</coordinates>
            </LineString>
        </Placemark>
        <Placemark id="74384">
            <name>Jalan Kopo Sayati</name>
            <styleUrl>#74385</styleUrl>
            <LineString id="74383">
                <coordinates>107.5646434,-6.9758547,0.0 107.5645624,-6.9758399,0.0</coordinates>
            </LineString>
        </Placemark>
        <Placemark id="74388">
            <name>Jalan Kopo Sayati</name>
            <styleUrl>#74389</styleUrl>
            <LineString id="74387">
                <coordinates>107.5731324,-6.9724538,0.0 107.5731277,-6.9724625,0.0 107.5726967,-6.9732762,0.0 107.5726657,-6.973338,0.0 107.5725266,-6.9736156,0.0 107.5724364,-6.9737797,0.0 107.572429,-6.9737932,0.0 107.5722798,-6.9740728,0.0 107.5722171,-6.9741903,0.0 107.5721739,-6.9742577,0.0 107.5721187,-6.9743263,0.0 107.5720429,-6.9744044,0.0 107.5719774,-6.9744609,0.0 107.5713489,-6.9749773,0.0 107.5712898,-6.9750258,0.0 107.5711055,-6.9751807,0.0 107.5707068,-6.9754969,0.0 107.5706092,-6.9755773,0.0 107.5703875,-6.9757575,0.0 107.5702101,-6.975879,0.0 107.5700747,-6.9759603,0.0 107.5698882,-6.9760378,0.0 107.5697096,-6.9760916,0.0 107.569539,-6.9761296,0.0 107.5691309,-6.9761762,0.0 107.56894,-6.9761997,0.0 107.5686702,-6.9762328,0.0 107.5683461,-6.9762782,0.0 107.5679166,-6.976329,0.0 107.5676011,-6.9763634,0.0 107.5675114,-6.9763646,0.0 107.567429,-6.9763606,0.0 107.5673303,-6.9763486,0.0 107.5670857,-6.9763112,0.0 107.5669659,-6.9762834,0.0 107.5662166,-6.9761549,0.0 107.5659549,-6.9760965,0.0 107.5652703,-6.975971,0.0 107.5648467,-6.9758937,0.0 107.5646868,-6.9758636,0.0 107.5646434,-6.9758547,0.0</coordinates>
            </LineString>
        </Placemark>
        <Placemark id="74392">
            <name>Jalan Kopo Sayati</name>
            <styleUrl>#74393</styleUrl>
            <LineString id="74391">
                <coordinates>107.5731575,-6.972407,0.0 107.5731324,-6.9724538,0.0</coordinates>
            </LineString>
        </Placemark>
        <Placemark id="74396">
            <name>Jalan Kopo Sayati</name>
            <styleUrl>#74397</styleUrl>
            <LineString id="74395">
                <coordinates>107.5758887,-6.9665131,0.0 107.5757991,-6.9667093,0.0 107.5757473,-6.9668275,0.0 107.5755884,-6.9672003,0.0 107.5754244,-6.9675278,0.0 107.5753743,-6.9676375,0.0 107.5753359,-6.9677214,0.0 107.5753229,-6.9677555,0.0 107.5753086,-6.9677929,0.0 107.5752307,-6.9679604,0.0 107.57522,-6.9679834,0.0 107.5752114,-6.9680012,0.0 107.5751887,-6.9680479,0.0 107.5751717,-6.9680831,0.0 107.5749516,-6.9685428,0.0 107.574901,-6.968678,0.0 107.5748748,-6.9687569,0.0 107.5748353,-6.9688567,0.0 107.5747291,-6.9690931,0.0 107.574719,-6.9691162,0.0 107.5747029,-6.9691526,0.0 107.5745393,-6.9695224,0.0 107.5744805,-6.969643,0.0 107.5744514,-6.9696986,0.0 107.5743291,-6.9699959,0.0 107.5742845,-6.9701043,0.0 107.5742347,-6.9702016,0.0 107.5742301,-6.9702125,0.0 107.574207,-6.9702607,0.0 107.5740487,-6.9706165,0.0 107.5740065,-6.9707157,0.0 107.5738777,-6.9709922,0.0 107.5737724,-6.9712308,0.0 107.5736932,-6.9714025,0.0</coordinates>
            </LineString>
        </Placemark>
        <Placemark id="74400">
            <name>Jalan Kopo Sayati</name>
            <styleUrl>#74401</styleUrl>
            <LineString id="74399">
                <coordinates>107.5826744,-6.9562265,0.0 107.5826559,-6.9563076,0.0 107.5823182,-6.9568073,0.0 107.5822054,-6.9569734,0.0</coordinates>
            </LineString>
        </Placemark>
        <Placemark id="74404">
            <name>Jalan Raya Soreang</name>
            <styleUrl>#74405</styleUrl>
            <LineString id="74403">
                <coordinates>107.5304736,-7.0240308,0.0 107.5303288,-7.0240867,0.0 107.5302515,-7.0241167,0.0 107.5299481,-7.0242347,0.0 107.529855,-7.0242721,0.0 107.5296141,-7.024369,0.0 107.529344,-7.0244775,0.0 107.5285072,-7.0248138,0.0 107.5284512,-7.0248402,0.0 107.5282343,-7.0249215,0.0 107.5281093,-7.0249694,0.0 107.5269447,-7.0254493,0.0 107.5268534,-7.0254591,0.0</coordinates>
            </LineString>
        </Placemark>
        <Placemark id="74408">
            <name>Jalan Raya Bandung - Soreang</name>
            <styleUrl>#74409</styleUrl>
            <LineString id="74407">
                <coordinates>107.5373507,-7.0213295,0.0 107.5372912,-7.0213622,0.0 107.5371294,-7.021441,0.0 107.5370483,-7.0214703,0.0 107.5369705,-7.0214982,0.0 107.5366012,-7.0216403,0.0 107.5352351,-7.0221661,0.0 107.5347207,-7.0223706,0.0 107.5342515,-7.0225572,0.0 107.5341349,-7.0226035,0.0 107.534112,-7.0226126,0.0 107.5340191,-7.0226458,0.0 107.5324091,-7.0232638,0.0 107.5312312,-7.0237396,0.0 107.5308108,-7.023902,0.0 107.5307854,-7.0239118,0.0 107.5307604,-7.0239214,0.0 107.5305806,-7.0239887,0.0</coordinates>
            </LineString>
        </Placemark>
        <Placemark id="74412">
            <name>Jalan Raya Bandung - Soreang</name>
            <styleUrl>#74413</styleUrl>
            <LineString id="74411">
                <coordinates>107.5375392,-7.0212523,0.0 107.5373507,-7.0213295,0.0</coordinates>
            </LineString>
        </Placemark>
        <Placemark id="74416">
            <name>Jalan Segitiga Warunglobak</name>
            <styleUrl>#74417</styleUrl>
            <LineString id="74415">
                <coordinates>107.5483679,-7.0161311,0.0 107.5483971,-7.0163077,0.0 107.5484435,-7.0166241,0.0 107.5485111,-7.0170587,0.0 107.5485437,-7.0172131,0.0</coordinates>
            </LineString>
        </Placemark>
        <Placemark id="74420">
            <name>Jalan Segitiga Warunglobak</name>
            <styleUrl>#74421</styleUrl>
            <LineString id="74419">
                <coordinates>107.5485437,-7.0172131,0.0 107.5484772,-7.0172784,0.0 107.5484539,-7.0172974,0.0 107.5484309,-7.017311,0.0 107.5483865,-7.0173321,0.0 107.5483377,-7.017345,0.0 107.5482411,-7.0173703,0.0</coordinates>
            </LineString>
        </Placemark>
        <Placemark id="74424">
            <name>Jalan Kopo Sayati</name>
            <styleUrl>#74425</styleUrl>
            <LineString id="74423">
                <coordinates>107.5637615,-6.9832779,0.0 107.5637765,-6.9833419,0.0 107.5637824,-6.9833747,0.0 107.5637926,-6.983449,0.0 107.5637982,-6.9834823,0.0 107.5638087,-6.9835737,0.0 107.5638258,-6.9837687,0.0 107.5638368,-6.9840008,0.0 107.5638372,-6.9840549,0.0 107.5638274,-6.9841009,0.0 107.563812,-6.9841433,0.0 107.5637875,-6.984193,0.0 107.563738,-6.984264,0.0 107.5636893,-6.9843134,0.0 107.5636352,-6.9843525,0.0 107.5635899,-6.9843828,0.0 107.563509,-6.984432,0.0 107.5634381,-6.9844667,0.0 107.5633178,-6.9845215,0.0 107.563047,-6.984642,0.0 107.5629078,-6.9847046,0.0</coordinates>
            </LineString>
        </Placemark>
        <Placemark id="74428">
            <name>Jalan Kopo Sayati</name>
            <styleUrl>#74429</styleUrl>
            <LineString id="74427">
                <coordinates>107.5798512,-6.9602106,0.0 107.5799774,-6.9600307,0.0 107.5800564,-6.9599234,0.0 107.5804167,-6.9594202,0.0 107.5804505,-6.9593738,0.0 107.5805752,-6.9592107,0.0 107.5806684,-6.9590723,0.0 107.5807174,-6.9590061,0.0 107.5807934,-6.9588994,0.0 107.5809794,-6.9586419,0.0 107.5810079,-6.9586025,0.0 107.5812375,-6.9582639,0.0 107.5813229,-6.9581382,0.0 107.5813811,-6.958054,0.0</coordinates>
            </LineString>
        </Placemark>
        <Placemark id="74432">
            <name>Jalan Raya Soreang</name>
            <styleUrl>#74433</styleUrl>
            <LineString id="74431">
                <coordinates>107.521691,-7.0277389,0.0 107.5219851,-7.0276078,0.0 107.5220249,-7.0275902,0.0 107.5220878,-7.0275623,0.0 107.5226568,-7.0273097,0.0 107.5226734,-7.0273025,0.0 107.5228684,-7.0272138,0.0 107.5230142,-7.0271501,0.0 107.5240219,-7.0267108,0.0 107.5241219,-7.0266668,0.0 107.5242893,-7.026593,0.0 107.5244584,-7.0265191,0.0 107.5248349,-7.0263595,0.0 107.5254062,-7.0261053,0.0 107.5266805,-7.0255349,0.0 107.5268534,-7.0254591,0.0</coordinates>
            </LineString>
        </Placemark>
        <Placemark id="74436">
            <name>Jalan Raya Soreang</name>
            <styleUrl>#74437</styleUrl>
            <LineString id="74435">
                <coordinates>107.5211824,-7.0279953,0.0 107.5210864,-7.02805,0.0 107.5210472,-7.0280766,0.0 107.5209736,-7.0281311,0.0 107.5208731,-7.0282067,0.0</coordinates>
            </LineString>
        </Placemark>
        <Placemark id="74440">
            <name>Jalan Kopo Sayati</name>
            <styleUrl>#74441</styleUrl>
            <LineString id="74439">
                <coordinates>107.5782984,-6.9623755,0.0 107.5784989,-6.9620754,0.0</coordinates>
            </LineString>
        </Placemark>
        <Placemark id="74444">
            <name>Jalan Segitiga Warunglobak</name>
            <styleUrl>#74445</styleUrl>
            <LineString id="74443">
                <coordinates>107.5482411,-7.0173703,0.0 107.5477223,-7.0170038,0.0 107.547699,-7.0169875,0.0 107.5476583,-7.0169592,0.0 107.5475177,-7.016873,0.0 107.5473452,-7.0167672,0.0</coordinates>
            </LineString>
        </Placemark>
        <Placemark id="74448">
            <name>Jalan Raya Bandung - Soreang</name>
            <styleUrl>#74449</styleUrl>
            <LineString id="74447">
                <coordinates>107.5473452,-7.0167672,0.0 107.5472588,-7.0168012,0.0 107.5472011,-7.0168259,0.0 107.5468648,-7.0169578,0.0 107.5458753,-7.0173943,0.0 107.5455977,-7.0175147,0.0 107.5452846,-7.0176505,0.0 107.5449191,-7.017794,0.0 107.544902,-7.0178007,0.0 107.544841,-7.0178324,0.0 107.5443882,-7.018099,0.0 107.5438042,-7.0184838,0.0 107.5437977,-7.01849,0.0 107.5436884,-7.0185526,0.0 107.543334,-7.0187688,0.0 107.5430289,-7.0189549,0.0 107.5427611,-7.0191182,0.0 107.5421971,-7.0193784,0.0 107.5421484,-7.0194015,0.0 107.5420625,-7.0194427,0.0 107.5417449,-7.0195732,0.0 107.5415217,-7.0196792,0.0 107.5404993,-7.0201192,0.0 107.5404386,-7.0201445,0.0 107.5403813,-7.02017,0.0</coordinates>
            </LineString>
        </Placemark>
        <Placemark id="74452">
            <name>Jalan Raya Bandung - Soreang</name>
            <styleUrl>#74453</styleUrl>
            <LineString id="74451">
                <coordinates>107.5402532,-7.0202552,0.0 107.5401124,-7.0202991,0.0 107.5400658,-7.0203159,0.0 107.5397526,-7.0204415,0.0 107.5392893,-7.0206094,0.0 107.539178,-7.0206196,0.0</coordinates>
            </LineString>
        </Placemark>
        <Placemark id="74456">
            <name>Jalan Kyai Haji Wahid Hasyim</name>
            <styleUrl>#74457</styleUrl>
            <LineString id="74455">
                <coordinates>107.5887787,-6.9469287,0.0 107.5885139,-6.9473494,0.0</coordinates>
            </LineString>
        </Placemark>
        <Placemark id="74460">
            <name>Jalan Kopo Sayati</name>
            <styleUrl>#74461</styleUrl>
            <LineString id="74459">
                <coordinates>107.5736932,-6.9714025,0.0 107.5736553,-6.9714842,0.0</coordinates>
            </LineString>
        </Placemark>
        <Placemark id="74464">
            <name>Jalan Raya Bandung - Soreang</name>
            <styleUrl>#74465</styleUrl>
            <LineString id="74463">
                <coordinates>107.5403361,-7.0202172,0.0 107.5402532,-7.0202552,0.0</coordinates>
            </LineString>
        </Placemark>
        <Placemark id="74468">
            <name>Jalan Raya Bandung - Soreang</name>
            <styleUrl>#74469</styleUrl>
            <LineString id="74467">
                <coordinates>107.5403813,-7.02017,0.0 107.5403361,-7.0202172,0.0</coordinates>
            </LineString>
        </Placemark>
        <Placemark id="74472">
            <name>Jalan Kopo Sayati</name>
            <styleUrl>#74473</styleUrl>
            <LineString id="74471">
                <coordinates>107.5619742,-6.9761089,0.0 107.5619016,-6.9762125,0.0 107.5616424,-6.9766092,0.0</coordinates>
            </LineString>
        </Placemark>
        <Placemark id="74476">
            <name>Jalan Kopo Sayati</name>
            <styleUrl>#74477</styleUrl>
            <LineString id="74475">
                <coordinates>107.5645624,-6.9758399,0.0 107.5643727,-6.9758041,0.0 107.5640488,-6.9757508,0.0 107.5637242,-6.9756959,0.0 107.5635465,-6.9756617,0.0 107.5633552,-6.9756254,0.0 107.5630892,-6.9755833,0.0 107.5629718,-6.9755718,0.0 107.5628448,-6.9755718,0.0 107.5627655,-6.9755779,0.0 107.5626681,-6.9755984,0.0 107.5625769,-6.9756254,0.0 107.562485,-6.975665,0.0 107.5623906,-6.9757178,0.0 107.5622837,-6.9757837,0.0 107.5622101,-6.9758412,0.0 107.5621298,-6.9759133,0.0 107.5620644,-6.975986,0.0 107.5619959,-6.9760749,0.0 107.5619742,-6.9761089,0.0</coordinates>
            </LineString>
        </Placemark>
        <Placemark id="74480">
            <name>Jalan Kopo Sayati</name>
            <styleUrl>#74481</styleUrl>
            <LineString id="74479">
                <coordinates>107.5782984,-6.9623755,0.0 107.5782728,-6.9624134,0.0 107.5781076,-6.9626479,0.0 107.5779265,-6.9629108,0.0 107.5778358,-6.9630275,0.0 107.577796,-6.9630872,0.0 107.5776312,-6.9633102,0.0 107.5775359,-6.963439,0.0 107.5774888,-6.9635046,0.0 107.5772846,-6.9637864,0.0</coordinates>
            </LineString>
        </Placemark>
        <Placemark id="74484">
            <name>Jalan Kopo Sayati</name>
            <styleUrl>#74485</styleUrl>
            <LineString id="74483">
                <coordinates>107.5624229,-6.9812958,0.0 107.5624508,-6.981334,0.0 107.562568,-6.981495,0.0 107.5629492,-6.9820486,0.0 107.563053,-6.9821995,0.0 107.5631506,-6.9823422,0.0 107.5633807,-6.9826735,0.0 107.5637235,-6.9832021,0.0 107.5637615,-6.9832779,0.0</coordinates>
            </LineString>
        </Placemark>
        <Placemark id="74488">
            <name>Route Segment</name>
            <styleUrl>#74489</styleUrl>
            <LineString id="74487">
                <coordinates>107.589865,-6.9458161,0.0 107.5897952,-6.9458,0.0 107.5897588,-6.9457958,0.0 107.5897153,-6.9457947,0.0 107.5896789,-6.9458028,0.0 107.5896329,-6.9458203,0.0 107.5895627,-6.9458537,0.0 107.5894961,-6.9459067,0.0</coordinates>
            </LineString>
        </Placemark>
        <Placemark id="74492">
            <name>Jalan Soekarno-Hatta</name>
            <styleUrl>#74493</styleUrl>
            <LineString id="74491">
                <coordinates>107.5904505,-6.9460588,0.0 107.5903535,-6.9460161,0.0 107.5901033,-6.9459059,0.0 107.589865,-6.9458161,0.0</coordinates>
            </LineString>
        </Placemark>
        <Placemark id="74496">
            <name>Jalan Kopo Sayati</name>
            <styleUrl>#74497</styleUrl>
            <LineString id="74495">
                <coordinates>107.5733336,-6.972132,0.0 107.5731575,-6.972407,0.0</coordinates>
            </LineString>
        </Placemark>
        <Placemark id="74500">
            <name>Jalan Kopo Sayati</name>
            <styleUrl>#74501</styleUrl>
            <LineString id="74499">
                <coordinates>107.5736553,-6.9714842,0.0 107.5736458,-6.9715049,0.0</coordinates>
            </LineString>
        </Placemark>
        <Placemark id="74504">
            <name>Jalan Kopo Sayati</name>
            <styleUrl>#74505</styleUrl>
            <LineString id="74503">
                <coordinates>107.5736458,-6.9715049,0.0 107.5736468,-6.9715433,0.0 107.573403,-6.9720303,0.0 107.573356,-6.9721243,0.0 107.5733336,-6.972132,0.0</coordinates>
            </LineString>
        </Placemark>
        <Placemark id="74508">
            <name>Jalan Kopo Sayati</name>
            <styleUrl>#74509</styleUrl>
            <LineString id="74507">
                <coordinates>107.5772846,-6.9637864,0.0 107.5772613,-6.9638185,0.0 107.5771205,-6.9640011,0.0</coordinates>
            </LineString>
        </Placemark>
        <Placemark id="74512">
            <name>Jalan Kopo Sayati</name>
            <styleUrl>#74513</styleUrl>
            <LineString id="74511">
                <coordinates>107.5822054,-6.9569734,0.0 107.5821688,-6.9570306,0.0</coordinates>
            </LineString>
        </Placemark>
        <Placemark id="74516">
            <name>Jalan Kopo Sayati</name>
            <styleUrl>#74517</styleUrl>
            <LineString id="74515">
                <coordinates>107.5821282,-6.9570847,0.0 107.5817034,-6.9576718,0.0 107.5815327,-6.9579141,0.0 107.5814604,-6.9580206,0.0 107.5813811,-6.958054,0.0</coordinates>
            </LineString>
        </Placemark>
        <Placemark id="74520">
            <name>Jalan Kopo Sayati</name>
            <styleUrl>#74521</styleUrl>
            <LineString id="74519">
                <coordinates>107.5821688,-6.9570306,0.0 107.5821282,-6.9570847,0.0</coordinates>
            </LineString>
        </Placemark>
        <Placemark id="74524">
            <name>Jalan Kyai Haji Wahid Hasyim</name>
            <styleUrl>#74525</styleUrl>
            <LineString id="74523">
                <coordinates>107.5894961,-6.9459067,0.0 107.5894312,-6.9459422,0.0</coordinates>
            </LineString>
        </Placemark>
        <Placemark id="74528">
            <name>Jalan Kopo Sayati</name>
            <styleUrl>#74529</styleUrl>
            <LineString id="74527">
                <coordinates>107.5771205,-6.9640011,0.0 107.576968,-6.9642224,0.0 107.5769166,-6.9643194,0.0 107.5768232,-6.9645212,0.0 107.576682,-6.9648018,0.0 107.5763894,-6.9654162,0.0 107.5762327,-6.9657397,0.0 107.5761966,-6.9658195,0.0 107.5760939,-6.9660485,0.0 107.5760449,-6.9661624,0.0 107.5758887,-6.9665131,0.0</coordinates>
            </LineString>
        </Placemark>
        <Placemark id="74532">
            <name>Jalan Raya Bandung - Soreang</name>
            <styleUrl>#74533</styleUrl>
            <LineString id="74531">
                <coordinates>107.5305806,-7.0239887,0.0 107.5304736,-7.0240308,0.0</coordinates>
            </LineString>
        </Placemark>
        <Placemark id="74536">
            <name>Jalan Kopo Sayati</name>
            <styleUrl>#74537</styleUrl>
            <LineString id="74535">
                <coordinates>107.5784989,-6.9620754,0.0 107.5786577,-6.9618557,0.0 107.578718,-6.9617637,0.0 107.5787869,-6.9616727,0.0 107.5788557,-6.9615816,0.0 107.5788773,-6.9615517,0.0 107.579006,-6.9613735,0.0 107.579218,-6.9610801,0.0 107.5793077,-6.9609559,0.0 107.5794924,-6.9607002,0.0 107.5795361,-6.9606397,0.0 107.5798512,-6.9602106,0.0</coordinates>
            </LineString>
        </Placemark>
        <Placemark id="74540">
            <name>Jalan Kyai Haji Wahid Hasyim</name>
            <styleUrl>#74541</styleUrl>
            <LineString id="74539">
                <coordinates>107.5894312,-6.9459422,0.0 107.5893766,-6.9460274,0.0 107.5892156,-6.9462748,0.0</coordinates>
            </LineString>
        </Placemark>
    </Document>
</kml>
