<?xml version="1.0" encoding="UTF-8"?>
<kml xmlns="http://www.opengis.net/kml/2.2" xmlns:gx="http://www.google.com/kml/ext/2.2">
    <Document id="61508">
        <Style id="61514">
            <IconStyle id="61515">
                <colorMode>normal</colorMode>
                <scale>1</scale>
                <heading>0</heading>
                <Icon id="61516">
                    <href>http://maps.google.com/mapfiles/kml/pushpin/ylw-pushpin.png</href>
                </Icon>
            </IconStyle>
        </Style>
        <Style id="61519">
            <IconStyle id="61520">
                <colorMode>normal</colorMode>
                <scale>1</scale>
                <heading>0</heading>
                <Icon id="61521">
                    <href>http://maps.google.com/mapfiles/kml/pushpin/ylw-pushpin.png</href>
                </Icon>
            </IconStyle>
        </Style>
        <Style id="61524">
            <LineStyle id="61525">
                <color>ff356615</color>
                <colorMode>normal</colorMode>
                <width>4</width>
            </LineStyle>
        </Style>
        <Style id="61528">
            <LineStyle id="61529">
                <color>ff356615</color>
                <colorMode>normal</colorMode>
                <width>4</width>
            </LineStyle>
        </Style>
        <Style id="61532">
            <LineStyle id="61533">
                <color>ff356615</color>
                <colorMode>normal</colorMode>
                <width>4</width>
            </LineStyle>
        </Style>
        <Style id="61536">
            <LineStyle id="61537">
                <color>ff356615</color>
                <colorMode>normal</colorMode>
                <width>4</width>
            </LineStyle>
        </Style>
        <Style id="61540">
            <LineStyle id="61541">
                <color>ff356615</color>
                <colorMode>normal</colorMode>
                <width>4</width>
            </LineStyle>
        </Style>
        <Style id="61544">
            <LineStyle id="61545">
                <color>ff356615</color>
                <colorMode>normal</colorMode>
                <width>4</width>
            </LineStyle>
        </Style>
        <Style id="61548">
            <LineStyle id="61549">
                <color>ff356615</color>
                <colorMode>normal</colorMode>
                <width>4</width>
            </LineStyle>
        </Style>
        <Style id="61552">
            <LineStyle id="61553">
                <color>ff356615</color>
                <colorMode>normal</colorMode>
                <width>4</width>
            </LineStyle>
        </Style>
        <Style id="61556">
            <LineStyle id="61557">
                <color>ff356615</color>
                <colorMode>normal</colorMode>
                <width>4</width>
            </LineStyle>
        </Style>
        <Style id="61560">
            <LineStyle id="61561">
                <color>ff356615</color>
                <colorMode>normal</colorMode>
                <width>4</width>
            </LineStyle>
        </Style>
        <Style id="61564">
            <LineStyle id="61565">
                <color>ff356615</color>
                <colorMode>normal</colorMode>
                <width>4</width>
            </LineStyle>
        </Style>
        <Style id="61568">
            <LineStyle id="61569">
                <color>ff356615</color>
                <colorMode>normal</colorMode>
                <width>4</width>
            </LineStyle>
        </Style>
        <Style id="61572">
            <LineStyle id="61573">
                <color>ff356615</color>
                <colorMode>normal</colorMode>
                <width>4</width>
            </LineStyle>
        </Style>
        <Style id="61576">
            <LineStyle id="61577">
                <color>ff356615</color>
                <colorMode>normal</colorMode>
                <width>4</width>
            </LineStyle>
        </Style>
        <Style id="61580">
            <LineStyle id="61581">
                <color>ff356615</color>
                <colorMode>normal</colorMode>
                <width>4</width>
            </LineStyle>
        </Style>
        <Style id="61584">
            <LineStyle id="61585">
                <color>ff356615</color>
                <colorMode>normal</colorMode>
                <width>4</width>
            </LineStyle>
        </Style>
        <Style id="61588">
            <LineStyle id="61589">
                <color>ff356615</color>
                <colorMode>normal</colorMode>
                <width>4</width>
            </LineStyle>
        </Style>
        <Style id="61592">
            <LineStyle id="61593">
                <color>ff356615</color>
                <colorMode>normal</colorMode>
                <width>4</width>
            </LineStyle>
        </Style>
        <Style id="61596">
            <LineStyle id="61597">
                <color>ff356615</color>
                <colorMode>normal</colorMode>
                <width>4</width>
            </LineStyle>
        </Style>
        <Style id="61600">
            <LineStyle id="61601">
                <color>ff356615</color>
                <colorMode>normal</colorMode>
                <width>4</width>
            </LineStyle>
        </Style>
        <Style id="61604">
            <LineStyle id="61605">
                <color>ff356615</color>
                <colorMode>normal</colorMode>
                <width>4</width>
            </LineStyle>
        </Style>
        <Style id="61608">
            <LineStyle id="61609">
                <color>ff356615</color>
                <colorMode>normal</colorMode>
                <width>4</width>
            </LineStyle>
        </Style>
        <Style id="61612">
            <LineStyle id="61613">
                <color>ff356615</color>
                <colorMode>normal</colorMode>
                <width>4</width>
            </LineStyle>
        </Style>
        <Style id="61616">
            <LineStyle id="61617">
                <color>ff356615</color>
                <colorMode>normal</colorMode>
                <width>4</width>
            </LineStyle>
        </Style>
        <Style id="61620">
            <LineStyle id="61621">
                <color>ff356615</color>
                <colorMode>normal</colorMode>
                <width>4</width>
            </LineStyle>
        </Style>
        <Style id="61624">
            <LineStyle id="61625">
                <color>ff356615</color>
                <colorMode>normal</colorMode>
                <width>4</width>
            </LineStyle>
        </Style>
        <Style id="61628">
            <LineStyle id="61629">
                <color>ff356615</color>
                <colorMode>normal</colorMode>
                <width>4</width>
            </LineStyle>
        </Style>
        <Style id="61632">
            <LineStyle id="61633">
                <color>ff356615</color>
                <colorMode>normal</colorMode>
                <width>4</width>
            </LineStyle>
        </Style>
        <Style id="61636">
            <LineStyle id="61637">
                <color>ff356615</color>
                <colorMode>normal</colorMode>
                <width>4</width>
            </LineStyle>
        </Style>
        <Style id="61640">
            <LineStyle id="61641">
                <color>ff356615</color>
                <colorMode>normal</colorMode>
                <width>4</width>
            </LineStyle>
        </Style>
        <Style id="61644">
            <LineStyle id="61645">
                <color>ff356615</color>
                <colorMode>normal</colorMode>
                <width>4</width>
            </LineStyle>
        </Style>
        <Style id="61648">
            <LineStyle id="61649">
                <color>ff356615</color>
                <colorMode>normal</colorMode>
                <width>4</width>
            </LineStyle>
        </Style>
        <Style id="61652">
            <LineStyle id="61653">
                <color>ff356615</color>
                <colorMode>normal</colorMode>
                <width>4</width>
            </LineStyle>
        </Style>
        <Style id="61656">
            <LineStyle id="61657">
                <color>ff356615</color>
                <colorMode>normal</colorMode>
                <width>4</width>
            </LineStyle>
        </Style>
        <ExtendedData>
            <Data name="route-name">
                <value>A02: Padalarang → Gunung Bentang</value>
            </Data>
            <Data name="source">
                <value>Transport for Bandung</value>
            </Data>
        </ExtendedData>
        <Placemark id="61513">
            <name>Simpang Stasiun Padalarang Gedong Lima</name>
            <styleUrl>#61514</styleUrl>
            <Point id="61512">
                <coordinates>107.4961019,-6.8426579,0.0</coordinates>
            </Point>
        </Placemark>
        <Placemark id="61518">
            <name>Gunung Bentang</name>
            <styleUrl>#61519</styleUrl>
            <Point id="61517">
                <coordinates>107.45774,-6.8564089,0.0</coordinates>
            </Point>
        </Placemark>
        <Placemark id="61523">
            <name>Jalan Gedong Lima</name>
            <styleUrl>#61524</styleUrl>
            <LineString id="61522">
                <coordinates>107.4956075,-6.8425396,0.0 107.4951058,-6.8424482,0.0 107.4950543,-6.8424626,0.0 107.4950015,-6.8424929,0.0 107.4949577,-6.8425409,0.0 107.4949135,-6.8426056,0.0 107.4947485,-6.8428782,0.0 107.4943326,-6.8435693,0.0 107.4941809,-6.8438134,0.0 107.4940263,-6.8440589,0.0 107.4936454,-6.844697,0.0 107.4935176,-6.844906,0.0 107.493283,-6.8453099,0.0 107.4931573,-6.8455161,0.0 107.4929788,-6.8458197,0.0 107.4928741,-6.8460007,0.0 107.4927386,-6.8462262,0.0 107.492614,-6.8464336,0.0 107.4923438,-6.8468831,0.0 107.4919575,-6.8475478,0.0 107.4918702,-6.8476904,0.0</coordinates>
            </LineString>
        </Placemark>
        <Placemark id="61527">
            <name>Jalan Kota Baru Parahyangan</name>
            <styleUrl>#61528</styleUrl>
            <LineString id="61526">
                <coordinates>107.4940543,-6.8517636,0.0 107.4940828,-6.8517621,0.0 107.4941082,-6.8517594,0.0 107.4941315,-6.851755,0.0 107.4941572,-6.8517482,0.0 107.4941813,-6.85174,0.0 107.4942078,-6.8517287,0.0 107.4942327,-6.851716,0.0 107.4942529,-6.8517024,0.0 107.4942697,-6.8516875,0.0 107.4942868,-6.8516703,0.0 107.4943012,-6.8516526,0.0 107.4946927,-6.8510954,0.0 107.4947508,-6.8510173,0.0 107.4948956,-6.8508267,0.0 107.4952692,-6.8503346,0.0</coordinates>
            </LineString>
        </Placemark>
        <Placemark id="61531">
            <name>Jalan Raya Padalarang</name>
            <styleUrl>#61532</styleUrl>
            <LineString id="61530">
                <coordinates>107.49156,-6.8475022,0.0 107.4914836,-6.8474473,0.0 107.4910372,-6.8471267,0.0 107.4909821,-6.8470888,0.0 107.4909699,-6.8470781,0.0 107.490762,-6.8469264,0.0 107.4907359,-6.8469074,0.0 107.4906335,-6.8468393,0.0 107.4903123,-6.8466335,0.0 107.4901126,-6.8464761,0.0 107.4897814,-6.8462423,0.0 107.4896493,-6.8461438,0.0 107.4893529,-6.8459362,0.0 107.4892686,-6.8458772,0.0 107.4890069,-6.8456939,0.0 107.4889081,-6.8456314,0.0 107.4885606,-6.8453797,0.0 107.4885245,-6.8453524,0.0 107.488395,-6.8452706,0.0 107.4882293,-6.845166,0.0 107.487907,-6.8449428,0.0 107.4878649,-6.8449136,0.0 107.4878341,-6.8448923,0.0</coordinates>
            </LineString>
        </Placemark>
        <Placemark id="61535">
            <name>Jalan Raya Padalarang</name>
            <styleUrl>#61536</styleUrl>
            <LineString id="61534">
                <coordinates>107.4815148,-6.8413112,0.0 107.4817003,-6.8414034,0.0 107.4822399,-6.8416555,0.0 107.4823543,-6.8417108,0.0 107.4826041,-6.8418316,0.0 107.4826256,-6.8418448,0.0 107.4831762,-6.8421044,0.0 107.4832161,-6.8421232,0.0 107.4833884,-6.842205,0.0 107.4837254,-6.8423612,0.0 107.484094,-6.842535,0.0 107.4842011,-6.8425857,0.0 107.4845113,-6.842736,0.0 107.4845539,-6.8427566,0.0 107.4845994,-6.8427786,0.0 107.4846921,-6.8428262,0.0 107.484821,-6.8428924,0.0</coordinates>
            </LineString>
        </Placemark>
        <Placemark id="61539">
            <name>Jalan Raya Padalarang</name>
            <styleUrl>#61540</styleUrl>
            <LineString id="61538">
                <coordinates>107.4936922,-6.8490384,0.0 107.4927743,-6.8483862,0.0</coordinates>
            </LineString>
        </Placemark>
        <Placemark id="61543">
            <name>Route Segment</name>
            <styleUrl>#61544</styleUrl>
            <LineString id="61542">
                <coordinates>107.4765653,-6.851372,0.0 107.476332,-6.8512371,0.0 107.476209,-6.851124,0.0 107.4759771,-6.8509378,0.0 107.4758742,-6.8508832,0.0 107.4757584,-6.8508521,0.0 107.4756525,-6.8508593,0.0 107.4755075,-6.8508674,0.0 107.4754053,-6.8508601,0.0 107.4751713,-6.8508063,0.0 107.4749657,-6.850759,0.0 107.4746647,-6.8506865,0.0 107.4745079,-6.8506632,0.0 107.474352,-6.8506378,0.0 107.4742452,-6.8506233,0.0 107.4741029,-6.8506063,0.0 107.4740407,-6.8505969,0.0 107.4738806,-6.8505665,0.0 107.4738137,-6.8505553,0.0 107.4737913,-6.8505543,0.0 107.4736581,-6.8505455,0.0 107.4735013,-6.8505265,0.0 107.4733808,-6.8505148,0.0 107.4732659,-6.8505041,0.0 107.4732145,-6.8504957,0.0 107.4730364,-6.8504701,0.0 107.4729524,-6.8504581,0.0 107.4727946,-6.8504279,0.0 107.4726518,-6.8504047,0.0 107.4725326,-6.8503949,0.0 107.4724279,-6.8504101,0.0 107.4721389,-6.8504784,0.0 107.4718326,-6.8505743,0.0 107.4712419,-6.8507727,0.0 107.4711468,-6.8508381,0.0 107.4709059,-6.8510066,0.0</coordinates>
            </LineString>
        </Placemark>
        <Placemark id="61547">
            <name>Jalan G.A. Manulang</name>
            <styleUrl>#61548</styleUrl>
            <LineString id="61546">
                <coordinates>107.4781388,-6.849194,0.0 107.4782479,-6.8490482,0.0 107.4783318,-6.848932,0.0 107.4784056,-6.8487464,0.0 107.4784308,-6.8486892,0.0 107.4785585,-6.8484004,0.0 107.4786746,-6.8480485,0.0 107.4787185,-6.8479283,0.0 107.4788101,-6.8476548,0.0 107.4788925,-6.8474121,0.0 107.4789239,-6.8472975,0.0 107.4789337,-6.8472785,0.0 107.4789644,-6.8472055,0.0 107.4789906,-6.8471217,0.0 107.4790676,-6.8469583,0.0 107.4792329,-6.8466705,0.0 107.4793136,-6.8465148,0.0 107.4794277,-6.8462475,0.0 107.4794697,-6.8461643,0.0 107.4795088,-6.8460781,0.0 107.4795379,-6.846013,0.0 107.4795509,-6.8459835,0.0 107.4795666,-6.8459437,0.0 107.4796271,-6.8458164,0.0 107.4796869,-6.8456781,0.0 107.479782,-6.8454714,0.0 107.4798249,-6.8453434,0.0 107.4799685,-6.8449905,0.0 107.4801094,-6.8446649,0.0 107.4801398,-6.844565,0.0 107.480177,-6.8444693,0.0 107.4802735,-6.8441943,0.0 107.4803281,-6.8440658,0.0 107.4803348,-6.8440487,0.0 107.4804001,-6.8438873,0.0 107.4804631,-6.8437391,0.0 107.4804845,-6.8436889,0.0 107.4805227,-6.8435977,0.0 107.4806549,-6.8432628,0.0 107.4808145,-6.842874,0.0 107.4808775,-6.8427156,0.0 107.4809935,-6.8425009,0.0 107.4810046,-6.8424792,0.0</coordinates>
            </LineString>
        </Placemark>
        <Placemark id="61551">
            <name>Jalan Layang Kota Baru Parahyangan</name>
            <styleUrl>#61552</styleUrl>
            <LineString id="61550">
                <coordinates>107.494909,-6.852067,0.0 107.4948639,-6.8521257,0.0 107.4948502,-6.8521421,0.0 107.4948346,-6.8521589,0.0 107.4948188,-6.8521743,0.0 107.4947997,-6.8521915,0.0 107.4947778,-6.852209,0.0 107.4947547,-6.8522251,0.0 107.4947307,-6.8522396,0.0 107.4947024,-6.8522548,0.0 107.494574,-6.8523146,0.0 107.4945559,-6.8523251,0.0 107.4945407,-6.8523358,0.0 107.4945258,-6.8523487,0.0 107.4945104,-6.8523648,0.0 107.494498,-6.8523805,0.0 107.4944862,-6.8523976,0.0 107.4944522,-6.8524499,0.0</coordinates>
            </LineString>
        </Placemark>
        <Placemark id="61555">
            <name>Jalan Raya Padalarang</name>
            <styleUrl>#61556</styleUrl>
            <LineString id="61554">
                <coordinates>107.4952692,-6.8503346,0.0 107.4952808,-6.8503091,0.0 107.4952861,-6.8502932,0.0 107.4952909,-6.85028,0.0 107.4952935,-6.8502677,0.0 107.4952932,-6.8502556,0.0 107.4952907,-6.8502438,0.0 107.4952858,-6.8502323,0.0 107.4952782,-6.8502204,0.0 107.4952748,-6.8502171,0.0 107.4952678,-6.8502099,0.0 107.49526,-6.8502033,0.0 107.4951383,-6.8501109,0.0</coordinates>
            </LineString>
        </Placemark>
        <Placemark id="61559">
            <name>Jalan Raya Padalarang</name>
            <styleUrl>#61560</styleUrl>
            <LineString id="61558">
                <coordinates>107.4956199,-6.8503909,0.0 107.4960649,-6.8507054,0.0 107.4961485,-6.850764,0.0 107.4962036,-6.8508025,0.0</coordinates>
            </LineString>
        </Placemark>
        <Placemark id="61563">
            <name>Route Segment</name>
            <styleUrl>#61564</styleUrl>
            <LineString id="61562">
                <coordinates>107.4623863,-6.8521482,0.0 107.4623753,-6.8521761,0.0 107.4623695,-6.8523358,0.0 107.4623682,-6.8524323,0.0 107.4623412,-6.8527687,0.0 107.4623146,-6.8529341,0.0 107.462324,-6.8530942,0.0 107.4623459,-6.8532765,0.0 107.4624172,-6.8536475,0.0 107.4624306,-6.8539644,0.0 107.4624158,-6.8543751,0.0 107.4624078,-6.8545509,0.0 107.4624252,-6.8549524,0.0 107.4624279,-6.8550176,0.0 107.4624132,-6.8550922,0.0 107.462381,-6.8551894,0.0 107.462334,-6.8553172,0.0 107.462216,-6.8554863,0.0 107.4618545,-6.8557978,0.0 107.4618325,-6.8558099,0.0 107.461634,-6.8559151,0.0 107.4613845,-6.8560109,0.0 107.4609259,-6.8561454,0.0 107.460423,-6.8562366,0.0 107.4590392,-6.8563243,0.0 107.4589625,-6.8563292,0.0 107.4584126,-6.8563764,0.0 107.4581283,-6.8563931,0.0 107.45774,-6.8564089,0.0</coordinates>
            </LineString>
        </Placemark>
        <Placemark id="61567">
            <name>Route Segment</name>
            <styleUrl>#61568</styleUrl>
            <LineString id="61566">
                <coordinates>107.4707228,-6.8510374,0.0 107.4706762,-6.8510372,0.0</coordinates>
            </LineString>
        </Placemark>
        <Placemark id="61571">
            <name>Route Segment</name>
            <styleUrl>#61572</styleUrl>
            <LineString id="61570">
                <coordinates>107.4709059,-6.8510066,0.0 107.4707837,-6.8510297,0.0 107.4707228,-6.8510374,0.0</coordinates>
            </LineString>
        </Placemark>
        <Placemark id="61575">
            <name>Route Segment</name>
            <styleUrl>#61576</styleUrl>
            <LineString id="61574">
                <coordinates>107.4706346,-6.8510292,0.0 107.4706762,-6.8510372,0.0</coordinates>
            </LineString>
        </Placemark>
        <Placemark id="61579">
            <name>Jalan Raya Padalarang</name>
            <styleUrl>#61580</styleUrl>
            <LineString id="61578">
                <coordinates>107.4877737,-6.844887,0.0 107.4877596,-6.8448818,0.0 107.4876893,-6.8448364,0.0 107.4876471,-6.8448083,0.0 107.4875667,-6.8447494,0.0 107.4874631,-6.8446785,0.0 107.4871379,-6.8444559,0.0 107.486887,-6.8442868,0.0 107.4865499,-6.8440606,0.0 107.4863402,-6.843933,0.0 107.48588,-6.8435779,0.0 107.4857616,-6.8434987,0.0 107.4857018,-6.8434587,0.0 107.4855846,-6.8433884,0.0 107.4854307,-6.8432912,0.0 107.4850702,-6.8430764,0.0 107.4849638,-6.8430131,0.0 107.484888,-6.8429487,0.0 107.484821,-6.8428924,0.0</coordinates>
            </LineString>
        </Placemark>
        <Placemark id="61583">
            <name>Route Segment</name>
            <styleUrl>#61584</styleUrl>
            <LineString id="61582">
                <coordinates>107.4706346,-6.8510292,0.0 107.4705845,-6.8510143,0.0 107.4705294,-6.851011,0.0 107.4704398,-6.8510185,0.0 107.4700455,-6.8511331,0.0 107.4695626,-6.8512442,0.0 107.4691482,-6.851352,0.0 107.4688368,-6.8514252,0.0 107.468424,-6.8514937,0.0 107.4681759,-6.851529,0.0</coordinates>
            </LineString>
        </Placemark>
        <Placemark id="61587">
            <name>way</name>
            <styleUrl>#61588</styleUrl>
            <LineString id="61586">
                <coordinates>107.4765653,-6.851372,0.0 107.4766785,-6.8513706,0.0 107.4767361,-6.8513562,0.0 107.4768114,-6.8513191,0.0 107.4768816,-6.8512682,0.0 107.476929,-6.8512241,0.0 107.4770166,-6.851119,0.0 107.4770365,-6.8510792,0.0 107.4771264,-6.8508239,0.0 107.4771908,-6.8507038,0.0 107.4773022,-6.8504739,0.0 107.4773745,-6.8503578,0.0 107.4774358,-6.8502418,0.0 107.4776362,-6.8498748,0.0 107.4777451,-6.8497054,0.0 107.4778856,-6.8495318,0.0 107.4779712,-6.8494135,0.0 107.4780361,-6.8493239,0.0 107.4781388,-6.849194,0.0</coordinates>
            </LineString>
        </Placemark>
        <Placemark id="61591">
            <name>Jalan Raya Padalarang</name>
            <styleUrl>#61592</styleUrl>
            <LineString id="61590">
                <coordinates>107.4940514,-6.8492327,0.0 107.4950851,-6.8499905,0.0 107.4951925,-6.8500625,0.0 107.4955273,-6.8503217,0.0</coordinates>
            </LineString>
        </Placemark>
        <Placemark id="61595">
            <name>Jalan Raya Padalarang</name>
            <styleUrl>#61596</styleUrl>
            <LineString id="61594">
                <coordinates>107.4927743,-6.8483862,0.0 107.4925682,-6.848238,0.0 107.4923123,-6.8480664,0.0 107.4918328,-6.8477344,0.0 107.49156,-6.8475022,0.0</coordinates>
            </LineString>
        </Placemark>
        <Placemark id="61599">
            <name>Jalan Raya Padalarang</name>
            <styleUrl>#61600</styleUrl>
            <LineString id="61598">
                <coordinates>107.4878341,-6.8448923,0.0 107.4878051,-6.8448954,0.0 107.4877737,-6.844887,0.0</coordinates>
            </LineString>
        </Placemark>
        <Placemark id="61603">
            <name>Route Segment</name>
            <styleUrl>#61604</styleUrl>
            <LineString id="61602">
                <coordinates>107.481022,-6.8424165,0.0 107.4810619,-6.8422835,0.0 107.4810733,-6.8422475,0.0 107.4810921,-6.8421902,0.0 107.4811671,-6.8419836,0.0 107.4812162,-6.8418941,0.0 107.4813187,-6.8416383,0.0 107.4815148,-6.8413112,0.0</coordinates>
            </LineString>
        </Placemark>
        <Placemark id="61607">
            <name>Route Segment</name>
            <styleUrl>#61608</styleUrl>
            <LineString id="61606">
                <coordinates>107.4810046,-6.8424792,0.0 107.481022,-6.8424165,0.0</coordinates>
            </LineString>
        </Placemark>
        <Placemark id="61611">
            <name>Jalan Kota Baru Parahyangan</name>
            <styleUrl>#61612</styleUrl>
            <LineString id="61610">
                <coordinates>107.4961444,-6.8512857,0.0 107.4960897,-6.8514097,0.0 107.4960736,-6.851442,0.0 107.4960591,-6.8514673,0.0 107.4960425,-6.8514915,0.0 107.4960261,-6.8515122,0.0 107.4960063,-6.8515313,0.0 107.4959822,-6.8515478,0.0 107.4959607,-6.8515595,0.0 107.4959397,-6.8515682,0.0 107.4959165,-6.8515759,0.0 107.4958879,-6.8515837,0.0 107.4958484,-6.8515932,0.0 107.4958073,-6.8516017,0.0 107.4957661,-6.8516091,0.0 107.49555,-6.8516434,0.0 107.4954972,-6.8516542,0.0 107.4954416,-6.8516674,0.0 107.4953935,-6.8516805,0.0 107.4953499,-6.8516958,0.0 107.4953074,-6.8517131,0.0 107.4952644,-6.8517336,0.0 107.4952276,-6.8517532,0.0 107.4951894,-6.8517762,0.0 107.4951386,-6.8518103,0.0 107.4951033,-6.8518359,0.0 107.4950728,-6.8518613,0.0 107.4950439,-6.8518894,0.0 107.495014,-6.8519245,0.0 107.494909,-6.852067,0.0</coordinates>
            </LineString>
        </Placemark>
        <Placemark id="61615">
            <name>Jalan Kota Baru Parahyangan</name>
            <styleUrl>#61616</styleUrl>
            <LineString id="61614">
                <coordinates>107.4962036,-6.8508025,0.0 107.4962181,-6.8508241,0.0 107.4962321,-6.8508493,0.0 107.4962426,-6.8508756,0.0 107.4962494,-6.8509036,0.0 107.4962523,-6.8509318,0.0 107.4962511,-6.8509615,0.0 107.4962462,-6.8509919,0.0 107.4962383,-6.8510262,0.0 107.4962277,-6.85106,0.0 107.4962156,-6.8510951,0.0 107.4961444,-6.8512857,0.0</coordinates>
            </LineString>
        </Placemark>
        <Placemark id="61619">
            <name>Jalan Kota Baru Parahyangan</name>
            <styleUrl>#61620</styleUrl>
            <LineString id="61618">
                <coordinates>107.4934922,-6.8523177,0.0 107.4934922,-6.8522266,0.0 107.4935001,-6.8521613,0.0 107.4935127,-6.8521063,0.0 107.4935344,-6.8520506,0.0 107.4935642,-6.8520008,0.0 107.493597,-6.8519537,0.0 107.4936319,-6.8519114,0.0 107.493668,-6.851876,0.0 107.4937065,-6.8518461,0.0 107.493751,-6.8518207,0.0 107.493795,-6.8518006,0.0 107.4938418,-6.8517845,0.0 107.4938843,-6.8517736,0.0 107.4939237,-6.8517673,0.0 107.4939593,-6.8517637,0.0 107.4940018,-6.8517618,0.0 107.4940543,-6.8517636,0.0</coordinates>
            </LineString>
        </Placemark>
        <Placemark id="61623">
            <name>Jalan Raya Padalarang</name>
            <styleUrl>#61624</styleUrl>
            <LineString id="61622">
                <coordinates>107.4940096,-6.8492687,0.0 107.4936922,-6.8490384,0.0</coordinates>
            </LineString>
        </Placemark>
        <Placemark id="61627">
            <name>Jalan Raya Padalarang</name>
            <styleUrl>#61628</styleUrl>
            <LineString id="61626">
                <coordinates>107.4918702,-6.8476904,0.0 107.4921087,-6.8478535,0.0 107.492362,-6.8480443,0.0 107.4928498,-6.848382,0.0 107.4937107,-6.8489854,0.0</coordinates>
            </LineString>
        </Placemark>
        <Placemark id="61631">
            <name>Jalan Raya Padalarang</name>
            <styleUrl>#61632</styleUrl>
            <LineString id="61630">
                <coordinates>107.4937107,-6.8489854,0.0 107.4940514,-6.8492327,0.0</coordinates>
            </LineString>
        </Placemark>
        <Placemark id="61635">
            <name>Jalan Kota Baru Parahyangan</name>
            <styleUrl>#61636</styleUrl>
            <LineString id="61634">
                <coordinates>107.4944522,-6.8524499,0.0 107.4944162,-6.8525103,0.0 107.4943818,-6.8525601,0.0 107.4943432,-6.8526068,0.0 107.4943051,-6.8526422,0.0 107.4942576,-6.8526775,0.0 107.4942009,-6.8527087,0.0 107.4941496,-6.8527293,0.0 107.4940916,-6.852747,0.0 107.4940257,-6.8527557,0.0 107.4939522,-6.8527551,0.0 107.4938894,-6.8527455,0.0 107.4938183,-6.8527241,0.0 107.4937587,-6.8526983,0.0 107.4936969,-6.8526597,0.0 107.4936415,-6.8526143,0.0</coordinates>
            </LineString>
        </Placemark>
        <Placemark id="61639">
            <name>Jalan Kota Baru Parahyangan</name>
            <styleUrl>#61640</styleUrl>
            <LineString id="61638">
                <coordinates>107.4936415,-6.8526143,0.0 107.4935908,-6.8525552,0.0 107.4935414,-6.8524786,0.0 107.493508,-6.8523961,0.0 107.4934922,-6.8523177,0.0</coordinates>
            </LineString>
        </Placemark>
        <Placemark id="61643">
            <name>Jalan Raya Padalarang</name>
            <styleUrl>#61644</styleUrl>
            <LineString id="61642">
                <coordinates>107.4951383,-6.8501109,0.0 107.4949029,-6.8499353,0.0 107.4943204,-6.8495005,0.0 107.4940096,-6.8492687,0.0</coordinates>
            </LineString>
        </Placemark>
        <Placemark id="61647">
            <name>Jalan Gedong Lima</name>
            <styleUrl>#61648</styleUrl>
            <LineString id="61646">
                <coordinates>107.4961019,-6.8426579,0.0 107.4956719,-6.8425538,0.0 107.4956075,-6.8425396,0.0</coordinates>
            </LineString>
        </Placemark>
        <Placemark id="61651">
            <name>Jalan Raya Padalarang</name>
            <styleUrl>#61652</styleUrl>
            <LineString id="61650">
                <coordinates>107.4955273,-6.8503217,0.0 107.4956199,-6.8503909,0.0</coordinates>
            </LineString>
        </Placemark>
        <Placemark id="61655">
            <name>Route Segment</name>
            <styleUrl>#61656</styleUrl>
            <LineString id="61654">
                <coordinates>107.4681759,-6.851529,0.0 107.4678819,-6.8516094,0.0 107.4677882,-6.851634,0.0 107.467613,-6.8516653,0.0 107.467331,-6.8517248,0.0 107.46697,-6.8517986,0.0 107.4667955,-6.8518242,0.0 107.4664458,-6.8518882,0.0 107.4661083,-6.8519636,0.0 107.4657076,-6.852071,0.0 107.4653766,-6.8521358,0.0 107.4652684,-6.8521565,0.0 107.4650807,-6.8522196,0.0 107.4648969,-6.8522853,0.0 107.4647916,-6.8523253,0.0 107.4647279,-6.8523233,0.0 107.4646709,-6.8523,0.0 107.4646165,-6.8522469,0.0 107.4645147,-6.8520769,0.0 107.4644912,-6.8520363,0.0 107.4644369,-6.8520144,0.0 107.4643558,-6.8520064,0.0 107.4641283,-6.8519874,0.0 107.4639527,-6.8519951,0.0 107.4639186,-6.8519985,0.0 107.4637765,-6.8520125,0.0 107.4633184,-6.8520676,0.0 107.4628516,-6.8520839,0.0 107.4624911,-6.8521147,0.0 107.4624158,-6.8521312,0.0 107.4623863,-6.8521482,0.0</coordinates>
            </LineString>
        </Placemark>
    </Document>
</kml>
