<?xml version="1.0" encoding="UTF-8"?>
<kml xmlns="http://www.opengis.net/kml/2.2" xmlns:gx="http://www.google.com/kml/ext/2.2">
    <Document id="77313">
        <Style id="77319">
            <LineStyle id="77320">
                <color>ff386800</color>
                <colorMode>normal</colorMode>
                <width>4</width>
            </LineStyle>
        </Style>
        <Style id="77323">
            <LineStyle id="77324">
                <color>ff386800</color>
                <colorMode>normal</colorMode>
                <width>4</width>
            </LineStyle>
        </Style>
        <Style id="77327">
            <LineStyle id="77328">
                <color>ff386800</color>
                <colorMode>normal</colorMode>
                <width>4</width>
            </LineStyle>
        </Style>
        <Style id="77331">
            <LineStyle id="77332">
                <color>ff386800</color>
                <colorMode>normal</colorMode>
                <width>4</width>
            </LineStyle>
        </Style>
        <Style id="77335">
            <LineStyle id="77336">
                <color>ff386800</color>
                <colorMode>normal</colorMode>
                <width>4</width>
            </LineStyle>
        </Style>
        <Style id="77339">
            <LineStyle id="77340">
                <color>ff386800</color>
                <colorMode>normal</colorMode>
                <width>4</width>
            </LineStyle>
        </Style>
        <Style id="77343">
            <LineStyle id="77344">
                <color>ff386800</color>
                <colorMode>normal</colorMode>
                <width>4</width>
            </LineStyle>
        </Style>
        <Style id="77347">
            <LineStyle id="77348">
                <color>ff386800</color>
                <colorMode>normal</colorMode>
                <width>4</width>
            </LineStyle>
        </Style>
        <Style id="77351">
            <LineStyle id="77352">
                <color>ff386800</color>
                <colorMode>normal</colorMode>
                <width>4</width>
            </LineStyle>
        </Style>
        <Style id="77355">
            <LineStyle id="77356">
                <color>ff386800</color>
                <colorMode>normal</colorMode>
                <width>4</width>
            </LineStyle>
        </Style>
        <Style id="77359">
            <LineStyle id="77360">
                <color>ff386800</color>
                <colorMode>normal</colorMode>
                <width>4</width>
            </LineStyle>
        </Style>
        <Style id="77363">
            <LineStyle id="77364">
                <color>ff386800</color>
                <colorMode>normal</colorMode>
                <width>4</width>
            </LineStyle>
        </Style>
        <Style id="77367">
            <LineStyle id="77368">
                <color>ff386800</color>
                <colorMode>normal</colorMode>
                <width>4</width>
            </LineStyle>
        </Style>
        <Style id="77371">
            <LineStyle id="77372">
                <color>ff386800</color>
                <colorMode>normal</colorMode>
                <width>4</width>
            </LineStyle>
        </Style>
        <Style id="77375">
            <LineStyle id="77376">
                <color>ff386800</color>
                <colorMode>normal</colorMode>
                <width>4</width>
            </LineStyle>
        </Style>
        <Style id="77379">
            <LineStyle id="77380">
                <color>ff386800</color>
                <colorMode>normal</colorMode>
                <width>4</width>
            </LineStyle>
        </Style>
        <Style id="77383">
            <LineStyle id="77384">
                <color>ff386800</color>
                <colorMode>normal</colorMode>
                <width>4</width>
            </LineStyle>
        </Style>
        <Style id="77387">
            <LineStyle id="77388">
                <color>ff386800</color>
                <colorMode>normal</colorMode>
                <width>4</width>
            </LineStyle>
        </Style>
        <Style id="77391">
            <IconStyle id="77392">
                <colorMode>normal</colorMode>
                <scale>1</scale>
                <heading>0</heading>
                <Icon id="77393">
                    <href>http://maps.google.com/mapfiles/kml/pushpin/ylw-pushpin.png</href>
                </Icon>
            </IconStyle>
        </Style>
        <Style id="77396">
            <IconStyle id="77397">
                <colorMode>normal</colorMode>
                <scale>1</scale>
                <heading>0</heading>
                <Icon id="77398">
                    <href>http://maps.google.com/mapfiles/kml/pushpin/ylw-pushpin.png</href>
                </Icon>
            </IconStyle>
        </Style>
        <ExtendedData>
            <Data name="route-name">
                <value>Buahbatu → GBA</value>
            </Data>
            <Data name="source">
                <value>Transport for Bandung</value>
            </Data>
        </ExtendedData>
        <Placemark id="77318">
            <name>Jalan Marga Cinta</name>
            <styleUrl>#77319</styleUrl>
            <LineString id="77317">
                <coordinates>107.6403797,-6.9541465,0.0 107.6404231,-6.9541579,0.0 107.6404838,-6.9541709,0.0 107.6406395,-6.9541959,0.0 107.6407384,-6.9542156,0.0 107.641017,-6.9542667,0.0 107.6411644,-6.9542938,0.0 107.6416057,-6.9543676,0.0 107.6417609,-6.9544023,0.0 107.6418982,-6.9544267,0.0 107.6420783,-6.9544572,0.0 107.6422073,-6.9544815,0.0 107.6426693,-6.9545964,0.0</coordinates>
            </LineString>
        </Placemark>
        <Placemark id="77322">
            <name>Jalan Logam</name>
            <styleUrl>#77323</styleUrl>
            <LineString id="77321">
                <coordinates>107.6438176,-6.9547496,0.0 107.6438133,-6.9547906,0.0 107.6437975,-6.9552623,0.0 107.6437942,-6.9553282,0.0 107.6437803,-6.9556217,0.0 107.64378,-6.9556663,0.0 107.6437764,-6.9558501,0.0 107.6437719,-6.9559803,0.0 107.6437623,-6.9562638,0.0 107.6437388,-6.95709,0.0 107.643741,-6.9572176,0.0 107.6437362,-6.9573138,0.0 107.6437258,-6.9576426,0.0 107.6437249,-6.957699,0.0 107.6437186,-6.9579609,0.0 107.6437184,-6.9580366,0.0 107.64371,-6.9582791,0.0 107.6437105,-6.9583565,0.0 107.6437145,-6.9584835,0.0 107.6437184,-6.9585271,0.0 107.6437318,-6.9585597,0.0 107.6437516,-6.9585774,0.0 107.6437781,-6.9585874,0.0 107.6438599,-6.9586133,0.0 107.6440724,-6.9586623,0.0 107.6440778,-6.9589724,0.0 107.644104,-6.9595023,0.0</coordinates>
            </LineString>
        </Placemark>
        <Placemark id="77326">
            <name>Route Segment</name>
            <styleUrl>#77327</styleUrl>
            <LineString id="77325">
                <coordinates>107.6439627,-6.9652302,0.0 107.6441187,-6.9658399,0.0</coordinates>
            </LineString>
        </Placemark>
        <Placemark id="77330">
            <name>Route Segment</name>
            <styleUrl>#77331</styleUrl>
            <LineString id="77329">
                <coordinates>107.6441187,-6.9658399,0.0 107.6441963,-6.9659793,0.0 107.6442826,-6.9660672,0.0 107.6444053,-6.9661403,0.0 107.6445547,-6.9661554,0.0 107.6447101,-6.9661334,0.0 107.6449438,-6.966072,0.0 107.6456409,-6.9658719,0.0 107.6457334,-6.9658461,0.0 107.6465299,-6.9656303,0.0 107.6469938,-6.9655116,0.0 107.6471376,-6.9654878,0.0 107.6472862,-6.965489,0.0 107.6474027,-6.9654962,0.0 107.647876,-6.9655619,0.0 107.6481085,-6.9655883,0.0 107.6484021,-6.9656065,0.0 107.6485451,-6.9656153,0.0 107.6488923,-6.9656396,0.0 107.6489581,-6.9656418,0.0 107.6490104,-6.9656525,0.0 107.6490225,-6.9656951,0.0 107.6490252,-6.965755,0.0 107.6489678,-6.9661417,0.0</coordinates>
            </LineString>
        </Placemark>
        <Placemark id="77334">
            <name>Route Segment</name>
            <styleUrl>#77335</styleUrl>
            <LineString id="77333">
                <coordinates>107.6402459,-6.954128,0.0 107.6402319,-6.9541331,0.0 107.6402171,-6.9541325,0.0 107.6402036,-6.9541264,0.0 107.6401935,-6.9541157,0.0 107.6401882,-6.9541019,0.0</coordinates>
            </LineString>
        </Placemark>
        <Placemark id="77338">
            <name>Jalan Ciganitri Mukti</name>
            <styleUrl>#77339</styleUrl>
            <LineString id="77337">
                <coordinates>107.6489678,-6.9661417,0.0 107.6491271,-6.9661615,0.0 107.6493252,-6.9661793,0.0 107.6493812,-6.9661916,0.0 107.6494221,-6.9662102,0.0 107.649572,-6.9662981,0.0 107.6496162,-6.9663169,0.0 107.6500681,-6.9664431,0.0 107.6501999,-6.966479,0.0</coordinates>
            </LineString>
        </Placemark>
        <Placemark id="77342">
            <name>Jalan Logam</name>
            <styleUrl>#77343</styleUrl>
            <LineString id="77341">
                <coordinates>107.644104,-6.9595023,0.0 107.6441127,-6.9595914,0.0 107.6441402,-6.9598763,0.0 107.6441496,-6.9599462,0.0 107.6441556,-6.9600214,0.0 107.6441979,-6.9605093,0.0 107.6442005,-6.9605772,0.0 107.6441992,-6.9606604,0.0 107.6441925,-6.960708,0.0 107.6441603,-6.9609379,0.0 107.644164,-6.9609613,0.0 107.6441704,-6.9609816,0.0 107.6441886,-6.9609999,0.0 107.6442094,-6.9610137,0.0 107.6443464,-6.9610648,0.0 107.644512,-6.9611187,0.0 107.6444709,-6.9613321,0.0 107.6443106,-6.9621376,0.0 107.6442171,-6.9624554,0.0 107.6441806,-6.9625622,0.0 107.6441489,-6.9626845,0.0 107.6440987,-6.9629235,0.0 107.6440242,-6.9633082,0.0 107.6439893,-6.9635212,0.0 107.6439847,-6.9635503,0.0 107.6439155,-6.9639924,0.0 107.6438566,-6.964477,0.0 107.6438538,-6.9647672,0.0 107.6438808,-6.9649082,0.0 107.6439627,-6.9652302,0.0</coordinates>
            </LineString>
        </Placemark>
        <Placemark id="77346">
            <name>Route Segment</name>
            <styleUrl>#77347</styleUrl>
            <LineString id="77345">
                <coordinates>107.6403362,-6.954148,0.0 107.6403076,-6.9542406,0.0 107.6402965,-6.9543117,0.0 107.6402849,-6.9544022,0.0</coordinates>
            </LineString>
        </Placemark>
        <Placemark id="77350">
            <name>Jalan Ciganitri Mukti</name>
            <styleUrl>#77351</styleUrl>
            <LineString id="77349">
                <coordinates>107.6501999,-6.966479,0.0 107.6502617,-6.966499,0.0</coordinates>
            </LineString>
        </Placemark>
        <Placemark id="77354">
            <name>Jalan Ciganitri Mukti</name>
            <styleUrl>#77355</styleUrl>
            <LineString id="77353">
                <coordinates>107.6502617,-6.966499,0.0 107.6504093,-6.9665541,0.0 107.6505815,-6.9666149,0.0 107.6507766,-6.9666801,0.0 107.6509725,-6.9667128,0.0 107.6511474,-6.966727,0.0</coordinates>
            </LineString>
        </Placemark>
        <Placemark id="77358">
            <name>Route Segment</name>
            <styleUrl>#77359</styleUrl>
            <LineString id="77357">
                <coordinates>107.6401882,-6.9541019,0.0 107.6401889,-6.9540857,0.0 107.6401964,-6.9540713,0.0 107.6402092,-6.9540612,0.0 107.6402252,-6.9540574,0.0</coordinates>
            </LineString>
        </Placemark>
        <Placemark id="77362">
            <name>Jalan Marga Cinta</name>
            <styleUrl>#77363</styleUrl>
            <LineString id="77361">
                <coordinates>107.6437319,-6.9547412,0.0 107.6438065,-6.9547477,0.0</coordinates>
            </LineString>
        </Placemark>
        <Placemark id="77366">
            <name>Jalan Marga Cinta</name>
            <styleUrl>#77367</styleUrl>
            <LineString id="77365">
                <coordinates>107.6438065,-6.9547477,0.0 107.6438176,-6.9547496,0.0</coordinates>
            </LineString>
        </Placemark>
        <Placemark id="77370">
            <name>Jalan Marga Cinta</name>
            <styleUrl>#77371</styleUrl>
            <LineString id="77369">
                <coordinates>107.6403362,-6.954148,0.0 107.6403076,-6.9541417,0.0 107.6402459,-6.954128,0.0</coordinates>
            </LineString>
        </Placemark>
        <Placemark id="77374">
            <name>Jalan Marga Cinta</name>
            <styleUrl>#77375</styleUrl>
            <LineString id="77373">
                <coordinates>107.6402643,-6.954096,0.0 107.640346,-6.9541166,0.0 107.6403797,-6.9541465,0.0</coordinates>
            </LineString>
        </Placemark>
        <Placemark id="77378">
            <name>Route Segment</name>
            <styleUrl>#77379</styleUrl>
            <LineString id="77377">
                <coordinates>107.6402252,-6.9540574,0.0 107.6402373,-6.9540591,0.0 107.6402483,-6.9540645,0.0 107.640257,-6.9540731,0.0 107.6402625,-6.954084,0.0 107.6402643,-6.954096,0.0</coordinates>
            </LineString>
        </Placemark>
        <Placemark id="77382">
            <name>Jalan Marga Cinta</name>
            <styleUrl>#77383</styleUrl>
            <LineString id="77381">
                <coordinates>107.6427176,-6.9546077,0.0 107.6427549,-6.9546141,0.0 107.6429084,-6.9546453,0.0 107.6431186,-6.9546799,0.0 107.6433057,-6.9547025,0.0 107.6434955,-6.9547201,0.0 107.6437319,-6.9547412,0.0</coordinates>
            </LineString>
        </Placemark>
        <Placemark id="77386">
            <name>Jalan Marga Cinta</name>
            <styleUrl>#77387</styleUrl>
            <LineString id="77385">
                <coordinates>107.6426693,-6.9545964,0.0 107.6427176,-6.9546077,0.0</coordinates>
            </LineString>
        </Placemark>
        <Placemark id="77390">
            <name>Terminal Angkot Buah Batu-GBA</name>
            <styleUrl>#77391</styleUrl>
            <Point id="77389">
                <coordinates>107.6402849,-6.9544022,0.0</coordinates>
            </Point>
        </Placemark>
        <Placemark id="77395">
            <name>GBA</name>
            <styleUrl>#77396</styleUrl>
            <Point id="77394">
                <coordinates>107.6511474,-6.966727,0.0</coordinates>
            </Point>
        </Placemark>
    </Document>
</kml>
