<?xml version="1.0" encoding="UTF-8"?>
<kml xmlns="http://www.opengis.net/kml/2.2" xmlns:gx="http://www.google.com/kml/ext/2.2">
    <Document id="56912">
        <Style id="56918">
            <LineStyle id="56919">
                <color>ff0027ff</color>
                <colorMode>normal</colorMode>
                <width>4</width>
            </LineStyle>
        </Style>
        <Style id="56922">
            <LineStyle id="56923">
                <color>ff0027ff</color>
                <colorMode>normal</colorMode>
                <width>4</width>
            </LineStyle>
        </Style>
        <Style id="56926">
            <LineStyle id="56927">
                <color>ff0027ff</color>
                <colorMode>normal</colorMode>
                <width>4</width>
            </LineStyle>
        </Style>
        <Style id="56930">
            <LineStyle id="56931">
                <color>ff0027ff</color>
                <colorMode>normal</colorMode>
                <width>4</width>
            </LineStyle>
        </Style>
        <Style id="56934">
            <LineStyle id="56935">
                <color>ff0027ff</color>
                <colorMode>normal</colorMode>
                <width>4</width>
            </LineStyle>
        </Style>
        <Style id="56938">
            <LineStyle id="56939">
                <color>ff0027ff</color>
                <colorMode>normal</colorMode>
                <width>4</width>
            </LineStyle>
        </Style>
        <Style id="56942">
            <LineStyle id="56943">
                <color>ff0027ff</color>
                <colorMode>normal</colorMode>
                <width>4</width>
            </LineStyle>
        </Style>
        <Style id="56946">
            <LineStyle id="56947">
                <color>ff0027ff</color>
                <colorMode>normal</colorMode>
                <width>4</width>
            </LineStyle>
        </Style>
        <Style id="56950">
            <LineStyle id="56951">
                <color>ff0027ff</color>
                <colorMode>normal</colorMode>
                <width>4</width>
            </LineStyle>
        </Style>
        <Style id="56954">
            <LineStyle id="56955">
                <color>ff0027ff</color>
                <colorMode>normal</colorMode>
                <width>4</width>
            </LineStyle>
        </Style>
        <Style id="56958">
            <LineStyle id="56959">
                <color>ff0027ff</color>
                <colorMode>normal</colorMode>
                <width>4</width>
            </LineStyle>
        </Style>
        <Style id="56962">
            <LineStyle id="56963">
                <color>ff0027ff</color>
                <colorMode>normal</colorMode>
                <width>4</width>
            </LineStyle>
        </Style>
        <Style id="56966">
            <LineStyle id="56967">
                <color>ff0027ff</color>
                <colorMode>normal</colorMode>
                <width>4</width>
            </LineStyle>
        </Style>
        <Style id="56970">
            <LineStyle id="56971">
                <color>ff0027ff</color>
                <colorMode>normal</colorMode>
                <width>4</width>
            </LineStyle>
        </Style>
        <Style id="56974">
            <LineStyle id="56975">
                <color>ff0027ff</color>
                <colorMode>normal</colorMode>
                <width>4</width>
            </LineStyle>
        </Style>
        <Style id="56978">
            <LineStyle id="56979">
                <color>ff0027ff</color>
                <colorMode>normal</colorMode>
                <width>4</width>
            </LineStyle>
        </Style>
        <Style id="56982">
            <LineStyle id="56983">
                <color>ff0027ff</color>
                <colorMode>normal</colorMode>
                <width>4</width>
            </LineStyle>
        </Style>
        <Style id="56986">
            <LineStyle id="56987">
                <color>ff0027ff</color>
                <colorMode>normal</colorMode>
                <width>4</width>
            </LineStyle>
        </Style>
        <Style id="56990">
            <LineStyle id="56991">
                <color>ff0027ff</color>
                <colorMode>normal</colorMode>
                <width>4</width>
            </LineStyle>
        </Style>
        <Style id="56994">
            <LineStyle id="56995">
                <color>ff0027ff</color>
                <colorMode>normal</colorMode>
                <width>4</width>
            </LineStyle>
        </Style>
        <Style id="56998">
            <LineStyle id="56999">
                <color>ff0027ff</color>
                <colorMode>normal</colorMode>
                <width>4</width>
            </LineStyle>
        </Style>
        <Style id="57002">
            <LineStyle id="57003">
                <color>ff0027ff</color>
                <colorMode>normal</colorMode>
                <width>4</width>
            </LineStyle>
        </Style>
        <Style id="57006">
            <LineStyle id="57007">
                <color>ff0027ff</color>
                <colorMode>normal</colorMode>
                <width>4</width>
            </LineStyle>
        </Style>
        <Style id="57010">
            <LineStyle id="57011">
                <color>ff0027ff</color>
                <colorMode>normal</colorMode>
                <width>4</width>
            </LineStyle>
        </Style>
        <Style id="57014">
            <LineStyle id="57015">
                <color>ff0027ff</color>
                <colorMode>normal</colorMode>
                <width>4</width>
            </LineStyle>
        </Style>
        <Style id="57018">
            <LineStyle id="57019">
                <color>ff0027ff</color>
                <colorMode>normal</colorMode>
                <width>4</width>
            </LineStyle>
        </Style>
        <Style id="57022">
            <LineStyle id="57023">
                <color>ff0027ff</color>
                <colorMode>normal</colorMode>
                <width>4</width>
            </LineStyle>
        </Style>
        <Style id="57026">
            <LineStyle id="57027">
                <color>ff0027ff</color>
                <colorMode>normal</colorMode>
                <width>4</width>
            </LineStyle>
        </Style>
        <Style id="57030">
            <LineStyle id="57031">
                <color>ff0027ff</color>
                <colorMode>normal</colorMode>
                <width>4</width>
            </LineStyle>
        </Style>
        <Style id="57034">
            <IconStyle id="57035">
                <colorMode>normal</colorMode>
                <scale>1</scale>
                <heading>0</heading>
                <Icon id="57036">
                    <href>http://maps.google.com/mapfiles/kml/pushpin/ylw-pushpin.png</href>
                </Icon>
            </IconStyle>
        </Style>
        <Style id="57039">
            <IconStyle id="57040">
                <colorMode>normal</colorMode>
                <scale>1</scale>
                <heading>0</heading>
                <Icon id="57041">
                    <href>http://maps.google.com/mapfiles/kml/pushpin/ylw-pushpin.png</href>
                </Icon>
            </IconStyle>
        </Style>
        <ExtendedData>
            <Data name="route-name">
                <value>Cibeber → Cimahi via Contong</value>
            </Data>
            <Data name="source">
                <value>Transport for Bandung</value>
            </Data>
        </ExtendedData>
        <Placemark id="56917">
            <name>Jalan Ibu Ganirah</name>
            <styleUrl>#56918</styleUrl>
            <LineString id="56916">
                <coordinates>107.5192867,-6.8923486,0.0 107.5193337,-6.8922274,0.0 107.5193949,-6.8921084,0.0 107.5194181,-6.8920676,0.0 107.5194584,-6.8920083,0.0 107.5195228,-6.8919318,0.0 107.5196233,-6.891796,0.0 107.5197136,-6.8916657,0.0 107.5198708,-6.8914026,0.0 107.5199416,-6.8912743,0.0 107.5199821,-6.8911902,0.0 107.5200299,-6.8910858,0.0 107.5200786,-6.8909745,0.0 107.5201316,-6.8908234,0.0 107.5201648,-6.8907082,0.0 107.5201799,-6.8906277,0.0 107.5201987,-6.8905398,0.0 107.5202242,-6.8904566,0.0 107.5202751,-6.8903488,0.0 107.5203864,-6.8901383,0.0 107.5205352,-6.8899473,0.0 107.5206701,-6.8898295,0.0 107.5208759,-6.8896757,0.0 107.5210074,-6.8895825,0.0 107.5210852,-6.8894947,0.0 107.5211609,-6.8893735,0.0 107.5213026,-6.8890683,0.0 107.5213185,-6.889034,0.0 107.5213745,-6.888937,0.0 107.5214312,-6.8888129,0.0 107.5214446,-6.8887091,0.0 107.5214371,-6.8886127,0.0 107.5215465,-6.8882857,0.0 107.521576,-6.8882059,0.0 107.5216028,-6.8881233,0.0 107.5216337,-6.88807,0.0 107.5216766,-6.8880301,0.0 107.5217611,-6.8879588,0.0</coordinates>
            </LineString>
        </Placemark>
        <Placemark id="56921">
            <name>Jalan Ibu Ganirah</name>
            <styleUrl>#56922</styleUrl>
            <LineString id="56920">
                <coordinates>107.5191312,-6.8929297,0.0 107.5190467,-6.8931966,0.0 107.5189287,-6.8935535,0.0 107.518912,-6.8936088,0.0 107.5188556,-6.8937818,0.0 107.5187939,-6.8939576,0.0 107.5187697,-6.8940335,0.0 107.5187556,-6.8941466,0.0 107.518753,-6.8942239,0.0 107.5187503,-6.8942798,0.0 107.5187644,-6.894324,0.0 107.5187932,-6.8943776,0.0 107.5188281,-6.8944262,0.0 107.5188921,-6.8944825,0.0 107.5189229,-6.8945221,0.0 107.5190205,-6.8946046,0.0 107.5191405,-6.8946965,0.0 107.5192141,-6.8947529,0.0 107.5192425,-6.8947764,0.0 107.5193156,-6.8948233,0.0 107.5193927,-6.8948762,0.0 107.5194423,-6.8949135,0.0 107.5195165,-6.894983,0.0 107.5197528,-6.8952457,0.0 107.5199412,-6.895472,0.0 107.5200813,-6.8956365,0.0 107.5201987,-6.8957735,0.0 107.5202275,-6.8958608,0.0 107.5202268,-6.895932,0.0 107.520202,-6.8960053,0.0 107.5201531,-6.8960519,0.0 107.5200914,-6.8960898,0.0 107.5200223,-6.8961078,0.0 107.519962,-6.8961164,0.0 107.5198849,-6.8961151,0.0 107.5198044,-6.8961198,0.0 107.5197749,-6.8961258,0.0 107.5197453,-6.896141,0.0 107.5197199,-6.8961624,0.0 107.5196763,-6.8962369,0.0 107.5195318,-6.8965431,0.0 107.5194973,-6.896615,0.0 107.5193144,-6.8970038,0.0 107.5192444,-6.8971369,0.0</coordinates>
            </LineString>
        </Placemark>
        <Placemark id="56925">
            <name>Jalan Underpass Ir. Soekarno</name>
            <styleUrl>#56926</styleUrl>
            <LineString id="56924">
                <coordinates>107.5350132,-6.8840951,0.0 107.5351713,-6.8839398,0.0 107.535726,-6.8834335,0.0 107.5359996,-6.8831994,0.0 107.5363838,-6.8828662,0.0</coordinates>
            </LineString>
        </Placemark>
        <Placemark id="56929">
            <name>Jalan Ibu Ganirah</name>
            <styleUrl>#56930</styleUrl>
            <LineString id="56928">
                <coordinates>107.5222861,-6.8876266,0.0 107.5223766,-6.8875375,0.0 107.5224316,-6.8874656,0.0 107.5226153,-6.8871807,0.0 107.5226529,-6.8871247,0.0 107.5227718,-6.8869616,0.0 107.5229481,-6.8866802,0.0 107.5229996,-6.8866041,0.0 107.5231102,-6.8864403,0.0 107.5232148,-6.8862653,0.0 107.5232765,-6.8861601,0.0 107.5233516,-6.886031,0.0 107.5234617,-6.8858533,0.0</coordinates>
            </LineString>
        </Placemark>
        <Placemark id="56933">
            <name>Jalan Ibu Ganirah</name>
            <styleUrl>#56934</styleUrl>
            <LineString id="56932">
                <coordinates>107.5217611,-6.8879588,0.0 107.5222861,-6.8876266,0.0</coordinates>
            </LineString>
        </Placemark>
        <Placemark id="56937">
            <name>Jalan Sriwijaya Raya</name>
            <styleUrl>#56938</styleUrl>
            <LineString id="56936">
                <coordinates>107.537175,-6.8821695,0.0 107.5373924,-6.8819808,0.0 107.5379177,-6.8815256,0.0 107.5383466,-6.8811511,0.0</coordinates>
            </LineString>
        </Placemark>
        <Placemark id="56941">
            <name>Route Segment</name>
            <styleUrl>#56942</styleUrl>
            <LineString id="56940">
                <coordinates>107.5396782,-6.880004,0.0 107.5397308,-6.8797098,0.0 107.5398213,-6.8791946,0.0 107.5398287,-6.8791606,0.0</coordinates>
            </LineString>
        </Placemark>
        <Placemark id="56945">
            <name>Jalan Ibu Ganirah</name>
            <styleUrl>#56946</styleUrl>
            <LineString id="56944">
                <coordinates>107.5234617,-6.8858533,0.0 107.5235581,-6.8856795,0.0 107.5236062,-6.8855931,0.0 107.5236314,-6.8855512,0.0 107.5236862,-6.8854618,0.0 107.5237296,-6.8853828,0.0 107.523764,-6.8853293,0.0 107.5238747,-6.8851083,0.0 107.5238887,-6.8850852,0.0 107.5239017,-6.8850621,0.0 107.5239124,-6.8850412,0.0 107.5239524,-6.8849495,0.0 107.5240115,-6.8847894,0.0 107.5240839,-6.8846323,0.0 107.52412,-6.8845431,0.0 107.5241472,-6.8844826,0.0 107.5241985,-6.884376,0.0 107.52423,-6.8843067,0.0 107.5243085,-6.8841603,0.0 107.5243429,-6.8840848,0.0 107.5244051,-6.8839387,0.0 107.5244618,-6.8837824,0.0 107.5244759,-6.8837443,0.0 107.5245492,-6.8835751,0.0 107.5245805,-6.8835041,0.0 107.5246219,-6.8834193,0.0 107.5246655,-6.8833527,0.0 107.5247288,-6.8832833,0.0 107.5247879,-6.8832258,0.0 107.5248381,-6.8831817,0.0 107.5249894,-6.8831019,0.0 107.5250568,-6.883095,0.0 107.5251631,-6.8830859,0.0 107.5252865,-6.8830724,0.0 107.525375,-6.8830667,0.0 107.5254383,-6.8830747,0.0 107.5255275,-6.8830918,0.0 107.5256073,-6.8831304,0.0 107.525676,-6.8831787,0.0 107.5257282,-6.8831997,0.0 107.5258233,-6.8832236,0.0 107.525901,-6.8832489,0.0 107.5259829,-6.8832662,0.0 107.5260566,-6.8832782,0.0 107.5261538,-6.8832836,0.0 107.5261901,-6.8832836,0.0 107.5262175,-6.8832796,0.0 107.5262377,-6.8832749,0.0 107.5262598,-6.8832636,0.0 107.5262725,-6.8832303,0.0 107.5262865,-6.8831842,0.0 107.5263094,-6.8831304,0.0 107.5263436,-6.8830413,0.0 107.5263724,-6.8829688,0.0 107.526402,-6.8828941,0.0 107.5264321,-6.8827976,0.0 107.5264663,-6.8827142,0.0 107.5264967,-6.882641,0.0 107.5265328,-6.882592,0.0 107.5265534,-6.8825756,0.0 107.5265785,-6.8825664,0.0 107.5266173,-6.8825572,0.0 107.5266493,-6.882566,0.0 107.5266702,-6.8825778,0.0 107.5267037,-6.8825992,0.0 107.5267584,-6.8826336,0.0 107.5269607,-6.8827945,0.0 107.5271661,-6.8829581,0.0 107.5273401,-6.8830926,0.0 107.527498,-6.8832155,0.0 107.5277219,-6.8833702,0.0 107.5278372,-6.8834549,0.0 107.5279426,-6.8835478,0.0 107.5281023,-6.8836253,0.0 107.5282272,-6.8836668,0.0 107.5283699,-6.883709,0.0 107.528473,-6.8837409,0.0 107.5285391,-6.8837516,0.0 107.528572,-6.8837529,0.0 107.5285983,-6.8837368,0.0 107.528652,-6.8837041,0.0 107.528686,-6.8836625,0.0 107.5287133,-6.8836204,0.0 107.5287358,-6.8835765,0.0 107.5290788,-6.8830347,0.0 107.5295157,-6.8823521,0.0 107.5299003,-6.8817455,0.0 107.5301369,-6.8813379,0.0 107.5302818,-6.881108,0.0 107.5303133,-6.8811355,0.0</coordinates>
            </LineString>
        </Placemark>
        <Placemark id="56949">
            <name>Jalan Ibu Ganirah</name>
            <styleUrl>#56950</styleUrl>
            <LineString id="56948">
                <coordinates>107.5191312,-6.8929297,0.0 107.5191673,-6.8928005,0.0 107.5191983,-6.8926546,0.0</coordinates>
            </LineString>
        </Placemark>
        <Placemark id="56953">
            <name>Jalan Warung Contong</name>
            <styleUrl>#56954</styleUrl>
            <LineString id="56952">
                <coordinates>107.531763,-6.885105,0.0 107.531759,-6.8849299,0.0 107.5317513,-6.8847654,0.0 107.5317636,-6.8846636,0.0 107.5317718,-6.8845948,0.0 107.531812,-6.8845151,0.0 107.5318529,-6.8844492,0.0 107.5319092,-6.8843574,0.0 107.5319856,-6.8842322,0.0 107.5320105,-6.8841909,0.0 107.5320312,-6.8841583,0.0 107.5321908,-6.8839027,0.0 107.5322657,-6.8837847,0.0 107.5322963,-6.8837366,0.0 107.5325037,-6.8834099,0.0 107.532588,-6.8832772,0.0</coordinates>
            </LineString>
        </Placemark>
        <Placemark id="56957">
            <name>Jalan Sisingamangaraja</name>
            <styleUrl>#56958</styleUrl>
            <LineString id="56956">
                <coordinates>107.5398287,-6.8791606,0.0 107.5397533,-6.8791348,0.0 107.5395016,-6.8790697,0.0 107.5391401,-6.8789747,0.0 107.5391126,-6.8789597,0.0 107.5390937,-6.8789402,0.0</coordinates>
            </LineString>
        </Placemark>
        <Placemark id="56961">
            <name>Route Segment</name>
            <styleUrl>#56962</styleUrl>
            <LineString id="56960">
                <coordinates>107.5390937,-6.8789402,0.0 107.5390857,-6.8789467,0.0 107.5390744,-6.8789553,0.0 107.5390292,-6.8789871,0.0 107.5388206,-6.8790968,0.0 107.5385827,-6.8792246,0.0 107.5382603,-6.8794896,0.0 107.5381814,-6.8795544,0.0</coordinates>
            </LineString>
        </Placemark>
        <Placemark id="56965">
            <name>Jalan Urip Soemohardjo</name>
            <styleUrl>#56966</styleUrl>
            <LineString id="56964">
                <coordinates>107.534337,-6.8888509,0.0 107.5352141,-6.8880987,0.0 107.5353989,-6.8879375,0.0 107.5356704,-6.8877061,0.0 107.5357066,-6.8876755,0.0 107.5361455,-6.8872919,0.0 107.5364684,-6.8870194,0.0</coordinates>
            </LineString>
        </Placemark>
        <Placemark id="56969">
            <name>Route Segment</name>
            <styleUrl>#56970</styleUrl>
            <LineString id="56968">
                <coordinates>107.5374857,-6.8801763,0.0 107.5379919,-6.8807505,0.0</coordinates>
            </LineString>
        </Placemark>
        <Placemark id="56973">
            <name>Jalan Ibu Ganirah</name>
            <styleUrl>#56974</styleUrl>
            <LineString id="56972">
                <coordinates>107.5307435,-6.881537,0.0 107.5307714,-6.8815636,0.0 107.5308517,-6.8816432,0.0 107.5309877,-6.8817847,0.0 107.5312706,-6.8820501,0.0 107.5316195,-6.8823945,0.0 107.5317616,-6.8825281,0.0 107.5322351,-6.8829598,0.0 107.532588,-6.8832772,0.0</coordinates>
            </LineString>
        </Placemark>
        <Placemark id="56977">
            <name>Jalan Ibu Ganirah</name>
            <styleUrl>#56978</styleUrl>
            <LineString id="56976">
                <coordinates>107.5303133,-6.8811355,0.0 107.5303467,-6.8811654,0.0</coordinates>
            </LineString>
        </Placemark>
        <Placemark id="56981">
            <name>Jalan Warung Contong</name>
            <styleUrl>#56982</styleUrl>
            <LineString id="56980">
                <coordinates>107.5317583,-6.8851592,0.0 107.531763,-6.885105,0.0</coordinates>
            </LineString>
        </Placemark>
        <Placemark id="56985">
            <name>Jalan Jenderal Sudirman</name>
            <styleUrl>#56986</styleUrl>
            <LineString id="56984">
                <coordinates>107.5324772,-6.8866887,0.0 107.5323404,-6.8865263,0.0 107.5321258,-6.8862753,0.0 107.5317177,-6.8858066,0.0 107.531561,-6.8856016,0.0 107.5315342,-6.8855624,0.0 107.5315176,-6.885531,0.0 107.5315149,-6.8854977,0.0</coordinates>
            </LineString>
        </Placemark>
        <Placemark id="56989">
            <name>Jalan Sriwijaya Raya</name>
            <styleUrl>#56990</styleUrl>
            <LineString id="56988">
                <coordinates>107.5383466,-6.8811511,0.0 107.5387934,-6.8807622,0.0 107.5390256,-6.8805614,0.0 107.5391513,-6.8804551,0.0 107.5392258,-6.8803921,0.0 107.5396782,-6.880004,0.0</coordinates>
            </LineString>
        </Placemark>
        <Placemark id="56993">
            <name>Jalan Sriwijaya Raya</name>
            <styleUrl>#56994</styleUrl>
            <LineString id="56992">
                <coordinates>107.5363838,-6.8828662,0.0 107.537175,-6.8821695,0.0</coordinates>
            </LineString>
        </Placemark>
        <Placemark id="56997">
            <name>Jalan Jenderal Sudirman</name>
            <styleUrl>#56998</styleUrl>
            <LineString id="56996">
                <coordinates>107.534337,-6.8888509,0.0 107.5338732,-6.8883224,0.0 107.5337519,-6.8881686,0.0 107.5335467,-6.8879236,0.0 107.5332872,-6.8876313,0.0 107.5331507,-6.8874786,0.0 107.5330029,-6.8873098,0.0 107.5327963,-6.8870622,0.0 107.5326455,-6.8868904,0.0 107.5324772,-6.8866887,0.0</coordinates>
            </LineString>
        </Placemark>
        <Placemark id="57001">
            <name>Jalan Ibu Ganirah</name>
            <styleUrl>#57002</styleUrl>
            <LineString id="57000">
                <coordinates>107.5303467,-6.8811654,0.0 107.5303915,-6.881209,0.0 107.5305131,-6.881321,0.0 107.5306633,-6.8814635,0.0 107.5307047,-6.8814999,0.0 107.5307435,-6.881537,0.0</coordinates>
            </LineString>
        </Placemark>
        <Placemark id="57005">
            <name>Jalan Warung Contong</name>
            <styleUrl>#57006</styleUrl>
            <LineString id="57004">
                <coordinates>107.5315149,-6.8854977,0.0 107.5315254,-6.8854707,0.0 107.5315524,-6.8854401,0.0 107.5315764,-6.8854153,0.0 107.5317184,-6.8852893,0.0 107.5317402,-6.8852547,0.0 107.5317496,-6.8852108,0.0 107.5317583,-6.8851592,0.0</coordinates>
            </LineString>
        </Placemark>
        <Placemark id="57009">
            <name>Jalan Dustira</name>
            <styleUrl>#57010</styleUrl>
            <LineString id="57008">
                <coordinates>107.5364684,-6.8870194,0.0 107.5359459,-6.8864349,0.0 107.5358725,-6.8863526,0.0 107.5354638,-6.8858941,0.0 107.5351739,-6.8855689,0.0</coordinates>
            </LineString>
        </Placemark>
        <Placemark id="57013">
            <name>Route Segment</name>
            <styleUrl>#57014</styleUrl>
            <LineString id="57012">
                <coordinates>107.5381814,-6.8795544,0.0 107.53814,-6.8795884,0.0 107.5377405,-6.8799427,0.0 107.5374857,-6.8801763,0.0</coordinates>
            </LineString>
        </Placemark>
        <Placemark id="57017">
            <name>Jalan Underpass Ir. Soekarno</name>
            <styleUrl>#57018</styleUrl>
            <LineString id="57016">
                <coordinates>107.5346616,-6.8843934,0.0 107.5350132,-6.8840951,0.0</coordinates>
            </LineString>
        </Placemark>
        <Placemark id="57021">
            <name>Jalan Underpass Ir. Soekarno</name>
            <styleUrl>#57022</styleUrl>
            <LineString id="57020">
                <coordinates>107.5351739,-6.8855689,0.0 107.5351401,-6.8854879,0.0 107.5345982,-6.884846,0.0 107.5345583,-6.8847825,0.0 107.5345323,-6.8847104,0.0 107.5345274,-6.8846105,0.0 107.5345557,-6.8845207,0.0 107.5346001,-6.884453,0.0 107.5346616,-6.8843934,0.0</coordinates>
            </LineString>
        </Placemark>
        <Placemark id="57025">
            <name>Jalan Ibu Ganirah</name>
            <styleUrl>#57026</styleUrl>
            <LineString id="57024">
                <coordinates>107.5191983,-6.8926546,0.0 107.5192867,-6.8923486,0.0</coordinates>
            </LineString>
        </Placemark>
        <Placemark id="57029">
            <name>Jalan Ciseupan</name>
            <styleUrl>#57030</styleUrl>
            <LineString id="57028">
                <coordinates>107.5192444,-6.8971369,0.0 107.5192037,-6.8971958,0.0</coordinates>
            </LineString>
        </Placemark>
        <Placemark id="57033">
            <name>Cibeber</name>
            <styleUrl>#57034</styleUrl>
            <Point id="57032">
                <coordinates>107.5192037,-6.8971958,0.0</coordinates>
            </Point>
        </Placemark>
        <Placemark id="57038">
            <name>Pasar Antri</name>
            <styleUrl>#57039</styleUrl>
            <Point id="57037">
                <coordinates>107.5379919,-6.8807505,0.0</coordinates>
            </Point>
        </Placemark>
    </Document>
</kml>
