<?xml version="1.0" encoding="UTF-8"?>
<kml xmlns="http://www.opengis.net/kml/2.2" xmlns:gx="http://www.google.com/kml/ext/2.2">
    <Document id="56757">
        <Style id="56763">
            <LineStyle id="56764">
                <color>ff0027ff</color>
                <colorMode>normal</colorMode>
                <width>4</width>
            </LineStyle>
        </Style>
        <Style id="56767">
            <LineStyle id="56768">
                <color>ff0027ff</color>
                <colorMode>normal</colorMode>
                <width>4</width>
            </LineStyle>
        </Style>
        <Style id="56771">
            <LineStyle id="56772">
                <color>ff0027ff</color>
                <colorMode>normal</colorMode>
                <width>4</width>
            </LineStyle>
        </Style>
        <Style id="56775">
            <LineStyle id="56776">
                <color>ff0027ff</color>
                <colorMode>normal</colorMode>
                <width>4</width>
            </LineStyle>
        </Style>
        <Style id="56779">
            <LineStyle id="56780">
                <color>ff0027ff</color>
                <colorMode>normal</colorMode>
                <width>4</width>
            </LineStyle>
        </Style>
        <Style id="56783">
            <LineStyle id="56784">
                <color>ff0027ff</color>
                <colorMode>normal</colorMode>
                <width>4</width>
            </LineStyle>
        </Style>
        <Style id="56787">
            <LineStyle id="56788">
                <color>ff0027ff</color>
                <colorMode>normal</colorMode>
                <width>4</width>
            </LineStyle>
        </Style>
        <Style id="56791">
            <LineStyle id="56792">
                <color>ff0027ff</color>
                <colorMode>normal</colorMode>
                <width>4</width>
            </LineStyle>
        </Style>
        <Style id="56795">
            <LineStyle id="56796">
                <color>ff0027ff</color>
                <colorMode>normal</colorMode>
                <width>4</width>
            </LineStyle>
        </Style>
        <Style id="56799">
            <LineStyle id="56800">
                <color>ff0027ff</color>
                <colorMode>normal</colorMode>
                <width>4</width>
            </LineStyle>
        </Style>
        <Style id="56803">
            <LineStyle id="56804">
                <color>ff0027ff</color>
                <colorMode>normal</colorMode>
                <width>4</width>
            </LineStyle>
        </Style>
        <Style id="56807">
            <LineStyle id="56808">
                <color>ff0027ff</color>
                <colorMode>normal</colorMode>
                <width>4</width>
            </LineStyle>
        </Style>
        <Style id="56811">
            <LineStyle id="56812">
                <color>ff0027ff</color>
                <colorMode>normal</colorMode>
                <width>4</width>
            </LineStyle>
        </Style>
        <Style id="56815">
            <LineStyle id="56816">
                <color>ff0027ff</color>
                <colorMode>normal</colorMode>
                <width>4</width>
            </LineStyle>
        </Style>
        <Style id="56819">
            <LineStyle id="56820">
                <color>ff0027ff</color>
                <colorMode>normal</colorMode>
                <width>4</width>
            </LineStyle>
        </Style>
        <Style id="56823">
            <LineStyle id="56824">
                <color>ff0027ff</color>
                <colorMode>normal</colorMode>
                <width>4</width>
            </LineStyle>
        </Style>
        <Style id="56827">
            <LineStyle id="56828">
                <color>ff0027ff</color>
                <colorMode>normal</colorMode>
                <width>4</width>
            </LineStyle>
        </Style>
        <Style id="56831">
            <LineStyle id="56832">
                <color>ff0027ff</color>
                <colorMode>normal</colorMode>
                <width>4</width>
            </LineStyle>
        </Style>
        <Style id="56835">
            <LineStyle id="56836">
                <color>ff0027ff</color>
                <colorMode>normal</colorMode>
                <width>4</width>
            </LineStyle>
        </Style>
        <Style id="56839">
            <LineStyle id="56840">
                <color>ff0027ff</color>
                <colorMode>normal</colorMode>
                <width>4</width>
            </LineStyle>
        </Style>
        <Style id="56843">
            <LineStyle id="56844">
                <color>ff0027ff</color>
                <colorMode>normal</colorMode>
                <width>4</width>
            </LineStyle>
        </Style>
        <Style id="56847">
            <LineStyle id="56848">
                <color>ff0027ff</color>
                <colorMode>normal</colorMode>
                <width>4</width>
            </LineStyle>
        </Style>
        <Style id="56851">
            <LineStyle id="56852">
                <color>ff0027ff</color>
                <colorMode>normal</colorMode>
                <width>4</width>
            </LineStyle>
        </Style>
        <Style id="56855">
            <LineStyle id="56856">
                <color>ff0027ff</color>
                <colorMode>normal</colorMode>
                <width>4</width>
            </LineStyle>
        </Style>
        <Style id="56859">
            <LineStyle id="56860">
                <color>ff0027ff</color>
                <colorMode>normal</colorMode>
                <width>4</width>
            </LineStyle>
        </Style>
        <Style id="56863">
            <LineStyle id="56864">
                <color>ff0027ff</color>
                <colorMode>normal</colorMode>
                <width>4</width>
            </LineStyle>
        </Style>
        <Style id="56867">
            <LineStyle id="56868">
                <color>ff0027ff</color>
                <colorMode>normal</colorMode>
                <width>4</width>
            </LineStyle>
        </Style>
        <Style id="56871">
            <LineStyle id="56872">
                <color>ff0027ff</color>
                <colorMode>normal</colorMode>
                <width>4</width>
            </LineStyle>
        </Style>
        <Style id="56875">
            <LineStyle id="56876">
                <color>ff0027ff</color>
                <colorMode>normal</colorMode>
                <width>4</width>
            </LineStyle>
        </Style>
        <Style id="56879">
            <LineStyle id="56880">
                <color>ff0027ff</color>
                <colorMode>normal</colorMode>
                <width>4</width>
            </LineStyle>
        </Style>
        <Style id="56883">
            <LineStyle id="56884">
                <color>ff0027ff</color>
                <colorMode>normal</colorMode>
                <width>4</width>
            </LineStyle>
        </Style>
        <Style id="56887">
            <LineStyle id="56888">
                <color>ff0027ff</color>
                <colorMode>normal</colorMode>
                <width>4</width>
            </LineStyle>
        </Style>
        <Style id="56891">
            <LineStyle id="56892">
                <color>ff0027ff</color>
                <colorMode>normal</colorMode>
                <width>4</width>
            </LineStyle>
        </Style>
        <Style id="56895">
            <LineStyle id="56896">
                <color>ff0027ff</color>
                <colorMode>normal</colorMode>
                <width>4</width>
            </LineStyle>
        </Style>
        <Style id="56899">
            <LineStyle id="56900">
                <color>ff0027ff</color>
                <colorMode>normal</colorMode>
                <width>4</width>
            </LineStyle>
        </Style>
        <Style id="56903">
            <IconStyle id="56904">
                <colorMode>normal</colorMode>
                <scale>1</scale>
                <heading>0</heading>
                <Icon id="56905">
                    <href>http://maps.google.com/mapfiles/kml/pushpin/ylw-pushpin.png</href>
                </Icon>
            </IconStyle>
        </Style>
        <Style id="56908">
            <IconStyle id="56909">
                <colorMode>normal</colorMode>
                <scale>1</scale>
                <heading>0</heading>
                <Icon id="56910">
                    <href>http://maps.google.com/mapfiles/kml/pushpin/ylw-pushpin.png</href>
                </Icon>
            </IconStyle>
        </Style>
        <ExtendedData>
            <Data name="route-name">
                <value>Cimahi → Cibeber via Contong</value>
            </Data>
            <Data name="source">
                <value>Transport for Bandung</value>
            </Data>
        </ExtendedData>
        <Placemark id="56762">
            <name>Jalan Ibu Ganirah</name>
            <styleUrl>#56763</styleUrl>
            <LineString id="56761">
                <coordinates>107.5192867,-6.8923486,0.0 107.5193337,-6.8922274,0.0 107.5193949,-6.8921084,0.0 107.5194181,-6.8920676,0.0 107.5194584,-6.8920083,0.0 107.5195228,-6.8919318,0.0 107.5196233,-6.891796,0.0 107.5197136,-6.8916657,0.0 107.5198708,-6.8914026,0.0 107.5199416,-6.8912743,0.0 107.5199821,-6.8911902,0.0 107.5200299,-6.8910858,0.0 107.5200786,-6.8909745,0.0 107.5201316,-6.8908234,0.0 107.5201648,-6.8907082,0.0 107.5201799,-6.8906277,0.0 107.5201987,-6.8905398,0.0 107.5202242,-6.8904566,0.0 107.5202751,-6.8903488,0.0 107.5203864,-6.8901383,0.0 107.5205352,-6.8899473,0.0 107.5206701,-6.8898295,0.0 107.5208759,-6.8896757,0.0 107.5210074,-6.8895825,0.0 107.5210852,-6.8894947,0.0 107.5211609,-6.8893735,0.0 107.5213026,-6.8890683,0.0 107.5213185,-6.889034,0.0 107.5213745,-6.888937,0.0 107.5214312,-6.8888129,0.0 107.5214446,-6.8887091,0.0 107.5214371,-6.8886127,0.0 107.5215465,-6.8882857,0.0 107.521576,-6.8882059,0.0 107.5216028,-6.8881233,0.0 107.5216337,-6.88807,0.0 107.5216766,-6.8880301,0.0 107.5217611,-6.8879588,0.0</coordinates>
            </LineString>
        </Placemark>
        <Placemark id="56766">
            <name>Jalan Ibu Ganirah</name>
            <styleUrl>#56767</styleUrl>
            <LineString id="56765">
                <coordinates>107.5191312,-6.8929297,0.0 107.5190467,-6.8931966,0.0 107.5189287,-6.8935535,0.0 107.518912,-6.8936088,0.0 107.5188556,-6.8937818,0.0 107.5187939,-6.8939576,0.0 107.5187697,-6.8940335,0.0 107.5187556,-6.8941466,0.0 107.518753,-6.8942239,0.0 107.5187503,-6.8942798,0.0 107.5187644,-6.894324,0.0 107.5187932,-6.8943776,0.0 107.5188281,-6.8944262,0.0 107.5188921,-6.8944825,0.0 107.5189229,-6.8945221,0.0 107.5190205,-6.8946046,0.0 107.5191405,-6.8946965,0.0 107.5192141,-6.8947529,0.0 107.5192425,-6.8947764,0.0 107.5193156,-6.8948233,0.0 107.5193927,-6.8948762,0.0 107.5194423,-6.8949135,0.0 107.5195165,-6.894983,0.0 107.5197528,-6.8952457,0.0 107.5199412,-6.895472,0.0 107.5200813,-6.8956365,0.0 107.5201987,-6.8957735,0.0 107.5202275,-6.8958608,0.0 107.5202268,-6.895932,0.0 107.520202,-6.8960053,0.0 107.5201531,-6.8960519,0.0 107.5200914,-6.8960898,0.0 107.5200223,-6.8961078,0.0 107.519962,-6.8961164,0.0 107.5198849,-6.8961151,0.0 107.5198044,-6.8961198,0.0 107.5197749,-6.8961258,0.0 107.5197453,-6.896141,0.0 107.5197199,-6.8961624,0.0 107.5196763,-6.8962369,0.0 107.5195318,-6.8965431,0.0 107.5194973,-6.896615,0.0 107.5193144,-6.8970038,0.0 107.5192444,-6.8971369,0.0</coordinates>
            </LineString>
        </Placemark>
        <Placemark id="56770">
            <name>Jalan Jenderal Sudirman</name>
            <styleUrl>#56771</styleUrl>
            <LineString id="56769">
                <coordinates>107.5363362,-6.8910777,0.0 107.5362772,-6.8910231,0.0 107.5361236,-6.8908514,0.0 107.5360646,-6.8907861,0.0 107.5359392,-6.8906307,0.0 107.5357518,-6.8904127,0.0 107.5352907,-6.8899109,0.0 107.535215,-6.8898285,0.0 107.5349721,-6.8895634,0.0 107.5346935,-6.8892537,0.0 107.5344404,-6.8889696,0.0 107.534337,-6.8888509,0.0</coordinates>
            </LineString>
        </Placemark>
        <Placemark id="56774">
            <name>Jalan Ibu Ganirah</name>
            <styleUrl>#56775</styleUrl>
            <LineString id="56773">
                <coordinates>107.5222861,-6.8876266,0.0 107.5223766,-6.8875375,0.0 107.5224316,-6.8874656,0.0 107.5226153,-6.8871807,0.0 107.5226529,-6.8871247,0.0 107.5227718,-6.8869616,0.0 107.5229481,-6.8866802,0.0 107.5229996,-6.8866041,0.0 107.5231102,-6.8864403,0.0 107.5232148,-6.8862653,0.0 107.5232765,-6.8861601,0.0 107.5233516,-6.886031,0.0 107.5234617,-6.8858533,0.0</coordinates>
            </LineString>
        </Placemark>
        <Placemark id="56778">
            <name>Jalan Ibu Ganirah</name>
            <styleUrl>#56779</styleUrl>
            <LineString id="56777">
                <coordinates>107.5217611,-6.8879588,0.0 107.5222861,-6.8876266,0.0</coordinates>
            </LineString>
        </Placemark>
        <Placemark id="56782">
            <name>Jalan Baros</name>
            <styleUrl>#56783</styleUrl>
            <LineString id="56781">
                <coordinates>107.53735,-6.8878165,0.0 107.5372378,-6.8880721,0.0</coordinates>
            </LineString>
        </Placemark>
        <Placemark id="56786">
            <name>Jalan Stasiun</name>
            <styleUrl>#56787</styleUrl>
            <LineString id="56785">
                <coordinates>107.5352159,-6.8840014,0.0 107.5352209,-6.8840374,0.0 107.5354964,-6.8843363,0.0 107.5358223,-6.8846929,0.0 107.5359468,-6.884833,0.0 107.536025,-6.8849146,0.0 107.5361708,-6.8850816,0.0 107.5362818,-6.8852088,0.0 107.5363587,-6.8852969,0.0 107.5364702,-6.8854248,0.0 107.5365382,-6.8855033,0.0 107.5367348,-6.8857305,0.0</coordinates>
            </LineString>
        </Placemark>
        <Placemark id="56790">
            <name>Jalan Warung Contong</name>
            <styleUrl>#56791</styleUrl>
            <LineString id="56789">
                <coordinates>107.5331332,-6.8830095,0.0 107.5330731,-6.8830007,0.0 107.5330031,-6.8829979,0.0 107.5329275,-6.8830045,0.0 107.5328391,-6.8830206,0.0 107.5327433,-6.8830519,0.0</coordinates>
            </LineString>
        </Placemark>
        <Placemark id="56794">
            <name>Jalan Ibu Ganirah</name>
            <styleUrl>#56795</styleUrl>
            <LineString id="56793">
                <coordinates>107.5234617,-6.8858533,0.0 107.5235581,-6.8856795,0.0 107.5236062,-6.8855931,0.0 107.5236314,-6.8855512,0.0 107.5236862,-6.8854618,0.0 107.5237296,-6.8853828,0.0 107.523764,-6.8853293,0.0 107.5238747,-6.8851083,0.0 107.5238887,-6.8850852,0.0 107.5239017,-6.8850621,0.0 107.5239124,-6.8850412,0.0 107.5239524,-6.8849495,0.0 107.5240115,-6.8847894,0.0 107.5240839,-6.8846323,0.0 107.52412,-6.8845431,0.0 107.5241472,-6.8844826,0.0 107.5241985,-6.884376,0.0 107.52423,-6.8843067,0.0 107.5243085,-6.8841603,0.0 107.5243429,-6.8840848,0.0 107.5244051,-6.8839387,0.0 107.5244618,-6.8837824,0.0 107.5244759,-6.8837443,0.0 107.5245492,-6.8835751,0.0 107.5245805,-6.8835041,0.0 107.5246219,-6.8834193,0.0 107.5246655,-6.8833527,0.0 107.5247288,-6.8832833,0.0 107.5247879,-6.8832258,0.0 107.5248381,-6.8831817,0.0 107.5249894,-6.8831019,0.0 107.5250568,-6.883095,0.0 107.5251631,-6.8830859,0.0 107.5252865,-6.8830724,0.0 107.525375,-6.8830667,0.0 107.5254383,-6.8830747,0.0 107.5255275,-6.8830918,0.0 107.5256073,-6.8831304,0.0 107.525676,-6.8831787,0.0 107.5257282,-6.8831997,0.0 107.5258233,-6.8832236,0.0 107.525901,-6.8832489,0.0 107.5259829,-6.8832662,0.0 107.5260566,-6.8832782,0.0 107.5261538,-6.8832836,0.0 107.5261901,-6.8832836,0.0 107.5262175,-6.8832796,0.0 107.5262377,-6.8832749,0.0 107.5262598,-6.8832636,0.0 107.5262725,-6.8832303,0.0 107.5262865,-6.8831842,0.0 107.5263094,-6.8831304,0.0 107.5263436,-6.8830413,0.0 107.5263724,-6.8829688,0.0 107.526402,-6.8828941,0.0 107.5264321,-6.8827976,0.0 107.5264663,-6.8827142,0.0 107.5264967,-6.882641,0.0 107.5265328,-6.882592,0.0 107.5265534,-6.8825756,0.0 107.5265785,-6.8825664,0.0 107.5266173,-6.8825572,0.0 107.5266493,-6.882566,0.0 107.5266702,-6.8825778,0.0 107.5267037,-6.8825992,0.0 107.5267584,-6.8826336,0.0 107.5269607,-6.8827945,0.0 107.5271661,-6.8829581,0.0 107.5273401,-6.8830926,0.0 107.527498,-6.8832155,0.0 107.5277219,-6.8833702,0.0 107.5278372,-6.8834549,0.0 107.5279426,-6.8835478,0.0 107.5281023,-6.8836253,0.0 107.5282272,-6.8836668,0.0 107.5283699,-6.883709,0.0 107.528473,-6.8837409,0.0 107.5285391,-6.8837516,0.0 107.528572,-6.8837529,0.0 107.5285983,-6.8837368,0.0 107.528652,-6.8837041,0.0 107.528686,-6.8836625,0.0 107.5287133,-6.8836204,0.0 107.5287358,-6.8835765,0.0 107.5290788,-6.8830347,0.0 107.5295157,-6.8823521,0.0 107.5299003,-6.8817455,0.0 107.5301369,-6.8813379,0.0 107.5302818,-6.881108,0.0 107.5303133,-6.8811355,0.0</coordinates>
            </LineString>
        </Placemark>
        <Placemark id="56798">
            <name>Jalan Ibu Ganirah</name>
            <styleUrl>#56799</styleUrl>
            <LineString id="56797">
                <coordinates>107.5191312,-6.8929297,0.0 107.5191673,-6.8928005,0.0 107.5191983,-6.8926546,0.0</coordinates>
            </LineString>
        </Placemark>
        <Placemark id="56802">
            <name>Jalan Gatot Subroto</name>
            <styleUrl>#56803</styleUrl>
            <LineString id="56801">
                <coordinates>107.5376749,-6.8868524,0.0 107.5375407,-6.8872834,0.0 107.5375078,-6.8873908,0.0 107.5374921,-6.8874379,0.0 107.5374798,-6.8874708,0.0 107.5374648,-6.8875121,0.0</coordinates>
            </LineString>
        </Placemark>
        <Placemark id="56806">
            <name>Jalan Dustira</name>
            <styleUrl>#56807</styleUrl>
            <LineString id="56805">
                <coordinates>107.5347729,-6.8851429,0.0 107.5345167,-6.8848541,0.0 107.5344695,-6.8847859,0.0 107.5344459,-6.884735,0.0 107.5344373,-6.8846862,0.0 107.5344388,-6.8846426,0.0 107.5344457,-6.8846045,0.0 107.5344595,-6.8845638,0.0 107.5344709,-6.8845284,0.0 107.5344804,-6.8845001,0.0 107.5344823,-6.8844685,0.0</coordinates>
            </LineString>
        </Placemark>
        <Placemark id="56810">
            <name>Jalan Urip Soemohardjo</name>
            <styleUrl>#56811</styleUrl>
            <LineString id="56809">
                <coordinates>107.534337,-6.8888509,0.0 107.5352141,-6.8880987,0.0 107.5353989,-6.8879375,0.0 107.5356704,-6.8877061,0.0 107.5357066,-6.8876755,0.0 107.5361455,-6.8872919,0.0 107.5364684,-6.8870194,0.0</coordinates>
            </LineString>
        </Placemark>
        <Placemark id="56814">
            <name>Route Segment</name>
            <styleUrl>#56815</styleUrl>
            <LineString id="56813">
                <coordinates>107.538273,-6.8810675,0.0 107.5383206,-6.8811231,0.0</coordinates>
            </LineString>
        </Placemark>
        <Placemark id="56818">
            <name>Jalan Warung Contong Timur</name>
            <styleUrl>#56819</styleUrl>
            <LineString id="56817">
                <coordinates>107.5344823,-6.8844685,0.0 107.5344728,-6.8844425,0.0 107.5344566,-6.8844144,0.0 107.5338288,-6.8836849,0.0 107.5336265,-6.883448,0.0 107.5335219,-6.8833268,0.0 107.5332544,-6.8830582,0.0 107.5331937,-6.8830269,0.0 107.5331332,-6.8830095,0.0</coordinates>
            </LineString>
        </Placemark>
        <Placemark id="56822">
            <name>Jalan Warung Contong</name>
            <styleUrl>#56823</styleUrl>
            <LineString id="56821">
                <coordinates>107.532588,-6.8832772,0.0 107.5326777,-6.883136,0.0 107.5327433,-6.8830519,0.0</coordinates>
            </LineString>
        </Placemark>
        <Placemark id="56826">
            <name>Jalan Baros</name>
            <styleUrl>#56827</styleUrl>
            <LineString id="56825">
                <coordinates>107.5372378,-6.8880721,0.0 107.5371821,-6.8882052,0.0 107.5369394,-6.8887796,0.0 107.5366629,-6.8894348,0.0 107.5366353,-6.8895225,0.0 107.5366216,-6.8896125,0.0 107.5366128,-6.8897184,0.0 107.536637,-6.8901554,0.0 107.5366635,-6.8904132,0.0 107.5366757,-6.8906933,0.0 107.5366796,-6.8907688,0.0 107.5366818,-6.8908514,0.0 107.536685,-6.8909739,0.0</coordinates>
            </LineString>
        </Placemark>
        <Placemark id="56830">
            <name>Jalan Ibu Ganirah</name>
            <styleUrl>#56831</styleUrl>
            <LineString id="56829">
                <coordinates>107.5307435,-6.881537,0.0 107.5307714,-6.8815636,0.0 107.5308517,-6.8816432,0.0 107.5309877,-6.8817847,0.0 107.5312706,-6.8820501,0.0 107.5316195,-6.8823945,0.0 107.5317616,-6.8825281,0.0 107.5322351,-6.8829598,0.0 107.532588,-6.8832772,0.0</coordinates>
            </LineString>
        </Placemark>
        <Placemark id="56834">
            <name>Jalan Ibu Ganirah</name>
            <styleUrl>#56835</styleUrl>
            <LineString id="56833">
                <coordinates>107.5303133,-6.8811355,0.0 107.5303467,-6.8811654,0.0</coordinates>
            </LineString>
        </Placemark>
        <Placemark id="56838">
            <name>Route Segment</name>
            <styleUrl>#56839</styleUrl>
            <LineString id="56837">
                <coordinates>107.5383206,-6.8811231,0.0 107.5383466,-6.8811511,0.0</coordinates>
            </LineString>
        </Placemark>
        <Placemark id="56842">
            <name>Route Segment</name>
            <styleUrl>#56843</styleUrl>
            <LineString id="56841">
                <coordinates>107.536685,-6.8909739,0.0 107.5366507,-6.8910105,0.0 107.5366198,-6.8910391,0.0 107.5365675,-6.8910711,0.0 107.5365119,-6.8910944,0.0 107.536469,-6.8911037,0.0 107.5364327,-6.8911037,0.0 107.5363798,-6.8910944,0.0 107.5363362,-6.8910777,0.0</coordinates>
            </LineString>
        </Placemark>
        <Placemark id="56846">
            <name>Jalan Gatot Subroto</name>
            <styleUrl>#56847</styleUrl>
            <LineString id="56845">
                <coordinates>107.5374242,-6.8876162,0.0 107.53735,-6.8878165,0.0</coordinates>
            </LineString>
        </Placemark>
        <Placemark id="56850">
            <name>Jalan Gatot Subroto</name>
            <styleUrl>#56851</styleUrl>
            <LineString id="56849">
                <coordinates>107.5374648,-6.8875121,0.0 107.5374242,-6.8876162,0.0</coordinates>
            </LineString>
        </Placemark>
        <Placemark id="56854">
            <name>Jalan Ibu Ganirah</name>
            <styleUrl>#56855</styleUrl>
            <LineString id="56853">
                <coordinates>107.5303467,-6.8811654,0.0 107.5303915,-6.881209,0.0 107.5305131,-6.881321,0.0 107.5306633,-6.8814635,0.0 107.5307047,-6.8814999,0.0 107.5307435,-6.881537,0.0</coordinates>
            </LineString>
        </Placemark>
        <Placemark id="56858">
            <name>Jalan Stasiun</name>
            <styleUrl>#56859</styleUrl>
            <LineString id="56857">
                <coordinates>107.5368837,-6.8859294,0.0 107.5373146,-6.886461,0.0 107.5376749,-6.8868524,0.0</coordinates>
            </LineString>
        </Placemark>
        <Placemark id="56862">
            <name>Jalan Stasiun</name>
            <styleUrl>#56863</styleUrl>
            <LineString id="56861">
                <coordinates>107.5367348,-6.8857305,0.0 107.5368837,-6.8859294,0.0</coordinates>
            </LineString>
        </Placemark>
        <Placemark id="56866">
            <name>Jalan Dustira</name>
            <styleUrl>#56867</styleUrl>
            <LineString id="56865">
                <coordinates>107.5364684,-6.8870194,0.0 107.5359459,-6.8864349,0.0 107.5358725,-6.8863526,0.0 107.5354638,-6.8858941,0.0 107.5351739,-6.8855689,0.0</coordinates>
            </LineString>
        </Placemark>
        <Placemark id="56870">
            <name>Route Segment</name>
            <styleUrl>#56871</styleUrl>
            <LineString id="56869">
                <coordinates>107.5383466,-6.8811511,0.0 107.5383917,-6.8811994,0.0</coordinates>
            </LineString>
        </Placemark>
        <Placemark id="56874">
            <name>Jalan Sriwijaya Raya</name>
            <styleUrl>#56875</styleUrl>
            <LineString id="56873">
                <coordinates>107.5369174,-6.8824826,0.0 107.5352331,-6.8839737,0.0 107.5352159,-6.8840014,0.0</coordinates>
            </LineString>
        </Placemark>
        <Placemark id="56878">
            <name>Jalan Sriwijaya Raya</name>
            <styleUrl>#56879</styleUrl>
            <LineString id="56877">
                <coordinates>107.5372164,-6.8822192,0.0 107.5369174,-6.8824826,0.0</coordinates>
            </LineString>
        </Placemark>
        <Placemark id="56882">
            <name>Jalan Dustira</name>
            <styleUrl>#56883</styleUrl>
            <LineString id="56881">
                <coordinates>107.5351739,-6.8855689,0.0 107.5351004,-6.8855202,0.0 107.5347729,-6.8851429,0.0</coordinates>
            </LineString>
        </Placemark>
        <Placemark id="56886">
            <name>Jalan Ibu Ganirah</name>
            <styleUrl>#56887</styleUrl>
            <LineString id="56885">
                <coordinates>107.5191983,-6.8926546,0.0 107.5192867,-6.8923486,0.0</coordinates>
            </LineString>
        </Placemark>
        <Placemark id="56890">
            <name>Jalan Sriwijaya Raya</name>
            <styleUrl>#56891</styleUrl>
            <LineString id="56889">
                <coordinates>107.5383917,-6.8811994,0.0 107.5379606,-6.8815735,0.0 107.5378852,-6.8816389,0.0 107.5374338,-6.8820306,0.0 107.5372164,-6.8822192,0.0</coordinates>
            </LineString>
        </Placemark>
        <Placemark id="56894">
            <name>Route Segment</name>
            <styleUrl>#56895</styleUrl>
            <LineString id="56893">
                <coordinates>107.5379919,-6.8807505,0.0 107.538199,-6.8809854,0.0 107.538273,-6.8810675,0.0</coordinates>
            </LineString>
        </Placemark>
        <Placemark id="56898">
            <name>Jalan Ciseupan</name>
            <styleUrl>#56899</styleUrl>
            <LineString id="56897">
                <coordinates>107.5192444,-6.8971369,0.0 107.5192037,-6.8971958,0.0</coordinates>
            </LineString>
        </Placemark>
        <Placemark id="56902">
            <name>Pasar Antri</name>
            <styleUrl>#56903</styleUrl>
            <Point id="56901">
                <coordinates>107.5379919,-6.8807505,0.0</coordinates>
            </Point>
        </Placemark>
        <Placemark id="56907">
            <name>Cibeber</name>
            <styleUrl>#56908</styleUrl>
            <Point id="56906">
                <coordinates>107.5192037,-6.8971958,0.0</coordinates>
            </Point>
        </Placemark>
    </Document>
</kml>
