<?xml version="1.0" encoding="UTF-8"?>
<kml xmlns="http://www.opengis.net/kml/2.2" xmlns:gx="http://www.google.com/kml/ext/2.2">
    <Document id="56435">
        <Style id="56441">
            <LineStyle id="56442">
                <color>ff356615</color>
                <colorMode>normal</colorMode>
                <width>4</width>
            </LineStyle>
        </Style>
        <Style id="56445">
            <LineStyle id="56446">
                <color>ff356615</color>
                <colorMode>normal</colorMode>
                <width>4</width>
            </LineStyle>
        </Style>
        <Style id="56449">
            <LineStyle id="56450">
                <color>ff356615</color>
                <colorMode>normal</colorMode>
                <width>4</width>
            </LineStyle>
        </Style>
        <Style id="56453">
            <LineStyle id="56454">
                <color>ff356615</color>
                <colorMode>normal</colorMode>
                <width>4</width>
            </LineStyle>
        </Style>
        <Style id="56457">
            <LineStyle id="56458">
                <color>ff356615</color>
                <colorMode>normal</colorMode>
                <width>4</width>
            </LineStyle>
        </Style>
        <Style id="56461">
            <LineStyle id="56462">
                <color>ff356615</color>
                <colorMode>normal</colorMode>
                <width>4</width>
            </LineStyle>
        </Style>
        <Style id="56465">
            <LineStyle id="56466">
                <color>ff356615</color>
                <colorMode>normal</colorMode>
                <width>4</width>
            </LineStyle>
        </Style>
        <Style id="56469">
            <LineStyle id="56470">
                <color>ff356615</color>
                <colorMode>normal</colorMode>
                <width>4</width>
            </LineStyle>
        </Style>
        <Style id="56473">
            <LineStyle id="56474">
                <color>ff356615</color>
                <colorMode>normal</colorMode>
                <width>4</width>
            </LineStyle>
        </Style>
        <Style id="56477">
            <LineStyle id="56478">
                <color>ff356615</color>
                <colorMode>normal</colorMode>
                <width>4</width>
            </LineStyle>
        </Style>
        <Style id="56481">
            <LineStyle id="56482">
                <color>ff356615</color>
                <colorMode>normal</colorMode>
                <width>4</width>
            </LineStyle>
        </Style>
        <Style id="56485">
            <LineStyle id="56486">
                <color>ff356615</color>
                <colorMode>normal</colorMode>
                <width>4</width>
            </LineStyle>
        </Style>
        <Style id="56489">
            <LineStyle id="56490">
                <color>ff356615</color>
                <colorMode>normal</colorMode>
                <width>4</width>
            </LineStyle>
        </Style>
        <Style id="56493">
            <LineStyle id="56494">
                <color>ff356615</color>
                <colorMode>normal</colorMode>
                <width>4</width>
            </LineStyle>
        </Style>
        <Style id="56497">
            <LineStyle id="56498">
                <color>ff356615</color>
                <colorMode>normal</colorMode>
                <width>4</width>
            </LineStyle>
        </Style>
        <Style id="56501">
            <LineStyle id="56502">
                <color>ff356615</color>
                <colorMode>normal</colorMode>
                <width>4</width>
            </LineStyle>
        </Style>
        <Style id="56505">
            <LineStyle id="56506">
                <color>ff356615</color>
                <colorMode>normal</colorMode>
                <width>4</width>
            </LineStyle>
        </Style>
        <Style id="56509">
            <LineStyle id="56510">
                <color>ff356615</color>
                <colorMode>normal</colorMode>
                <width>4</width>
            </LineStyle>
        </Style>
        <Style id="56513">
            <LineStyle id="56514">
                <color>ff356615</color>
                <colorMode>normal</colorMode>
                <width>4</width>
            </LineStyle>
        </Style>
        <Style id="56517">
            <LineStyle id="56518">
                <color>ff356615</color>
                <colorMode>normal</colorMode>
                <width>4</width>
            </LineStyle>
        </Style>
        <Style id="56521">
            <LineStyle id="56522">
                <color>ff356615</color>
                <colorMode>normal</colorMode>
                <width>4</width>
            </LineStyle>
        </Style>
        <Style id="56525">
            <LineStyle id="56526">
                <color>ff356615</color>
                <colorMode>normal</colorMode>
                <width>4</width>
            </LineStyle>
        </Style>
        <Style id="56529">
            <LineStyle id="56530">
                <color>ff356615</color>
                <colorMode>normal</colorMode>
                <width>4</width>
            </LineStyle>
        </Style>
        <Style id="56533">
            <LineStyle id="56534">
                <color>ff356615</color>
                <colorMode>normal</colorMode>
                <width>4</width>
            </LineStyle>
        </Style>
        <Style id="56537">
            <LineStyle id="56538">
                <color>ff356615</color>
                <colorMode>normal</colorMode>
                <width>4</width>
            </LineStyle>
        </Style>
        <Style id="56541">
            <LineStyle id="56542">
                <color>ff356615</color>
                <colorMode>normal</colorMode>
                <width>4</width>
            </LineStyle>
        </Style>
        <Style id="56545">
            <LineStyle id="56546">
                <color>ff356615</color>
                <colorMode>normal</colorMode>
                <width>4</width>
            </LineStyle>
        </Style>
        <Style id="56549">
            <LineStyle id="56550">
                <color>ff356615</color>
                <colorMode>normal</colorMode>
                <width>4</width>
            </LineStyle>
        </Style>
        <Style id="56553">
            <LineStyle id="56554">
                <color>ff356615</color>
                <colorMode>normal</colorMode>
                <width>4</width>
            </LineStyle>
        </Style>
        <Style id="56557">
            <LineStyle id="56558">
                <color>ff356615</color>
                <colorMode>normal</colorMode>
                <width>4</width>
            </LineStyle>
        </Style>
        <Style id="56561">
            <LineStyle id="56562">
                <color>ff356615</color>
                <colorMode>normal</colorMode>
                <width>4</width>
            </LineStyle>
        </Style>
        <Style id="56565">
            <LineStyle id="56566">
                <color>ff356615</color>
                <colorMode>normal</colorMode>
                <width>4</width>
            </LineStyle>
        </Style>
        <Style id="56569">
            <LineStyle id="56570">
                <color>ff356615</color>
                <colorMode>normal</colorMode>
                <width>4</width>
            </LineStyle>
        </Style>
        <Style id="56573">
            <LineStyle id="56574">
                <color>ff356615</color>
                <colorMode>normal</colorMode>
                <width>4</width>
            </LineStyle>
        </Style>
        <Style id="56577">
            <LineStyle id="56578">
                <color>ff356615</color>
                <colorMode>normal</colorMode>
                <width>4</width>
            </LineStyle>
        </Style>
        <Style id="56581">
            <LineStyle id="56582">
                <color>ff356615</color>
                <colorMode>normal</colorMode>
                <width>4</width>
            </LineStyle>
        </Style>
        <Style id="56585">
            <LineStyle id="56586">
                <color>ff356615</color>
                <colorMode>normal</colorMode>
                <width>4</width>
            </LineStyle>
        </Style>
        <Style id="56589">
            <LineStyle id="56590">
                <color>ff356615</color>
                <colorMode>normal</colorMode>
                <width>4</width>
            </LineStyle>
        </Style>
        <Style id="56593">
            <LineStyle id="56594">
                <color>ff356615</color>
                <colorMode>normal</colorMode>
                <width>4</width>
            </LineStyle>
        </Style>
        <Style id="56597">
            <LineStyle id="56598">
                <color>ff356615</color>
                <colorMode>normal</colorMode>
                <width>4</width>
            </LineStyle>
        </Style>
        <Style id="56601">
            <LineStyle id="56602">
                <color>ff356615</color>
                <colorMode>normal</colorMode>
                <width>4</width>
            </LineStyle>
        </Style>
        <Style id="56605">
            <LineStyle id="56606">
                <color>ff356615</color>
                <colorMode>normal</colorMode>
                <width>4</width>
            </LineStyle>
        </Style>
        <Style id="56609">
            <IconStyle id="56610">
                <colorMode>normal</colorMode>
                <scale>1</scale>
                <heading>0</heading>
                <Icon id="56611">
                    <href>http://maps.google.com/mapfiles/kml/pushpin/ylw-pushpin.png</href>
                </Icon>
            </IconStyle>
        </Style>
        <Style id="56614">
            <IconStyle id="56615">
                <colorMode>normal</colorMode>
                <scale>1</scale>
                <heading>0</heading>
                <Icon id="56616">
                    <href>http://maps.google.com/mapfiles/kml/pushpin/ylw-pushpin.png</href>
                </Icon>
            </IconStyle>
        </Style>
        <ExtendedData>
            <Data name="route-name">
                <value>Cimahi → Cibeber via Baros</value>
            </Data>
            <Data name="source">
                <value>Transport for Bandung</value>
            </Data>
        </ExtendedData>
        <Placemark id="56440">
            <name>Jalan Nanjung</name>
            <styleUrl>#56441</styleUrl>
            <LineString id="56439">
                <coordinates>107.5345668,-6.903759,0.0 107.5343855,-6.903885,0.0 107.5342212,-6.9040005,0.0</coordinates>
            </LineString>
        </Placemark>
        <Placemark id="56444">
            <name>Jalan Nanjung</name>
            <styleUrl>#56445</styleUrl>
            <LineString id="56443">
                <coordinates>107.535052,-6.9034019,0.0 107.5345668,-6.903759,0.0</coordinates>
            </LineString>
        </Placemark>
        <Placemark id="56448">
            <name>Jalan Baros</name>
            <styleUrl>#56449</styleUrl>
            <LineString id="56447">
                <coordinates>107.5362981,-6.8997393,0.0 107.5362248,-6.9000873,0.0 107.5361162,-6.9003988,0.0 107.5360144,-6.9006278,0.0 107.5358502,-6.9009225,0.0 107.5357295,-6.9011324,0.0 107.5355893,-6.9013573,0.0 107.5355735,-6.9013848,0.0 107.5355578,-6.9014123,0.0 107.5355102,-6.9014954,0.0 107.5354538,-6.9015931,0.0 107.5353779,-6.9017279,0.0 107.5352068,-6.9020678,0.0 107.5351447,-6.9022106,0.0 107.535087,-6.9023311,0.0 107.5350454,-6.9024298,0.0 107.5350181,-6.9024955,0.0 107.5350031,-6.9025551,0.0 107.5350085,-6.9026223,0.0 107.5350233,-6.9026862,0.0 107.5350645,-6.9027288,0.0</coordinates>
            </LineString>
        </Placemark>
        <Placemark id="56452">
            <name>Jalan Baros</name>
            <styleUrl>#56453</styleUrl>
            <LineString id="56451">
                <coordinates>107.5364332,-6.8991294,0.0 107.5364891,-6.8988332,0.0 107.5365166,-6.8986468,0.0 107.5365494,-6.8983233,0.0 107.5365479,-6.8980729,0.0 107.5365474,-6.8979811,0.0 107.5365475,-6.8977366,0.0 107.5365451,-6.897381,0.0 107.5365444,-6.897193,0.0 107.5365477,-6.8970985,0.0 107.5365622,-6.896681,0.0 107.5365696,-6.896466,0.0 107.5365791,-6.8961932,0.0 107.5365826,-6.8960935,0.0 107.536606,-6.8955167,0.0 107.5366124,-6.8953582,0.0 107.5366223,-6.8948682,0.0 107.5366237,-6.8948296,0.0 107.5366317,-6.8946103,0.0 107.5366379,-6.8944398,0.0 107.5366501,-6.8941031,0.0 107.5366522,-6.8940466,0.0 107.5366649,-6.8937101,0.0 107.5366769,-6.8932796,0.0 107.5366905,-6.8928959,0.0 107.5366937,-6.892817,0.0 107.536696,-6.8926329,0.0 107.536695,-6.8925331,0.0</coordinates>
            </LineString>
        </Placemark>
        <Placemark id="56456">
            <name>Jalan Baros</name>
            <styleUrl>#56457</styleUrl>
            <LineString id="56455">
                <coordinates>107.5362981,-6.8997393,0.0 107.5364332,-6.8991294,0.0</coordinates>
            </LineString>
        </Placemark>
        <Placemark id="56460">
            <name>Jalan Kerkof</name>
            <styleUrl>#56461</styleUrl>
            <LineString id="56459">
                <coordinates>107.5338492,-6.9037866,0.0 107.5337921,-6.9037778,0.0 107.5336633,-6.9037692,0.0 107.5331021,-6.9037611,0.0 107.5329608,-6.9037531,0.0 107.5326884,-6.9037393,0.0 107.5325839,-6.9037366,0.0 107.5325392,-6.9037345,0.0 107.532313,-6.9037207,0.0 107.5320251,-6.9037102,0.0 107.5318881,-6.9037063,0.0 107.5317207,-6.9037059,0.0 107.5315747,-6.9037046,0.0 107.5314022,-6.9037154,0.0 107.531316,-6.9037268,0.0 107.5310493,-6.9037751,0.0</coordinates>
            </LineString>
        </Placemark>
        <Placemark id="56464">
            <name>Jalan Sadarmanah</name>
            <styleUrl>#56465</styleUrl>
            <LineString id="56463">
                <coordinates>107.5310493,-6.9037751,0.0 107.5310161,-6.9035734,0.0 107.5309924,-6.9033153,0.0 107.5309972,-6.9032494,0.0 107.5310113,-6.9031628,0.0 107.5310829,-6.903021,0.0 107.5311401,-6.9028972,0.0 107.531143,-6.9028913,0.0 107.5311596,-6.902862,0.0 107.531185,-6.9028021,0.0 107.5312663,-6.9026125,0.0 107.5313026,-6.9025376,0.0 107.5313219,-6.9024992,0.0 107.5313506,-6.9024339,0.0 107.5313714,-6.9023846,0.0 107.5314023,-6.9022874,0.0 107.5314204,-6.9022136,0.0 107.5314291,-6.9021264,0.0 107.5314264,-6.9020664,0.0 107.5314224,-6.9020132,0.0 107.5314143,-6.901869,0.0 107.5314157,-6.9017902,0.0 107.5314264,-6.9016757,0.0 107.531428,-6.9016514,0.0 107.5314307,-6.9015787,0.0 107.5314358,-6.9015306,0.0 107.5314501,-6.9013815,0.0 107.5314623,-6.9012872,0.0 107.5314803,-6.9011448,0.0 107.5315032,-6.901025,0.0 107.5315042,-6.901013,0.0 107.5315042,-6.9010009,0.0 107.5314948,-6.9009887,0.0 107.5314847,-6.9009834,0.0 107.5312641,-6.9008795,0.0 107.5309878,-6.9007516,0.0 107.5307615,-6.900642,0.0 107.5306338,-6.900576,0.0 107.5305498,-6.9005364,0.0 107.5304756,-6.9005014,0.0 107.5304637,-6.9004955,0.0 107.5302304,-6.9003784,0.0 107.5301576,-6.9003444,0.0 107.5299901,-6.900251,0.0 107.5298143,-6.9001603,0.0 107.5296582,-6.9000661,0.0 107.5295562,-6.9000168,0.0 107.5294089,-6.8999367,0.0 107.5291719,-6.8998144,0.0 107.5288741,-6.8996709,0.0 107.5287888,-6.8996333,0.0 107.5287438,-6.8996131,0.0 107.5286315,-6.8995721,0.0 107.5285264,-6.8995496,0.0 107.5283578,-6.8995211,0.0 107.5279011,-6.8994265,0.0 107.527775,-6.8994088,0.0 107.5276152,-6.8993922,0.0 107.5274428,-6.899371,0.0 107.5272984,-6.8993524,0.0 107.5268973,-6.8993051,0.0 107.5267862,-6.8992903,0.0 107.5265964,-6.8992531,0.0 107.5265672,-6.8992466,0.0 107.5265438,-6.8992419,0.0 107.5263028,-6.8991902,0.0 107.5262621,-6.8991806,0.0 107.5259932,-6.8991222,0.0 107.5258615,-6.8990915,0.0 107.5256719,-6.899053,0.0 107.5256217,-6.899049,0.0 107.5255826,-6.8990446,0.0 107.5253767,-6.8990156,0.0 107.5250432,-6.8989608,0.0 107.524956,-6.8989465,0.0 107.5247236,-6.8989124,0.0 107.5245586,-6.8988864,0.0 107.5243688,-6.8988477,0.0 107.5239189,-6.8987193,0.0 107.5235676,-6.8986067,0.0 107.5235111,-6.8985886,0.0 107.5233088,-6.8984975,0.0</coordinates>
            </LineString>
        </Placemark>
        <Placemark id="56468">
            <name>Jalan Baros</name>
            <styleUrl>#56469</styleUrl>
            <LineString id="56467">
                <coordinates>107.53735,-6.8878165,0.0 107.5372378,-6.8880721,0.0</coordinates>
            </LineString>
        </Placemark>
        <Placemark id="56472">
            <name>Jalan Stasiun</name>
            <styleUrl>#56473</styleUrl>
            <LineString id="56471">
                <coordinates>107.5352159,-6.8840014,0.0 107.5352209,-6.8840374,0.0 107.5354964,-6.8843363,0.0 107.5358223,-6.8846929,0.0 107.5359468,-6.884833,0.0 107.536025,-6.8849146,0.0 107.5361708,-6.8850816,0.0 107.5362818,-6.8852088,0.0 107.5363587,-6.8852969,0.0 107.5364702,-6.8854248,0.0 107.5365382,-6.8855033,0.0 107.5367348,-6.8857305,0.0</coordinates>
            </LineString>
        </Placemark>
        <Placemark id="56476">
            <name>Jalan Gatot Subroto</name>
            <styleUrl>#56477</styleUrl>
            <LineString id="56475">
                <coordinates>107.5376749,-6.8868524,0.0 107.5375407,-6.8872834,0.0 107.5375078,-6.8873908,0.0 107.5374921,-6.8874379,0.0 107.5374798,-6.8874708,0.0 107.5374648,-6.8875121,0.0</coordinates>
            </LineString>
        </Placemark>
        <Placemark id="56480">
            <name>Jalan Nanjung</name>
            <styleUrl>#56481</styleUrl>
            <LineString id="56479">
                <coordinates>107.5355935,-6.9030515,0.0 107.5354973,-6.9031145,0.0 107.5350808,-6.9033831,0.0 107.535052,-6.9034019,0.0</coordinates>
            </LineString>
        </Placemark>
        <Placemark id="56484">
            <name>Route Segment</name>
            <styleUrl>#56485</styleUrl>
            <LineString id="56483">
                <coordinates>107.538273,-6.8810675,0.0 107.5383206,-6.8811231,0.0</coordinates>
            </LineString>
        </Placemark>
        <Placemark id="56488">
            <name>Jalan Baros</name>
            <styleUrl>#56489</styleUrl>
            <LineString id="56487">
                <coordinates>107.5350645,-6.9027288,0.0 107.5351976,-6.9027588,0.0 107.5353156,-6.9027674,0.0 107.535529,-6.9027704,0.0</coordinates>
            </LineString>
        </Placemark>
        <Placemark id="56492">
            <name>Jalan H.M.S. Mintaredja SH</name>
            <styleUrl>#56493</styleUrl>
            <LineString id="56491">
                <coordinates>107.536753,-6.8923541,0.0 107.536762,-6.8923872,0.0 107.5367801,-6.8924058,0.0 107.5368022,-6.8924214,0.0 107.5368357,-6.8924344,0.0 107.5368726,-6.8924411,0.0 107.5370111,-6.8924386,0.0</coordinates>
            </LineString>
        </Placemark>
        <Placemark id="56496">
            <name>Jalan Kerkof</name>
            <styleUrl>#56497</styleUrl>
            <LineString id="56495">
                <coordinates>107.5342212,-6.9040005,0.0 107.5341365,-6.9039528,0.0</coordinates>
            </LineString>
        </Placemark>
        <Placemark id="56500">
            <name>Jalan Baros</name>
            <styleUrl>#56501</styleUrl>
            <LineString id="56499">
                <coordinates>107.5372378,-6.8880721,0.0 107.5371821,-6.8882052,0.0 107.5369394,-6.8887796,0.0 107.5366629,-6.8894348,0.0 107.5366353,-6.8895225,0.0 107.5366216,-6.8896125,0.0 107.5366128,-6.8897184,0.0 107.536637,-6.8901554,0.0 107.5366635,-6.8904132,0.0 107.5366757,-6.8906933,0.0 107.5366796,-6.8907688,0.0 107.5366818,-6.8908514,0.0 107.536685,-6.8909739,0.0</coordinates>
            </LineString>
        </Placemark>
        <Placemark id="56504">
            <name>Route Segment</name>
            <styleUrl>#56505</styleUrl>
            <LineString id="56503">
                <coordinates>107.5383206,-6.8811231,0.0 107.5383466,-6.8811511,0.0</coordinates>
            </LineString>
        </Placemark>
        <Placemark id="56508">
            <name>Jalan H.M.S. Mintaredja SH</name>
            <styleUrl>#56509</styleUrl>
            <LineString id="56507">
                <coordinates>107.539009,-6.8925053,0.0 107.5388984,-6.8925069,0.0 107.5378456,-6.8925336,0.0</coordinates>
            </LineString>
        </Placemark>
        <Placemark id="56512">
            <name>Jalan H.M.S. Mintaredja SH</name>
            <styleUrl>#56513</styleUrl>
            <LineString id="56511">
                <coordinates>107.5382728,-6.8924268,0.0 107.5387944,-6.8924206,0.0 107.5390107,-6.8924181,0.0</coordinates>
            </LineString>
        </Placemark>
        <Placemark id="56516">
            <name>Jalan H.M.S. Mintaredja SH</name>
            <styleUrl>#56517</styleUrl>
            <LineString id="56515">
                <coordinates>107.5394234,-6.8924498,0.0 107.539365,-6.8924786,0.0 107.5393296,-6.8924911,0.0 107.5392696,-6.8924989,0.0 107.5390697,-6.8925045,0.0 107.539009,-6.8925053,0.0</coordinates>
            </LineString>
        </Placemark>
        <Placemark id="56520">
            <name>Jalan H.M.S. Mintaredja SH</name>
            <styleUrl>#56521</styleUrl>
            <LineString id="56519">
                <coordinates>107.5390107,-6.8924181,0.0 107.5392379,-6.8924144,0.0 107.5393006,-6.8924174,0.0 107.5393496,-6.8924231,0.0 107.5394234,-6.8924498,0.0</coordinates>
            </LineString>
        </Placemark>
        <Placemark id="56524">
            <name>Jalan H.M.S. Mintaredja SH</name>
            <styleUrl>#56525</styleUrl>
            <LineString id="56523">
                <coordinates>107.5378456,-6.8925336,0.0 107.5367649,-6.8925364,0.0 107.536695,-6.8925331,0.0</coordinates>
            </LineString>
        </Placemark>
        <Placemark id="56528">
            <name>Jalan Gatot Subroto</name>
            <styleUrl>#56529</styleUrl>
            <LineString id="56527">
                <coordinates>107.5374242,-6.8876162,0.0 107.53735,-6.8878165,0.0</coordinates>
            </LineString>
        </Placemark>
        <Placemark id="56532">
            <name>Jalan Gatot Subroto</name>
            <styleUrl>#56533</styleUrl>
            <LineString id="56531">
                <coordinates>107.5374648,-6.8875121,0.0 107.5374242,-6.8876162,0.0</coordinates>
            </LineString>
        </Placemark>
        <Placemark id="56536">
            <name>Jalan Stasiun</name>
            <styleUrl>#56537</styleUrl>
            <LineString id="56535">
                <coordinates>107.5368837,-6.8859294,0.0 107.5373146,-6.886461,0.0 107.5376749,-6.8868524,0.0</coordinates>
            </LineString>
        </Placemark>
        <Placemark id="56540">
            <name>Jalan Stasiun</name>
            <styleUrl>#56541</styleUrl>
            <LineString id="56539">
                <coordinates>107.5367348,-6.8857305,0.0 107.5368837,-6.8859294,0.0</coordinates>
            </LineString>
        </Placemark>
        <Placemark id="56544">
            <name>Bundaran Leuwigajah</name>
            <styleUrl>#56545</styleUrl>
            <LineString id="56543">
                <coordinates>107.5356551,-6.9027794,0.0 107.5356947,-6.9028121,0.0 107.5357205,-6.9028563,0.0 107.5357293,-6.9029067,0.0 107.5357201,-6.902957,0.0</coordinates>
            </LineString>
        </Placemark>
        <Placemark id="56548">
            <name>Bundaran Leuwigajah</name>
            <styleUrl>#56549</styleUrl>
            <LineString id="56547">
                <coordinates>107.535529,-6.9027704,0.0 107.5355713,-6.9027608,0.0 107.5356146,-6.9027639,0.0 107.5356551,-6.9027794,0.0</coordinates>
            </LineString>
        </Placemark>
        <Placemark id="56552">
            <name>Bundaran Leuwigajah</name>
            <styleUrl>#56553</styleUrl>
            <LineString id="56551">
                <coordinates>107.5357201,-6.902957,0.0 107.5357002,-6.9029933,0.0 107.5356707,-6.9030227,0.0 107.5356342,-6.9030426,0.0 107.5355935,-6.9030515,0.0</coordinates>
            </LineString>
        </Placemark>
        <Placemark id="56556">
            <name>Route Segment</name>
            <styleUrl>#56557</styleUrl>
            <LineString id="56555">
                <coordinates>107.5383466,-6.8811511,0.0 107.5383917,-6.8811994,0.0</coordinates>
            </LineString>
        </Placemark>
        <Placemark id="56560">
            <name>Jalan Sriwijaya Raya</name>
            <styleUrl>#56561</styleUrl>
            <LineString id="56559">
                <coordinates>107.5369174,-6.8824826,0.0 107.5352331,-6.8839737,0.0 107.5352159,-6.8840014,0.0</coordinates>
            </LineString>
        </Placemark>
        <Placemark id="56564">
            <name>Jalan Sriwijaya Raya</name>
            <styleUrl>#56565</styleUrl>
            <LineString id="56563">
                <coordinates>107.5372164,-6.8822192,0.0 107.5369174,-6.8824826,0.0</coordinates>
            </LineString>
        </Placemark>
        <Placemark id="56568">
            <name>Jalan Kerkof</name>
            <styleUrl>#56569</styleUrl>
            <LineString id="56567">
                <coordinates>107.5341365,-6.9039528,0.0 107.5340333,-6.9038971,0.0</coordinates>
            </LineString>
        </Placemark>
        <Placemark id="56572">
            <name>Jalan H.M.S. Mintaredja SH</name>
            <styleUrl>#56573</styleUrl>
            <LineString id="56571">
                <coordinates>107.5370111,-6.8924386,0.0 107.5373742,-6.892437,0.0 107.5377917,-6.8924335,0.0 107.5378677,-6.8924315,0.0 107.5382728,-6.8924268,0.0</coordinates>
            </LineString>
        </Placemark>
        <Placemark id="56576">
            <name>Jalan Kerkof</name>
            <styleUrl>#56577</styleUrl>
            <LineString id="56575">
                <coordinates>107.5340333,-6.9038971,0.0 107.5338928,-6.9038324,0.0</coordinates>
            </LineString>
        </Placemark>
        <Placemark id="56580">
            <name>Jalan Sriwijaya Raya</name>
            <styleUrl>#56581</styleUrl>
            <LineString id="56579">
                <coordinates>107.5383917,-6.8811994,0.0 107.5379606,-6.8815735,0.0 107.5378852,-6.8816389,0.0 107.5374338,-6.8820306,0.0 107.5372164,-6.8822192,0.0</coordinates>
            </LineString>
        </Placemark>
        <Placemark id="56584">
            <name>Route Segment</name>
            <styleUrl>#56585</styleUrl>
            <LineString id="56583">
                <coordinates>107.5379919,-6.8807505,0.0 107.538199,-6.8809854,0.0 107.538273,-6.8810675,0.0</coordinates>
            </LineString>
        </Placemark>
        <Placemark id="56588">
            <name>Jalan Baros</name>
            <styleUrl>#56589</styleUrl>
            <LineString id="56587">
                <coordinates>107.536685,-6.8909739,0.0 107.5366934,-6.8911966,0.0 107.5367027,-6.8913159,0.0 107.5367144,-6.8913999,0.0 107.5367383,-6.8915316,0.0 107.5367647,-6.8916489,0.0 107.5367687,-6.8917448,0.0 107.5367667,-6.8918646,0.0</coordinates>
            </LineString>
        </Placemark>
        <Placemark id="56592">
            <name>Jalan Ciseupan</name>
            <styleUrl>#56593</styleUrl>
            <LineString id="56591">
                <coordinates>107.5192444,-6.8971369,0.0 107.5192037,-6.8971958,0.0</coordinates>
            </LineString>
        </Placemark>
        <Placemark id="56596">
            <name>Jalan Kerkof</name>
            <styleUrl>#56597</styleUrl>
            <LineString id="56595">
                <coordinates>107.5338928,-6.9038324,0.0 107.533869,-6.9038109,0.0 107.5338492,-6.9037866,0.0</coordinates>
            </LineString>
        </Placemark>
        <Placemark id="56600">
            <name>Jalan Baros</name>
            <styleUrl>#56601</styleUrl>
            <LineString id="56599">
                <coordinates>107.5367667,-6.8918646,0.0 107.536772,-6.8919878,0.0 107.5367571,-6.8922577,0.0 107.5367526,-6.8923219,0.0 107.536753,-6.8923541,0.0</coordinates>
            </LineString>
        </Placemark>
        <Placemark id="56604">
            <name>Jalan Ibu Sangki</name>
            <styleUrl>#56605</styleUrl>
            <LineString id="56603">
                <coordinates>107.5233088,-6.8984975,0.0 107.5231967,-6.8984411,0.0 107.5230569,-6.8983757,0.0 107.5229493,-6.8983439,0.0 107.5228695,-6.8983246,0.0 107.522502,-6.8982507,0.0 107.5224195,-6.898232,0.0 107.5222009,-6.8981848,0.0 107.5220848,-6.8981515,0.0 107.521928,-6.8981009,0.0 107.521586,-6.8979937,0.0 107.521329,-6.8978976,0.0 107.5211995,-6.8978541,0.0 107.5210036,-6.8977778,0.0 107.5204327,-6.8975555,0.0 107.5204065,-6.8975444,0.0 107.5201504,-6.8974325,0.0 107.5200833,-6.8974099,0.0 107.5198144,-6.8973267,0.0 107.5195091,-6.8972204,0.0 107.5192444,-6.8971369,0.0</coordinates>
            </LineString>
        </Placemark>
        <Placemark id="56608">
            <name>Pasar Antri</name>
            <styleUrl>#56609</styleUrl>
            <Point id="56607">
                <coordinates>107.5379919,-6.8807505,0.0</coordinates>
            </Point>
        </Placemark>
        <Placemark id="56613">
            <name>Cibeber</name>
            <styleUrl>#56614</styleUrl>
            <Point id="56612">
                <coordinates>107.5192037,-6.8971958,0.0</coordinates>
            </Point>
        </Placemark>
    </Document>
</kml>
