<?xml version="1.0" encoding="UTF-8"?>
<kml xmlns="http://www.opengis.net/kml/2.2" xmlns:gx="http://www.google.com/kml/ext/2.2">
    <Document id="55883">
        <Style id="55889">
            <IconStyle id="55890">
                <colorMode>normal</colorMode>
                <scale>1</scale>
                <heading>0</heading>
                <Icon id="55891">
                    <href>http://maps.google.com/mapfiles/kml/pushpin/ylw-pushpin.png</href>
                </Icon>
            </IconStyle>
        </Style>
        <Style id="55894">
            <IconStyle id="55895">
                <colorMode>normal</colorMode>
                <scale>1</scale>
                <heading>0</heading>
                <Icon id="55896">
                    <href>http://maps.google.com/mapfiles/kml/pushpin/ylw-pushpin.png</href>
                </Icon>
            </IconStyle>
        </Style>
        <Style id="55899">
            <LineStyle id="55900">
                <color>ff800080</color>
                <colorMode>normal</colorMode>
                <width>4</width>
            </LineStyle>
        </Style>
        <Style id="55903">
            <LineStyle id="55904">
                <color>ff800080</color>
                <colorMode>normal</colorMode>
                <width>4</width>
            </LineStyle>
        </Style>
        <Style id="55907">
            <LineStyle id="55908">
                <color>ff800080</color>
                <colorMode>normal</colorMode>
                <width>4</width>
            </LineStyle>
        </Style>
        <Style id="55911">
            <LineStyle id="55912">
                <color>ff800080</color>
                <colorMode>normal</colorMode>
                <width>4</width>
            </LineStyle>
        </Style>
        <Style id="55915">
            <LineStyle id="55916">
                <color>ff800080</color>
                <colorMode>normal</colorMode>
                <width>4</width>
            </LineStyle>
        </Style>
        <Style id="55919">
            <LineStyle id="55920">
                <color>ff800080</color>
                <colorMode>normal</colorMode>
                <width>4</width>
            </LineStyle>
        </Style>
        <Style id="55923">
            <LineStyle id="55924">
                <color>ff800080</color>
                <colorMode>normal</colorMode>
                <width>4</width>
            </LineStyle>
        </Style>
        <Style id="55927">
            <LineStyle id="55928">
                <color>ff800080</color>
                <colorMode>normal</colorMode>
                <width>4</width>
            </LineStyle>
        </Style>
        <Style id="55931">
            <LineStyle id="55932">
                <color>ff800080</color>
                <colorMode>normal</colorMode>
                <width>4</width>
            </LineStyle>
        </Style>
        <Style id="55935">
            <LineStyle id="55936">
                <color>ff800080</color>
                <colorMode>normal</colorMode>
                <width>4</width>
            </LineStyle>
        </Style>
        <Style id="55939">
            <LineStyle id="55940">
                <color>ff800080</color>
                <colorMode>normal</colorMode>
                <width>4</width>
            </LineStyle>
        </Style>
        <Style id="55943">
            <LineStyle id="55944">
                <color>ff800080</color>
                <colorMode>normal</colorMode>
                <width>4</width>
            </LineStyle>
        </Style>
        <Style id="55947">
            <LineStyle id="55948">
                <color>ff800080</color>
                <colorMode>normal</colorMode>
                <width>4</width>
            </LineStyle>
        </Style>
        <Style id="55951">
            <LineStyle id="55952">
                <color>ff800080</color>
                <colorMode>normal</colorMode>
                <width>4</width>
            </LineStyle>
        </Style>
        <Style id="55955">
            <LineStyle id="55956">
                <color>ff800080</color>
                <colorMode>normal</colorMode>
                <width>4</width>
            </LineStyle>
        </Style>
        <Style id="55959">
            <LineStyle id="55960">
                <color>ff800080</color>
                <colorMode>normal</colorMode>
                <width>4</width>
            </LineStyle>
        </Style>
        <Style id="55963">
            <LineStyle id="55964">
                <color>ff800080</color>
                <colorMode>normal</colorMode>
                <width>4</width>
            </LineStyle>
        </Style>
        <Style id="55967">
            <LineStyle id="55968">
                <color>ff800080</color>
                <colorMode>normal</colorMode>
                <width>4</width>
            </LineStyle>
        </Style>
        <Style id="55971">
            <LineStyle id="55972">
                <color>ff800080</color>
                <colorMode>normal</colorMode>
                <width>4</width>
            </LineStyle>
        </Style>
        <Style id="55975">
            <LineStyle id="55976">
                <color>ff800080</color>
                <colorMode>normal</colorMode>
                <width>4</width>
            </LineStyle>
        </Style>
        <Style id="55979">
            <LineStyle id="55980">
                <color>ff800080</color>
                <colorMode>normal</colorMode>
                <width>4</width>
            </LineStyle>
        </Style>
        <Style id="55983">
            <LineStyle id="55984">
                <color>ff800080</color>
                <colorMode>normal</colorMode>
                <width>4</width>
            </LineStyle>
        </Style>
        <Style id="55987">
            <LineStyle id="55988">
                <color>ff800080</color>
                <colorMode>normal</colorMode>
                <width>4</width>
            </LineStyle>
        </Style>
        <Style id="55991">
            <LineStyle id="55992">
                <color>ff800080</color>
                <colorMode>normal</colorMode>
                <width>4</width>
            </LineStyle>
        </Style>
        <Style id="55995">
            <LineStyle id="55996">
                <color>ff800080</color>
                <colorMode>normal</colorMode>
                <width>4</width>
            </LineStyle>
        </Style>
        <Style id="55999">
            <LineStyle id="56000">
                <color>ff800080</color>
                <colorMode>normal</colorMode>
                <width>4</width>
            </LineStyle>
        </Style>
        <Style id="56003">
            <LineStyle id="56004">
                <color>ff800080</color>
                <colorMode>normal</colorMode>
                <width>4</width>
            </LineStyle>
        </Style>
        <Style id="56007">
            <LineStyle id="56008">
                <color>ff800080</color>
                <colorMode>normal</colorMode>
                <width>4</width>
            </LineStyle>
        </Style>
        <Style id="56011">
            <LineStyle id="56012">
                <color>ff800080</color>
                <colorMode>normal</colorMode>
                <width>4</width>
            </LineStyle>
        </Style>
        <Style id="56015">
            <LineStyle id="56016">
                <color>ff800080</color>
                <colorMode>normal</colorMode>
                <width>4</width>
            </LineStyle>
        </Style>
        <Style id="56019">
            <LineStyle id="56020">
                <color>ff800080</color>
                <colorMode>normal</colorMode>
                <width>4</width>
            </LineStyle>
        </Style>
        <Style id="56023">
            <LineStyle id="56024">
                <color>ff800080</color>
                <colorMode>normal</colorMode>
                <width>4</width>
            </LineStyle>
        </Style>
        <Style id="56027">
            <LineStyle id="56028">
                <color>ff800080</color>
                <colorMode>normal</colorMode>
                <width>4</width>
            </LineStyle>
        </Style>
        <Style id="56031">
            <LineStyle id="56032">
                <color>ff800080</color>
                <colorMode>normal</colorMode>
                <width>4</width>
            </LineStyle>
        </Style>
        <Style id="56035">
            <LineStyle id="56036">
                <color>ff800080</color>
                <colorMode>normal</colorMode>
                <width>4</width>
            </LineStyle>
        </Style>
        <Style id="56039">
            <LineStyle id="56040">
                <color>ff800080</color>
                <colorMode>normal</colorMode>
                <width>4</width>
            </LineStyle>
        </Style>
        <Style id="56043">
            <LineStyle id="56044">
                <color>ff800080</color>
                <colorMode>normal</colorMode>
                <width>4</width>
            </LineStyle>
        </Style>
        <Style id="56047">
            <LineStyle id="56048">
                <color>ff800080</color>
                <colorMode>normal</colorMode>
                <width>4</width>
            </LineStyle>
        </Style>
        <Style id="56051">
            <LineStyle id="56052">
                <color>ff800080</color>
                <colorMode>normal</colorMode>
                <width>4</width>
            </LineStyle>
        </Style>
        <Style id="56055">
            <LineStyle id="56056">
                <color>ff800080</color>
                <colorMode>normal</colorMode>
                <width>4</width>
            </LineStyle>
        </Style>
        <Style id="56059">
            <LineStyle id="56060">
                <color>ff800080</color>
                <colorMode>normal</colorMode>
                <width>4</width>
            </LineStyle>
        </Style>
        <Style id="56063">
            <LineStyle id="56064">
                <color>ff800080</color>
                <colorMode>normal</colorMode>
                <width>4</width>
            </LineStyle>
        </Style>
        <ExtendedData>
            <Data name="route-name">
                <value>Cimahi → Cimindi via Leuwigajah</value>
            </Data>
            <Data name="source">
                <value>Transport for Bandung</value>
            </Data>
        </ExtendedData>
        <Placemark id="55888">
            <name>Pasar Antri</name>
            <styleUrl>#55889</styleUrl>
            <Point id="55887">
                <coordinates>107.5379919,-6.8807505,0.0</coordinates>
            </Point>
        </Placemark>
        <Placemark id="55893">
            <name>SMK Negeri 1 Cimahi</name>
            <styleUrl>#55894</styleUrl>
            <Point id="55892">
                <coordinates>107.5386368,-6.9026525,0.0</coordinates>
            </Point>
        </Placemark>
        <Placemark id="55898">
            <name>Jalan Baros</name>
            <styleUrl>#55899</styleUrl>
            <LineString id="55897">
                <coordinates>107.5362981,-6.8997393,0.0 107.5362248,-6.9000873,0.0 107.5361162,-6.9003988,0.0 107.5360144,-6.9006278,0.0 107.5358502,-6.9009225,0.0 107.5357295,-6.9011324,0.0 107.5355893,-6.9013573,0.0 107.5355735,-6.9013848,0.0 107.5355578,-6.9014123,0.0 107.5355102,-6.9014954,0.0 107.5354538,-6.9015931,0.0 107.5353779,-6.9017279,0.0 107.5352068,-6.9020678,0.0 107.5351447,-6.9022106,0.0 107.535087,-6.9023311,0.0 107.5350454,-6.9024298,0.0 107.5350181,-6.9024955,0.0 107.5350031,-6.9025551,0.0 107.5350085,-6.9026223,0.0 107.5350233,-6.9026862,0.0 107.5350645,-6.9027288,0.0</coordinates>
            </LineString>
        </Placemark>
        <Placemark id="55902">
            <name>Jalan Baros</name>
            <styleUrl>#55903</styleUrl>
            <LineString id="55901">
                <coordinates>107.5364332,-6.8991294,0.0 107.5364891,-6.8988332,0.0 107.5365166,-6.8986468,0.0 107.5365494,-6.8983233,0.0 107.5365479,-6.8980729,0.0 107.5365474,-6.8979811,0.0 107.5365475,-6.8977366,0.0 107.5365451,-6.897381,0.0 107.5365444,-6.897193,0.0 107.5365477,-6.8970985,0.0 107.5365622,-6.896681,0.0 107.5365696,-6.896466,0.0 107.5365791,-6.8961932,0.0 107.5365826,-6.8960935,0.0 107.536606,-6.8955167,0.0 107.5366124,-6.8953582,0.0 107.5366223,-6.8948682,0.0 107.5366237,-6.8948296,0.0 107.5366317,-6.8946103,0.0 107.5366379,-6.8944398,0.0 107.5366501,-6.8941031,0.0 107.5366522,-6.8940466,0.0 107.5366649,-6.8937101,0.0 107.5366769,-6.8932796,0.0 107.5366905,-6.8928959,0.0 107.5366937,-6.892817,0.0 107.536696,-6.8926329,0.0 107.536695,-6.8925331,0.0</coordinates>
            </LineString>
        </Placemark>
        <Placemark id="55906">
            <name>Jalan Baros</name>
            <styleUrl>#55907</styleUrl>
            <LineString id="55905">
                <coordinates>107.5362981,-6.8997393,0.0 107.5364332,-6.8991294,0.0</coordinates>
            </LineString>
        </Placemark>
        <Placemark id="55910">
            <name>Jalan Baros</name>
            <styleUrl>#55911</styleUrl>
            <LineString id="55909">
                <coordinates>107.53735,-6.8878165,0.0 107.5372378,-6.8880721,0.0</coordinates>
            </LineString>
        </Placemark>
        <Placemark id="55914">
            <name>Jalan Stasiun</name>
            <styleUrl>#55915</styleUrl>
            <LineString id="55913">
                <coordinates>107.5352159,-6.8840014,0.0 107.5352209,-6.8840374,0.0 107.5354964,-6.8843363,0.0 107.5358223,-6.8846929,0.0 107.5359468,-6.884833,0.0 107.536025,-6.8849146,0.0 107.5361708,-6.8850816,0.0 107.5362818,-6.8852088,0.0 107.5363587,-6.8852969,0.0 107.5364702,-6.8854248,0.0 107.5365382,-6.8855033,0.0 107.5367348,-6.8857305,0.0</coordinates>
            </LineString>
        </Placemark>
        <Placemark id="55918">
            <name>Jalan Gatot Subroto</name>
            <styleUrl>#55919</styleUrl>
            <LineString id="55917">
                <coordinates>107.5376749,-6.8868524,0.0 107.5375407,-6.8872834,0.0 107.5375078,-6.8873908,0.0 107.5374921,-6.8874379,0.0 107.5374798,-6.8874708,0.0 107.5374648,-6.8875121,0.0</coordinates>
            </LineString>
        </Placemark>
        <Placemark id="55922">
            <name>Jalan Mahar Martanegara</name>
            <styleUrl>#55923</styleUrl>
            <LineString id="55921">
                <coordinates>107.5360665,-6.9027752,0.0 107.5362079,-6.902775,0.0 107.5366729,-6.9027621,0.0 107.5368932,-6.9027492,0.0 107.5370145,-6.9027421,0.0 107.5370801,-6.9027382,0.0 107.5372608,-6.9027277,0.0 107.537589,-6.9027078,0.0 107.5378111,-6.9026954,0.0 107.5386368,-6.9026525,0.0 107.5387627,-6.9026459,0.0 107.5388155,-6.9026432,0.0 107.5390587,-6.9026307,0.0 107.5392496,-6.9026246,0.0 107.5393951,-6.9026199,0.0 107.5396473,-6.9026117,0.0 107.5399619,-6.9025984,0.0 107.5401449,-6.9025892,0.0 107.5405286,-6.9025564,0.0 107.5407202,-6.9025281,0.0 107.5409284,-6.9024719,0.0 107.5410695,-6.9024445,0.0 107.5412808,-6.902379,0.0 107.5413512,-6.9023572,0.0 107.5415425,-6.9022978,0.0 107.5419446,-6.9021732,0.0 107.5422654,-6.9020737,0.0</coordinates>
            </LineString>
        </Placemark>
        <Placemark id="55926">
            <name>Jalan Mahar Martanegara</name>
            <styleUrl>#55927</styleUrl>
            <LineString id="55925">
                <coordinates>107.5356551,-6.9027794,0.0 107.5358516,-6.9027795,0.0 107.5360665,-6.9027752,0.0</coordinates>
            </LineString>
        </Placemark>
        <Placemark id="55930">
            <name>Jalan Mahar Martanegara</name>
            <styleUrl>#55931</styleUrl>
            <LineString id="55929">
                <coordinates>107.5559923,-6.8979091,0.0 107.5557805,-6.8979684,0.0 107.5555684,-6.8980278,0.0 107.5553383,-6.8981022,0.0 107.5551196,-6.8981695,0.0 107.5547955,-6.8982692,0.0 107.5547576,-6.8982819,0.0 107.5543929,-6.8983985,0.0 107.5541852,-6.8984572,0.0 107.5541264,-6.8984738,0.0 107.5539348,-6.8985309,0.0 107.553906,-6.8985376,0.0 107.5537299,-6.8985935,0.0 107.553273,-6.898721,0.0 107.5528901,-6.8988414,0.0 107.5523729,-6.8990037,0.0 107.5521387,-6.8990716,0.0 107.5520117,-6.8991001,0.0 107.5517637,-6.8991802,0.0 107.5515632,-6.8992341,0.0 107.5513753,-6.8992932,0.0 107.5513424,-6.8993023,0.0 107.5510426,-6.899382,0.0 107.5509067,-6.8994181,0.0 107.5505745,-6.8995064,0.0 107.5504164,-6.8995484,0.0 107.5502458,-6.8995937,0.0 107.5493804,-6.8998803,0.0 107.5492921,-6.8999069,0.0 107.5485685,-6.9001477,0.0 107.5484291,-6.9001925,0.0 107.5482573,-6.9002452,0.0 107.5480702,-6.9003017,0.0 107.5479602,-6.9003316,0.0 107.5476605,-6.9004135,0.0 107.5475163,-6.9004568,0.0 107.547363,-6.9004993,0.0 107.5473187,-6.9005119,0.0 107.5470834,-6.9005788,0.0 107.5469849,-6.9006067,0.0 107.5469567,-6.9006154,0.0 107.546609,-6.9007183,0.0 107.5463855,-6.900791,0.0 107.5456407,-6.901033,0.0 107.5453876,-6.9011153,0.0 107.5451835,-6.9011817,0.0</coordinates>
            </LineString>
        </Placemark>
        <Placemark id="55934">
            <name>Jalan Mahar Martanegara</name>
            <styleUrl>#55935</styleUrl>
            <LineString id="55933">
                <coordinates>107.5445559,-6.9013531,0.0 107.5446226,-6.9013317,0.0 107.5448339,-6.9012654,0.0 107.544997,-6.9012155,0.0 107.5450906,-6.9011833,0.0 107.5451835,-6.9011817,0.0</coordinates>
            </LineString>
        </Placemark>
        <Placemark id="55938">
            <name>Route Segment</name>
            <styleUrl>#55939</styleUrl>
            <LineString id="55937">
                <coordinates>107.538273,-6.8810675,0.0 107.5383206,-6.8811231,0.0</coordinates>
            </LineString>
        </Placemark>
        <Placemark id="55942">
            <name>Jalan Mahar Martanegara</name>
            <styleUrl>#55943</styleUrl>
            <LineString id="55941">
                <coordinates>107.5423445,-6.90205,0.0 107.5422654,-6.9020737,0.0</coordinates>
            </LineString>
        </Placemark>
        <Placemark id="55946">
            <name>Jalan Mahar Martanegara</name>
            <styleUrl>#55947</styleUrl>
            <LineString id="55945">
                <coordinates>107.5441177,-6.9015233,0.0 107.5440426,-6.9015456,0.0 107.543783,-6.9016237,0.0 107.543599,-6.9016773,0.0 107.5434394,-6.9017246,0.0 107.5433467,-6.9017521,0.0 107.5432857,-6.9017703,0.0 107.5425177,-6.9019982,0.0 107.5424534,-6.9020174,0.0 107.5423445,-6.90205,0.0</coordinates>
            </LineString>
        </Placemark>
        <Placemark id="55950">
            <name>Jalan Baros</name>
            <styleUrl>#55951</styleUrl>
            <LineString id="55949">
                <coordinates>107.5350645,-6.9027288,0.0 107.5351976,-6.9027588,0.0 107.5353156,-6.9027674,0.0 107.535529,-6.9027704,0.0</coordinates>
            </LineString>
        </Placemark>
        <Placemark id="55954">
            <name>Jalan H.M.S. Mintaredja SH</name>
            <styleUrl>#55955</styleUrl>
            <LineString id="55953">
                <coordinates>107.536753,-6.8923541,0.0 107.536762,-6.8923872,0.0 107.5367801,-6.8924058,0.0 107.5368022,-6.8924214,0.0 107.5368357,-6.8924344,0.0 107.5368726,-6.8924411,0.0 107.5370111,-6.8924386,0.0</coordinates>
            </LineString>
        </Placemark>
        <Placemark id="55958">
            <name>Jalan Baros</name>
            <styleUrl>#55959</styleUrl>
            <LineString id="55957">
                <coordinates>107.5366629,-6.8894348,0.0 107.5366353,-6.8895225,0.0 107.5366216,-6.8896125,0.0 107.5366128,-6.8897184,0.0 107.536637,-6.8901554,0.0 107.5366757,-6.8906933,0.0 107.5366796,-6.8907688,0.0 107.5366818,-6.8908514,0.0 107.536685,-6.8909739,0.0</coordinates>
            </LineString>
        </Placemark>
        <Placemark id="55962">
            <name>Route Segment</name>
            <styleUrl>#55963</styleUrl>
            <LineString id="55961">
                <coordinates>107.5383206,-6.8811231,0.0 107.5383466,-6.8811511,0.0</coordinates>
            </LineString>
        </Placemark>
        <Placemark id="55966">
            <name>Jalan H.M.S. Mintaredja SH</name>
            <styleUrl>#55967</styleUrl>
            <LineString id="55965">
                <coordinates>107.539009,-6.8925053,0.0 107.5388984,-6.8925069,0.0 107.5378456,-6.8925336,0.0</coordinates>
            </LineString>
        </Placemark>
        <Placemark id="55970">
            <name>Jalan H.M.S. Mintaredja SH</name>
            <styleUrl>#55971</styleUrl>
            <LineString id="55969">
                <coordinates>107.5382728,-6.8924268,0.0 107.5387944,-6.8924206,0.0 107.5390107,-6.8924181,0.0</coordinates>
            </LineString>
        </Placemark>
        <Placemark id="55974">
            <name>Jalan H.M.S. Mintaredja SH</name>
            <styleUrl>#55975</styleUrl>
            <LineString id="55973">
                <coordinates>107.5394234,-6.8924498,0.0 107.539365,-6.8924786,0.0 107.5393296,-6.8924911,0.0 107.5392696,-6.8924989,0.0 107.5390697,-6.8925045,0.0 107.539009,-6.8925053,0.0</coordinates>
            </LineString>
        </Placemark>
        <Placemark id="55978">
            <name>Jalan H.M.S. Mintaredja SH</name>
            <styleUrl>#55979</styleUrl>
            <LineString id="55977">
                <coordinates>107.5390107,-6.8924181,0.0 107.5392379,-6.8924144,0.0 107.5393006,-6.8924174,0.0 107.5393496,-6.8924231,0.0 107.5394234,-6.8924498,0.0</coordinates>
            </LineString>
        </Placemark>
        <Placemark id="55982">
            <name>Jalan H.M.S. Mintaredja SH</name>
            <styleUrl>#55983</styleUrl>
            <LineString id="55981">
                <coordinates>107.5378456,-6.8925336,0.0 107.5367649,-6.8925364,0.0 107.536695,-6.8925331,0.0</coordinates>
            </LineString>
        </Placemark>
        <Placemark id="55986">
            <name>Jalan Gatot Subroto</name>
            <styleUrl>#55987</styleUrl>
            <LineString id="55985">
                <coordinates>107.5374242,-6.8876162,0.0 107.53735,-6.8878165,0.0</coordinates>
            </LineString>
        </Placemark>
        <Placemark id="55990">
            <name>Jalan Gatot Subroto</name>
            <styleUrl>#55991</styleUrl>
            <LineString id="55989">
                <coordinates>107.5374648,-6.8875121,0.0 107.5374242,-6.8876162,0.0</coordinates>
            </LineString>
        </Placemark>
        <Placemark id="55994">
            <name>Jalan Mahar Martanegara</name>
            <styleUrl>#55995</styleUrl>
            <LineString id="55993">
                <coordinates>107.5587252,-6.8970333,0.0 107.5586602,-6.8970504,0.0 107.5578593,-6.8973105,0.0 107.557535,-6.8974206,0.0 107.5574116,-6.8974592,0.0 107.5568902,-6.897621,0.0 107.5566742,-6.8976892,0.0 107.5564635,-6.8977561,0.0</coordinates>
            </LineString>
        </Placemark>
        <Placemark id="55998">
            <name>Jalan Stasiun</name>
            <styleUrl>#55999</styleUrl>
            <LineString id="55997">
                <coordinates>107.5368837,-6.8859294,0.0 107.5373146,-6.886461,0.0 107.5376749,-6.8868524,0.0</coordinates>
            </LineString>
        </Placemark>
        <Placemark id="56002">
            <name>Jalan Stasiun</name>
            <styleUrl>#56003</styleUrl>
            <LineString id="56001">
                <coordinates>107.5367348,-6.8857305,0.0 107.5368837,-6.8859294,0.0</coordinates>
            </LineString>
        </Placemark>
        <Placemark id="56006">
            <name>Bundaran Leuwigajah</name>
            <styleUrl>#56007</styleUrl>
            <LineString id="56005">
                <coordinates>107.535529,-6.9027704,0.0 107.5355713,-6.9027608,0.0 107.5356146,-6.9027639,0.0 107.5356551,-6.9027794,0.0</coordinates>
            </LineString>
        </Placemark>
        <Placemark id="56010">
            <name>Jalan Mahar Martanegara</name>
            <styleUrl>#56011</styleUrl>
            <LineString id="56009">
                <coordinates>107.5441177,-6.9015233,0.0 107.5442015,-6.901469,0.0 107.5443738,-6.9014123,0.0 107.5445559,-6.9013531,0.0</coordinates>
            </LineString>
        </Placemark>
        <Placemark id="56014">
            <name>Route Segment</name>
            <styleUrl>#56015</styleUrl>
            <LineString id="56013">
                <coordinates>107.5383466,-6.8811511,0.0 107.5383917,-6.8811994,0.0</coordinates>
            </LineString>
        </Placemark>
        <Placemark id="56018">
            <name>Jalan Sriwijaya Raya</name>
            <styleUrl>#56019</styleUrl>
            <LineString id="56017">
                <coordinates>107.5369174,-6.8824826,0.0 107.5352331,-6.8839737,0.0 107.5352159,-6.8840014,0.0</coordinates>
            </LineString>
        </Placemark>
        <Placemark id="56022">
            <name>Jalan Sriwijaya Raya</name>
            <styleUrl>#56023</styleUrl>
            <LineString id="56021">
                <coordinates>107.5372164,-6.8822192,0.0 107.5369174,-6.8824826,0.0</coordinates>
            </LineString>
        </Placemark>
        <Placemark id="56026">
            <name>Jalan H.M.S. Mintaredja SH</name>
            <styleUrl>#56027</styleUrl>
            <LineString id="56025">
                <coordinates>107.5370111,-6.8924386,0.0 107.5373742,-6.892437,0.0 107.5377917,-6.8924335,0.0 107.5378677,-6.8924315,0.0 107.5382728,-6.8924268,0.0</coordinates>
            </LineString>
        </Placemark>
        <Placemark id="56030">
            <name>Route Segment</name>
            <styleUrl>#56031</styleUrl>
            <LineString id="56029">
                <coordinates>107.558919,-6.8969719,0.0 107.558909,-6.8970451,0.0 107.5588983,-6.8971043,0.0 107.5588902,-6.8971343,0.0 107.5588748,-6.8972035,0.0 107.558856,-6.8972215,0.0 107.5588292,-6.8972315,0.0 107.558806,-6.8972346,0.0 107.5587864,-6.8972329,0.0 107.5587717,-6.8972122,0.0 107.5587526,-6.8971443,0.0</coordinates>
            </LineString>
        </Placemark>
        <Placemark id="56034">
            <name>Jalan Mahar Martanegara</name>
            <styleUrl>#56035</styleUrl>
            <LineString id="56033">
                <coordinates>107.5564088,-6.8977741,0.0 107.5563432,-6.8977927,0.0 107.5562737,-6.897816,0.0 107.556043,-6.8978979,0.0 107.5559923,-6.8979091,0.0</coordinates>
            </LineString>
        </Placemark>
        <Placemark id="56038">
            <name>Jalan Mahar Martanegara</name>
            <styleUrl>#56039</styleUrl>
            <LineString id="56037">
                <coordinates>107.5564635,-6.8977561,0.0 107.5564088,-6.8977741,0.0</coordinates>
            </LineString>
        </Placemark>
        <Placemark id="56042">
            <name>Jalan Mahar Martanegara</name>
            <styleUrl>#56043</styleUrl>
            <LineString id="56041">
                <coordinates>107.558919,-6.8969719,0.0 107.5587252,-6.8970333,0.0</coordinates>
            </LineString>
        </Placemark>
        <Placemark id="56046">
            <name>Jalan Sriwijaya Raya</name>
            <styleUrl>#56047</styleUrl>
            <LineString id="56045">
                <coordinates>107.5383917,-6.8811994,0.0 107.5379606,-6.8815735,0.0 107.5378852,-6.8816389,0.0 107.5374338,-6.8820306,0.0 107.5372164,-6.8822192,0.0</coordinates>
            </LineString>
        </Placemark>
        <Placemark id="56050">
            <name>Route Segment</name>
            <styleUrl>#56051</styleUrl>
            <LineString id="56049">
                <coordinates>107.5379919,-6.8807505,0.0 107.538199,-6.8809854,0.0 107.538273,-6.8810675,0.0</coordinates>
            </LineString>
        </Placemark>
        <Placemark id="56054">
            <name>Jalan Baros</name>
            <styleUrl>#56055</styleUrl>
            <LineString id="56053">
                <coordinates>107.536685,-6.8909739,0.0 107.5366934,-6.8911966,0.0 107.5367027,-6.8913159,0.0 107.5367144,-6.8913999,0.0 107.5367383,-6.8915316,0.0 107.5367647,-6.8916489,0.0 107.5367687,-6.8917448,0.0 107.5367667,-6.8918646,0.0</coordinates>
            </LineString>
        </Placemark>
        <Placemark id="56058">
            <name>Jalan Baros</name>
            <styleUrl>#56059</styleUrl>
            <LineString id="56057">
                <coordinates>107.5367667,-6.8918646,0.0 107.536772,-6.8919878,0.0 107.5367571,-6.8922577,0.0 107.5367526,-6.8923219,0.0 107.536753,-6.8923541,0.0</coordinates>
            </LineString>
        </Placemark>
        <Placemark id="56062">
            <name>Jalan Baros</name>
            <styleUrl>#56063</styleUrl>
            <LineString id="56061">
                <coordinates>107.5372378,-6.8880721,0.0 107.5371821,-6.8882052,0.0 107.5369394,-6.8887796,0.0 107.5366629,-6.8894348,0.0</coordinates>
            </LineString>
        </Placemark>
    </Document>
</kml>
