<?xml version="1.0" encoding="UTF-8"?>
<kml xmlns="http://www.opengis.net/kml/2.2" xmlns:gx="http://www.google.com/kml/ext/2.2">
    <Document id="1">
        <Style id="7">
            <IconStyle id="8">
                <colorMode>normal</colorMode>
                <scale>1</scale>
                <heading>0</heading>
                <Icon id="9">
                    <href>http://maps.google.com/mapfiles/kml/pushpin/ylw-pushpin.png</href>
                </Icon>
            </IconStyle>
        </Style>
        <Style id="12">
            <IconStyle id="13">
                <colorMode>normal</colorMode>
                <scale>1</scale>
                <heading>0</heading>
                <Icon id="14">
                    <href>http://maps.google.com/mapfiles/kml/pushpin/ylw-pushpin.png</href>
                </Icon>
            </IconStyle>
        </Style>
        <Style id="17">
            <IconStyle id="18">
                <colorMode>normal</colorMode>
                <scale>1</scale>
                <heading>0</heading>
                <Icon id="19">
                    <href>http://maps.google.com/mapfiles/kml/pushpin/ylw-pushpin.png</href>
                </Icon>
            </IconStyle>
        </Style>
        <Style id="22">
            <IconStyle id="23">
                <colorMode>normal</colorMode>
                <scale>1</scale>
                <heading>0</heading>
                <Icon id="24">
                    <href>http://maps.google.com/mapfiles/kml/pushpin/ylw-pushpin.png</href>
                </Icon>
            </IconStyle>
        </Style>
        <Style id="27">
            <IconStyle id="28">
                <colorMode>normal</colorMode>
                <scale>1</scale>
                <heading>0</heading>
                <Icon id="29">
                    <href>http://maps.google.com/mapfiles/kml/pushpin/ylw-pushpin.png</href>
                </Icon>
            </IconStyle>
        </Style>
        <Style id="32">
            <IconStyle id="33">
                <colorMode>normal</colorMode>
                <scale>1</scale>
                <heading>0</heading>
                <Icon id="34">
                    <href>http://maps.google.com/mapfiles/kml/pushpin/ylw-pushpin.png</href>
                </Icon>
            </IconStyle>
        </Style>
        <Style id="37">
            <IconStyle id="38">
                <colorMode>normal</colorMode>
                <scale>1</scale>
                <heading>0</heading>
                <Icon id="39">
                    <href>http://maps.google.com/mapfiles/kml/pushpin/ylw-pushpin.png</href>
                </Icon>
            </IconStyle>
        </Style>
        <Style id="42">
            <IconStyle id="43">
                <colorMode>normal</colorMode>
                <scale>1</scale>
                <heading>0</heading>
                <Icon id="44">
                    <href>http://maps.google.com/mapfiles/kml/pushpin/ylw-pushpin.png</href>
                </Icon>
            </IconStyle>
        </Style>
        <Style id="47">
            <IconStyle id="48">
                <colorMode>normal</colorMode>
                <scale>1</scale>
                <heading>0</heading>
                <Icon id="49">
                    <href>http://maps.google.com/mapfiles/kml/pushpin/ylw-pushpin.png</href>
                </Icon>
            </IconStyle>
        </Style>
        <Style id="52">
            <IconStyle id="53">
                <colorMode>normal</colorMode>
                <scale>1</scale>
                <heading>0</heading>
                <Icon id="54">
                    <href>http://maps.google.com/mapfiles/kml/pushpin/ylw-pushpin.png</href>
                </Icon>
            </IconStyle>
        </Style>
        <Style id="57">
            <IconStyle id="58">
                <colorMode>normal</colorMode>
                <scale>1</scale>
                <heading>0</heading>
                <Icon id="59">
                    <href>http://maps.google.com/mapfiles/kml/pushpin/ylw-pushpin.png</href>
                </Icon>
            </IconStyle>
        </Style>
        <Style id="62">
            <IconStyle id="63">
                <colorMode>normal</colorMode>
                <scale>1</scale>
                <heading>0</heading>
                <Icon id="64">
                    <href>http://maps.google.com/mapfiles/kml/pushpin/ylw-pushpin.png</href>
                </Icon>
            </IconStyle>
        </Style>
        <Style id="67">
            <IconStyle id="68">
                <colorMode>normal</colorMode>
                <scale>1</scale>
                <heading>0</heading>
                <Icon id="69">
                    <href>http://maps.google.com/mapfiles/kml/pushpin/ylw-pushpin.png</href>
                </Icon>
            </IconStyle>
        </Style>
        <Style id="72">
            <LineStyle id="73">
                <color>ff8B392D</color>
                <colorMode>normal</colorMode>
                <width>4</width>
            </LineStyle>
        </Style>
        <Style id="76">
            <LineStyle id="77">
                <color>ff8B392D</color>
                <colorMode>normal</colorMode>
                <width>4</width>
            </LineStyle>
        </Style>
        <Style id="80">
            <LineStyle id="81">
                <color>ff8B392D</color>
                <colorMode>normal</colorMode>
                <width>4</width>
            </LineStyle>
        </Style>
        <Style id="84">
            <LineStyle id="85">
                <color>ff8B392D</color>
                <colorMode>normal</colorMode>
                <width>4</width>
            </LineStyle>
        </Style>
        <Style id="88">
            <LineStyle id="89">
                <color>ff8B392D</color>
                <colorMode>normal</colorMode>
                <width>4</width>
            </LineStyle>
        </Style>
        <Style id="92">
            <LineStyle id="93">
                <color>ff8B392D</color>
                <colorMode>normal</colorMode>
                <width>4</width>
            </LineStyle>
        </Style>
        <Style id="96">
            <LineStyle id="97">
                <color>ff8B392D</color>
                <colorMode>normal</colorMode>
                <width>4</width>
            </LineStyle>
        </Style>
        <Style id="100">
            <LineStyle id="101">
                <color>ff8B392D</color>
                <colorMode>normal</colorMode>
                <width>4</width>
            </LineStyle>
        </Style>
        <Style id="104">
            <LineStyle id="105">
                <color>ff8B392D</color>
                <colorMode>normal</colorMode>
                <width>4</width>
            </LineStyle>
        </Style>
        <Style id="108">
            <LineStyle id="109">
                <color>ff8B392D</color>
                <colorMode>normal</colorMode>
                <width>4</width>
            </LineStyle>
        </Style>
        <Style id="112">
            <LineStyle id="113">
                <color>ff8B392D</color>
                <colorMode>normal</colorMode>
                <width>4</width>
            </LineStyle>
        </Style>
        <Style id="116">
            <LineStyle id="117">
                <color>ff8B392D</color>
                <colorMode>normal</colorMode>
                <width>4</width>
            </LineStyle>
        </Style>
        <Style id="120">
            <LineStyle id="121">
                <color>ff8B392D</color>
                <colorMode>normal</colorMode>
                <width>4</width>
            </LineStyle>
        </Style>
        <Style id="124">
            <LineStyle id="125">
                <color>ff8B392D</color>
                <colorMode>normal</colorMode>
                <width>4</width>
            </LineStyle>
        </Style>
        <Style id="128">
            <LineStyle id="129">
                <color>ff8B392D</color>
                <colorMode>normal</colorMode>
                <width>4</width>
            </LineStyle>
        </Style>
        <Style id="132">
            <LineStyle id="133">
                <color>ff8B392D</color>
                <colorMode>normal</colorMode>
                <width>4</width>
            </LineStyle>
        </Style>
        <Style id="136">
            <LineStyle id="137">
                <color>ff8B392D</color>
                <colorMode>normal</colorMode>
                <width>4</width>
            </LineStyle>
        </Style>
        <Style id="140">
            <LineStyle id="141">
                <color>ff8B392D</color>
                <colorMode>normal</colorMode>
                <width>4</width>
            </LineStyle>
        </Style>
        <Style id="144">
            <LineStyle id="145">
                <color>ff8B392D</color>
                <colorMode>normal</colorMode>
                <width>4</width>
            </LineStyle>
        </Style>
        <Style id="148">
            <LineStyle id="149">
                <color>ff8B392D</color>
                <colorMode>normal</colorMode>
                <width>4</width>
            </LineStyle>
        </Style>
        <Style id="152">
            <LineStyle id="153">
                <color>ff8B392D</color>
                <colorMode>normal</colorMode>
                <width>4</width>
            </LineStyle>
        </Style>
        <Style id="156">
            <LineStyle id="157">
                <color>ff8B392D</color>
                <colorMode>normal</colorMode>
                <width>4</width>
            </LineStyle>
        </Style>
        <Style id="160">
            <LineStyle id="161">
                <color>ff8B392D</color>
                <colorMode>normal</colorMode>
                <width>4</width>
            </LineStyle>
        </Style>
        <Style id="164">
            <LineStyle id="165">
                <color>ff8B392D</color>
                <colorMode>normal</colorMode>
                <width>4</width>
            </LineStyle>
        </Style>
        <Style id="168">
            <LineStyle id="169">
                <color>ff8B392D</color>
                <colorMode>normal</colorMode>
                <width>4</width>
            </LineStyle>
        </Style>
        <Style id="172">
            <LineStyle id="173">
                <color>ff8B392D</color>
                <colorMode>normal</colorMode>
                <width>4</width>
            </LineStyle>
        </Style>
        <Style id="176">
            <LineStyle id="177">
                <color>ff8B392D</color>
                <colorMode>normal</colorMode>
                <width>4</width>
            </LineStyle>
        </Style>
        <Style id="180">
            <LineStyle id="181">
                <color>ff8B392D</color>
                <colorMode>normal</colorMode>
                <width>4</width>
            </LineStyle>
        </Style>
        <Style id="184">
            <LineStyle id="185">
                <color>ff8B392D</color>
                <colorMode>normal</colorMode>
                <width>4</width>
            </LineStyle>
        </Style>
        <Style id="188">
            <LineStyle id="189">
                <color>ff8B392D</color>
                <colorMode>normal</colorMode>
                <width>4</width>
            </LineStyle>
        </Style>
        <Style id="192">
            <LineStyle id="193">
                <color>ff8B392D</color>
                <colorMode>normal</colorMode>
                <width>4</width>
            </LineStyle>
        </Style>
        <Style id="196">
            <LineStyle id="197">
                <color>ff8B392D</color>
                <colorMode>normal</colorMode>
                <width>4</width>
            </LineStyle>
        </Style>
        <Style id="200">
            <LineStyle id="201">
                <color>ff8B392D</color>
                <colorMode>normal</colorMode>
                <width>4</width>
            </LineStyle>
        </Style>
        <Style id="204">
            <LineStyle id="205">
                <color>ff8B392D</color>
                <colorMode>normal</colorMode>
                <width>4</width>
            </LineStyle>
        </Style>
        <Style id="208">
            <LineStyle id="209">
                <color>ff8B392D</color>
                <colorMode>normal</colorMode>
                <width>4</width>
            </LineStyle>
        </Style>
        <Style id="212">
            <LineStyle id="213">
                <color>ff8B392D</color>
                <colorMode>normal</colorMode>
                <width>4</width>
            </LineStyle>
        </Style>
        <Style id="216">
            <LineStyle id="217">
                <color>ff8B392D</color>
                <colorMode>normal</colorMode>
                <width>4</width>
            </LineStyle>
        </Style>
        <Style id="220">
            <LineStyle id="221">
                <color>ff8B392D</color>
                <colorMode>normal</colorMode>
                <width>4</width>
            </LineStyle>
        </Style>
        <Style id="224">
            <LineStyle id="225">
                <color>ff8B392D</color>
                <colorMode>normal</colorMode>
                <width>4</width>
            </LineStyle>
        </Style>
        <Style id="228">
            <LineStyle id="229">
                <color>ff8B392D</color>
                <colorMode>normal</colorMode>
                <width>4</width>
            </LineStyle>
        </Style>
        <Style id="232">
            <LineStyle id="233">
                <color>ff8B392D</color>
                <colorMode>normal</colorMode>
                <width>4</width>
            </LineStyle>
        </Style>
        <Style id="236">
            <LineStyle id="237">
                <color>ff8B392D</color>
                <colorMode>normal</colorMode>
                <width>4</width>
            </LineStyle>
        </Style>
        <Style id="240">
            <LineStyle id="241">
                <color>ff8B392D</color>
                <colorMode>normal</colorMode>
                <width>4</width>
            </LineStyle>
        </Style>
        <Style id="244">
            <LineStyle id="245">
                <color>ff8B392D</color>
                <colorMode>normal</colorMode>
                <width>4</width>
            </LineStyle>
        </Style>
        <Style id="248">
            <LineStyle id="249">
                <color>ff8B392D</color>
                <colorMode>normal</colorMode>
                <width>4</width>
            </LineStyle>
        </Style>
        <Style id="252">
            <LineStyle id="253">
                <color>ff8B392D</color>
                <colorMode>normal</colorMode>
                <width>4</width>
            </LineStyle>
        </Style>
        <Style id="256">
            <LineStyle id="257">
                <color>ff8B392D</color>
                <colorMode>normal</colorMode>
                <width>4</width>
            </LineStyle>
        </Style>
        <Style id="260">
            <LineStyle id="261">
                <color>ff8B392D</color>
                <colorMode>normal</colorMode>
                <width>4</width>
            </LineStyle>
        </Style>
        <Style id="264">
            <LineStyle id="265">
                <color>ff8B392D</color>
                <colorMode>normal</colorMode>
                <width>4</width>
            </LineStyle>
        </Style>
        <Style id="268">
            <LineStyle id="269">
                <color>ff8B392D</color>
                <colorMode>normal</colorMode>
                <width>4</width>
            </LineStyle>
        </Style>
        <Style id="272">
            <LineStyle id="273">
                <color>ff8B392D</color>
                <colorMode>normal</colorMode>
                <width>4</width>
            </LineStyle>
        </Style>
        <Style id="276">
            <LineStyle id="277">
                <color>ff8B392D</color>
                <colorMode>normal</colorMode>
                <width>4</width>
            </LineStyle>
        </Style>
        <Style id="280">
            <LineStyle id="281">
                <color>ff8B392D</color>
                <colorMode>normal</colorMode>
                <width>4</width>
            </LineStyle>
        </Style>
        <Style id="284">
            <LineStyle id="285">
                <color>ff8B392D</color>
                <colorMode>normal</colorMode>
                <width>4</width>
            </LineStyle>
        </Style>
        <Style id="288">
            <LineStyle id="289">
                <color>ff8B392D</color>
                <colorMode>normal</colorMode>
                <width>4</width>
            </LineStyle>
        </Style>
        <Style id="292">
            <LineStyle id="293">
                <color>ff8B392D</color>
                <colorMode>normal</colorMode>
                <width>4</width>
            </LineStyle>
        </Style>
        <Style id="296">
            <LineStyle id="297">
                <color>ff8B392D</color>
                <colorMode>normal</colorMode>
                <width>4</width>
            </LineStyle>
        </Style>
        <Style id="300">
            <LineStyle id="301">
                <color>ff8B392D</color>
                <colorMode>normal</colorMode>
                <width>4</width>
            </LineStyle>
        </Style>
        <Style id="304">
            <LineStyle id="305">
                <color>ff8B392D</color>
                <colorMode>normal</colorMode>
                <width>4</width>
            </LineStyle>
        </Style>
        <Style id="308">
            <LineStyle id="309">
                <color>ff8B392D</color>
                <colorMode>normal</colorMode>
                <width>4</width>
            </LineStyle>
        </Style>
        <Style id="312">
            <LineStyle id="313">
                <color>ff8B392D</color>
                <colorMode>normal</colorMode>
                <width>4</width>
            </LineStyle>
        </Style>
        <Style id="316">
            <LineStyle id="317">
                <color>ff8B392D</color>
                <colorMode>normal</colorMode>
                <width>4</width>
            </LineStyle>
        </Style>
        <Style id="320">
            <LineStyle id="321">
                <color>ff8B392D</color>
                <colorMode>normal</colorMode>
                <width>4</width>
            </LineStyle>
        </Style>
        <Style id="324">
            <LineStyle id="325">
                <color>ff8B392D</color>
                <colorMode>normal</colorMode>
                <width>4</width>
            </LineStyle>
        </Style>
        <Style id="328">
            <LineStyle id="329">
                <color>ff8B392D</color>
                <colorMode>normal</colorMode>
                <width>4</width>
            </LineStyle>
        </Style>
        <Style id="332">
            <LineStyle id="333">
                <color>ff8B392D</color>
                <colorMode>normal</colorMode>
                <width>4</width>
            </LineStyle>
        </Style>
        <Style id="336">
            <LineStyle id="337">
                <color>ff8B392D</color>
                <colorMode>normal</colorMode>
                <width>4</width>
            </LineStyle>
        </Style>
        <Style id="340">
            <LineStyle id="341">
                <color>ff8B392D</color>
                <colorMode>normal</colorMode>
                <width>4</width>
            </LineStyle>
        </Style>
        <Style id="344">
            <LineStyle id="345">
                <color>ff8B392D</color>
                <colorMode>normal</colorMode>
                <width>4</width>
            </LineStyle>
        </Style>
        <Style id="348">
            <LineStyle id="349">
                <color>ff8B392D</color>
                <colorMode>normal</colorMode>
                <width>4</width>
            </LineStyle>
        </Style>
        <Style id="352">
            <LineStyle id="353">
                <color>ff8B392D</color>
                <colorMode>normal</colorMode>
                <width>4</width>
            </LineStyle>
        </Style>
        <Style id="356">
            <LineStyle id="357">
                <color>ff8B392D</color>
                <colorMode>normal</colorMode>
                <width>4</width>
            </LineStyle>
        </Style>
        <Style id="360">
            <LineStyle id="361">
                <color>ff8B392D</color>
                <colorMode>normal</colorMode>
                <width>4</width>
            </LineStyle>
        </Style>
        <Style id="364">
            <LineStyle id="365">
                <color>ff8B392D</color>
                <colorMode>normal</colorMode>
                <width>4</width>
            </LineStyle>
        </Style>
        <Style id="368">
            <LineStyle id="369">
                <color>ff8B392D</color>
                <colorMode>normal</colorMode>
                <width>4</width>
            </LineStyle>
        </Style>
        <Style id="372">
            <LineStyle id="373">
                <color>ff8B392D</color>
                <colorMode>normal</colorMode>
                <width>4</width>
            </LineStyle>
        </Style>
        <Style id="376">
            <LineStyle id="377">
                <color>ff8B392D</color>
                <colorMode>normal</colorMode>
                <width>4</width>
            </LineStyle>
        </Style>
        <Style id="380">
            <LineStyle id="381">
                <color>ff8B392D</color>
                <colorMode>normal</colorMode>
                <width>4</width>
            </LineStyle>
        </Style>
        <Style id="384">
            <LineStyle id="385">
                <color>ff8B392D</color>
                <colorMode>normal</colorMode>
                <width>4</width>
            </LineStyle>
        </Style>
        <Style id="388">
            <LineStyle id="389">
                <color>ff8B392D</color>
                <colorMode>normal</colorMode>
                <width>4</width>
            </LineStyle>
        </Style>
        <Style id="392">
            <LineStyle id="393">
                <color>ff8B392D</color>
                <colorMode>normal</colorMode>
                <width>4</width>
            </LineStyle>
        </Style>
        <Style id="396">
            <LineStyle id="397">
                <color>ff8B392D</color>
                <colorMode>normal</colorMode>
                <width>4</width>
            </LineStyle>
        </Style>
        <Style id="400">
            <LineStyle id="401">
                <color>ff8B392D</color>
                <colorMode>normal</colorMode>
                <width>4</width>
            </LineStyle>
        </Style>
        <Style id="404">
            <LineStyle id="405">
                <color>ff8B392D</color>
                <colorMode>normal</colorMode>
                <width>4</width>
            </LineStyle>
        </Style>
        <Style id="408">
            <LineStyle id="409">
                <color>ff8B392D</color>
                <colorMode>normal</colorMode>
                <width>4</width>
            </LineStyle>
        </Style>
        <Style id="412">
            <LineStyle id="413">
                <color>ff8B392D</color>
                <colorMode>normal</colorMode>
                <width>4</width>
            </LineStyle>
        </Style>
        <Style id="416">
            <LineStyle id="417">
                <color>ff8B392D</color>
                <colorMode>normal</colorMode>
                <width>4</width>
            </LineStyle>
        </Style>
        <Style id="420">
            <LineStyle id="421">
                <color>ff8B392D</color>
                <colorMode>normal</colorMode>
                <width>4</width>
            </LineStyle>
        </Style>
        <Style id="424">
            <LineStyle id="425">
                <color>ff8B392D</color>
                <colorMode>normal</colorMode>
                <width>4</width>
            </LineStyle>
        </Style>
        <Style id="428">
            <LineStyle id="429">
                <color>ff8B392D</color>
                <colorMode>normal</colorMode>
                <width>4</width>
            </LineStyle>
        </Style>
        <Style id="432">
            <LineStyle id="433">
                <color>ff8B392D</color>
                <colorMode>normal</colorMode>
                <width>4</width>
            </LineStyle>
        </Style>
        <Style id="436">
            <LineStyle id="437">
                <color>ff8B392D</color>
                <colorMode>normal</colorMode>
                <width>4</width>
            </LineStyle>
        </Style>
        <Style id="440">
            <LineStyle id="441">
                <color>ff8B392D</color>
                <colorMode>normal</colorMode>
                <width>4</width>
            </LineStyle>
        </Style>
        <Style id="444">
            <LineStyle id="445">
                <color>ff8B392D</color>
                <colorMode>normal</colorMode>
                <width>4</width>
            </LineStyle>
        </Style>
        <Style id="448">
            <LineStyle id="449">
                <color>ff8B392D</color>
                <colorMode>normal</colorMode>
                <width>4</width>
            </LineStyle>
        </Style>
        <Style id="452">
            <LineStyle id="453">
                <color>ff8B392D</color>
                <colorMode>normal</colorMode>
                <width>4</width>
            </LineStyle>
        </Style>
        <Style id="456">
            <LineStyle id="457">
                <color>ff8B392D</color>
                <colorMode>normal</colorMode>
                <width>4</width>
            </LineStyle>
        </Style>
        <Style id="460">
            <LineStyle id="461">
                <color>ff8B392D</color>
                <colorMode>normal</colorMode>
                <width>4</width>
            </LineStyle>
        </Style>
        <Style id="464">
            <LineStyle id="465">
                <color>ff8B392D</color>
                <colorMode>normal</colorMode>
                <width>4</width>
            </LineStyle>
        </Style>
        <Style id="468">
            <LineStyle id="469">
                <color>ff8B392D</color>
                <colorMode>normal</colorMode>
                <width>4</width>
            </LineStyle>
        </Style>
        <Style id="472">
            <LineStyle id="473">
                <color>ff8B392D</color>
                <colorMode>normal</colorMode>
                <width>4</width>
            </LineStyle>
        </Style>
        <Style id="476">
            <LineStyle id="477">
                <color>ff8B392D</color>
                <colorMode>normal</colorMode>
                <width>4</width>
            </LineStyle>
        </Style>
        <Style id="480">
            <LineStyle id="481">
                <color>ff8B392D</color>
                <colorMode>normal</colorMode>
                <width>4</width>
            </LineStyle>
        </Style>
        <Style id="484">
            <LineStyle id="485">
                <color>ff8B392D</color>
                <colorMode>normal</colorMode>
                <width>4</width>
            </LineStyle>
        </Style>
        <Style id="488">
            <LineStyle id="489">
                <color>ff8B392D</color>
                <colorMode>normal</colorMode>
                <width>4</width>
            </LineStyle>
        </Style>
        <Style id="492">
            <LineStyle id="493">
                <color>ff8B392D</color>
                <colorMode>normal</colorMode>
                <width>4</width>
            </LineStyle>
        </Style>
        <Style id="496">
            <LineStyle id="497">
                <color>ff8B392D</color>
                <colorMode>normal</colorMode>
                <width>4</width>
            </LineStyle>
        </Style>
        <ExtendedData>
            <Data name="route-name">
                <value>Commuter Line Bandung Raya: Padalarang → Cicalengka</value>
            </Data>
            <Data name="source">
                <value>Transport for Bandung</value>
            </Data>
        </ExtendedData>
        <Placemark id="6">
            <name>Cikudapateuh</name>
            <styleUrl>#7</styleUrl>
            <Point id="5">
                <coordinates>107.6270969,-6.9190593,0.0</coordinates>
            </Point>
        </Placemark>
        <Placemark id="11">
            <name>Cimahi</name>
            <styleUrl>#12</styleUrl>
            <Point id="10">
                <coordinates>107.5366917,-6.8865292,0.0</coordinates>
            </Point>
        </Placemark>
        <Placemark id="16">
            <name>Cimindi</name>
            <styleUrl>#17</styleUrl>
            <Point id="15">
                <coordinates>107.5626256,-6.8970936,0.0</coordinates>
            </Point>
        </Placemark>
        <Placemark id="21">
            <name>Ciroyom</name>
            <styleUrl>#22</styleUrl>
            <Point id="20">
                <coordinates>107.5913646,-6.9140672,0.0</coordinates>
            </Point>
        </Placemark>
        <Placemark id="26">
            <name>Gadobangkong</name>
            <styleUrl>#27</styleUrl>
            <Point id="25">
                <coordinates>107.5154655,-6.8652964,0.0</coordinates>
            </Point>
        </Placemark>
        <Placemark id="31">
            <name>Bandung</name>
            <styleUrl>#32</styleUrl>
            <Point id="30">
                <coordinates>107.6031495,-6.9145291,0.0</coordinates>
            </Point>
        </Placemark>
        <Placemark id="36">
            <name>Rancaekek</name>
            <styleUrl>#37</styleUrl>
            <Point id="35">
                <coordinates>107.7564447,-6.9651313,0.0</coordinates>
            </Point>
        </Placemark>
        <Placemark id="41">
            <name>Haurpugur</name>
            <styleUrl>#42</styleUrl>
            <Point id="40">
                <coordinates>107.7998788,-6.9808307,0.0</coordinates>
            </Point>
        </Placemark>
        <Placemark id="46">
            <name>Cimekar</name>
            <styleUrl>#47</styleUrl>
            <Point id="45">
                <coordinates>107.7129517,-6.9492508,0.0</coordinates>
            </Point>
        </Placemark>
        <Placemark id="51">
            <name>Kiaracondong</name>
            <styleUrl>#52</styleUrl>
            <Point id="50">
                <coordinates>107.6474897,-6.9254525,0.0</coordinates>
            </Point>
        </Placemark>
        <Placemark id="56">
            <name>Gedebage</name>
            <styleUrl>#57</styleUrl>
            <Point id="55">
                <coordinates>107.690512,-6.9411241,0.0</coordinates>
            </Point>
        </Placemark>
        <Placemark id="61">
            <name>Padalarang</name>
            <styleUrl>#62</styleUrl>
            <Point id="60">
                <coordinates>107.4978557,-6.8434759,0.0</coordinates>
            </Point>
        </Placemark>
        <Placemark id="66">
            <name>Cicalengka</name>
            <styleUrl>#67</styleUrl>
            <Point id="65">
                <coordinates>107.8331025,-6.9821834,0.0</coordinates>
            </Point>
        </Placemark>
        <Placemark id="71">
            <name>Jalur Kereta Api Padalarang–Kasugihan</name>
            <styleUrl>#72</styleUrl>
            <LineString id="70">
                <coordinates>107.6070142,-6.9149045,0.0 107.6075265,-6.9149725,0.0</coordinates>
            </LineString>
        </Placemark>
        <Placemark id="75">
            <name>Route Segment</name>
            <styleUrl>#76</styleUrl>
            <LineString id="74">
                <coordinates>107.6456145,-6.9247603,0.0 107.6474897,-6.9254525,0.0</coordinates>
            </LineString>
        </Placemark>
        <Placemark id="79">
            <name>Jalur Kereta Api Padalarang–Kasugihan</name>
            <styleUrl>#80</styleUrl>
            <LineString id="78">
                <coordinates>107.6727356,-6.9345562,0.0 107.6729399,-6.934633,0.0</coordinates>
            </LineString>
        </Placemark>
        <Placemark id="83">
            <name>Jalur Kereta Api Padalarang–Kasugihan</name>
            <styleUrl>#84</styleUrl>
            <LineString id="82">
                <coordinates>107.6075265,-6.9149725,0.0 107.6089998,-6.9151478,0.0 107.6102025,-6.9152943,0.0 107.6111898,-6.9154231,0.0 107.6129961,-6.9156542,0.0 107.6136413,-6.9157614,0.0 107.6138075,-6.9157964,0.0 107.6147193,-6.9160277,0.0 107.6168127,-6.9165239,0.0 107.6181745,-6.9168575,0.0 107.6191691,-6.9171032,0.0 107.6222841,-6.9178605,0.0 107.6244142,-6.918377,0.0 107.6247908,-6.9184742,0.0 107.6248913,-6.9185008,0.0 107.6250861,-6.918549,0.0 107.6270969,-6.9190593,0.0 107.6272938,-6.919104,0.0 107.6277504,-6.9192037,0.0 107.6280545,-6.9192716,0.0 107.6310123,-6.9200044,0.0 107.6311165,-6.9200314,0.0 107.6327508,-6.9204198,0.0</coordinates>
            </LineString>
        </Placemark>
        <Placemark id="87">
            <name>Jalur Kereta Api Padalarang–Kasugihan</name>
            <styleUrl>#88</styleUrl>
            <LineString id="86">
                <coordinates>107.6667435,-6.9323632,0.0 107.6668948,-6.9324215,0.0</coordinates>
            </LineString>
        </Placemark>
        <Placemark id="91">
            <name>Jalur Kereta Api Padalarang–Kasugihan</name>
            <styleUrl>#92</styleUrl>
            <LineString id="90">
                <coordinates>107.6668948,-6.9324215,0.0 107.668168,-6.9328972,0.0 107.6687265,-6.9330998,0.0 107.6727356,-6.9345562,0.0</coordinates>
            </LineString>
        </Placemark>
        <Placemark id="95">
            <name>Jalur Kereta Api Padalarang–Kasugihan</name>
            <styleUrl>#96</styleUrl>
            <LineString id="94">
                <coordinates>107.6400168,-6.9226654,0.0 107.6401324,-6.922711,0.0</coordinates>
            </LineString>
        </Placemark>
        <Placemark id="99">
            <name>Jalur Kereta Api Padalarang–Kasugihan</name>
            <styleUrl>#100</styleUrl>
            <LineString id="98">
                <coordinates>107.6493896,-6.9260901,0.0 107.650739,-6.9265863,0.0 107.6514288,-6.9268369,0.0</coordinates>
            </LineString>
        </Placemark>
        <Placemark id="103">
            <name>Jalur Kereta Api Padalarang–Kasugihan</name>
            <styleUrl>#104</styleUrl>
            <LineString id="102">
                <coordinates>107.6756619,-6.9356305,0.0 107.6757598,-6.9356653,0.0</coordinates>
            </LineString>
        </Placemark>
        <Placemark id="107">
            <name>Jalur Kereta Api Padalarang–Kasugihan</name>
            <styleUrl>#108</styleUrl>
            <LineString id="106">
                <coordinates>107.6729399,-6.934633,0.0 107.6738084,-6.9349513,0.0 107.6752457,-6.9354766,0.0 107.6756619,-6.9356305,0.0</coordinates>
            </LineString>
        </Placemark>
        <Placemark id="111">
            <name>Jalur Kereta Api Padalarang–Kasugihan</name>
            <styleUrl>#112</styleUrl>
            <LineString id="110">
                <coordinates>107.6757598,-6.9356653,0.0 107.677513,-6.9363022,0.0 107.680644,-6.9374365,0.0 107.6821178,-6.9379853,0.0 107.6825547,-6.938148,0.0 107.6829696,-6.938309,0.0 107.6835367,-6.9385297,0.0 107.6842513,-6.9387909,0.0 107.6842905,-6.9388062,0.0</coordinates>
            </LineString>
        </Placemark>
        <Placemark id="115">
            <name>Jalur Kereta Api Padalarang–Kasugihan</name>
            <styleUrl>#116</styleUrl>
            <LineString id="114">
                <coordinates>107.6592708,-6.9296479,0.0 107.6606269,-6.9301399,0.0 107.662233,-6.9307335,0.0 107.6628299,-6.930938,0.0 107.6633858,-6.9311468,0.0 107.6640652,-6.931398,0.0 107.6647286,-6.9316329,0.0 107.6667435,-6.9323632,0.0</coordinates>
            </LineString>
        </Placemark>
        <Placemark id="119">
            <name>Jalur Kereta Api Padalarang–Kasugihan</name>
            <styleUrl>#120</styleUrl>
            <LineString id="118">
                <coordinates>107.6541338,-6.9277767,0.0 107.6542731,-6.9278295,0.0</coordinates>
            </LineString>
        </Placemark>
        <Placemark id="123">
            <name>Jalur Kereta Api Padalarang–Kasugihan</name>
            <styleUrl>#124</styleUrl>
            <LineString id="122">
                <coordinates>107.7845129,-6.9753171,0.0 107.7870309,-6.9761998,0.0 107.7881653,-6.9766127,0.0 107.7882804,-6.9766536,0.0 107.7891391,-6.9769595,0.0 107.7914357,-6.9777805,0.0 107.7922682,-6.9780554,0.0 107.792405,-6.9781046,0.0 107.7939601,-6.9786637,0.0 107.7975069,-6.9799567,0.0 107.7983338,-6.9802686,0.0</coordinates>
            </LineString>
        </Placemark>
        <Placemark id="127">
            <name>Jalur Kereta Api Padalarang–Kasugihan</name>
            <styleUrl>#128</styleUrl>
            <LineString id="126">
                <coordinates>107.6054281,-6.9146892,0.0 107.605587,-6.9147104,0.0 107.6068612,-6.9148855,0.0 107.6069122,-6.9148925,0.0 107.6069805,-6.9149005,0.0 107.6070142,-6.9149045,0.0</coordinates>
            </LineString>
        </Placemark>
        <Placemark id="131">
            <name>Route Segment</name>
            <styleUrl>#132</styleUrl>
            <LineString id="130">
                <coordinates>107.6474897,-6.9254525,0.0 107.6486356,-6.925856,0.0 107.6488837,-6.9259466,0.0 107.6490128,-6.9259806,0.0 107.6492885,-6.9260515,0.0</coordinates>
            </LineString>
        </Placemark>
        <Placemark id="135">
            <name>Route Segment</name>
            <styleUrl>#136</styleUrl>
            <LineString id="134">
                <coordinates>107.6453531,-6.924662,0.0 107.6446813,-6.9243697,0.0</coordinates>
            </LineString>
        </Placemark>
        <Placemark id="139">
            <name>Jalur Kereta Api Padalarang–Kasugihan</name>
            <styleUrl>#140</styleUrl>
            <LineString id="138">
                <coordinates>107.500384,-6.8456388,0.0 107.5008895,-6.8460442,0.0 107.5033724,-6.8480265,0.0 107.5036535,-6.8482521,0.0 107.5041577,-6.8487122,0.0 107.5043291,-6.8488897,0.0 107.504578,-6.8491779,0.0 107.5049587,-6.849663,0.0 107.5063436,-6.851573,0.0 107.506748,-6.8521353,0.0 107.5070835,-6.852642,0.0 107.5073942,-6.8531404,0.0 107.5078984,-6.853978,0.0 107.5081902,-6.8544836,0.0 107.5084791,-6.8550074,0.0 107.5089325,-6.8557909,0.0 107.509236,-6.8562835,0.0 107.5093841,-6.8565151,0.0 107.5095406,-6.8567295,0.0 107.5097425,-6.8569936,0.0 107.5100652,-6.8573498,0.0 107.5102926,-6.8575848,0.0 107.5106498,-6.857923,0.0 107.5111156,-6.8583316,0.0 107.5115199,-6.858684,0.0 107.5117226,-6.8588607,0.0 107.5119877,-6.8591013,0.0 107.5122277,-6.8593409,0.0 107.5125384,-6.8596817,0.0 107.5128457,-6.8600682,0.0 107.5133149,-6.8607213,0.0 107.5136323,-6.8612653,0.0 107.5139217,-6.8618544,0.0 107.5142331,-6.8625555,0.0 107.5147634,-6.8637314,0.0</coordinates>
            </LineString>
        </Placemark>
        <Placemark id="143">
            <name>Jalur Kereta Api Padalarang–Kasugihan</name>
            <styleUrl>#144</styleUrl>
            <LineString id="142">
                <coordinates>107.5709162,-6.9025266,0.0 107.5709601,-6.9025576,0.0</coordinates>
            </LineString>
        </Placemark>
        <Placemark id="147">
            <name>Jalur Kereta Api Padalarang–Kasugihan</name>
            <styleUrl>#148</styleUrl>
            <LineString id="146">
                <coordinates>107.5409982,-6.8896672,0.0 107.5411467,-6.8896966,0.0</coordinates>
            </LineString>
        </Placemark>
        <Placemark id="151">
            <name>Jalur Kereta Api Padalarang–Kasugihan</name>
            <styleUrl>#152</styleUrl>
            <LineString id="150">
                <coordinates>107.5411467,-6.8896966,0.0 107.5423864,-6.8899342,0.0 107.5440677,-6.8902511,0.0 107.5488105,-6.8911519,0.0 107.5507374,-6.8915189,0.0 107.5509808,-6.8915683,0.0 107.5513487,-6.8916529,0.0 107.5516515,-6.891737,0.0 107.5520112,-6.8918495,0.0 107.5522747,-6.8919407,0.0 107.5526853,-6.8920903,0.0 107.5543536,-6.8928036,0.0 107.5550448,-6.8931008,0.0 107.5569713,-6.8939388,0.0 107.5578735,-6.8943212,0.0 107.5584084,-6.8945514,0.0 107.5587237,-6.8946941,0.0 107.5591662,-6.8949117,0.0</coordinates>
            </LineString>
        </Placemark>
        <Placemark id="155">
            <name>Jalur Kereta Api Bandung–Ciroyom–Andir</name>
            <styleUrl>#156</styleUrl>
            <LineString id="154">
                <coordinates>107.5924575,-6.9140549,0.0 107.5931468,-6.9140517,0.0 107.5932819,-6.91405,0.0 107.5934302,-6.9140558,0.0 107.5936396,-6.9140754,0.0 107.5936764,-6.9140814,0.0 107.594684,-6.9142458,0.0 107.5948772,-6.9142761,0.0 107.5949407,-6.9142842,0.0 107.5951163,-6.914304,0.0 107.5953544,-6.9143199,0.0 107.5957692,-6.9143285,0.0 107.5965262,-6.9143235,0.0</coordinates>
            </LineString>
        </Placemark>
        <Placemark id="159">
            <name>Route Segment</name>
            <styleUrl>#160</styleUrl>
            <LineString id="158">
                <coordinates>107.6016923,-6.9144609,0.0 107.602796,-6.9145079,0.0</coordinates>
            </LineString>
        </Placemark>
        <Placemark id="163">
            <name>Jalur Kereta Api Padalarang–Kasugihan</name>
            <styleUrl>#164</styleUrl>
            <LineString id="162">
                <coordinates>107.5822421,-6.9100045,0.0 107.5822964,-6.9100398,0.0</coordinates>
            </LineString>
        </Placemark>
        <Placemark id="167">
            <name>Jalur Kereta Api Padalarang–Kasugihan</name>
            <styleUrl>#168</styleUrl>
            <LineString id="166">
                <coordinates>107.5709601,-6.9025576,0.0 107.572872,-6.9038326,0.0 107.5749671,-6.9052125,0.0 107.5758114,-6.9057714,0.0 107.5768868,-6.9064768,0.0 107.5774683,-6.9068614,0.0 107.5780281,-6.9072316,0.0 107.5791846,-6.9079986,0.0 107.5810408,-6.9092106,0.0 107.5816395,-6.9096,0.0 107.5821672,-6.9099526,0.0</coordinates>
            </LineString>
        </Placemark>
        <Placemark id="171">
            <name>Jalur Kereta Api Padalarang–Kasugihan</name>
            <styleUrl>#172</styleUrl>
            <LineString id="170">
                <coordinates>107.7478859,-6.9619929,0.0 107.7480249,-6.9620423,0.0</coordinates>
            </LineString>
        </Placemark>
        <Placemark id="175">
            <name>Jalur Kereta Api Padalarang–Kasugihan</name>
            <styleUrl>#176</styleUrl>
            <LineString id="174">
                <coordinates>107.7277312,-6.9547208,0.0 107.7292601,-6.9552769,0.0 107.730375,-6.9556387,0.0 107.7309104,-6.9558113,0.0 107.731602,-6.9560441,0.0 107.7329527,-6.9565346,0.0 107.740904,-6.9594241,0.0 107.7412982,-6.9595658,0.0 107.7458881,-6.9612423,0.0 107.7468973,-6.9616262,0.0 107.7477725,-6.9619495,0.0 107.7478859,-6.9619929,0.0</coordinates>
            </LineString>
        </Placemark>
        <Placemark id="179">
            <name>Jalur Kereta Api Padalarang–Kasugihan</name>
            <styleUrl>#180</styleUrl>
            <LineString id="178">
                <coordinates>107.7039614,-6.9459868,0.0 107.7039674,-6.945989,0.0 107.7057986,-6.9466445,0.0 107.706679,-6.946972,0.0 107.7103233,-6.948294,0.0 107.7113835,-6.9486844,0.0</coordinates>
            </LineString>
        </Placemark>
        <Placemark id="183">
            <name>Jalur Kereta Api Padalarang–Kasugihan</name>
            <styleUrl>#184</styleUrl>
            <LineString id="182">
                <coordinates>107.7001247,-6.9445986,0.0 107.7002687,-6.944655,0.0</coordinates>
            </LineString>
        </Placemark>
        <Placemark id="187">
            <name>Route Segment</name>
            <styleUrl>#188</styleUrl>
            <LineString id="186">
                <coordinates>107.7542747,-6.9642818,0.0 107.7547771,-6.9645082,0.0 107.7548803,-6.964546,0.0 107.7549687,-6.9645783,0.0 107.7564447,-6.9651313,0.0 107.7564958,-6.9651497,0.0 107.7568417,-6.965253,0.0 107.7572295,-6.9653554,0.0</coordinates>
            </LineString>
        </Placemark>
        <Placemark id="191">
            <name>Jalur Kereta Api Padalarang–Kasugihan</name>
            <styleUrl>#192</styleUrl>
            <LineString id="190">
                <coordinates>107.7578181,-6.9655708,0.0 107.7592517,-6.9660979,0.0 107.7596061,-6.966223,0.0 107.7603048,-6.9664833,0.0 107.7610459,-6.9667541,0.0 107.7621005,-6.9671313,0.0 107.7627237,-6.9673542,0.0 107.7680306,-6.9692896,0.0 107.7695157,-6.9698306,0.0 107.7706382,-6.9702406,0.0 107.7728766,-6.9710582,0.0</coordinates>
            </LineString>
        </Placemark>
        <Placemark id="195">
            <name>Jalur Kereta Api Padalarang–Kasugihan</name>
            <styleUrl>#196</styleUrl>
            <LineString id="194">
                <coordinates>107.810371,-6.9846387,0.0 107.8110425,-6.9848784,0.0 107.8119044,-6.9851954,0.0 107.8122984,-6.9853236,0.0 107.8128098,-6.9854538,0.0 107.8133728,-6.9855749,0.0 107.8137754,-6.9856303,0.0 107.8140799,-6.9856611,0.0 107.8143047,-6.9856799,0.0 107.8148623,-6.985691,0.0 107.8154673,-6.9856679,0.0 107.8160032,-6.9856171,0.0 107.8163305,-6.9855652,0.0 107.8166384,-6.9855145,0.0 107.8171155,-6.9854089,0.0 107.8176927,-6.9852485,0.0 107.8181617,-6.985072,0.0 107.8185469,-6.9849191,0.0 107.8188958,-6.9847565,0.0 107.8192869,-6.9845456,0.0 107.8200401,-6.984084,0.0 107.8204774,-6.9837624,0.0 107.8208198,-6.983476,0.0 107.8211771,-6.9831517,0.0 107.821508,-6.9828203,0.0 107.8219822,-6.9823471,0.0 107.8232271,-6.9811066,0.0 107.8242952,-6.9800513,0.0</coordinates>
            </LineString>
        </Placemark>
        <Placemark id="199">
            <name>Jalur Kereta Api Padalarang–Kasugihan</name>
            <styleUrl>#200</styleUrl>
            <LineString id="198">
                <coordinates>107.81024,-6.9845892,0.0 107.810371,-6.9846387,0.0</coordinates>
            </LineString>
        </Placemark>
        <Placemark id="203">
            <name>Jalur Kereta Api Padalarang–Kasugihan</name>
            <styleUrl>#204</styleUrl>
            <LineString id="202">
                <coordinates>107.8032133,-6.9820318,0.0 107.8040112,-6.9823281,0.0 107.81024,-6.9845892,0.0</coordinates>
            </LineString>
        </Placemark>
        <Placemark id="207">
            <name>Jalur Kereta Api Padalarang–Kasugihan</name>
            <styleUrl>#208</styleUrl>
            <LineString id="206">
                <coordinates>107.8030708,-6.9819816,0.0 107.8032133,-6.9820318,0.0</coordinates>
            </LineString>
        </Placemark>
        <Placemark id="211">
            <name>Jalur Kereta Api Padalarang–Kasugihan</name>
            <styleUrl>#212</styleUrl>
            <LineString id="210">
                <coordinates>107.6842905,-6.9388062,0.0 107.684467,-6.9388719,0.0</coordinates>
            </LineString>
        </Placemark>
        <Placemark id="215">
            <name>Route Segment</name>
            <styleUrl>#216</styleUrl>
            <LineString id="214">
                <coordinates>107.6875728,-6.9400415,0.0 107.6881847,-6.9402763,0.0 107.6888302,-6.9405109,0.0 107.690512,-6.9411241,0.0 107.6910637,-6.9413282,0.0 107.6912705,-6.9413927,0.0 107.6914723,-6.9414492,0.0 107.6917282,-6.9415238,0.0</coordinates>
            </LineString>
        </Placemark>
        <Placemark id="219">
            <name>Jalur Kereta Api Padalarang–Kasugihan</name>
            <styleUrl>#220</styleUrl>
            <LineString id="218">
                <coordinates>107.6415189,-6.9232285,0.0 107.6422277,-6.9234816,0.0 107.6434821,-6.9239355,0.0</coordinates>
            </LineString>
        </Placemark>
        <Placemark id="223">
            <name>Jalur Kereta Api Padalarang–Kasugihan</name>
            <styleUrl>#224</styleUrl>
            <LineString id="222">
                <coordinates>107.7728766,-6.9710582,0.0 107.7729873,-6.9710955,0.0</coordinates>
            </LineString>
        </Placemark>
        <Placemark id="227">
            <name>Jalur Kereta Api Padalarang–Kasugihan</name>
            <styleUrl>#228</styleUrl>
            <LineString id="226">
                <coordinates>107.7732177,-6.9711763,0.0 107.7785528,-6.9731164,0.0 107.7792713,-6.9733916,0.0 107.7803498,-6.9738047,0.0 107.7808085,-6.9739687,0.0</coordinates>
            </LineString>
        </Placemark>
        <Placemark id="231">
            <name>Jalur Kereta Api Padalarang–Kasugihan</name>
            <styleUrl>#232</styleUrl>
            <LineString id="230">
                <coordinates>107.7808085,-6.9739687,0.0 107.7809829,-6.9740327,0.0 107.7810003,-6.9740391,0.0</coordinates>
            </LineString>
        </Placemark>
        <Placemark id="235">
            <name>Jalur Kereta Api Padalarang–Kasugihan</name>
            <styleUrl>#236</styleUrl>
            <LineString id="234">
                <coordinates>107.7810003,-6.9740391,0.0 107.7834206,-6.9749163,0.0 107.784179,-6.9751962,0.0 107.7843334,-6.9752519,0.0</coordinates>
            </LineString>
        </Placemark>
        <Placemark id="239">
            <name>Jalur Kereta Api Padalarang–Kasugihan</name>
            <styleUrl>#240</styleUrl>
            <LineString id="238">
                <coordinates>107.7843334,-6.9752519,0.0 107.7845129,-6.9753171,0.0</coordinates>
            </LineString>
        </Placemark>
        <Placemark id="243">
            <name>Route Segment</name>
            <styleUrl>#244</styleUrl>
            <LineString id="242">
                <coordinates>107.5591662,-6.8949117,0.0 107.5596069,-6.8951769,0.0 107.5596791,-6.8952233,0.0 107.5597514,-6.895268,0.0 107.5599843,-6.8953967,0.0 107.5602089,-6.8955204,0.0 107.5605636,-6.8957283,0.0 107.5607112,-6.8958187,0.0 107.5626256,-6.8970936,0.0 107.5627659,-6.8971923,0.0 107.5629376,-6.8972904,0.0 107.5633036,-6.8974918,0.0</coordinates>
            </LineString>
        </Placemark>
        <Placemark id="247">
            <name>Jalur Kereta Api Padalarang–Kasugihan</name>
            <styleUrl>#248</styleUrl>
            <LineString id="246">
                <coordinates>107.5002955,-6.8455676,0.0 107.4991074,-6.8445132,0.0</coordinates>
            </LineString>
        </Placemark>
        <Placemark id="251">
            <name>Jalur Kereta Api Padalarang–Kasugihan</name>
            <styleUrl>#252</styleUrl>
            <LineString id="250">
                <coordinates>107.5821672,-6.9099526,0.0 107.5822421,-6.9100045,0.0</coordinates>
            </LineString>
        </Placemark>
        <Placemark id="255">
            <name>Jalur Kereta Api Bandung–Ciroyom–Andir</name>
            <styleUrl>#256</styleUrl>
            <LineString id="254">
                <coordinates>107.5824711,-6.9101568,0.0 107.5826801,-6.9103199,0.0 107.5827912,-6.9104025,0.0 107.5831308,-6.9106441,0.0 107.5855602,-6.912249,0.0 107.5857063,-6.9123455,0.0 107.5862342,-6.9126943,0.0 107.5866065,-6.9129092,0.0 107.5868824,-6.9130562,0.0 107.5871341,-6.9131758,0.0 107.5874445,-6.9133094,0.0 107.5877123,-6.9134183,0.0 107.5879336,-6.9134984,0.0 107.5881129,-6.9135546,0.0 107.5883393,-6.9136208,0.0 107.5885135,-6.9136653,0.0</coordinates>
            </LineString>
        </Placemark>
        <Placemark id="259">
            <name>Jalur Kereta Api Padalarang–Kasugihan</name>
            <styleUrl>#260</styleUrl>
            <LineString id="258">
                <coordinates>107.6946795,-6.942599,0.0 107.6947824,-6.942637,0.0 107.6965138,-6.9432685,0.0 107.6988093,-6.9441073,0.0 107.7001247,-6.9445986,0.0</coordinates>
            </LineString>
        </Placemark>
        <Placemark id="263">
            <name>Jalur Kereta Api Padalarang–Kasugihan</name>
            <styleUrl>#264</styleUrl>
            <LineString id="262">
                <coordinates>107.7480249,-6.9620423,0.0 107.7498352,-6.9626777,0.0 107.7503779,-6.9628683,0.0 107.7503857,-6.9628711,0.0 107.7523274,-6.9635685,0.0</coordinates>
            </LineString>
        </Placemark>
        <Placemark id="267">
            <name>Jalur Kereta Api Padalarang–Kasugihan</name>
            <styleUrl>#268</styleUrl>
            <LineString id="266">
                <coordinates>107.7730645,-6.9711226,0.0 107.7732177,-6.9711763,0.0</coordinates>
            </LineString>
        </Placemark>
        <Placemark id="271">
            <name>Jalur Kereta Api Padalarang–Kasugihan</name>
            <styleUrl>#272</styleUrl>
            <LineString id="270">
                <coordinates>107.7729873,-6.9710955,0.0 107.7730645,-6.9711226,0.0</coordinates>
            </LineString>
        </Placemark>
        <Placemark id="275">
            <name>Jalur Kereta Api Padalarang–Kasugihan</name>
            <styleUrl>#276</styleUrl>
            <LineString id="274">
                <coordinates>107.7998788,-6.9808307,0.0 107.8009596,-6.9812205,0.0 107.8021128,-6.98164,0.0 107.8030708,-6.9819816,0.0</coordinates>
            </LineString>
        </Placemark>
        <Placemark id="279">
            <name>Route Segment</name>
            <styleUrl>#280</styleUrl>
            <LineString id="278">
                <coordinates>107.4991074,-6.8445132,0.0 107.4988975,-6.8443593,0.0 107.4987893,-6.8442707,0.0 107.49857,-6.8440717,0.0</coordinates>
            </LineString>
        </Placemark>
        <Placemark id="283">
            <name>Jalur Kereta Api Padalarang–Kasugihan</name>
            <styleUrl>#284</styleUrl>
            <LineString id="282">
                <coordinates>107.7224792,-6.9527519,0.0 107.722626,-6.9528088,0.0</coordinates>
            </LineString>
        </Placemark>
        <Placemark id="287">
            <name>Jalur Kereta Api Padalarang–Kasugihan</name>
            <styleUrl>#288</styleUrl>
            <LineString id="286">
                <coordinates>107.5362647,-6.8860412,0.0 107.5366917,-6.8865292,0.0 107.5370515,-6.886932,0.0 107.5374921,-6.8874379,0.0 107.5377009,-6.8876712,0.0</coordinates>
            </LineString>
        </Placemark>
        <Placemark id="291">
            <name>Jalur Kereta Api Bandung–Ciroyom–Andir</name>
            <styleUrl>#292</styleUrl>
            <LineString id="290">
                <coordinates>107.5979364,-6.914342,0.0 107.5977043,-6.9143515,0.0 107.5975712,-6.9143534,0.0 107.5974841,-6.9143514,0.0 107.5970507,-6.914334,0.0 107.5965262,-6.9143235,0.0</coordinates>
            </LineString>
        </Placemark>
        <Placemark id="295">
            <name>Jalur Kereta Api Padalarang–Kasugihan</name>
            <styleUrl>#296</styleUrl>
            <LineString id="294">
                <coordinates>107.8242952,-6.9800513,0.0 107.8248516,-6.979499,0.0 107.8250394,-6.9793387,0.0 107.825135,-6.9792667,0.0 107.8255234,-6.9790011,0.0 107.8257959,-6.9788497,0.0 107.8260988,-6.9787077,0.0 107.8264642,-6.9785665,0.0 107.8268151,-6.9784676,0.0 107.8270784,-6.9784168,0.0 107.8274563,-6.9783613,0.0 107.8277725,-6.9783443,0.0 107.8280887,-6.9783456,0.0 107.828341,-6.9783681,0.0 107.8286152,-6.9784054,0.0 107.8288173,-6.9784449,0.0 107.829129,-6.9785273,0.0 107.8294206,-6.9786199,0.0 107.8296609,-6.9787149,0.0 107.8299319,-6.9788423,0.0 107.8301127,-6.9789423,0.0 107.8304311,-6.9791459,0.0 107.830663,-6.9793137,0.0 107.8308363,-6.9794522,0.0 107.8309949,-6.9795984,0.0 107.831129,-6.97973,0.0 107.8312481,-6.9798592,0.0</coordinates>
            </LineString>
        </Placemark>
        <Placemark id="299">
            <name>Jalur Kereta Api Padalarang–Kasugihan</name>
            <styleUrl>#300</styleUrl>
            <LineString id="298">
                <coordinates>107.7275833,-6.9546661,0.0 107.7277312,-6.9547208,0.0</coordinates>
            </LineString>
        </Placemark>
        <Placemark id="303">
            <name>Jalur Kereta Api Padalarang–Kasugihan</name>
            <styleUrl>#304</styleUrl>
            <LineString id="302">
                <coordinates>107.722626,-6.9528088,0.0 107.7228981,-6.9529096,0.0 107.7245833,-6.9535126,0.0 107.7255865,-6.9538933,0.0 107.7275833,-6.9546661,0.0</coordinates>
            </LineString>
        </Placemark>
        <Placemark id="307">
            <name>Route Segment</name>
            <styleUrl>#308</styleUrl>
            <LineString id="306">
                <coordinates>107.8321081,-6.9810404,0.0 107.8321956,-6.9811643,0.0 107.8323346,-6.9813445,0.0 107.8326348,-6.9816856,0.0 107.8328197,-6.9818874,0.0 107.8329852,-6.9820619,0.0 107.8331025,-6.9821834,0.0</coordinates>
            </LineString>
        </Placemark>
        <Placemark id="311">
            <name>Jalur Kereta Api Padalarang–Kasugihan</name>
            <styleUrl>#312</styleUrl>
            <LineString id="310">
                <coordinates>107.5822964,-6.9100398,0.0 107.5824711,-6.9101568,0.0</coordinates>
            </LineString>
        </Placemark>
        <Placemark id="315">
            <name>Jalur Kereta Api Padalarang–Kasugihan</name>
            <styleUrl>#316</styleUrl>
            <LineString id="314">
                <coordinates>107.5377009,-6.8876712,0.0 107.5380781,-6.8880793,0.0 107.5382841,-6.8882963,0.0 107.5385812,-6.8885652,0.0 107.5388674,-6.8887797,0.0 107.5390774,-6.8889281,0.0 107.5393495,-6.8890933,0.0 107.5396222,-6.8892334,0.0 107.5399394,-6.8893706,0.0 107.5402737,-6.889486,0.0 107.5406864,-6.8896005,0.0 107.5408668,-6.8896421,0.0 107.5409982,-6.8896672,0.0</coordinates>
            </LineString>
        </Placemark>
        <Placemark id="319">
            <name>Jalur Kereta Api Padalarang–Kasugihan</name>
            <styleUrl>#320</styleUrl>
            <LineString id="318">
                <coordinates>107.5002955,-6.8455676,0.0 107.500384,-6.8456388,0.0</coordinates>
            </LineString>
        </Placemark>
        <Placemark id="323">
            <name>Jalur Kereta Api Padalarang–Kasugihan</name>
            <styleUrl>#324</styleUrl>
            <LineString id="322">
                <coordinates>107.5633036,-6.8974918,0.0 107.5637483,-6.8977836,0.0 107.5641651,-6.8980569,0.0 107.5652723,-6.8987883,0.0 107.5673796,-6.9001745,0.0 107.5699938,-6.9019171,0.0 107.5709162,-6.9025266,0.0</coordinates>
            </LineString>
        </Placemark>
        <Placemark id="327">
            <name>Route Segment</name>
            <styleUrl>#328</styleUrl>
            <LineString id="326">
                <coordinates>107.5999908,-6.9144094,0.0 107.5996999,-6.9144197,0.0 107.5995391,-6.9144237,0.0 107.5985123,-6.914374,0.0 107.5984106,-6.9143682,0.0 107.5979364,-6.914342,0.0</coordinates>
            </LineString>
        </Placemark>
        <Placemark id="331">
            <name>Jalur Kereta Api Padalarang–Kasugihan</name>
            <styleUrl>#332</styleUrl>
            <LineString id="330">
                <coordinates>107.6048491,-6.9146166,0.0 107.6054281,-6.9146892,0.0</coordinates>
            </LineString>
        </Placemark>
        <Placemark id="335">
            <name>Jalur Kereta Api Padalarang–Kasugihan</name>
            <styleUrl>#336</styleUrl>
            <LineString id="334">
                <coordinates>107.6044728,-6.9145695,0.0 107.6048491,-6.9146166,0.0</coordinates>
            </LineString>
        </Placemark>
        <Placemark id="339">
            <name>Jalur Kereta Api Padalarang–Kasugihan</name>
            <styleUrl>#340</styleUrl>
            <LineString id="338">
                <coordinates>107.6434821,-6.9239355,0.0 107.644388,-6.924264,0.0 107.6444962,-6.9243006,0.0 107.6446813,-6.9243697,0.0</coordinates>
            </LineString>
        </Placemark>
        <Placemark id="343">
            <name>Jalur Kereta Api Padalarang–Kasugihan</name>
            <styleUrl>#344</styleUrl>
            <LineString id="342">
                <coordinates>107.684467,-6.9388719,0.0 107.6855286,-6.9392784,0.0 107.686224,-6.9395201,0.0 107.6870179,-6.9398122,0.0</coordinates>
            </LineString>
        </Placemark>
        <Placemark id="347">
            <name>Jalur Kereta Api Padalarang–Kasugihan</name>
            <styleUrl>#348</styleUrl>
            <LineString id="346">
                <coordinates>107.6870179,-6.9398122,0.0 107.6871117,-6.9398466,0.0</coordinates>
            </LineString>
        </Placemark>
        <Placemark id="351">
            <name>Jalur Kereta Api Padalarang–Kasugihan</name>
            <styleUrl>#352</styleUrl>
            <LineString id="350">
                <coordinates>107.6917282,-6.9415238,0.0 107.6918625,-6.9415729,0.0 107.6932062,-6.9420632,0.0 107.6946795,-6.942599,0.0</coordinates>
            </LineString>
        </Placemark>
        <Placemark id="355">
            <name>Jalur Kereta Api Padalarang–Kasugihan</name>
            <styleUrl>#356</styleUrl>
            <LineString id="354">
                <coordinates>107.7523274,-6.9635685,0.0 107.7524203,-6.9636037,0.0 107.7541145,-6.9642207,0.0 107.7542747,-6.9642818,0.0</coordinates>
            </LineString>
        </Placemark>
        <Placemark id="359">
            <name>Jalur Kereta Api Padalarang–Kasugihan</name>
            <styleUrl>#360</styleUrl>
            <LineString id="358">
                <coordinates>107.7572295,-6.9653554,0.0 107.7578181,-6.9655708,0.0</coordinates>
            </LineString>
        </Placemark>
        <Placemark id="363">
            <name>Route Segment</name>
            <styleUrl>#364</styleUrl>
            <LineString id="362">
                <coordinates>107.6031495,-6.9145291,0.0 107.6034618,-6.9145357,0.0 107.6035669,-6.9145375,0.0 107.6037729,-6.9145416,0.0 107.6040587,-6.914552,0.0</coordinates>
            </LineString>
        </Placemark>
        <Placemark id="367">
            <name>Route Segment</name>
            <styleUrl>#368</styleUrl>
            <LineString id="366">
                <coordinates>107.5999908,-6.9144094,0.0 107.600491,-6.9144273,0.0 107.600654,-6.914431,0.0 107.6008267,-6.9144278,0.0 107.6009919,-6.9144228,0.0 107.6010753,-6.9144227,0.0 107.6011442,-6.9144243,0.0 107.6012213,-6.914426,0.0 107.6013668,-6.9144348,0.0</coordinates>
            </LineString>
        </Placemark>
        <Placemark id="371">
            <name>Route Segment</name>
            <styleUrl>#372</styleUrl>
            <LineString id="370">
                <coordinates>107.6044728,-6.9145695,0.0 107.6040587,-6.914552,0.0</coordinates>
            </LineString>
        </Placemark>
        <Placemark id="375">
            <name>Jalur Kereta Api Padalarang–Kasugihan</name>
            <styleUrl>#376</styleUrl>
            <LineString id="374">
                <coordinates>107.7983338,-6.9802686,0.0 107.7998788,-6.9808307,0.0</coordinates>
            </LineString>
        </Placemark>
        <Placemark id="379">
            <name>Route Segment</name>
            <styleUrl>#380</styleUrl>
            <LineString id="378">
                <coordinates>107.6871117,-6.9398466,0.0 107.6875728,-6.9400415,0.0</coordinates>
            </LineString>
        </Placemark>
        <Placemark id="383">
            <name>Jalur Kereta Api Padalarang–Kasugihan</name>
            <styleUrl>#384</styleUrl>
            <LineString id="382">
                <coordinates>107.6401324,-6.922711,0.0 107.6415189,-6.9232285,0.0</coordinates>
            </LineString>
        </Placemark>
        <Placemark id="387">
            <name>Route Segment</name>
            <styleUrl>#388</styleUrl>
            <LineString id="386">
                <coordinates>107.6453531,-6.924662,0.0 107.6454626,-6.9247025,0.0 107.6456145,-6.9247603,0.0</coordinates>
            </LineString>
        </Placemark>
        <Placemark id="391">
            <name>Jalur Kereta Api Padalarang–Kasugihan</name>
            <styleUrl>#392</styleUrl>
            <LineString id="390">
                <coordinates>107.5309694,-6.8803054,0.0 107.5319118,-6.8811797,0.0 107.5323901,-6.8816257,0.0 107.5329719,-6.8822077,0.0 107.5338301,-6.8831781,0.0 107.5343527,-6.883808,0.0</coordinates>
            </LineString>
        </Placemark>
        <Placemark id="395">
            <name>Jalur Kereta Api Padalarang–Kasugihan</name>
            <styleUrl>#396</styleUrl>
            <LineString id="394">
                <coordinates>107.5309051,-6.8802468,0.0 107.5309694,-6.8803054,0.0</coordinates>
            </LineString>
        </Placemark>
        <Placemark id="399">
            <name>Route Segment</name>
            <styleUrl>#400</styleUrl>
            <LineString id="398">
                <coordinates>107.4978557,-6.8434759,0.0 107.4980525,-6.8436638,0.0 107.4981074,-6.8437105,0.0 107.4981713,-6.8437658,0.0 107.4982637,-6.8438335,0.0 107.49857,-6.8440717,0.0</coordinates>
            </LineString>
        </Placemark>
        <Placemark id="403">
            <name>Jalur Kereta Api Bandung–Ciroyom–Andir</name>
            <styleUrl>#404</styleUrl>
            <LineString id="402">
                <coordinates>107.5885135,-6.9136653,0.0 107.5888163,-6.9137734,0.0</coordinates>
            </LineString>
        </Placemark>
        <Placemark id="407">
            <name>Jalur Kereta Api Bandung–Ciroyom–Andir</name>
            <styleUrl>#408</styleUrl>
            <LineString id="406">
                <coordinates>107.5904338,-6.914036,0.0 107.5913646,-6.9140672,0.0 107.5919879,-6.9140632,0.0 107.592334,-6.9140571,0.0 107.5924575,-6.9140549,0.0</coordinates>
            </LineString>
        </Placemark>
        <Placemark id="411">
            <name>Jalur Kereta Api Padalarang–Kasugihan</name>
            <styleUrl>#412</styleUrl>
            <LineString id="410">
                <coordinates>107.5198189,-6.871769,0.0 107.521155,-6.8724175,0.0 107.5218705,-6.8727597,0.0 107.5226179,-6.8731149,0.0 107.5227015,-6.8731616,0.0 107.5231199,-6.8733769,0.0 107.523496,-6.8735996,0.0 107.5237684,-6.8737705,0.0 107.5240946,-6.8740027,0.0 107.5244885,-6.8743086,0.0 107.524795,-6.8745767,0.0 107.5255075,-6.8752189,0.0 107.5272625,-6.8768636,0.0 107.5281155,-6.8776494,0.0 107.5284595,-6.8779703,0.0 107.5303202,-6.8797001,0.0 107.5305737,-6.8799393,0.0 107.5307245,-6.8800807,0.0 107.5309051,-6.8802468,0.0</coordinates>
            </LineString>
        </Placemark>
        <Placemark id="415">
            <name>Jalur Kereta Api Padalarang–Kasugihan</name>
            <styleUrl>#416</styleUrl>
            <LineString id="414">
                <coordinates>107.5147634,-6.8637314,0.0 107.5150162,-6.8643048,0.0 107.5151339,-6.8645723,0.0 107.5154655,-6.8652964,0.0</coordinates>
            </LineString>
        </Placemark>
        <Placemark id="419">
            <name>Jalur Kereta Api Padalarang–Kasugihan</name>
            <styleUrl>#420</styleUrl>
            <LineString id="418">
                <coordinates>107.7129517,-6.9492508,0.0 107.7130908,-6.9492969,0.0 107.7133436,-6.9493904,0.0 107.7144747,-6.9498054,0.0 107.7173882,-6.9508658,0.0 107.7203623,-6.9519521,0.0 107.7212757,-6.9522946,0.0 107.7224792,-6.9527519,0.0</coordinates>
            </LineString>
        </Placemark>
        <Placemark id="423">
            <name>Jalur Kereta Api Padalarang–Kasugihan</name>
            <styleUrl>#424</styleUrl>
            <LineString id="422">
                <coordinates>107.7113835,-6.9486844,0.0 107.7121296,-6.9489644,0.0 107.7129517,-6.9492508,0.0</coordinates>
            </LineString>
        </Placemark>
        <Placemark id="427">
            <name>Route Segment</name>
            <styleUrl>#428</styleUrl>
            <LineString id="426">
                <coordinates>107.8317564,-6.9804762,0.0 107.831861,-6.9806373,0.0 107.8319213,-6.9807348,0.0 107.8319973,-6.98087,0.0 107.8321081,-6.9810404,0.0</coordinates>
            </LineString>
        </Placemark>
        <Placemark id="431">
            <name>Jalur Kereta Api Padalarang–Kasugihan</name>
            <styleUrl>#432</styleUrl>
            <LineString id="430">
                <coordinates>107.6514288,-6.9268369,0.0 107.6514919,-6.9268615,0.0 107.6518409,-6.9269981,0.0 107.6523142,-6.927156,0.0 107.6527939,-6.9273095,0.0 107.6532903,-6.92747,0.0 107.6538403,-6.9276665,0.0 107.6541338,-6.9277767,0.0</coordinates>
            </LineString>
        </Placemark>
        <Placemark id="435">
            <name>Jalur Kereta Api Padalarang–Kasugihan</name>
            <styleUrl>#436</styleUrl>
            <LineString id="434">
                <coordinates>107.6492885,-6.9260515,0.0 107.6493896,-6.9260901,0.0</coordinates>
            </LineString>
        </Placemark>
        <Placemark id="439">
            <name>Jalur Kereta Api Padalarang–Kasugihan</name>
            <styleUrl>#440</styleUrl>
            <LineString id="438">
                <coordinates>107.6542731,-6.9278295,0.0 107.6543556,-6.9278587,0.0 107.6553086,-6.9281959,0.0 107.6592265,-6.9296315,0.0</coordinates>
            </LineString>
        </Placemark>
        <Placemark id="443">
            <name>Jalur Kereta Api Padalarang–Kasugihan</name>
            <styleUrl>#444</styleUrl>
            <LineString id="442">
                <coordinates>107.6592265,-6.9296315,0.0 107.6592708,-6.9296479,0.0</coordinates>
            </LineString>
        </Placemark>
        <Placemark id="447">
            <name>Jalur Kereta Api Padalarang–Kasugihan</name>
            <styleUrl>#448</styleUrl>
            <LineString id="446">
                <coordinates>107.8315606,-6.980216,0.0 107.8317564,-6.9804762,0.0</coordinates>
            </LineString>
        </Placemark>
        <Placemark id="451">
            <name>Jalur Kereta Api Padalarang–Kasugihan</name>
            <styleUrl>#452</styleUrl>
            <LineString id="450">
                <coordinates>107.8312481,-6.9798592,0.0 107.8313747,-6.9800025,0.0 107.8315012,-6.9801457,0.0 107.8315606,-6.980216,0.0</coordinates>
            </LineString>
        </Placemark>
        <Placemark id="455">
            <name>Jalur Kereta Api Padalarang–Kasugihan</name>
            <styleUrl>#456</styleUrl>
            <LineString id="454">
                <coordinates>107.5154655,-6.8652964,0.0 107.5159877,-6.8664739,0.0 107.5164393,-6.8674762,0.0</coordinates>
            </LineString>
        </Placemark>
        <Placemark id="459">
            <name>Jalur Kereta Api Padalarang–Kasugihan</name>
            <styleUrl>#460</styleUrl>
            <LineString id="458">
                <coordinates>107.5164393,-6.8674762,0.0 107.5170846,-6.8690133,0.0 107.5173717,-6.8695625,0.0 107.5174346,-6.8696618,0.0 107.5177689,-6.8701798,0.0 107.5180247,-6.8704829,0.0 107.5183928,-6.8708523,0.0 107.5186847,-6.8710967,0.0 107.5190741,-6.8713667,0.0 107.5195176,-6.8716227,0.0 107.5198189,-6.871769,0.0</coordinates>
            </LineString>
        </Placemark>
        <Placemark id="463">
            <name>Jalur Kereta Api Padalarang–Kasugihan</name>
            <styleUrl>#464</styleUrl>
            <LineString id="462">
                <coordinates>107.6327508,-6.9204198,0.0 107.6332218,-6.9205353,0.0 107.6347449,-6.9209053,0.0 107.6351967,-6.9210237,0.0 107.6355575,-6.9211287,0.0 107.6362548,-6.9213294,0.0 107.6373139,-6.9216817,0.0 107.6387207,-6.9221955,0.0 107.6400168,-6.9226654,0.0</coordinates>
            </LineString>
        </Placemark>
        <Placemark id="467">
            <name>Jalur Kereta Api Padalarang–Kasugihan</name>
            <styleUrl>#468</styleUrl>
            <LineString id="466">
                <coordinates>107.7002687,-6.944655,0.0 107.7024219,-6.9454316,0.0 107.7038919,-6.9459618,0.0 107.703906,-6.9459669,0.0</coordinates>
            </LineString>
        </Placemark>
        <Placemark id="471">
            <name>Jalur Kereta Api Padalarang–Kasugihan</name>
            <styleUrl>#472</styleUrl>
            <LineString id="470">
                <coordinates>107.703906,-6.9459669,0.0 107.7039614,-6.9459868,0.0</coordinates>
            </LineString>
        </Placemark>
        <Placemark id="475">
            <name>Route Segment</name>
            <styleUrl>#476</styleUrl>
            <LineString id="474">
                <coordinates>107.602796,-6.9145079,0.0 107.6031495,-6.9145291,0.0</coordinates>
            </LineString>
        </Placemark>
        <Placemark id="479">
            <name>Route Segment</name>
            <styleUrl>#480</styleUrl>
            <LineString id="478">
                <coordinates>107.6013668,-6.9144348,0.0 107.6016923,-6.9144609,0.0</coordinates>
            </LineString>
        </Placemark>
        <Placemark id="483">
            <name>Jalur Kereta Api Bandung–Ciroyom–Andir</name>
            <styleUrl>#484</styleUrl>
            <LineString id="482">
                <coordinates>107.5888163,-6.9137734,0.0 107.5890696,-6.91388,0.0 107.5891795,-6.9139142,0.0 107.5892885,-6.9139415,0.0 107.589349,-6.9139591,0.0 107.589449,-6.9139787,0.0 107.5895619,-6.9139961,0.0 107.5896828,-6.9140108,0.0 107.5901456,-6.9140263,0.0</coordinates>
            </LineString>
        </Placemark>
        <Placemark id="487">
            <name>Jalur Kereta Api Bandung–Ciroyom–Andir</name>
            <styleUrl>#488</styleUrl>
            <LineString id="486">
                <coordinates>107.5901456,-6.9140263,0.0 107.5904338,-6.914036,0.0</coordinates>
            </LineString>
        </Placemark>
        <Placemark id="491">
            <name>Jalur Kereta Api Padalarang–Kasugihan</name>
            <styleUrl>#492</styleUrl>
            <LineString id="490">
                <coordinates>107.5343527,-6.883808,0.0 107.5348395,-6.8843847,0.0 107.5353954,-6.8850475,0.0 107.5358475,-6.8855643,0.0</coordinates>
            </LineString>
        </Placemark>
        <Placemark id="495">
            <name>Jalur Kereta Api Padalarang–Kasugihan</name>
            <styleUrl>#496</styleUrl>
            <LineString id="494">
                <coordinates>107.5358475,-6.8855643,0.0 107.5362647,-6.8860412,0.0</coordinates>
            </LineString>
        </Placemark>
    </Document>
</kml>
