<?xml version="1.0" encoding="UTF-8"?>
<kml xmlns="http://www.opengis.net/kml/2.2" xmlns:gx="http://www.google.com/kml/ext/2.2">
    <Document id="19776">
        <Style id="19782">
            <IconStyle id="19783">
                <colorMode>normal</colorMode>
                <scale>1</scale>
                <heading>0</heading>
                <Icon id="19784">
                    <href>http://maps.google.com/mapfiles/kml/pushpin/ylw-pushpin.png</href>
                </Icon>
            </IconStyle>
        </Style>
        <Style id="19787">
            <IconStyle id="19788">
                <colorMode>normal</colorMode>
                <scale>1</scale>
                <heading>0</heading>
                <Icon id="19789">
                    <href>http://maps.google.com/mapfiles/kml/pushpin/ylw-pushpin.png</href>
                </Icon>
            </IconStyle>
        </Style>
        <Style id="19792">
            <LineStyle id="19793">
                <color>ff912D66</color>
                <colorMode>normal</colorMode>
                <width>4</width>
            </LineStyle>
        </Style>
        <Style id="19796">
            <LineStyle id="19797">
                <color>ff912D66</color>
                <colorMode>normal</colorMode>
                <width>4</width>
            </LineStyle>
        </Style>
        <Style id="19800">
            <LineStyle id="19801">
                <color>ff912D66</color>
                <colorMode>normal</colorMode>
                <width>4</width>
            </LineStyle>
        </Style>
        <Style id="19804">
            <LineStyle id="19805">
                <color>ff912D66</color>
                <colorMode>normal</colorMode>
                <width>4</width>
            </LineStyle>
        </Style>
        <Style id="19808">
            <LineStyle id="19809">
                <color>ff912D66</color>
                <colorMode>normal</colorMode>
                <width>4</width>
            </LineStyle>
        </Style>
        <Style id="19812">
            <LineStyle id="19813">
                <color>ff912D66</color>
                <colorMode>normal</colorMode>
                <width>4</width>
            </LineStyle>
        </Style>
        <Style id="19816">
            <LineStyle id="19817">
                <color>ff912D66</color>
                <colorMode>normal</colorMode>
                <width>4</width>
            </LineStyle>
        </Style>
        <Style id="19820">
            <LineStyle id="19821">
                <color>ff912D66</color>
                <colorMode>normal</colorMode>
                <width>4</width>
            </LineStyle>
        </Style>
        <Style id="19824">
            <LineStyle id="19825">
                <color>ff912D66</color>
                <colorMode>normal</colorMode>
                <width>4</width>
            </LineStyle>
        </Style>
        <Style id="19828">
            <LineStyle id="19829">
                <color>ff912D66</color>
                <colorMode>normal</colorMode>
                <width>4</width>
            </LineStyle>
        </Style>
        <Style id="19832">
            <LineStyle id="19833">
                <color>ff912D66</color>
                <colorMode>normal</colorMode>
                <width>4</width>
            </LineStyle>
        </Style>
        <Style id="19836">
            <LineStyle id="19837">
                <color>ff912D66</color>
                <colorMode>normal</colorMode>
                <width>4</width>
            </LineStyle>
        </Style>
        <Style id="19840">
            <LineStyle id="19841">
                <color>ff912D66</color>
                <colorMode>normal</colorMode>
                <width>4</width>
            </LineStyle>
        </Style>
        <Style id="19844">
            <LineStyle id="19845">
                <color>ff912D66</color>
                <colorMode>normal</colorMode>
                <width>4</width>
            </LineStyle>
        </Style>
        <Style id="19848">
            <LineStyle id="19849">
                <color>ff912D66</color>
                <colorMode>normal</colorMode>
                <width>4</width>
            </LineStyle>
        </Style>
        <Style id="19852">
            <LineStyle id="19853">
                <color>ff912D66</color>
                <colorMode>normal</colorMode>
                <width>4</width>
            </LineStyle>
        </Style>
        <Style id="19856">
            <LineStyle id="19857">
                <color>ff912D66</color>
                <colorMode>normal</colorMode>
                <width>4</width>
            </LineStyle>
        </Style>
        <Style id="19860">
            <LineStyle id="19861">
                <color>ff912D66</color>
                <colorMode>normal</colorMode>
                <width>4</width>
            </LineStyle>
        </Style>
        <Style id="19864">
            <LineStyle id="19865">
                <color>ff912D66</color>
                <colorMode>normal</colorMode>
                <width>4</width>
            </LineStyle>
        </Style>
        <Style id="19868">
            <LineStyle id="19869">
                <color>ff912D66</color>
                <colorMode>normal</colorMode>
                <width>4</width>
            </LineStyle>
        </Style>
        <Style id="19872">
            <LineStyle id="19873">
                <color>ff912D66</color>
                <colorMode>normal</colorMode>
                <width>4</width>
            </LineStyle>
        </Style>
        <Style id="19876">
            <LineStyle id="19877">
                <color>ff912D66</color>
                <colorMode>normal</colorMode>
                <width>4</width>
            </LineStyle>
        </Style>
        <Style id="19880">
            <LineStyle id="19881">
                <color>ff912D66</color>
                <colorMode>normal</colorMode>
                <width>4</width>
            </LineStyle>
        </Style>
        <Style id="19884">
            <LineStyle id="19885">
                <color>ff912D66</color>
                <colorMode>normal</colorMode>
                <width>4</width>
            </LineStyle>
        </Style>
        <Style id="19888">
            <LineStyle id="19889">
                <color>ff912D66</color>
                <colorMode>normal</colorMode>
                <width>4</width>
            </LineStyle>
        </Style>
        <Style id="19892">
            <LineStyle id="19893">
                <color>ff912D66</color>
                <colorMode>normal</colorMode>
                <width>4</width>
            </LineStyle>
        </Style>
        <Style id="19896">
            <LineStyle id="19897">
                <color>ff912D66</color>
                <colorMode>normal</colorMode>
                <width>4</width>
            </LineStyle>
        </Style>
        <Style id="19900">
            <LineStyle id="19901">
                <color>ff912D66</color>
                <colorMode>normal</colorMode>
                <width>4</width>
            </LineStyle>
        </Style>
        <Style id="19904">
            <LineStyle id="19905">
                <color>ff912D66</color>
                <colorMode>normal</colorMode>
                <width>4</width>
            </LineStyle>
        </Style>
        <Style id="19908">
            <LineStyle id="19909">
                <color>ff912D66</color>
                <colorMode>normal</colorMode>
                <width>4</width>
            </LineStyle>
        </Style>
        <Style id="19912">
            <LineStyle id="19913">
                <color>ff912D66</color>
                <colorMode>normal</colorMode>
                <width>4</width>
            </LineStyle>
        </Style>
        <Style id="19916">
            <LineStyle id="19917">
                <color>ff912D66</color>
                <colorMode>normal</colorMode>
                <width>4</width>
            </LineStyle>
        </Style>
        <Style id="19920">
            <LineStyle id="19921">
                <color>ff912D66</color>
                <colorMode>normal</colorMode>
                <width>4</width>
            </LineStyle>
        </Style>
        <Style id="19924">
            <LineStyle id="19925">
                <color>ff912D66</color>
                <colorMode>normal</colorMode>
                <width>4</width>
            </LineStyle>
        </Style>
        <Style id="19928">
            <LineStyle id="19929">
                <color>ff912D66</color>
                <colorMode>normal</colorMode>
                <width>4</width>
            </LineStyle>
        </Style>
        <Style id="19932">
            <LineStyle id="19933">
                <color>ff912D66</color>
                <colorMode>normal</colorMode>
                <width>4</width>
            </LineStyle>
        </Style>
        <Style id="19936">
            <LineStyle id="19937">
                <color>ff912D66</color>
                <colorMode>normal</colorMode>
                <width>4</width>
            </LineStyle>
        </Style>
        <Style id="19940">
            <LineStyle id="19941">
                <color>ff912D66</color>
                <colorMode>normal</colorMode>
                <width>4</width>
            </LineStyle>
        </Style>
        <Style id="19944">
            <LineStyle id="19945">
                <color>ff912D66</color>
                <colorMode>normal</colorMode>
                <width>4</width>
            </LineStyle>
        </Style>
        <Style id="19948">
            <LineStyle id="19949">
                <color>ff912D66</color>
                <colorMode>normal</colorMode>
                <width>4</width>
            </LineStyle>
        </Style>
        <Style id="19952">
            <LineStyle id="19953">
                <color>ff912D66</color>
                <colorMode>normal</colorMode>
                <width>4</width>
            </LineStyle>
        </Style>
        <Style id="19956">
            <LineStyle id="19957">
                <color>ff912D66</color>
                <colorMode>normal</colorMode>
                <width>4</width>
            </LineStyle>
        </Style>
        <Style id="19960">
            <LineStyle id="19961">
                <color>ff912D66</color>
                <colorMode>normal</colorMode>
                <width>4</width>
            </LineStyle>
        </Style>
        <Style id="19964">
            <LineStyle id="19965">
                <color>ff912D66</color>
                <colorMode>normal</colorMode>
                <width>4</width>
            </LineStyle>
        </Style>
        <Style id="19968">
            <LineStyle id="19969">
                <color>ff912D66</color>
                <colorMode>normal</colorMode>
                <width>4</width>
            </LineStyle>
        </Style>
        <Style id="19972">
            <LineStyle id="19973">
                <color>ff912D66</color>
                <colorMode>normal</colorMode>
                <width>4</width>
            </LineStyle>
        </Style>
        <Style id="19976">
            <LineStyle id="19977">
                <color>ff912D66</color>
                <colorMode>normal</colorMode>
                <width>4</width>
            </LineStyle>
        </Style>
        <Style id="19980">
            <LineStyle id="19981">
                <color>ff912D66</color>
                <colorMode>normal</colorMode>
                <width>4</width>
            </LineStyle>
        </Style>
        <Style id="19984">
            <LineStyle id="19985">
                <color>ff912D66</color>
                <colorMode>normal</colorMode>
                <width>4</width>
            </LineStyle>
        </Style>
        <Style id="19988">
            <LineStyle id="19989">
                <color>ff912D66</color>
                <colorMode>normal</colorMode>
                <width>4</width>
            </LineStyle>
        </Style>
        <Style id="19992">
            <LineStyle id="19993">
                <color>ff912D66</color>
                <colorMode>normal</colorMode>
                <width>4</width>
            </LineStyle>
        </Style>
        <Style id="19996">
            <LineStyle id="19997">
                <color>ff912D66</color>
                <colorMode>normal</colorMode>
                <width>4</width>
            </LineStyle>
        </Style>
        <Style id="20000">
            <LineStyle id="20001">
                <color>ff912D66</color>
                <colorMode>normal</colorMode>
                <width>4</width>
            </LineStyle>
        </Style>
        <Style id="20004">
            <LineStyle id="20005">
                <color>ff912D66</color>
                <colorMode>normal</colorMode>
                <width>4</width>
            </LineStyle>
        </Style>
        <Style id="20008">
            <LineStyle id="20009">
                <color>ff912D66</color>
                <colorMode>normal</colorMode>
                <width>4</width>
            </LineStyle>
        </Style>
        <Style id="20012">
            <LineStyle id="20013">
                <color>ff912D66</color>
                <colorMode>normal</colorMode>
                <width>4</width>
            </LineStyle>
        </Style>
        <Style id="20016">
            <LineStyle id="20017">
                <color>ff912D66</color>
                <colorMode>normal</colorMode>
                <width>4</width>
            </LineStyle>
        </Style>
        <Style id="20020">
            <LineStyle id="20021">
                <color>ff912D66</color>
                <colorMode>normal</colorMode>
                <width>4</width>
            </LineStyle>
        </Style>
        <Style id="20024">
            <LineStyle id="20025">
                <color>ff912D66</color>
                <colorMode>normal</colorMode>
                <width>4</width>
            </LineStyle>
        </Style>
        <Style id="20028">
            <LineStyle id="20029">
                <color>ff912D66</color>
                <colorMode>normal</colorMode>
                <width>4</width>
            </LineStyle>
        </Style>
        <Style id="20032">
            <LineStyle id="20033">
                <color>ff912D66</color>
                <colorMode>normal</colorMode>
                <width>4</width>
            </LineStyle>
        </Style>
        <Style id="20036">
            <LineStyle id="20037">
                <color>ff912D66</color>
                <colorMode>normal</colorMode>
                <width>4</width>
            </LineStyle>
        </Style>
        <Style id="20040">
            <LineStyle id="20041">
                <color>ff912D66</color>
                <colorMode>normal</colorMode>
                <width>4</width>
            </LineStyle>
        </Style>
        <Style id="20044">
            <LineStyle id="20045">
                <color>ff912D66</color>
                <colorMode>normal</colorMode>
                <width>4</width>
            </LineStyle>
        </Style>
        <ExtendedData>
            <Data name="route-name">
                <value>Feeder 1: Stasiun Hall → Gunung Batu</value>
            </Data>
            <Data name="source">
                <value>Transport for Bandung</value>
            </Data>
        </ExtendedData>
        <Placemark id="19781">
            <name>Stasiun Hall</name>
            <styleUrl>#19782</styleUrl>
            <Point id="19780">
                <coordinates>107.6024325,-6.9161432,0.0</coordinates>
            </Point>
        </Placemark>
        <Placemark id="19786">
            <name>Gunung Batu</name>
            <styleUrl>#19787</styleUrl>
            <Point id="19785">
                <coordinates>107.5672467,-6.8875315,0.0</coordinates>
            </Point>
        </Placemark>
        <Placemark id="19791">
            <name>Jalan Pajajaran</name>
            <styleUrl>#19792</styleUrl>
            <LineString id="19790">
                <coordinates>107.6073865,-6.9076628,0.0 107.6073442,-6.9076324,0.0 107.6072754,-6.9075859,0.0 107.6071035,-6.9074752,0.0 107.6070242,-6.9074318,0.0 107.6068765,-6.907351,0.0 107.6066403,-6.907244,0.0 107.6065225,-6.9072053,0.0 107.6064209,-6.9071852,0.0 107.6062761,-6.9071663,0.0 107.6061572,-6.9071583,0.0 107.6058415,-6.9071486,0.0 107.6055894,-6.9071347,0.0</coordinates>
            </LineString>
        </Placemark>
        <Placemark id="19795">
            <name>Jalan Cihampelas</name>
            <styleUrl>#19796</styleUrl>
            <LineString id="19794">
                <coordinates>107.6044282,-6.9071102,0.0 107.6044133,-6.9065285,0.0 107.6044055,-6.9062288,0.0 107.6044014,-6.9058496,0.0 107.6043978,-6.9056926,0.0 107.6043877,-6.9049197,0.0 107.6043867,-6.9048271,0.0</coordinates>
            </LineString>
        </Placemark>
        <Placemark id="19799">
            <name>Jalan Doktor Louis Otten</name>
            <styleUrl>#19800</styleUrl>
            <LineString id="19798">
                <coordinates>107.5996034,-6.9021781,0.0 107.5995001,-6.9020788,0.0</coordinates>
            </LineString>
        </Placemark>
        <Placemark id="19803">
            <name>Jalan Perintis Kemerdekaan</name>
            <styleUrl>#19804</styleUrl>
            <LineString id="19802">
                <coordinates>107.6071931,-6.9145156,0.0 107.6072105,-6.9144549,0.0 107.6072378,-6.9143977,0.0 107.6072741,-6.9143458,0.0 107.6073185,-6.9143005,0.0</coordinates>
            </LineString>
        </Placemark>
        <Placemark id="19807">
            <name>Jalan Perintis Kemerdekaan</name>
            <styleUrl>#19808</styleUrl>
            <LineString id="19806">
                <coordinates>107.6075641,-6.9142136,0.0 107.6078626,-6.9140606,0.0 107.607935,-6.9140241,0.0 107.6079799,-6.9140014,0.0 107.6081711,-6.9139136,0.0 107.6082715,-6.9138902,0.0 107.6087543,-6.9138526,0.0 107.6088925,-6.9138457,0.0 107.6089516,-6.913844,0.0</coordinates>
            </LineString>
        </Placemark>
        <Placemark id="19811">
            <name>Jalan Stasiun Timur</name>
            <styleUrl>#19812</styleUrl>
            <LineString id="19810">
                <coordinates>107.6045889,-6.9148224,0.0 107.6045944,-6.9147921,0.0 107.6046031,-6.9147807,0.0 107.6046151,-6.914765,0.0 107.6046317,-6.9147543,0.0 107.6046427,-6.9147472,0.0 107.6046716,-6.9147379,0.0 107.6047205,-6.914736,0.0 107.6053917,-6.9148138,0.0 107.6063544,-6.9149336,0.0 107.6064066,-6.9149399,0.0</coordinates>
            </LineString>
        </Placemark>
        <Placemark id="19815">
            <name>Jalan Otto Iskandardinata</name>
            <styleUrl>#19816</styleUrl>
            <LineString id="19814">
                <coordinates>107.604546,-6.9153572,0.0 107.6045814,-6.9149387,0.0 107.6045889,-6.9148224,0.0</coordinates>
            </LineString>
        </Placemark>
        <Placemark id="19819">
            <name>Jalan Gunung Batu</name>
            <styleUrl>#19820</styleUrl>
            <LineString id="19818">
                <coordinates>107.5666744,-6.889252,0.0 107.566898,-6.8893002,0.0 107.5673426,-6.8893961,0.0 107.5674492,-6.8894061,0.0 107.5679818,-6.8894316,0.0 107.568348,-6.8894666,0.0 107.5686609,-6.8895118,0.0 107.5688326,-6.8895366,0.0 107.5695663,-6.8896411,0.0 107.5698608,-6.8896958,0.0 107.5698999,-6.889704,0.0 107.5710969,-6.889956,0.0 107.571799,-6.8901058,0.0 107.5718812,-6.8901307,0.0 107.5719509,-6.8901682,0.0 107.5720118,-6.890214,0.0 107.5720632,-6.8902745,0.0</coordinates>
            </LineString>
        </Placemark>
        <Placemark id="19823">
            <name>Jalan Sukaraja II</name>
            <styleUrl>#19824</styleUrl>
            <LineString id="19822">
                <coordinates>107.5726332,-6.8935801,0.0 107.5726514,-6.8936053,0.0 107.5726767,-6.8936228,0.0 107.5727163,-6.8936381,0.0 107.5733107,-6.8937105,0.0 107.5737486,-6.8937594,0.0 107.57427,-6.8938125,0.0 107.5743129,-6.8938131,0.0 107.5743531,-6.8938051,0.0 107.5743913,-6.8937881,0.0</coordinates>
            </LineString>
        </Placemark>
        <Placemark id="19827">
            <name>Jalan Dakota</name>
            <styleUrl>#19828</styleUrl>
            <LineString id="19826">
                <coordinates>107.5720632,-6.8902745,0.0 107.5721035,-6.8903481,0.0 107.5721384,-6.8904395,0.0 107.5721625,-6.8905452,0.0 107.5721993,-6.8907689,0.0 107.572217,-6.8908761,0.0 107.5722324,-6.8909698,0.0 107.5722426,-6.8910315,0.0 107.5722985,-6.8913707,0.0 107.5723059,-6.8914155,0.0 107.5723375,-6.8916076,0.0 107.5723693,-6.8918003,0.0 107.5723836,-6.8918872,0.0 107.572441,-6.8922359,0.0 107.5725513,-6.8929057,0.0 107.5725776,-6.8930836,0.0 107.5726156,-6.8935189,0.0 107.5726238,-6.8935635,0.0 107.5726332,-6.8935801,0.0</coordinates>
            </LineString>
        </Placemark>
        <Placemark id="19831">
            <name>Overpass Gunung Batu</name>
            <styleUrl>#19832</styleUrl>
            <LineString id="19830">
                <coordinates>107.5668171,-6.8885326,0.0 107.566899,-6.8882692,0.0 107.5672212,-6.8875923,0.0 107.5672467,-6.8875315,0.0</coordinates>
            </LineString>
        </Placemark>
        <Placemark id="19835">
            <name>Jalan Sukaraja</name>
            <styleUrl>#19836</styleUrl>
            <LineString id="19834">
                <coordinates>107.5807947,-6.892408,0.0 107.580577,-6.8923312,0.0 107.5804965,-6.8922996,0.0 107.5804139,-6.8922691,0.0 107.5802699,-6.8922159,0.0 107.5798198,-6.8919878,0.0 107.579514,-6.8918344,0.0 107.5794555,-6.8918038,0.0</coordinates>
            </LineString>
        </Placemark>
        <Placemark id="19839">
            <name>Jalan Pasteur</name>
            <styleUrl>#19840</styleUrl>
            <LineString id="19838">
                <coordinates>107.5982442,-6.9003802,0.0 107.597773,-6.9003861,0.0 107.5977337,-6.9003863,0.0</coordinates>
            </LineString>
        </Placemark>
        <Placemark id="19843">
            <name>Jalan Sukaraja</name>
            <styleUrl>#19844</styleUrl>
            <LineString id="19842">
                <coordinates>107.5815675,-6.8923486,0.0 107.5814236,-6.8923788,0.0 107.5811422,-6.8924317,0.0 107.5810196,-6.8924422,0.0 107.5809929,-6.8924408,0.0 107.5809344,-6.8924376,0.0 107.5808634,-6.8924264,0.0 107.5807947,-6.892408,0.0</coordinates>
            </LineString>
        </Placemark>
        <Placemark id="19847">
            <name>Jalan Pajajaran</name>
            <styleUrl>#19848</styleUrl>
            <LineString id="19846">
                <coordinates>107.6055894,-6.9071347,0.0 107.6053829,-6.907135,0.0</coordinates>
            </LineString>
        </Placemark>
        <Placemark id="19851">
            <name>Jalan Doktor Louis Otten</name>
            <styleUrl>#19852</styleUrl>
            <LineString id="19850">
                <coordinates>107.6009396,-6.9034374,0.0 107.6001443,-6.9026808,0.0 107.5996034,-6.9021781,0.0</coordinates>
            </LineString>
        </Placemark>
        <Placemark id="19855">
            <name>Jalan Doktor Louis Otten</name>
            <styleUrl>#19856</styleUrl>
            <LineString id="19854">
                <coordinates>107.5995001,-6.9020788,0.0 107.5993337,-6.9019138,0.0 107.5985614,-6.9011751,0.0</coordinates>
            </LineString>
        </Placemark>
        <Placemark id="19859">
            <name>Jalan Wastukancana</name>
            <styleUrl>#19860</styleUrl>
            <LineString id="19858">
                <coordinates>107.6088855,-6.9102984,0.0 107.6088445,-6.9102299,0.0 107.6087639,-6.910086,0.0 107.608484,-6.9095465,0.0 107.6083912,-6.9093671,0.0</coordinates>
            </LineString>
        </Placemark>
        <Placemark id="19863">
            <name>Jalan dr. Cipto</name>
            <styleUrl>#19864</styleUrl>
            <LineString id="19862">
                <coordinates>107.60248,-6.9044983,0.0 107.6024687,-6.9045461,0.0 107.6024526,-6.9045901,0.0 107.6024341,-6.9046263,0.0 107.6024097,-6.9046673,0.0 107.6023869,-6.9046979,0.0 107.6023547,-6.9047352,0.0 107.6023239,-6.9047618,0.0 107.6022877,-6.9047871,0.0 107.6022483,-6.904811,0.0 107.6022126,-6.9048244,0.0 107.6021723,-6.9048351,0.0 107.6021289,-6.9048417,0.0 107.6015193,-6.9048777,0.0</coordinates>
            </LineString>
        </Placemark>
        <Placemark id="19867">
            <name>Jalan Abdul Rivai</name>
            <styleUrl>#19868</styleUrl>
            <LineString id="19866">
                <coordinates>107.6042585,-6.9043799,0.0 107.6042031,-6.9043784,0.0 107.6041906,-6.9043785,0.0 107.6038123,-6.904381,0.0 107.6037017,-6.9043817,0.0 107.6032139,-6.9043917,0.0 107.60315,-6.9044117,0.0 107.603087,-6.9044423,0.0 107.6030408,-6.9044641,0.0 107.602977,-6.9044876,0.0 107.6029215,-6.9045028,0.0 107.6025713,-6.9045005,0.0</coordinates>
            </LineString>
        </Placemark>
        <Placemark id="19871">
            <name>Jalan Dokter Djunjunan</name>
            <styleUrl>#19872</styleUrl>
            <LineString id="19870">
                <coordinates>107.5974469,-6.9003919,0.0 107.5973654,-6.9003949,0.0</coordinates>
            </LineString>
        </Placemark>
        <Placemark id="19875">
            <name>Jalan Cihampelas</name>
            <styleUrl>#19876</styleUrl>
            <LineString id="19874">
                <coordinates>107.6043435,-6.9046277,0.0 107.6043346,-6.9045425,0.0 107.6043345,-6.9045219,0.0 107.6043315,-6.9044861,0.0 107.6043182,-6.9044457,0.0 107.6042946,-6.9044123,0.0 107.6042585,-6.9043799,0.0</coordinates>
            </LineString>
        </Placemark>
        <Placemark id="19879">
            <name>Jalan Wastukancana</name>
            <styleUrl>#19880</styleUrl>
            <LineString id="19878">
                <coordinates>107.6083912,-6.9093671,0.0 107.6082885,-6.9092058,0.0 107.6082341,-6.9091403,0.0 107.608135,-6.9090242,0.0</coordinates>
            </LineString>
        </Placemark>
        <Placemark id="19883">
            <name>Jalan Suniaraja</name>
            <styleUrl>#19884</styleUrl>
            <LineString id="19882">
                <coordinates>107.6027081,-6.91612,0.0 107.6031079,-6.9160834,0.0</coordinates>
            </LineString>
        </Placemark>
        <Placemark id="19887">
            <name>Jalan Suniaraja</name>
            <styleUrl>#19888</styleUrl>
            <LineString id="19886">
                <coordinates>107.6024325,-6.9161432,0.0 107.6025481,-6.9161309,0.0 107.6027081,-6.91612,0.0</coordinates>
            </LineString>
        </Placemark>
        <Placemark id="19891">
            <name>Jalan Wastukancana</name>
            <styleUrl>#19892</styleUrl>
            <LineString id="19890">
                <coordinates>107.608135,-6.9090242,0.0 107.6079856,-6.9088682,0.0 107.6079388,-6.9087953,0.0 107.6078779,-6.9086773,0.0 107.6078276,-6.9085634,0.0 107.6077911,-6.9084463,0.0 107.6076596,-6.9080052,0.0</coordinates>
            </LineString>
        </Placemark>
        <Placemark id="19895">
            <name>Jalan Wastukancana</name>
            <styleUrl>#19896</styleUrl>
            <LineString id="19894">
                <coordinates>107.6090309,-6.9137833,0.0 107.6090355,-6.9136767,0.0 107.609036,-6.9135295,0.0 107.6090452,-6.9130028,0.0 107.6090502,-6.9127472,0.0 107.6090523,-6.9126675,0.0 107.6090858,-6.9111585,0.0 107.6090891,-6.9110401,0.0 107.6090928,-6.9109499,0.0 107.6090952,-6.910906,0.0 107.6090943,-6.9108169,0.0 107.6090871,-6.9107051,0.0 107.6090715,-6.9106208,0.0 107.609044,-6.9105515,0.0</coordinates>
            </LineString>
        </Placemark>
        <Placemark id="19899">
            <name>Jalan Dr. Djunjunan</name>
            <styleUrl>#19900</styleUrl>
            <LineString id="19898">
                <coordinates>107.5821877,-6.8923919,0.0 107.5818656,-6.8923826,0.0 107.5815675,-6.8923486,0.0</coordinates>
            </LineString>
        </Placemark>
        <Placemark id="19903">
            <name>Jalan Dr. Djunjunan</name>
            <styleUrl>#19904</styleUrl>
            <LineString id="19902">
                <coordinates>107.5950699,-6.8998783,0.0 107.5949009,-6.8997558,0.0 107.5945616,-6.8994829,0.0 107.5939125,-6.8988957,0.0 107.5934941,-6.8984211,0.0</coordinates>
            </LineString>
        </Placemark>
        <Placemark id="19907">
            <name>Jalan Dr. Djunjunan</name>
            <styleUrl>#19908</styleUrl>
            <LineString id="19906">
                <coordinates>107.5869781,-6.8940142,0.0 107.5864173,-6.8935998,0.0 107.5860686,-6.8933302,0.0 107.5857839,-6.8931207,0.0 107.5857018,-6.8930746,0.0 107.5854991,-6.8929682,0.0 107.5851427,-6.8927794,0.0 107.5850582,-6.8927346,0.0 107.5848655,-6.8926456,0.0 107.5848207,-6.8926298,0.0 107.5847557,-6.892607,0.0 107.5841527,-6.8924323,0.0 107.5839628,-6.8923998,0.0 107.5838649,-6.8923865,0.0 107.5836986,-6.8923623,0.0 107.5835514,-6.8923503,0.0 107.583495,-6.8923452,0.0 107.5833959,-6.8923362,0.0 107.5832389,-6.8923414,0.0 107.5831514,-6.8923443,0.0 107.5821877,-6.8923919,0.0</coordinates>
            </LineString>
        </Placemark>
        <Placemark id="19911">
            <name>Overpass Gunung Batu</name>
            <styleUrl>#19912</styleUrl>
            <LineString id="19910">
                <coordinates>107.5668171,-6.8885326,0.0 107.5667162,-6.8890247,0.0</coordinates>
            </LineString>
        </Placemark>
        <Placemark id="19915">
            <name>Jalan Dr. Djunjunan</name>
            <styleUrl>#19916</styleUrl>
            <LineString id="19914">
                <coordinates>107.597049,-6.9003916,0.0 107.5969722,-6.9003922,0.0 107.5968191,-6.9003956,0.0 107.5966137,-6.9003922,0.0 107.5965015,-6.9003882,0.0 107.5963996,-6.9003802,0.0 107.5962775,-6.9003643,0.0 107.5961682,-6.900343,0.0 107.5959959,-6.9003077,0.0 107.5958759,-6.9002711,0.0 107.5957927,-6.9002444,0.0 107.5956452,-6.9001825,0.0 107.5955089,-6.9001209,0.0</coordinates>
            </LineString>
        </Placemark>
        <Placemark id="19919">
            <name>Jalan Perintis Kemerdekaan</name>
            <styleUrl>#19920</styleUrl>
            <LineString id="19918">
                <coordinates>107.6070945,-6.9151362,0.0 107.6071194,-6.9149776,0.0 107.6071865,-6.9145473,0.0 107.6071931,-6.9145156,0.0</coordinates>
            </LineString>
        </Placemark>
        <Placemark id="19923">
            <name>Jalan Perintis Kemerdekaan</name>
            <styleUrl>#19924</styleUrl>
            <LineString id="19922">
                <coordinates>107.6089516,-6.913844,0.0 107.6089581,-6.9138231,0.0 107.6089707,-6.9138051,0.0 107.6089882,-6.9137917,0.0 107.6090089,-6.9137842,0.0 107.6090309,-6.9137833,0.0</coordinates>
            </LineString>
        </Placemark>
        <Placemark id="19927">
            <name>Jalan Dokter Gunawan Mangunkusumo</name>
            <styleUrl>#19928</styleUrl>
            <LineString id="19926">
                <coordinates>107.601339,-6.9048875,0.0 107.6014033,-6.9046523,0.0</coordinates>
            </LineString>
        </Placemark>
        <Placemark id="19931">
            <name>Jalan Cihampelas</name>
            <styleUrl>#19932</styleUrl>
            <LineString id="19930">
                <coordinates>107.6043867,-6.9048271,0.0 107.6043543,-6.9047176,0.0 107.6043435,-6.9046277,0.0</coordinates>
            </LineString>
        </Placemark>
        <Placemark id="19935">
            <name>Jalan Doktor Louis Otten</name>
            <styleUrl>#19936</styleUrl>
            <LineString id="19934">
                <coordinates>107.5984038,-6.9012736,0.0 107.5983341,-6.9012523,0.0 107.5982872,-6.901223,0.0 107.5982577,-6.9011817,0.0 107.5982483,-6.9011405,0.0 107.5982442,-6.9010593,0.0 107.5982442,-6.9010192,0.0 107.5982442,-6.9003802,0.0</coordinates>
            </LineString>
        </Placemark>
        <Placemark id="19939">
            <name>Jalan Abdul Rivai</name>
            <styleUrl>#19940</styleUrl>
            <LineString id="19938">
                <coordinates>107.6025713,-6.9045005,0.0 107.60248,-6.9044983,0.0</coordinates>
            </LineString>
        </Placemark>
        <Placemark id="19943">
            <name>Jalan Pajajaran</name>
            <styleUrl>#19944</styleUrl>
            <LineString id="19942">
                <coordinates>107.6076596,-6.9080052,0.0 107.607602,-6.9079117,0.0 107.607563,-6.9078579,0.0 107.607537,-6.907823,0.0 107.607465,-6.9077399,0.0 107.6073865,-6.9076628,0.0</coordinates>
            </LineString>
        </Placemark>
        <Placemark id="19947">
            <name>Jalan Pajajaran</name>
            <styleUrl>#19948</styleUrl>
            <LineString id="19946">
                <coordinates>107.6053829,-6.907135,0.0 107.6051824,-6.9071438,0.0 107.6051387,-6.9071446,0.0 107.6045501,-6.9071569,0.0 107.6045,-6.907158,0.0</coordinates>
            </LineString>
        </Placemark>
        <Placemark id="19951">
            <name>Jalan Dr. Djunjunan</name>
            <styleUrl>#19952</styleUrl>
            <LineString id="19950">
                <coordinates>107.5934941,-6.8984211,0.0 107.5929268,-6.8978439,0.0 107.5926734,-6.8976459,0.0 107.5925774,-6.8975709,0.0 107.5920152,-6.8972045,0.0 107.591886,-6.8971203,0.0 107.5916961,-6.8969965,0.0 107.5916527,-6.8969682,0.0 107.5915649,-6.896921,0.0 107.591225,-6.8967383,0.0 107.5911398,-6.8966997,0.0 107.5904922,-6.8963655,0.0 107.5901004,-6.8961571,0.0 107.5897867,-6.8959903,0.0 107.5897258,-6.8959579,0.0 107.5896528,-6.8959191,0.0 107.5895814,-6.8958811,0.0 107.5895125,-6.8958402,0.0 107.5892547,-6.895687,0.0 107.5890518,-6.8955414,0.0 107.5888168,-6.8953631,0.0 107.5885832,-6.8951858,0.0 107.5884432,-6.8950796,0.0 107.5883032,-6.8949733,0.0 107.5881246,-6.8948389,0.0 107.5880418,-6.8947766,0.0 107.5875441,-6.894402,0.0 107.5874323,-6.8943293,0.0 107.5873031,-6.8942412,0.0 107.5871531,-6.8941345,0.0 107.5869781,-6.8940142,0.0</coordinates>
            </LineString>
        </Placemark>
        <Placemark id="19955">
            <name>Jalan Sukaraja</name>
            <styleUrl>#19956</styleUrl>
            <LineString id="19954">
                <coordinates>107.5763426,-6.8911426,0.0 107.576486,-6.8911581,0.0</coordinates>
            </LineString>
        </Placemark>
        <Placemark id="19959">
            <name>Jalan Sukaraja</name>
            <styleUrl>#19960</styleUrl>
            <LineString id="19958">
                <coordinates>107.5761887,-6.89111,0.0 107.5763426,-6.8911426,0.0</coordinates>
            </LineString>
        </Placemark>
        <Placemark id="19963">
            <name>Overpass Gunung Batu</name>
            <styleUrl>#19964</styleUrl>
            <LineString id="19962">
                <coordinates>107.5667162,-6.8890247,0.0 107.5666744,-6.889252,0.0</coordinates>
            </LineString>
        </Placemark>
        <Placemark id="19967">
            <name>Jalan Pajajaran</name>
            <styleUrl>#19968</styleUrl>
            <LineString id="19966">
                <coordinates>107.6045,-6.907158,0.0 107.6044924,-6.907135,0.0 107.6044754,-6.9071175,0.0 107.6044526,-6.9071087,0.0 107.6044282,-6.9071102,0.0</coordinates>
            </LineString>
        </Placemark>
        <Placemark id="19971">
            <name>Jalan Stasiun Timur</name>
            <styleUrl>#19972</styleUrl>
            <LineString id="19970">
                <coordinates>107.606909,-6.9153005,0.0 107.6070035,-6.9152646,0.0 107.6070659,-6.9152151,0.0 107.6070945,-6.9151362,0.0</coordinates>
            </LineString>
        </Placemark>
        <Placemark id="19975">
            <name>Jalan Pasteur</name>
            <styleUrl>#19976</styleUrl>
            <LineString id="19974">
                <coordinates>107.5977337,-6.9003863,0.0 107.5974469,-6.9003919,0.0</coordinates>
            </LineString>
        </Placemark>
        <Placemark id="19979">
            <name>Jalan Wastukancana</name>
            <styleUrl>#19980</styleUrl>
            <LineString id="19978">
                <coordinates>107.609044,-6.9105515,0.0 107.6088855,-6.9102984,0.0</coordinates>
            </LineString>
        </Placemark>
        <Placemark id="19983">
            <name>Jalan Suniaraja</name>
            <styleUrl>#19984</styleUrl>
            <LineString id="19982">
                <coordinates>107.6031079,-6.9160834,0.0 107.60326,-6.9160638,0.0 107.6040403,-6.915928,0.0 107.6043695,-6.9158689,0.0 107.6045054,-6.9158364,0.0</coordinates>
            </LineString>
        </Placemark>
        <Placemark id="19987">
            <name>Jalan Otto Iskandardinata</name>
            <styleUrl>#19988</styleUrl>
            <LineString id="19986">
                <coordinates>107.6045054,-6.9158364,0.0 107.6045124,-6.9157548,0.0 107.6045273,-6.915589,0.0 107.604546,-6.9153572,0.0</coordinates>
            </LineString>
        </Placemark>
        <Placemark id="19991">
            <name>Jalan Dr. Djunjunan</name>
            <styleUrl>#19992</styleUrl>
            <LineString id="19990">
                <coordinates>107.5973654,-6.9003949,0.0 107.597049,-6.9003916,0.0</coordinates>
            </LineString>
        </Placemark>
        <Placemark id="19995">
            <name>Jalan Sukaraja II</name>
            <styleUrl>#19996</styleUrl>
            <LineString id="19994">
                <coordinates>107.5743913,-6.8937881,0.0 107.5744352,-6.8937597,0.0 107.5745582,-6.8936245,0.0 107.5748149,-6.8931333,0.0 107.5750083,-6.8926448,0.0 107.5751116,-6.8923726,0.0 107.5751806,-6.8922407,0.0 107.5753845,-6.8919678,0.0 107.5754545,-6.8918515,0.0 107.5754894,-6.891774,0.0 107.5755267,-6.8914682,0.0 107.5755656,-6.8913711,0.0 107.5756474,-6.8913072,0.0 107.5759728,-6.8911239,0.0 107.5760447,-6.8911007,0.0 107.5760771,-6.8910903,0.0 107.5761887,-6.89111,0.0</coordinates>
            </LineString>
        </Placemark>
        <Placemark id="19999">
            <name>Jalan Stasiun Timur</name>
            <styleUrl>#20000</styleUrl>
            <LineString id="19998">
                <coordinates>107.6064066,-6.9149399,0.0 107.6065239,-6.9149519,0.0 107.6066003,-6.9149924,0.0 107.6066521,-6.9150384,0.0 107.6067855,-6.9152656,0.0 107.6068306,-6.9152963,0.0 107.606909,-6.9153005,0.0</coordinates>
            </LineString>
        </Placemark>
        <Placemark id="20003">
            <name>Jalan Dr. Djunjunan</name>
            <styleUrl>#20004</styleUrl>
            <LineString id="20002">
                <coordinates>107.5955089,-6.9001209,0.0 107.5953998,-6.9000642,0.0 107.5952214,-6.8999715,0.0 107.5950699,-6.8998783,0.0</coordinates>
            </LineString>
        </Placemark>
        <Placemark id="20007">
            <name>Jalan Doktor Louis Otten</name>
            <styleUrl>#20008</styleUrl>
            <LineString id="20006">
                <coordinates>107.5985614,-6.9011751,0.0 107.5985393,-6.901217,0.0 107.5985051,-6.9012463,0.0 107.5984582,-6.9012676,0.0 107.5984038,-6.9012736,0.0</coordinates>
            </LineString>
        </Placemark>
        <Placemark id="20011">
            <name>Jalan Doktor Louis Otten</name>
            <styleUrl>#20012</styleUrl>
            <LineString id="20010">
                <coordinates>107.6009997,-6.9036058,0.0 107.6009396,-6.9034374,0.0</coordinates>
            </LineString>
        </Placemark>
        <Placemark id="20015">
            <name>Bundaran Rajiman</name>
            <styleUrl>#20016</styleUrl>
            <LineString id="20014">
                <coordinates>107.6013604,-6.9040126,0.0 107.6012393,-6.9040444,0.0 107.6012028,-6.9040455,0.0 107.6011664,-6.9040417,0.0 107.6011308,-6.9040332,0.0 107.6010968,-6.90402,0.0 107.6010648,-6.9040024,0.0 107.6010355,-6.9039806,0.0 107.6010094,-6.9039552,0.0 107.6009847,-6.9039233,0.0 107.600965,-6.9038881,0.0 107.6009509,-6.9038503,0.0</coordinates>
            </LineString>
        </Placemark>
        <Placemark id="20019">
            <name>Bundaran Rajiman</name>
            <styleUrl>#20020</styleUrl>
            <LineString id="20018">
                <coordinates>107.6009509,-6.9038503,0.0 107.6009421,-6.9038081,0.0 107.6009402,-6.903765,0.0 107.6009453,-6.9037222,0.0 107.6009571,-6.9036807,0.0 107.6009754,-6.9036416,0.0 107.6009997,-6.9036058,0.0</coordinates>
            </LineString>
        </Placemark>
        <Placemark id="20023">
            <name>Jalan Perintis Kemerdekaan</name>
            <styleUrl>#20024</styleUrl>
            <LineString id="20022">
                <coordinates>107.6073185,-6.9143005,0.0 107.6073396,-6.9142915,0.0 107.6073918,-6.9142744,0.0 107.607494,-6.9142383,0.0 107.6075641,-6.9142136,0.0</coordinates>
            </LineString>
        </Placemark>
        <Placemark id="20027">
            <name>Jalan Sukaraja</name>
            <styleUrl>#20028</styleUrl>
            <LineString id="20026">
                <coordinates>107.5794007,-6.8917752,0.0 107.5790567,-6.8916313,0.0 107.5786575,-6.8914927,0.0 107.5785226,-6.8914458,0.0 107.5779404,-6.8913106,0.0 107.5772675,-6.8911676,0.0 107.5770756,-6.8911417,0.0 107.5768762,-6.8911396,0.0 107.5766618,-6.891156,0.0 107.576486,-6.8911581,0.0</coordinates>
            </LineString>
        </Placemark>
        <Placemark id="20031">
            <name>Jalan Sukaraja</name>
            <styleUrl>#20032</styleUrl>
            <LineString id="20030">
                <coordinates>107.5794555,-6.8918038,0.0 107.5794007,-6.8917752,0.0</coordinates>
            </LineString>
        </Placemark>
        <Placemark id="20035">
            <name>Jalan dr. Cipto</name>
            <styleUrl>#20036</styleUrl>
            <LineString id="20034">
                <coordinates>107.6015193,-6.9048777,0.0 107.601339,-6.9048875,0.0</coordinates>
            </LineString>
        </Placemark>
        <Placemark id="20039">
            <name>Jalan Dokter Gunawan Mangunkusumo</name>
            <styleUrl>#20040</styleUrl>
            <LineString id="20038">
                <coordinates>107.6014033,-6.9046523,0.0 107.6014361,-6.9042205,0.0</coordinates>
            </LineString>
        </Placemark>
        <Placemark id="20043">
            <name>Jalan Dokter Gunawan Mangunkusumo</name>
            <styleUrl>#20044</styleUrl>
            <LineString id="20042">
                <coordinates>107.6014361,-6.9042205,0.0 107.6013604,-6.9040126,0.0</coordinates>
            </LineString>
        </Placemark>
    </Document>
</kml>
