<?xml version="1.0" encoding="UTF-8"?>
<kml xmlns="http://www.opengis.net/kml/2.2" xmlns:gx="http://www.google.com/kml/ext/2.2">
    <Document id="20382">
        <Style id="20388">
            <IconStyle id="20389">
                <colorMode>normal</colorMode>
                <scale>1</scale>
                <heading>0</heading>
                <Icon id="20390">
                    <href>http://maps.google.com/mapfiles/kml/pushpin/ylw-pushpin.png</href>
                </Icon>
            </IconStyle>
        </Style>
        <Style id="20393">
            <IconStyle id="20394">
                <colorMode>normal</colorMode>
                <scale>1</scale>
                <heading>0</heading>
                <Icon id="20395">
                    <href>http://maps.google.com/mapfiles/kml/pushpin/ylw-pushpin.png</href>
                </Icon>
            </IconStyle>
        </Style>
        <Style id="20398">
            <LineStyle id="20399">
                <color>ffCC9934</color>
                <colorMode>normal</colorMode>
                <width>4</width>
            </LineStyle>
        </Style>
        <Style id="20402">
            <LineStyle id="20403">
                <color>ffCC9934</color>
                <colorMode>normal</colorMode>
                <width>4</width>
            </LineStyle>
        </Style>
        <Style id="20406">
            <LineStyle id="20407">
                <color>ffCC9934</color>
                <colorMode>normal</colorMode>
                <width>4</width>
            </LineStyle>
        </Style>
        <Style id="20410">
            <LineStyle id="20411">
                <color>ffCC9934</color>
                <colorMode>normal</colorMode>
                <width>4</width>
            </LineStyle>
        </Style>
        <Style id="20414">
            <LineStyle id="20415">
                <color>ffCC9934</color>
                <colorMode>normal</colorMode>
                <width>4</width>
            </LineStyle>
        </Style>
        <Style id="20418">
            <LineStyle id="20419">
                <color>ffCC9934</color>
                <colorMode>normal</colorMode>
                <width>4</width>
            </LineStyle>
        </Style>
        <Style id="20422">
            <LineStyle id="20423">
                <color>ffCC9934</color>
                <colorMode>normal</colorMode>
                <width>4</width>
            </LineStyle>
        </Style>
        <Style id="20426">
            <LineStyle id="20427">
                <color>ffCC9934</color>
                <colorMode>normal</colorMode>
                <width>4</width>
            </LineStyle>
        </Style>
        <Style id="20430">
            <LineStyle id="20431">
                <color>ffCC9934</color>
                <colorMode>normal</colorMode>
                <width>4</width>
            </LineStyle>
        </Style>
        <Style id="20434">
            <LineStyle id="20435">
                <color>ffCC9934</color>
                <colorMode>normal</colorMode>
                <width>4</width>
            </LineStyle>
        </Style>
        <Style id="20438">
            <LineStyle id="20439">
                <color>ffCC9934</color>
                <colorMode>normal</colorMode>
                <width>4</width>
            </LineStyle>
        </Style>
        <Style id="20442">
            <LineStyle id="20443">
                <color>ffCC9934</color>
                <colorMode>normal</colorMode>
                <width>4</width>
            </LineStyle>
        </Style>
        <Style id="20446">
            <LineStyle id="20447">
                <color>ffCC9934</color>
                <colorMode>normal</colorMode>
                <width>4</width>
            </LineStyle>
        </Style>
        <Style id="20450">
            <LineStyle id="20451">
                <color>ffCC9934</color>
                <colorMode>normal</colorMode>
                <width>4</width>
            </LineStyle>
        </Style>
        <Style id="20454">
            <LineStyle id="20455">
                <color>ffCC9934</color>
                <colorMode>normal</colorMode>
                <width>4</width>
            </LineStyle>
        </Style>
        <Style id="20458">
            <LineStyle id="20459">
                <color>ffCC9934</color>
                <colorMode>normal</colorMode>
                <width>4</width>
            </LineStyle>
        </Style>
        <Style id="20462">
            <LineStyle id="20463">
                <color>ffCC9934</color>
                <colorMode>normal</colorMode>
                <width>4</width>
            </LineStyle>
        </Style>
        <Style id="20466">
            <LineStyle id="20467">
                <color>ffCC9934</color>
                <colorMode>normal</colorMode>
                <width>4</width>
            </LineStyle>
        </Style>
        <Style id="20470">
            <LineStyle id="20471">
                <color>ffCC9934</color>
                <colorMode>normal</colorMode>
                <width>4</width>
            </LineStyle>
        </Style>
        <Style id="20474">
            <LineStyle id="20475">
                <color>ffCC9934</color>
                <colorMode>normal</colorMode>
                <width>4</width>
            </LineStyle>
        </Style>
        <Style id="20478">
            <LineStyle id="20479">
                <color>ffCC9934</color>
                <colorMode>normal</colorMode>
                <width>4</width>
            </LineStyle>
        </Style>
        <Style id="20482">
            <LineStyle id="20483">
                <color>ffCC9934</color>
                <colorMode>normal</colorMode>
                <width>4</width>
            </LineStyle>
        </Style>
        <Style id="20486">
            <LineStyle id="20487">
                <color>ffCC9934</color>
                <colorMode>normal</colorMode>
                <width>4</width>
            </LineStyle>
        </Style>
        <Style id="20490">
            <LineStyle id="20491">
                <color>ffCC9934</color>
                <colorMode>normal</colorMode>
                <width>4</width>
            </LineStyle>
        </Style>
        <Style id="20494">
            <LineStyle id="20495">
                <color>ffCC9934</color>
                <colorMode>normal</colorMode>
                <width>4</width>
            </LineStyle>
        </Style>
        <Style id="20498">
            <LineStyle id="20499">
                <color>ffCC9934</color>
                <colorMode>normal</colorMode>
                <width>4</width>
            </LineStyle>
        </Style>
        <Style id="20502">
            <LineStyle id="20503">
                <color>ffCC9934</color>
                <colorMode>normal</colorMode>
                <width>4</width>
            </LineStyle>
        </Style>
        <Style id="20506">
            <LineStyle id="20507">
                <color>ffCC9934</color>
                <colorMode>normal</colorMode>
                <width>4</width>
            </LineStyle>
        </Style>
        <Style id="20510">
            <LineStyle id="20511">
                <color>ffCC9934</color>
                <colorMode>normal</colorMode>
                <width>4</width>
            </LineStyle>
        </Style>
        <Style id="20514">
            <LineStyle id="20515">
                <color>ffCC9934</color>
                <colorMode>normal</colorMode>
                <width>4</width>
            </LineStyle>
        </Style>
        <Style id="20518">
            <LineStyle id="20519">
                <color>ffCC9934</color>
                <colorMode>normal</colorMode>
                <width>4</width>
            </LineStyle>
        </Style>
        <Style id="20522">
            <LineStyle id="20523">
                <color>ffCC9934</color>
                <colorMode>normal</colorMode>
                <width>4</width>
            </LineStyle>
        </Style>
        <Style id="20526">
            <LineStyle id="20527">
                <color>ffCC9934</color>
                <colorMode>normal</colorMode>
                <width>4</width>
            </LineStyle>
        </Style>
        <Style id="20530">
            <LineStyle id="20531">
                <color>ffCC9934</color>
                <colorMode>normal</colorMode>
                <width>4</width>
            </LineStyle>
        </Style>
        <Style id="20534">
            <LineStyle id="20535">
                <color>ffCC9934</color>
                <colorMode>normal</colorMode>
                <width>4</width>
            </LineStyle>
        </Style>
        <Style id="20538">
            <LineStyle id="20539">
                <color>ffCC9934</color>
                <colorMode>normal</colorMode>
                <width>4</width>
            </LineStyle>
        </Style>
        <Style id="20542">
            <LineStyle id="20543">
                <color>ffCC9934</color>
                <colorMode>normal</colorMode>
                <width>4</width>
            </LineStyle>
        </Style>
        <Style id="20546">
            <LineStyle id="20547">
                <color>ffCC9934</color>
                <colorMode>normal</colorMode>
                <width>4</width>
            </LineStyle>
        </Style>
        <Style id="20550">
            <LineStyle id="20551">
                <color>ffCC9934</color>
                <colorMode>normal</colorMode>
                <width>4</width>
            </LineStyle>
        </Style>
        <Style id="20554">
            <LineStyle id="20555">
                <color>ffCC9934</color>
                <colorMode>normal</colorMode>
                <width>4</width>
            </LineStyle>
        </Style>
        <Style id="20558">
            <LineStyle id="20559">
                <color>ffCC9934</color>
                <colorMode>normal</colorMode>
                <width>4</width>
            </LineStyle>
        </Style>
        <Style id="20562">
            <LineStyle id="20563">
                <color>ffCC9934</color>
                <colorMode>normal</colorMode>
                <width>4</width>
            </LineStyle>
        </Style>
        <Style id="20566">
            <LineStyle id="20567">
                <color>ffCC9934</color>
                <colorMode>normal</colorMode>
                <width>4</width>
            </LineStyle>
        </Style>
        <Style id="20570">
            <LineStyle id="20571">
                <color>ffCC9934</color>
                <colorMode>normal</colorMode>
                <width>4</width>
            </LineStyle>
        </Style>
        <Style id="20574">
            <LineStyle id="20575">
                <color>ffCC9934</color>
                <colorMode>normal</colorMode>
                <width>4</width>
            </LineStyle>
        </Style>
        <Style id="20578">
            <LineStyle id="20579">
                <color>ffCC9934</color>
                <colorMode>normal</colorMode>
                <width>4</width>
            </LineStyle>
        </Style>
        <Style id="20582">
            <LineStyle id="20583">
                <color>ffCC9934</color>
                <colorMode>normal</colorMode>
                <width>4</width>
            </LineStyle>
        </Style>
        <Style id="20586">
            <LineStyle id="20587">
                <color>ffCC9934</color>
                <colorMode>normal</colorMode>
                <width>4</width>
            </LineStyle>
        </Style>
        <Style id="20590">
            <LineStyle id="20591">
                <color>ffCC9934</color>
                <colorMode>normal</colorMode>
                <width>4</width>
            </LineStyle>
        </Style>
        <Style id="20594">
            <LineStyle id="20595">
                <color>ffCC9934</color>
                <colorMode>normal</colorMode>
                <width>4</width>
            </LineStyle>
        </Style>
        <Style id="20598">
            <LineStyle id="20599">
                <color>ffCC9934</color>
                <colorMode>normal</colorMode>
                <width>4</width>
            </LineStyle>
        </Style>
        <Style id="20602">
            <LineStyle id="20603">
                <color>ffCC9934</color>
                <colorMode>normal</colorMode>
                <width>4</width>
            </LineStyle>
        </Style>
        <Style id="20606">
            <LineStyle id="20607">
                <color>ffCC9934</color>
                <colorMode>normal</colorMode>
                <width>4</width>
            </LineStyle>
        </Style>
        <Style id="20610">
            <LineStyle id="20611">
                <color>ffCC9934</color>
                <colorMode>normal</colorMode>
                <width>4</width>
            </LineStyle>
        </Style>
        <Style id="20614">
            <LineStyle id="20615">
                <color>ffCC9934</color>
                <colorMode>normal</colorMode>
                <width>4</width>
            </LineStyle>
        </Style>
        <Style id="20618">
            <LineStyle id="20619">
                <color>ffCC9934</color>
                <colorMode>normal</colorMode>
                <width>4</width>
            </LineStyle>
        </Style>
        <Style id="20622">
            <LineStyle id="20623">
                <color>ffCC9934</color>
                <colorMode>normal</colorMode>
                <width>4</width>
            </LineStyle>
        </Style>
        <Style id="20626">
            <LineStyle id="20627">
                <color>ffCC9934</color>
                <colorMode>normal</colorMode>
                <width>4</width>
            </LineStyle>
        </Style>
        <Style id="20630">
            <LineStyle id="20631">
                <color>ffCC9934</color>
                <colorMode>normal</colorMode>
                <width>4</width>
            </LineStyle>
        </Style>
        <Style id="20634">
            <LineStyle id="20635">
                <color>ffCC9934</color>
                <colorMode>normal</colorMode>
                <width>4</width>
            </LineStyle>
        </Style>
        <Style id="20638">
            <LineStyle id="20639">
                <color>ffCC9934</color>
                <colorMode>normal</colorMode>
                <width>4</width>
            </LineStyle>
        </Style>
        <Style id="20642">
            <LineStyle id="20643">
                <color>ffCC9934</color>
                <colorMode>normal</colorMode>
                <width>4</width>
            </LineStyle>
        </Style>
        <Style id="20646">
            <LineStyle id="20647">
                <color>ffCC9934</color>
                <colorMode>normal</colorMode>
                <width>4</width>
            </LineStyle>
        </Style>
        <Style id="20650">
            <LineStyle id="20651">
                <color>ffCC9934</color>
                <colorMode>normal</colorMode>
                <width>4</width>
            </LineStyle>
        </Style>
        <Style id="20654">
            <LineStyle id="20655">
                <color>ffCC9934</color>
                <colorMode>normal</colorMode>
                <width>4</width>
            </LineStyle>
        </Style>
        <Style id="20658">
            <LineStyle id="20659">
                <color>ffCC9934</color>
                <colorMode>normal</colorMode>
                <width>4</width>
            </LineStyle>
        </Style>
        <Style id="20662">
            <LineStyle id="20663">
                <color>ffCC9934</color>
                <colorMode>normal</colorMode>
                <width>4</width>
            </LineStyle>
        </Style>
        <Style id="20666">
            <LineStyle id="20667">
                <color>ffCC9934</color>
                <colorMode>normal</colorMode>
                <width>4</width>
            </LineStyle>
        </Style>
        <Style id="20670">
            <LineStyle id="20671">
                <color>ffCC9934</color>
                <colorMode>normal</colorMode>
                <width>4</width>
            </LineStyle>
        </Style>
        <Style id="20674">
            <LineStyle id="20675">
                <color>ffCC9934</color>
                <colorMode>normal</colorMode>
                <width>4</width>
            </LineStyle>
        </Style>
        <Style id="20678">
            <LineStyle id="20679">
                <color>ffCC9934</color>
                <colorMode>normal</colorMode>
                <width>4</width>
            </LineStyle>
        </Style>
        <Style id="20682">
            <LineStyle id="20683">
                <color>ffCC9934</color>
                <colorMode>normal</colorMode>
                <width>4</width>
            </LineStyle>
        </Style>
        <Style id="20686">
            <LineStyle id="20687">
                <color>ffCC9934</color>
                <colorMode>normal</colorMode>
                <width>4</width>
            </LineStyle>
        </Style>
        <Style id="20690">
            <LineStyle id="20691">
                <color>ffCC9934</color>
                <colorMode>normal</colorMode>
                <width>4</width>
            </LineStyle>
        </Style>
        <Style id="20694">
            <LineStyle id="20695">
                <color>ffCC9934</color>
                <colorMode>normal</colorMode>
                <width>4</width>
            </LineStyle>
        </Style>
        <Style id="20698">
            <LineStyle id="20699">
                <color>ffCC9934</color>
                <colorMode>normal</colorMode>
                <width>4</width>
            </LineStyle>
        </Style>
        <Style id="20702">
            <LineStyle id="20703">
                <color>ffCC9934</color>
                <colorMode>normal</colorMode>
                <width>4</width>
            </LineStyle>
        </Style>
        <Style id="20706">
            <LineStyle id="20707">
                <color>ffCC9934</color>
                <colorMode>normal</colorMode>
                <width>4</width>
            </LineStyle>
        </Style>
        <Style id="20710">
            <LineStyle id="20711">
                <color>ffCC9934</color>
                <colorMode>normal</colorMode>
                <width>4</width>
            </LineStyle>
        </Style>
        <Style id="20714">
            <LineStyle id="20715">
                <color>ffCC9934</color>
                <colorMode>normal</colorMode>
                <width>4</width>
            </LineStyle>
        </Style>
        <Style id="20718">
            <LineStyle id="20719">
                <color>ffCC9934</color>
                <colorMode>normal</colorMode>
                <width>4</width>
            </LineStyle>
        </Style>
        <Style id="20722">
            <LineStyle id="20723">
                <color>ffCC9934</color>
                <colorMode>normal</colorMode>
                <width>4</width>
            </LineStyle>
        </Style>
        <Style id="20726">
            <LineStyle id="20727">
                <color>ffCC9934</color>
                <colorMode>normal</colorMode>
                <width>4</width>
            </LineStyle>
        </Style>
        <Style id="20730">
            <LineStyle id="20731">
                <color>ffCC9934</color>
                <colorMode>normal</colorMode>
                <width>4</width>
            </LineStyle>
        </Style>
        <Style id="20734">
            <LineStyle id="20735">
                <color>ffCC9934</color>
                <colorMode>normal</colorMode>
                <width>4</width>
            </LineStyle>
        </Style>
        <Style id="20738">
            <LineStyle id="20739">
                <color>ffCC9934</color>
                <colorMode>normal</colorMode>
                <width>4</width>
            </LineStyle>
        </Style>
        <Style id="20742">
            <LineStyle id="20743">
                <color>ffCC9934</color>
                <colorMode>normal</colorMode>
                <width>4</width>
            </LineStyle>
        </Style>
        <Style id="20746">
            <LineStyle id="20747">
                <color>ffCC9934</color>
                <colorMode>normal</colorMode>
                <width>4</width>
            </LineStyle>
        </Style>
        <Style id="20750">
            <LineStyle id="20751">
                <color>ffCC9934</color>
                <colorMode>normal</colorMode>
                <width>4</width>
            </LineStyle>
        </Style>
        <Style id="20754">
            <LineStyle id="20755">
                <color>ffCC9934</color>
                <colorMode>normal</colorMode>
                <width>4</width>
            </LineStyle>
        </Style>
        <Style id="20758">
            <LineStyle id="20759">
                <color>ffCC9934</color>
                <colorMode>normal</colorMode>
                <width>4</width>
            </LineStyle>
        </Style>
        <Style id="20762">
            <LineStyle id="20763">
                <color>ffCC9934</color>
                <colorMode>normal</colorMode>
                <width>4</width>
            </LineStyle>
        </Style>
        <Style id="20766">
            <LineStyle id="20767">
                <color>ffCC9934</color>
                <colorMode>normal</colorMode>
                <width>4</width>
            </LineStyle>
        </Style>
        <Style id="20770">
            <LineStyle id="20771">
                <color>ffCC9934</color>
                <colorMode>normal</colorMode>
                <width>4</width>
            </LineStyle>
        </Style>
        <Style id="20774">
            <LineStyle id="20775">
                <color>ffCC9934</color>
                <colorMode>normal</colorMode>
                <width>4</width>
            </LineStyle>
        </Style>
        <Style id="20778">
            <LineStyle id="20779">
                <color>ffCC9934</color>
                <colorMode>normal</colorMode>
                <width>4</width>
            </LineStyle>
        </Style>
        <Style id="20782">
            <LineStyle id="20783">
                <color>ffCC9934</color>
                <colorMode>normal</colorMode>
                <width>4</width>
            </LineStyle>
        </Style>
        <Style id="20786">
            <LineStyle id="20787">
                <color>ffCC9934</color>
                <colorMode>normal</colorMode>
                <width>4</width>
            </LineStyle>
        </Style>
        <Style id="20790">
            <LineStyle id="20791">
                <color>ffCC9934</color>
                <colorMode>normal</colorMode>
                <width>4</width>
            </LineStyle>
        </Style>
        <Style id="20794">
            <LineStyle id="20795">
                <color>ffCC9934</color>
                <colorMode>normal</colorMode>
                <width>4</width>
            </LineStyle>
        </Style>
        <Style id="20798">
            <LineStyle id="20799">
                <color>ffCC9934</color>
                <colorMode>normal</colorMode>
                <width>4</width>
            </LineStyle>
        </Style>
        <Style id="20802">
            <LineStyle id="20803">
                <color>ffCC9934</color>
                <colorMode>normal</colorMode>
                <width>4</width>
            </LineStyle>
        </Style>
        <Style id="20806">
            <LineStyle id="20807">
                <color>ffCC9934</color>
                <colorMode>normal</colorMode>
                <width>4</width>
            </LineStyle>
        </Style>
        <Style id="20810">
            <LineStyle id="20811">
                <color>ffCC9934</color>
                <colorMode>normal</colorMode>
                <width>4</width>
            </LineStyle>
        </Style>
        <Style id="20814">
            <LineStyle id="20815">
                <color>ffCC9934</color>
                <colorMode>normal</colorMode>
                <width>4</width>
            </LineStyle>
        </Style>
        <Style id="20818">
            <LineStyle id="20819">
                <color>ffCC9934</color>
                <colorMode>normal</colorMode>
                <width>4</width>
            </LineStyle>
        </Style>
        <Style id="20822">
            <LineStyle id="20823">
                <color>ffCC9934</color>
                <colorMode>normal</colorMode>
                <width>4</width>
            </LineStyle>
        </Style>
        <Style id="20826">
            <LineStyle id="20827">
                <color>ffCC9934</color>
                <colorMode>normal</colorMode>
                <width>4</width>
            </LineStyle>
        </Style>
        <Style id="20830">
            <LineStyle id="20831">
                <color>ffCC9934</color>
                <colorMode>normal</colorMode>
                <width>4</width>
            </LineStyle>
        </Style>
        <Style id="20834">
            <LineStyle id="20835">
                <color>ffCC9934</color>
                <colorMode>normal</colorMode>
                <width>4</width>
            </LineStyle>
        </Style>
        <Style id="20838">
            <LineStyle id="20839">
                <color>ffCC9934</color>
                <colorMode>normal</colorMode>
                <width>4</width>
            </LineStyle>
        </Style>
        <Style id="20842">
            <LineStyle id="20843">
                <color>ffCC9934</color>
                <colorMode>normal</colorMode>
                <width>4</width>
            </LineStyle>
        </Style>
        <Style id="20846">
            <LineStyle id="20847">
                <color>ffCC9934</color>
                <colorMode>normal</colorMode>
                <width>4</width>
            </LineStyle>
        </Style>
        <ExtendedData>
            <Data name="route-name">
                <value>Feeder 2: Cibeureum → Mall Summarecon Bandung</value>
            </Data>
            <Data name="source">
                <value>Transport for Bandung</value>
            </Data>
        </ExtendedData>
        <Placemark id="20387">
            <name>Terminal Elang</name>
            <styleUrl>#20388</styleUrl>
            <Point id="20386">
                <coordinates>107.5755571,-6.9135373,0.0</coordinates>
            </Point>
        </Placemark>
        <Placemark id="20392">
            <name>Summarecon Mall Bandung</name>
            <styleUrl>#20393</styleUrl>
            <Point id="20391">
                <coordinates>107.6992029,-6.955658,0.0</coordinates>
            </Point>
        </Placemark>
        <Placemark id="20397">
            <name>Jalan Soekarno-Hatta</name>
            <styleUrl>#20398</styleUrl>
            <LineString id="20396">
                <coordinates>107.5744266,-6.9194787,0.0 107.5744272,-6.9195208,0.0 107.5744343,-6.9196531,0.0 107.5744531,-6.9198794,0.0 107.5744799,-6.9200829,0.0 107.5745244,-6.9204204,0.0 107.5745632,-6.9206714,0.0 107.5745805,-6.9207727,0.0 107.574617,-6.9209716,0.0 107.5746819,-6.9214118,0.0 107.5748304,-6.9223874,0.0 107.5748829,-6.9227581,0.0 107.5749416,-6.92312,0.0 107.5749473,-6.9231553,0.0 107.575014,-6.9236585,0.0</coordinates>
            </LineString>
        </Placemark>
        <Placemark id="20401">
            <name>Jalan Elang</name>
            <styleUrl>#20402</styleUrl>
            <LineString id="20400">
                <coordinates>107.5755571,-6.9135373,0.0 107.5754392,-6.9138457,0.0 107.5752572,-6.9143562,0.0 107.5749328,-6.9153687,0.0 107.5748897,-6.9155407,0.0</coordinates>
            </LineString>
        </Placemark>
        <Placemark id="20405">
            <name>Jalan Soekarno-Hatta</name>
            <styleUrl>#20406</styleUrl>
            <LineString id="20404">
                <coordinates>107.6336406,-6.9478818,0.0 107.6337248,-6.9478543,0.0 107.6338763,-6.9478077,0.0 107.6340014,-6.9477692,0.0 107.6341745,-6.9477159,0.0 107.6348946,-6.9474943,0.0 107.6350137,-6.9474577,0.0 107.6350586,-6.9474439,0.0 107.6350976,-6.9474319,0.0 107.6352499,-6.947385,0.0 107.6355559,-6.9472909,0.0 107.6359684,-6.9471669,0.0 107.6359872,-6.9471621,0.0 107.6360687,-6.9471331,0.0 107.636143,-6.9471102,0.0 107.6363926,-6.9470334,0.0 107.636644,-6.9469561,0.0 107.6367049,-6.9469373,0.0 107.6370708,-6.9468247,0.0 107.6373665,-6.9467337,0.0 107.638253,-6.946461,0.0 107.638452,-6.9463942,0.0 107.6385798,-6.9463604,0.0 107.6390869,-6.9462044,0.0 107.6391553,-6.9461833,0.0 107.6395007,-6.946077,0.0 107.6395637,-6.9460577,0.0 107.639643,-6.9460333,0.0 107.6399381,-6.9459425,0.0 107.6400313,-6.9459138,0.0 107.6400988,-6.945893,0.0</coordinates>
            </LineString>
        </Placemark>
        <Placemark id="20409">
            <name>Jalan Soekarno-Hatta</name>
            <styleUrl>#20410</styleUrl>
            <LineString id="20408">
                <coordinates>107.621611,-6.9491677,0.0 107.6219888,-6.9491964,0.0</coordinates>
            </LineString>
        </Placemark>
        <Placemark id="20413">
            <name>Jalan Soekarno-Hatta</name>
            <styleUrl>#20414</styleUrl>
            <LineString id="20412">
                <coordinates>107.6219888,-6.9491964,0.0 107.6225159,-6.949235,0.0 107.6230228,-6.9492832,0.0 107.6232787,-6.9493075,0.0 107.6236074,-6.9493402,0.0 107.6244902,-6.949411,0.0 107.6248137,-6.9494301,0.0 107.6249026,-6.9494354,0.0</coordinates>
            </LineString>
        </Placemark>
        <Placemark id="20417">
            <name>Jalan Soekarno-Hatta</name>
            <styleUrl>#20418</styleUrl>
            <LineString id="20416">
                <coordinates>107.575014,-6.9236585,0.0 107.5750579,-6.9239839,0.0 107.5751102,-6.9243105,0.0 107.5751686,-6.9246901,0.0 107.5752003,-6.9248974,0.0 107.575247,-6.9252035,0.0 107.5752734,-6.9253766,0.0 107.5752867,-6.9254635,0.0 107.575321,-6.9256811,0.0 107.5753412,-6.9258096,0.0</coordinates>
            </LineString>
        </Placemark>
        <Placemark id="20421">
            <name>Jalan Soekarno-Hatta</name>
            <styleUrl>#20422</styleUrl>
            <LineString id="20420">
                <coordinates>107.5863956,-6.9441848,0.0 107.5868373,-6.9443439,0.0 107.5870102,-6.9443993,0.0 107.5876247,-6.9446579,0.0 107.5878344,-6.9447464,0.0 107.5880579,-6.9448406,0.0 107.5883073,-6.9449457,0.0 107.5888658,-6.9451811,0.0</coordinates>
            </LineString>
        </Placemark>
        <Placemark id="20425">
            <name>Jalan Soekarno-Hatta</name>
            <styleUrl>#20426</styleUrl>
            <LineString id="20424">
                <coordinates>107.5905372,-6.9458885,0.0 107.5906174,-6.9459184,0.0 107.5908186,-6.9459976,0.0 107.5909454,-6.9460471,0.0 107.5912869,-6.9461769,0.0 107.5915135,-6.946263,0.0 107.5919633,-6.946418,0.0 107.5920057,-6.9464327,0.0</coordinates>
            </LineString>
        </Placemark>
        <Placemark id="20429">
            <name>Jalan Soekarno-Hatta</name>
            <styleUrl>#20430</styleUrl>
            <LineString id="20428">
                <coordinates>107.5760593,-6.9304537,0.0 107.5760815,-6.9305419,0.0 107.5761295,-6.9307327,0.0</coordinates>
            </LineString>
        </Placemark>
        <Placemark id="20433">
            <name>Jalan Soekarno-Hatta</name>
            <styleUrl>#20434</styleUrl>
            <LineString id="20432">
                <coordinates>107.6124767,-6.9485183,0.0 107.6126412,-6.9485299,0.0 107.6133504,-6.9485797,0.0 107.6138166,-6.9486125,0.0 107.6139137,-6.9486193,0.0 107.6139666,-6.9486231,0.0 107.6149203,-6.9486901,0.0 107.617101,-6.9488435,0.0 107.6176781,-6.9488841,0.0 107.6184763,-6.9489402,0.0 107.6185979,-6.9489488,0.0 107.619152,-6.9489877,0.0 107.6192839,-6.948997,0.0 107.6196694,-6.9490241,0.0</coordinates>
            </LineString>
        </Placemark>
        <Placemark id="20437">
            <name>Jalan Soekarno-Hatta</name>
            <styleUrl>#20438</styleUrl>
            <LineString id="20436">
                <coordinates>107.6215191,-6.9491613,0.0 107.6215656,-6.9491645,0.0 107.621611,-6.9491677,0.0</coordinates>
            </LineString>
        </Placemark>
        <Placemark id="20441">
            <name>Jalan Soekarno-Hatta</name>
            <styleUrl>#20442</styleUrl>
            <LineString id="20440">
                <coordinates>107.6094101,-6.9482727,0.0 107.6097206,-6.9482923,0.0</coordinates>
            </LineString>
        </Placemark>
        <Placemark id="20445">
            <name>Jalan Soekarno-Hatta</name>
            <styleUrl>#20446</styleUrl>
            <LineString id="20444">
                <coordinates>107.6400988,-6.945893,0.0 107.6404015,-6.9458025,0.0</coordinates>
            </LineString>
        </Placemark>
        <Placemark id="20449">
            <name>Jalan Soekarno-Hatta</name>
            <styleUrl>#20450</styleUrl>
            <LineString id="20448">
                <coordinates>107.6526343,-6.9418642,0.0 107.6528244,-6.9418009,0.0</coordinates>
            </LineString>
        </Placemark>
        <Placemark id="20453">
            <name>Jalan Soekarno-Hatta</name>
            <styleUrl>#20454</styleUrl>
            <LineString id="20452">
                <coordinates>107.6608909,-6.9394147,0.0 107.6611257,-6.9393605,0.0 107.6612045,-6.9393467,0.0 107.6613726,-6.9393143,0.0 107.6619723,-6.9392196,0.0 107.6620066,-6.9392142,0.0 107.6624766,-6.9391418,0.0 107.6629081,-6.9390878,0.0 107.6630544,-6.9390727,0.0 107.6635594,-6.9390207,0.0 107.6638937,-6.9389862,0.0 107.6648393,-6.9388924,0.0 107.6650947,-6.9388715,0.0 107.6656399,-6.9388388,0.0 107.6659038,-6.9388221,0.0 107.6664215,-6.9387937,0.0 107.6665285,-6.9387859,0.0 107.6667061,-6.9387731,0.0 107.6669354,-6.9387522,0.0 107.6672726,-6.938728,0.0 107.6676974,-6.9386975,0.0 107.6677908,-6.938693,0.0 107.6679806,-6.9386798,0.0 107.6682067,-6.9386642,0.0 107.6686684,-6.9386322,0.0 107.6690273,-6.9386024,0.0</coordinates>
            </LineString>
        </Placemark>
        <Placemark id="20457">
            <name>Jalan Soekarno-Hatta</name>
            <styleUrl>#20458</styleUrl>
            <LineString id="20456">
                <coordinates>107.6820516,-6.9376753,0.0 107.6829267,-6.9376226,0.0 107.6830504,-6.9376098,0.0 107.6836806,-6.9375672,0.0 107.6844521,-6.937515,0.0 107.6845012,-6.9375117,0.0</coordinates>
            </LineString>
        </Placemark>
        <Placemark id="20461">
            <name>Jalan Soekarno-Hatta</name>
            <styleUrl>#20462</styleUrl>
            <LineString id="20460">
                <coordinates>107.6811571,-6.9377409,0.0 107.6816983,-6.9377012,0.0 107.6820516,-6.9376753,0.0</coordinates>
            </LineString>
        </Placemark>
        <Placemark id="20465">
            <name>Soekarno Hatta Frontage Boulevard</name>
            <styleUrl>#20466</styleUrl>
            <LineString id="20464">
                <coordinates>107.6773491,-6.9380105,0.0 107.6775994,-6.9379921,0.0 107.6778057,-6.9379781,0.0 107.6784424,-6.9379331,0.0 107.6787487,-6.9379114,0.0 107.6788956,-6.937901,0.0 107.679119,-6.9378852,0.0 107.6794352,-6.9378628,0.0 107.6796089,-6.9378505,0.0 107.6801479,-6.9378123,0.0 107.6803968,-6.9378003,0.0</coordinates>
            </LineString>
        </Placemark>
        <Placemark id="20469">
            <name>Jalan Soekarno-Hatta</name>
            <styleUrl>#20470</styleUrl>
            <LineString id="20468">
                <coordinates>107.6881164,-6.9372393,0.0 107.6883018,-6.9372253,0.0 107.6884215,-6.9372162,0.0 107.6885014,-6.9372102,0.0 107.688678,-6.9371968,0.0 107.6890078,-6.9371718,0.0 107.689552,-6.9371306,0.0 107.6897157,-6.9371182,0.0 107.6900244,-6.9370948,0.0 107.6902435,-6.9370783,0.0 107.6906621,-6.9370418,0.0 107.6907699,-6.9370384,0.0 107.690912,-6.9370277,0.0 107.6912038,-6.9370042,0.0 107.6916934,-6.9369685,0.0 107.6917566,-6.9369649,0.0 107.691802,-6.9369632,0.0 107.691841,-6.9369664,0.0 107.6919976,-6.9369777,0.0</coordinates>
            </LineString>
        </Placemark>
        <Placemark id="20473">
            <name>Jalan Soekarno-Hatta</name>
            <styleUrl>#20474</styleUrl>
            <LineString id="20472">
                <coordinates>107.5756277,-6.9276758,0.0 107.5756662,-6.9279277,0.0 107.575694,-6.9281099,0.0 107.5757563,-6.9285176,0.0 107.5758449,-6.9290977,0.0 107.5759894,-6.9300668,0.0</coordinates>
            </LineString>
        </Placemark>
        <Placemark id="20477">
            <name>Jalan Soekarno-Hatta</name>
            <styleUrl>#20478</styleUrl>
            <LineString id="20476">
                <coordinates>107.5761295,-6.9307327,0.0 107.5762615,-6.9311707,0.0 107.5763049,-6.9313117,0.0 107.5764914,-6.9319172,0.0 107.5765033,-6.9319558,0.0 107.5765867,-6.9321758,0.0 107.5766269,-6.9322818,0.0 107.576671,-6.9323901,0.0 107.5767329,-6.9325425,0.0 107.576819,-6.9327555,0.0 107.576953,-6.9330874,0.0 107.5770589,-6.933306,0.0 107.5771271,-6.9334469,0.0 107.5773591,-6.9339262,0.0 107.5774678,-6.9341351,0.0 107.577519,-6.9342396,0.0 107.5778296,-6.9347499,0.0 107.5783524,-6.9355244,0.0 107.578457,-6.9356736,0.0 107.5788041,-6.9361935,0.0 107.5788416,-6.9362517,0.0 107.5795763,-6.937339,0.0 107.5796223,-6.9374056,0.0 107.5796859,-6.937498,0.0 107.5797906,-6.9376502,0.0 107.579936,-6.937863,0.0 107.5802287,-6.9382866,0.0 107.5803153,-6.9384059,0.0 107.5803728,-6.9384851,0.0 107.5804612,-6.9386169,0.0 107.5805598,-6.9387753,0.0 107.5806433,-6.9388996,0.0 107.5807733,-6.9390932,0.0 107.5807999,-6.9391335,0.0 107.5808244,-6.9391671,0.0 107.580938,-6.9393311,0.0 107.5810191,-6.9394536,0.0 107.5812002,-6.9397265,0.0 107.5815443,-6.9401906,0.0 107.5815743,-6.9402311,0.0 107.5817044,-6.9404068,0.0 107.5818291,-6.9405652,0.0 107.5820397,-6.9408049,0.0 107.5823106,-6.941111,0.0</coordinates>
            </LineString>
        </Placemark>
        <Placemark id="20481">
            <name>Jalan Soekarno-Hatta</name>
            <styleUrl>#20482</styleUrl>
            <LineString id="20480">
                <coordinates>107.6404015,-6.9458025,0.0 107.6404102,-6.9458005,0.0 107.6404977,-6.9457738,0.0 107.6405916,-6.9457492,0.0 107.6406739,-6.9457264,0.0 107.6408783,-6.9456725,0.0 107.6410307,-6.9456323,0.0 107.6411836,-6.9455872,0.0 107.641371,-6.945532,0.0 107.6413988,-6.945524,0.0</coordinates>
            </LineString>
        </Placemark>
        <Placemark id="20485">
            <name>Bunderan Cibeureum</name>
            <styleUrl>#20486</styleUrl>
            <LineString id="20484">
                <coordinates>107.5745791,-6.9171828,0.0 107.5745698,-6.9171316,0.0 107.5745476,-6.9170844,0.0 107.5745269,-6.9170574,0.0 107.5744965,-6.917027,0.0 107.5744371,-6.9169959,0.0</coordinates>
            </LineString>
        </Placemark>
        <Placemark id="20489">
            <name>Jalan Soekarno-Hatta</name>
            <styleUrl>#20490</styleUrl>
            <LineString id="20488">
                <coordinates>107.6742862,-6.9382242,0.0 107.6744202,-6.9382178,0.0</coordinates>
            </LineString>
        </Placemark>
        <Placemark id="20493">
            <name>Jalan Soekarno-Hatta</name>
            <styleUrl>#20494</styleUrl>
            <LineString id="20492">
                <coordinates>107.6728746,-6.9383241,0.0 107.6735519,-6.9382758,0.0 107.673913,-6.9382504,0.0 107.6740809,-6.9382386,0.0 107.6742333,-6.9382279,0.0 107.6742862,-6.9382242,0.0</coordinates>
            </LineString>
        </Placemark>
        <Placemark id="20497">
            <name>Jalan Soekarno-Hatta</name>
            <styleUrl>#20498</styleUrl>
            <LineString id="20496">
                <coordinates>107.6696795,-6.9385517,0.0 107.6698031,-6.9385447,0.0</coordinates>
            </LineString>
        </Placemark>
        <Placemark id="20501">
            <name>Jalan Soekarno-Hatta</name>
            <styleUrl>#20502</styleUrl>
            <LineString id="20500">
                <coordinates>107.6698031,-6.9385447,0.0 107.6698055,-6.9385445,0.0 107.6706974,-6.9384772,0.0 107.6708415,-6.938467,0.0 107.6713626,-6.9384301,0.0 107.6717525,-6.9384018,0.0 107.6719529,-6.938388,0.0 107.6722412,-6.9383679,0.0 107.6725046,-6.9383493,0.0</coordinates>
            </LineString>
        </Placemark>
        <Placemark id="20505">
            <name>Soekarno Hatta Frontage Boulevard</name>
            <styleUrl>#20506</styleUrl>
            <LineString id="20504">
                <coordinates>107.6845012,-6.9375117,0.0 107.6847668,-6.9374899,0.0</coordinates>
            </LineString>
        </Placemark>
        <Placemark id="20509">
            <name>Jalan Soekarno-Hatta</name>
            <styleUrl>#20510</styleUrl>
            <LineString id="20508">
                <coordinates>107.6865016,-6.9373601,0.0 107.6869969,-6.9373231,0.0 107.6875247,-6.9372836,0.0 107.6877514,-6.9372666,0.0 107.6881164,-6.9372393,0.0</coordinates>
            </LineString>
        </Placemark>
        <Placemark id="20513">
            <name>Jalan Soekarno-Hatta</name>
            <styleUrl>#20514</styleUrl>
            <LineString id="20512">
                <coordinates>107.6054387,-6.9480071,0.0 107.6057218,-6.9480258,0.0 107.6059845,-6.9480432,0.0 107.6061148,-6.9480518,0.0 107.6064402,-6.9480733,0.0 107.6065499,-6.9480806,0.0 107.6067107,-6.9480912,0.0 107.6070517,-6.9481138,0.0 107.6072302,-6.9481255,0.0 107.6072587,-6.9481274,0.0 107.6073396,-6.9481328,0.0 107.6077353,-6.9481589,0.0 107.6080187,-6.9481777,0.0 107.6086542,-6.9482197,0.0 107.6089854,-6.9482416,0.0</coordinates>
            </LineString>
        </Placemark>
        <Placemark id="20517">
            <name>Jalan Soekarno-Hatta</name>
            <styleUrl>#20518</styleUrl>
            <LineString id="20516">
                <coordinates>107.6039667,-6.9478945,0.0 107.6041277,-6.947905,0.0</coordinates>
            </LineString>
        </Placemark>
        <Placemark id="20521">
            <name>Bulevar Utama</name>
            <styleUrl>#20522</styleUrl>
            <LineString id="20520">
                <coordinates>107.6944949,-6.9512773,0.0 107.6947347,-6.951529,0.0 107.6949234,-6.9517931,0.0 107.6951471,-6.95219,0.0 107.6952134,-6.9523357,0.0 107.6954844,-6.9529827,0.0 107.6956299,-6.9534196,0.0 107.6956918,-6.9537393,0.0 107.6957434,-6.9540602,0.0 107.6957495,-6.9543424,0.0 107.6957439,-6.9544329,0.0 107.6957389,-6.9545517,0.0 107.6957347,-6.9546586,0.0 107.6956979,-6.9548846,0.0 107.6956789,-6.9549845,0.0 107.6956674,-6.9550486,0.0 107.6955076,-6.9558041,0.0 107.6954516,-6.9560427,0.0 107.6954422,-6.9560826,0.0 107.6954133,-6.9562414,0.0 107.6954029,-6.9562988,0.0</coordinates>
            </LineString>
        </Placemark>
        <Placemark id="20525">
            <name>Jalan Soekarno-Hatta</name>
            <styleUrl>#20526</styleUrl>
            <LineString id="20524">
                <coordinates>107.5744159,-6.9173911,0.0 107.5744169,-6.9175402,0.0 107.5744188,-6.9178179,0.0 107.5744249,-6.9187278,0.0 107.574425,-6.9190065,0.0 107.5744251,-6.9191285,0.0 107.5744252,-6.9193435,0.0 107.5744259,-6.9194121,0.0 107.5744266,-6.9194787,0.0</coordinates>
            </LineString>
        </Placemark>
        <Placemark id="20529">
            <name>Jalan Soekarno-Hatta</name>
            <styleUrl>#20530</styleUrl>
            <LineString id="20528">
                <coordinates>107.5831212,-6.9419015,0.0 107.5831836,-6.9419591,0.0 107.5834599,-6.9422141,0.0 107.5835578,-6.942293,0.0 107.583608,-6.942339,0.0 107.5838985,-6.9425994,0.0 107.5842331,-6.9428621,0.0 107.5842817,-6.9429003,0.0 107.5844282,-6.9430135,0.0</coordinates>
            </LineString>
        </Placemark>
        <Placemark id="20533">
            <name>Jalan Soekarno-Hatta</name>
            <styleUrl>#20534</styleUrl>
            <LineString id="20532">
                <coordinates>107.6558473,-6.9408628,0.0 107.6561907,-6.9407508,0.0</coordinates>
            </LineString>
        </Placemark>
        <Placemark id="20537">
            <name>Jalan Soekarno-Hatta</name>
            <styleUrl>#20538</styleUrl>
            <LineString id="20536">
                <coordinates>107.6528244,-6.9418009,0.0 107.6528692,-6.941787,0.0 107.6529599,-6.9417588,0.0 107.6531033,-6.9417143,0.0 107.6536022,-6.9415595,0.0 107.6539108,-6.9414637,0.0 107.6546859,-6.9412232,0.0 107.6548123,-6.941184,0.0 107.6550822,-6.9411002,0.0 107.6555631,-6.940951,0.0 107.6558473,-6.9408628,0.0</coordinates>
            </LineString>
        </Placemark>
        <Placemark id="20541">
            <name>Jalan Gedebage Selatan</name>
            <styleUrl>#20542</styleUrl>
            <LineString id="20540">
                <coordinates>107.6925641,-6.9376071,0.0 107.6925095,-6.9377585,0.0</coordinates>
            </LineString>
        </Placemark>
        <Placemark id="20545">
            <name>Jalan Soekarno-Hatta</name>
            <styleUrl>#20546</styleUrl>
            <LineString id="20544">
                <coordinates>107.6249026,-6.9494354,0.0 107.625063,-6.9494435,0.0 107.6251736,-6.9494469,0.0 107.6254122,-6.949452,0.0 107.6255564,-6.949455,0.0 107.6257226,-6.9494585,0.0 107.6258124,-6.9494604,0.0 107.6258467,-6.9494612,0.0 107.6258629,-6.9494614,0.0 107.6259741,-6.9494625,0.0</coordinates>
            </LineString>
        </Placemark>
        <Placemark id="20549">
            <name>Route Segment</name>
            <styleUrl>#20550</styleUrl>
            <LineString id="20548">
                <coordinates>107.6954029,-6.9562988,0.0 107.69543,-6.9564085,0.0 107.6954725,-6.9564812,0.0 107.695518,-6.9565498,0.0</coordinates>
            </LineString>
        </Placemark>
        <Placemark id="20553">
            <name>Grand Bulevar</name>
            <styleUrl>#20554</styleUrl>
            <LineString id="20552">
                <coordinates>107.6956096,-6.9565743,0.0 107.6960054,-6.9566468,0.0 107.696404,-6.956674,0.0 107.6967946,-6.9566328,0.0 107.6971245,-6.9565427,0.0 107.6972692,-6.9564857,0.0 107.6974733,-6.9564052,0.0 107.6974933,-6.9563967,0.0 107.6985047,-6.9559695,0.0</coordinates>
            </LineString>
        </Placemark>
        <Placemark id="20557">
            <name>Jalan Soekarno-Hatta</name>
            <styleUrl>#20558</styleUrl>
            <LineString id="20556">
                <coordinates>107.6262747,-6.9494594,0.0 107.6263148,-6.9494581,0.0 107.626731,-6.9494396,0.0 107.6268727,-6.9494332,0.0 107.6269742,-6.9494286,0.0 107.6272227,-6.9494137,0.0 107.6274709,-6.9493974,0.0 107.6278794,-6.9493563,0.0 107.627934,-6.9493489,0.0 107.6280918,-6.9493306,0.0 107.6281318,-6.9493252,0.0 107.6282234,-6.9493154,0.0 107.6285395,-6.9492726,0.0 107.6287484,-6.9492381,0.0 107.6289154,-6.9492105,0.0 107.6291337,-6.9491745,0.0 107.6293745,-6.9491302,0.0 107.6294404,-6.9491179,0.0 107.6298246,-6.949046,0.0 107.6301232,-6.94899,0.0 107.6303157,-6.9489398,0.0 107.6307487,-6.9488067,0.0 107.6309791,-6.9487354,0.0</coordinates>
            </LineString>
        </Placemark>
        <Placemark id="20561">
            <name>Jalan Soekarno-Hatta</name>
            <styleUrl>#20562</styleUrl>
            <LineString id="20560">
                <coordinates>107.6097206,-6.9482923,0.0 107.610001,-6.9483188,0.0 107.6115641,-6.9484447,0.0 107.6121553,-6.9484924,0.0 107.6123363,-6.948507,0.0 107.6124434,-6.9485156,0.0 107.6124767,-6.9485183,0.0</coordinates>
            </LineString>
        </Placemark>
        <Placemark id="20565">
            <name>Jalan Soekarno-Hatta</name>
            <styleUrl>#20566</styleUrl>
            <LineString id="20564">
                <coordinates>107.6309791,-6.9487354,0.0 107.6315445,-6.948554,0.0 107.631909,-6.9484347,0.0 107.6321622,-6.9483559,0.0 107.6329015,-6.9481249,0.0 107.6330447,-6.9480758,0.0</coordinates>
            </LineString>
        </Placemark>
        <Placemark id="20569">
            <name>Jalan Soekarno-Hatta</name>
            <styleUrl>#20570</styleUrl>
            <LineString id="20568">
                <coordinates>107.6330447,-6.9480758,0.0 107.633231,-6.9480103,0.0 107.6332967,-6.9479888,0.0</coordinates>
            </LineString>
        </Placemark>
        <Placemark id="20573">
            <name>Jalan Soekarno-Hatta</name>
            <styleUrl>#20574</styleUrl>
            <LineString id="20572">
                <coordinates>107.6332967,-6.9479888,0.0 107.6333973,-6.9479551,0.0</coordinates>
            </LineString>
        </Placemark>
        <Placemark id="20577">
            <name>Jalan Soekarno-Hatta</name>
            <styleUrl>#20578</styleUrl>
            <LineString id="20576">
                <coordinates>107.6487109,-6.9431279,0.0 107.6489694,-6.9430456,0.0 107.6493101,-6.9429332,0.0 107.6495025,-6.9428706,0.0 107.6496409,-6.942824,0.0 107.6499821,-6.9427133,0.0 107.6505153,-6.9425403,0.0 107.6519647,-6.94207,0.0 107.6526343,-6.9418642,0.0</coordinates>
            </LineString>
        </Placemark>
        <Placemark id="20581">
            <name>Jalan Soekarno-Hatta</name>
            <styleUrl>#20582</styleUrl>
            <LineString id="20580">
                <coordinates>107.6413988,-6.945524,0.0 107.641692,-6.9454403,0.0 107.6417778,-6.9454077,0.0 107.641837,-6.9453875,0.0</coordinates>
            </LineString>
        </Placemark>
        <Placemark id="20585">
            <name>Jalan Soekarno-Hatta</name>
            <styleUrl>#20586</styleUrl>
            <LineString id="20584">
                <coordinates>107.6419307,-6.9453525,0.0 107.6419876,-6.9453267,0.0 107.6422973,-6.9452119,0.0</coordinates>
            </LineString>
        </Placemark>
        <Placemark id="20589">
            <name>Jalan Soekarno-Hatta</name>
            <styleUrl>#20590</styleUrl>
            <LineString id="20588">
                <coordinates>107.5753412,-6.9258096,0.0 107.5753962,-6.9261666,0.0 107.5754214,-6.9263298,0.0 107.5754361,-6.9264252,0.0 107.5754783,-6.926699,0.0 107.5754956,-6.9268114,0.0 107.5755137,-6.9269292,0.0</coordinates>
            </LineString>
        </Placemark>
        <Placemark id="20593">
            <name>Bunderan Cibeureum</name>
            <styleUrl>#20594</styleUrl>
            <LineString id="20592">
                <coordinates>107.5745601,-6.9172787,0.0 107.5745248,-6.9173306,0.0 107.5744751,-6.9173693,0.0 107.5744159,-6.9173911,0.0</coordinates>
            </LineString>
        </Placemark>
        <Placemark id="20597">
            <name>Jalan Soekarno-Hatta</name>
            <styleUrl>#20598</styleUrl>
            <LineString id="20596">
                <coordinates>107.5897693,-6.9455492,0.0 107.5898471,-6.9455853,0.0 107.5899638,-6.9456485,0.0</coordinates>
            </LineString>
        </Placemark>
        <Placemark id="20601">
            <name>Jalan Soekarno-Hatta</name>
            <styleUrl>#20602</styleUrl>
            <LineString id="20600">
                <coordinates>107.5760414,-6.9303848,0.0 107.5760593,-6.9304537,0.0</coordinates>
            </LineString>
        </Placemark>
        <Placemark id="20605">
            <name>Jalan Soekarno-Hatta</name>
            <styleUrl>#20606</styleUrl>
            <LineString id="20604">
                <coordinates>107.5894219,-6.9454078,0.0 107.5896531,-6.9454988,0.0 107.5897088,-6.945521,0.0</coordinates>
            </LineString>
        </Placemark>
        <Placemark id="20609">
            <name>Jalan Soekarno-Hatta</name>
            <styleUrl>#20610</styleUrl>
            <LineString id="20608">
                <coordinates>107.6041277,-6.947905,0.0 107.6041522,-6.9479059,0.0 107.6043426,-6.9479195,0.0 107.6047969,-6.9479564,0.0 107.6051067,-6.947983,0.0 107.6051379,-6.9479853,0.0 107.6053226,-6.947999,0.0 107.6054387,-6.9480071,0.0</coordinates>
            </LineString>
        </Placemark>
        <Placemark id="20613">
            <name>Jalan Soekarno-Hatta</name>
            <styleUrl>#20614</styleUrl>
            <LineString id="20612">
                <coordinates>107.6089854,-6.9482416,0.0 107.6094101,-6.9482727,0.0</coordinates>
            </LineString>
        </Placemark>
        <Placemark id="20617">
            <name>Jalan Soekarno-Hatta</name>
            <styleUrl>#20618</styleUrl>
            <LineString id="20616">
                <coordinates>107.5952745,-6.9472037,0.0 107.5954049,-6.9472261,0.0 107.5955093,-6.9472465,0.0</coordinates>
            </LineString>
        </Placemark>
        <Placemark id="20621">
            <name>Route Segment</name>
            <styleUrl>#20622</styleUrl>
            <LineString id="20620">
                <coordinates>107.6926303,-6.9369434,0.0 107.6926097,-6.9371315,0.0</coordinates>
            </LineString>
        </Placemark>
        <Placemark id="20625">
            <name>Jalan Soekarno-Hatta</name>
            <styleUrl>#20626</styleUrl>
            <LineString id="20624">
                <coordinates>107.5849105,-6.9433545,0.0 107.5850407,-6.9434372,0.0 107.5853375,-6.9436258,0.0 107.58577,-6.9438614,0.0 107.5860174,-6.9439945,0.0 107.586299,-6.9441384,0.0 107.5863956,-6.9441848,0.0</coordinates>
            </LineString>
        </Placemark>
        <Placemark id="20629">
            <name>Jalan Soekarno-Hatta</name>
            <styleUrl>#20630</styleUrl>
            <LineString id="20628">
                <coordinates>107.5955093,-6.9472465,0.0 107.5960242,-6.9472981,0.0 107.5960901,-6.9473051,0.0 107.596192,-6.9473128,0.0 107.5964458,-6.9473347,0.0 107.5967222,-6.9473584,0.0 107.5968908,-6.9473718,0.0 107.5973744,-6.9474033,0.0 107.5975687,-6.9474199,0.0 107.5980357,-6.9474645,0.0 107.598288,-6.947504,0.0</coordinates>
            </LineString>
        </Placemark>
        <Placemark id="20633">
            <name>Jalan Soekarno-Hatta</name>
            <styleUrl>#20634</styleUrl>
            <LineString id="20632">
                <coordinates>107.598288,-6.947504,0.0 107.5983813,-6.9475112,0.0 107.59885,-6.9475473,0.0 107.5989661,-6.9475565,0.0 107.5990579,-6.9475634,0.0 107.5992219,-6.9475759,0.0 107.5992807,-6.9475804,0.0 107.5995536,-6.9476014,0.0 107.5996333,-6.9476076,0.0 107.5999206,-6.9476297,0.0 107.5999463,-6.9476316,0.0</coordinates>
            </LineString>
        </Placemark>
        <Placemark id="20637">
            <name>Jalan Soekarno-Hatta</name>
            <styleUrl>#20638</styleUrl>
            <LineString id="20636">
                <coordinates>107.6025818,-6.9478249,0.0 107.602694,-6.9478287,0.0 107.6028213,-6.947833,0.0 107.6029031,-6.9478358,0.0 107.6033305,-6.9478502,0.0 107.6039667,-6.9478945,0.0</coordinates>
            </LineString>
        </Placemark>
        <Placemark id="20641">
            <name>Bulevar Utama</name>
            <styleUrl>#20642</styleUrl>
            <LineString id="20640">
                <coordinates>107.693647,-6.9493908,0.0 107.6936395,-6.9495128,0.0 107.693644,-6.9497996,0.0 107.6936691,-6.9500959,0.0 107.6937063,-6.9503099,0.0 107.693844,-6.9506455,0.0 107.6939557,-6.9507871,0.0 107.6944949,-6.9512773,0.0</coordinates>
            </LineString>
        </Placemark>
        <Placemark id="20645">
            <name>Jalan Elang</name>
            <styleUrl>#20646</styleUrl>
            <LineString id="20644">
                <coordinates>107.5748897,-6.9155407,0.0 107.5748405,-6.9157106,0.0 107.5747136,-6.9160776,0.0 107.5746349,-6.9162861,0.0 107.5745343,-6.9165393,0.0 107.5744542,-6.9167428,0.0 107.5744284,-6.9168081,0.0 107.574422,-6.9168274,0.0 107.5743886,-6.9169098,0.0 107.5743593,-6.9169831,0.0</coordinates>
            </LineString>
        </Placemark>
        <Placemark id="20649">
            <name>Bunderan Cibeureum</name>
            <styleUrl>#20650</styleUrl>
            <LineString id="20648">
                <coordinates>107.5745791,-6.9171828,0.0 107.5745756,-6.9172319,0.0 107.5745601,-6.9172787,0.0</coordinates>
            </LineString>
        </Placemark>
        <Placemark id="20653">
            <name>Jalan Soekarno-Hatta</name>
            <styleUrl>#20654</styleUrl>
            <LineString id="20652">
                <coordinates>107.6000414,-6.9476386,0.0 107.6004105,-6.9476656,0.0 107.6005617,-6.9476767,0.0 107.6008389,-6.9476971,0.0 107.6010847,-6.9477151,0.0 107.6012883,-6.94773,0.0 107.6013862,-6.9477372,0.0 107.6014937,-6.9477451,0.0 107.6016723,-6.9477582,0.0</coordinates>
            </LineString>
        </Placemark>
        <Placemark id="20657">
            <name>Jalan Soekarno-Hatta</name>
            <styleUrl>#20658</styleUrl>
            <LineString id="20656">
                <coordinates>107.5999463,-6.9476316,0.0 107.6000414,-6.9476386,0.0</coordinates>
            </LineString>
        </Placemark>
        <Placemark id="20661">
            <name>Bulevar Utama</name>
            <styleUrl>#20662</styleUrl>
            <LineString id="20660">
                <coordinates>107.6936817,-6.943163,0.0 107.6937023,-6.9434627,0.0</coordinates>
            </LineString>
        </Placemark>
        <Placemark id="20665">
            <name>Bulevar Utama</name>
            <styleUrl>#20666</styleUrl>
            <LineString id="20664">
                <coordinates>107.6936812,-6.9490793,0.0 107.693647,-6.9493908,0.0</coordinates>
            </LineString>
        </Placemark>
        <Placemark id="20669">
            <name>Jalan Soekarno-Hatta</name>
            <styleUrl>#20670</styleUrl>
            <LineString id="20668">
                <coordinates>107.6016723,-6.9477582,0.0 107.6022203,-6.9477997,0.0 107.6022466,-6.9478017,0.0 107.6024847,-6.9478198,0.0 107.6025818,-6.9478249,0.0</coordinates>
            </LineString>
        </Placemark>
        <Placemark id="20673">
            <name>Jalan Gedebage Selatan</name>
            <styleUrl>#20674</styleUrl>
            <LineString id="20672">
                <coordinates>107.6926097,-6.9371315,0.0 107.6925863,-6.9373921,0.0 107.6925719,-6.9375316,0.0 107.6925641,-6.9376071,0.0</coordinates>
            </LineString>
        </Placemark>
        <Placemark id="20677">
            <name>Jalan Soekarno-Hatta</name>
            <styleUrl>#20678</styleUrl>
            <LineString id="20676">
                <coordinates>107.6922068,-6.9369654,0.0 107.6922727,-6.9369622,0.0 107.6923069,-6.9369612,0.0 107.692375,-6.9369561,0.0 107.6925509,-6.9369475,0.0</coordinates>
            </LineString>
        </Placemark>
        <Placemark id="20681">
            <name>Jalan Soekarno-Hatta</name>
            <styleUrl>#20682</styleUrl>
            <LineString id="20680">
                <coordinates>107.5888658,-6.9451811,0.0 107.5890571,-6.9452671,0.0 107.5891029,-6.9452877,0.0 107.5891731,-6.9453141,0.0 107.5893173,-6.9453679,0.0 107.5894219,-6.9454078,0.0</coordinates>
            </LineString>
        </Placemark>
        <Placemark id="20685">
            <name>Jalan Soekarno-Hatta</name>
            <styleUrl>#20686</styleUrl>
            <LineString id="20684">
                <coordinates>107.6744202,-6.9382178,0.0 107.6744746,-6.9382139,0.0 107.6747162,-6.9381971,0.0 107.6753034,-6.9381554,0.0 107.6758906,-6.9381137,0.0 107.6762965,-6.938085,0.0 107.6766901,-6.9380571,0.0 107.6773491,-6.9380105,0.0</coordinates>
            </LineString>
        </Placemark>
        <Placemark id="20689">
            <name>Soekarno Hatta Frontage Boulevard</name>
            <styleUrl>#20690</styleUrl>
            <LineString id="20688">
                <coordinates>107.6803968,-6.9378003,0.0 107.6811571,-6.9377409,0.0</coordinates>
            </LineString>
        </Placemark>
        <Placemark id="20693">
            <name>Soekarno Hatta Frontage Boulevard</name>
            <styleUrl>#20694</styleUrl>
            <LineString id="20692">
                <coordinates>107.6859393,-6.9374022,0.0 107.6862087,-6.937382,0.0 107.6865016,-6.9373601,0.0</coordinates>
            </LineString>
        </Placemark>
        <Placemark id="20697">
            <name>Jalan Soekarno-Hatta</name>
            <styleUrl>#20698</styleUrl>
            <LineString id="20696">
                <coordinates>107.6847668,-6.9374899,0.0 107.684843,-6.9374842,0.0 107.6852525,-6.9374536,0.0 107.6854404,-6.9374395,0.0 107.6857888,-6.9374134,0.0 107.6859053,-6.9374047,0.0 107.6859393,-6.9374022,0.0</coordinates>
            </LineString>
        </Placemark>
        <Placemark id="20701">
            <name>Jalan Soekarno-Hatta</name>
            <styleUrl>#20702</styleUrl>
            <LineString id="20700">
                <coordinates>107.5951948,-6.9471897,0.0 107.5952745,-6.9472037,0.0</coordinates>
            </LineString>
        </Placemark>
        <Placemark id="20705">
            <name>Jalan Soekarno-Hatta</name>
            <styleUrl>#20706</styleUrl>
            <LineString id="20704">
                <coordinates>107.5946801,-6.9470993,0.0 107.5949575,-6.9471456,0.0 107.5950703,-6.9471682,0.0 107.5951948,-6.9471897,0.0</coordinates>
            </LineString>
        </Placemark>
        <Placemark id="20709">
            <name>Jalan Soekarno-Hatta</name>
            <styleUrl>#20710</styleUrl>
            <LineString id="20708">
                <coordinates>107.5920057,-6.9464327,0.0 107.5922205,-6.9465024,0.0 107.5923591,-6.9465464,0.0 107.5924183,-6.9465651,0.0 107.5929217,-6.946706,0.0 107.5930626,-6.9467395,0.0 107.5934341,-6.9468277,0.0</coordinates>
            </LineString>
        </Placemark>
        <Placemark id="20713">
            <name>Jalan Soekarno-Hatta</name>
            <styleUrl>#20714</styleUrl>
            <LineString id="20712">
                <coordinates>107.5899638,-6.9456485,0.0 107.5902641,-6.9457816,0.0 107.5904302,-6.9458446,0.0 107.5905372,-6.9458885,0.0</coordinates>
            </LineString>
        </Placemark>
        <Placemark id="20717">
            <name>Jalan Soekarno-Hatta</name>
            <styleUrl>#20718</styleUrl>
            <LineString id="20716">
                <coordinates>107.6333973,-6.9479551,0.0 107.6334979,-6.9479251,0.0 107.6336406,-6.9478818,0.0</coordinates>
            </LineString>
        </Placemark>
        <Placemark id="20721">
            <name>Jalan Soekarno-Hatta</name>
            <styleUrl>#20722</styleUrl>
            <LineString id="20720">
                <coordinates>107.6690273,-6.9386024,0.0 107.6696239,-6.9385543,0.0 107.6696795,-6.9385517,0.0</coordinates>
            </LineString>
        </Placemark>
        <Placemark id="20725">
            <name>Jalan Soekarno-Hatta</name>
            <styleUrl>#20726</styleUrl>
            <LineString id="20724">
                <coordinates>107.6422973,-6.9452119,0.0 107.6424896,-6.9451552,0.0 107.6425544,-6.9451302,0.0</coordinates>
            </LineString>
        </Placemark>
        <Placemark id="20729">
            <name>Jalan Soekarno-Hatta</name>
            <styleUrl>#20730</styleUrl>
            <LineString id="20728">
                <coordinates>107.6725046,-6.9383493,0.0 107.6727325,-6.9383333,0.0 107.6728746,-6.9383241,0.0</coordinates>
            </LineString>
        </Placemark>
        <Placemark id="20733">
            <name>Jalan Soekarno-Hatta</name>
            <styleUrl>#20734</styleUrl>
            <LineString id="20732">
                <coordinates>107.6214527,-6.9491566,0.0 107.6215191,-6.9491613,0.0</coordinates>
            </LineString>
        </Placemark>
        <Placemark id="20737">
            <name>Jalan Soekarno-Hatta</name>
            <styleUrl>#20738</styleUrl>
            <LineString id="20736">
                <coordinates>107.6196694,-6.9490241,0.0 107.6201873,-6.9490626,0.0 107.6207586,-6.949105,0.0 107.6212731,-6.9491433,0.0 107.6214527,-6.9491566,0.0</coordinates>
            </LineString>
        </Placemark>
        <Placemark id="20741">
            <name>Bunderan Cibeureum</name>
            <styleUrl>#20742</styleUrl>
            <LineString id="20740">
                <coordinates>107.5744371,-6.9169959,0.0 107.5744233,-6.9169939,0.0 107.5743913,-6.9169845,0.0 107.5743593,-6.9169831,0.0</coordinates>
            </LineString>
        </Placemark>
        <Placemark id="20745">
            <name>Jalan Soekarno-Hatta</name>
            <styleUrl>#20746</styleUrl>
            <LineString id="20744">
                <coordinates>107.6469908,-6.9436739,0.0 107.6470631,-6.9436511,0.0 107.6472285,-6.9436003,0.0 107.647308,-6.9435737,0.0 107.6474499,-6.9435262,0.0 107.6477158,-6.9434372,0.0 107.6478935,-6.9433774,0.0 107.6479368,-6.9433624,0.0 107.6480159,-6.9433388,0.0 107.6482339,-6.9432732,0.0 107.6483747,-6.9432308,0.0 107.6486436,-6.9431498,0.0 107.6487109,-6.9431279,0.0</coordinates>
            </LineString>
        </Placemark>
        <Placemark id="20749">
            <name>Jalan Soekarno-Hatta</name>
            <styleUrl>#20750</styleUrl>
            <LineString id="20748">
                <coordinates>107.6450949,-6.9442703,0.0 107.6463553,-6.9438668,0.0 107.6464874,-6.9438278,0.0 107.6467219,-6.9437585,0.0 107.6467855,-6.9437385,0.0 107.6469908,-6.9436739,0.0</coordinates>
            </LineString>
        </Placemark>
        <Placemark id="20753">
            <name>Jalan Soekarno-Hatta</name>
            <styleUrl>#20754</styleUrl>
            <LineString id="20752">
                <coordinates>107.6425544,-6.9451302,0.0 107.6427153,-6.9450569,0.0 107.6428119,-6.9450226,0.0 107.6430412,-6.9449411,0.0 107.6431766,-6.9448945,0.0 107.6433657,-6.9448279,0.0 107.6437224,-6.9447161,0.0 107.6438888,-6.944662,0.0 107.6440102,-6.9446226,0.0 107.644326,-6.94452,0.0 107.6450949,-6.9442703,0.0</coordinates>
            </LineString>
        </Placemark>
        <Placemark id="20757">
            <name>Jalan Soekarno-Hatta</name>
            <styleUrl>#20758</styleUrl>
            <LineString id="20756">
                <coordinates>107.641837,-6.9453875,0.0 107.6419307,-6.9453525,0.0</coordinates>
            </LineString>
        </Placemark>
        <Placemark id="20761">
            <name>Jalan Soekarno-Hatta</name>
            <styleUrl>#20762</styleUrl>
            <LineString id="20760">
                <coordinates>107.5897088,-6.945521,0.0 107.5897693,-6.9455492,0.0</coordinates>
            </LineString>
        </Placemark>
        <Placemark id="20765">
            <name>Jalan Soekarno-Hatta</name>
            <styleUrl>#20766</styleUrl>
            <LineString id="20764">
                <coordinates>107.6593041,-6.939778,0.0 107.659399,-6.9397509,0.0 107.6600931,-6.9395844,0.0 107.6601512,-6.9395718,0.0 107.6605856,-6.9394777,0.0 107.6606611,-6.93946,0.0 107.6608909,-6.9394147,0.0</coordinates>
            </LineString>
        </Placemark>
        <Placemark id="20769">
            <name>Jalan Soekarno-Hatta</name>
            <styleUrl>#20770</styleUrl>
            <LineString id="20768">
                <coordinates>107.6583101,-6.9400779,0.0 107.6584574,-6.9400339,0.0 107.6585694,-6.9399972,0.0 107.6588883,-6.9398952,0.0 107.6589472,-6.9398788,0.0 107.659028,-6.9398534,0.0 107.6591135,-6.9398278,0.0 107.6593041,-6.939778,0.0</coordinates>
            </LineString>
        </Placemark>
        <Placemark id="20773">
            <name>Jalan Soekarno-Hatta</name>
            <styleUrl>#20774</styleUrl>
            <LineString id="20772">
                <coordinates>107.5844282,-6.9430135,0.0 107.584573,-6.9431186,0.0 107.584642,-6.9431671,0.0 107.5847245,-6.9432291,0.0 107.5848895,-6.9433396,0.0 107.5849105,-6.9433545,0.0</coordinates>
            </LineString>
        </Placemark>
        <Placemark id="20777">
            <name>Jalan Soekarno-Hatta</name>
            <styleUrl>#20778</styleUrl>
            <LineString id="20776">
                <coordinates>107.6561907,-6.9407508,0.0 107.6567851,-6.9405596,0.0</coordinates>
            </LineString>
        </Placemark>
        <Placemark id="20781">
            <name>Jalan Soekarno-Hatta</name>
            <styleUrl>#20782</styleUrl>
            <LineString id="20780">
                <coordinates>107.6567851,-6.9405596,0.0 107.6569119,-6.9405212,0.0 107.6569958,-6.9404958,0.0 107.6571017,-6.9404592,0.0 107.6573469,-6.9403813,0.0 107.6575958,-6.9403023,0.0 107.6579317,-6.940197,0.0 107.6582639,-6.9400924,0.0 107.6583101,-6.9400779,0.0</coordinates>
            </LineString>
        </Placemark>
        <Placemark id="20785">
            <name>Jalan Soekarno-Hatta</name>
            <styleUrl>#20786</styleUrl>
            <LineString id="20784">
                <coordinates>107.6259741,-6.9494625,0.0 107.6261145,-6.9494645,0.0 107.6262003,-6.9494625,0.0 107.6262747,-6.9494594,0.0</coordinates>
            </LineString>
        </Placemark>
        <Placemark id="20789">
            <name>Jalan Soekarno-Hatta</name>
            <styleUrl>#20790</styleUrl>
            <LineString id="20788">
                <coordinates>107.5755137,-6.9269292,0.0 107.5756277,-6.9276758,0.0</coordinates>
            </LineString>
        </Placemark>
        <Placemark id="20793">
            <name>Jalan Soekarno-Hatta</name>
            <styleUrl>#20794</styleUrl>
            <LineString id="20792">
                <coordinates>107.5759894,-6.9300668,0.0 107.5760161,-6.9302366,0.0 107.5760359,-6.9303526,0.0 107.5760414,-6.9303848,0.0</coordinates>
            </LineString>
        </Placemark>
        <Placemark id="20797">
            <name>Jalan Soekarno-Hatta</name>
            <styleUrl>#20798</styleUrl>
            <LineString id="20796">
                <coordinates>107.5934341,-6.9468277,0.0 107.5935172,-6.946847,0.0 107.5935575,-6.9468564,0.0 107.5936688,-6.9468823,0.0 107.593986,-6.9469544,0.0 107.5940785,-6.9469738,0.0 107.5941765,-6.9469938,0.0 107.5942182,-6.9470057,0.0 107.5946413,-6.947092,0.0 107.5946801,-6.9470993,0.0</coordinates>
            </LineString>
        </Placemark>
        <Placemark id="20801">
            <name>Jalan Gedebage Utama</name>
            <styleUrl>#20802</styleUrl>
            <LineString id="20800">
                <coordinates>107.6922591,-6.9429349,0.0 107.6929876,-6.9430633,0.0 107.6934996,-6.9431345,0.0</coordinates>
            </LineString>
        </Placemark>
        <Placemark id="20805">
            <name>Jalan Gedebage Selatan</name>
            <styleUrl>#20806</styleUrl>
            <LineString id="20804">
                <coordinates>107.6918707,-6.9411457,0.0 107.6918681,-6.9410458,0.0 107.6918774,-6.9409704,0.0 107.6919325,-6.9407567,0.0 107.6920388,-6.9402408,0.0 107.6920617,-6.9401296,0.0 107.6920972,-6.9399363,0.0 107.6922186,-6.9393312,0.0 107.6922617,-6.9391162,0.0 107.6922773,-6.9390532,0.0 107.6925095,-6.9377585,0.0</coordinates>
            </LineString>
        </Placemark>
        <Placemark id="20809">
            <name>Grand Bulevar</name>
            <styleUrl>#20810</styleUrl>
            <LineString id="20808">
                <coordinates>107.6985047,-6.9559695,0.0 107.6986454,-6.9559067,0.0 107.6991026,-6.9557028,0.0 107.6992029,-6.955658,0.0</coordinates>
            </LineString>
        </Placemark>
        <Placemark id="20813">
            <name>Jalan Gedebage Selatan</name>
            <styleUrl>#20814</styleUrl>
            <LineString id="20812">
                <coordinates>107.6913732,-6.9425918,0.0 107.6914036,-6.9425205,0.0 107.6914639,-6.9423967,0.0 107.691658,-6.9420701,0.0 107.6917457,-6.9418786,0.0 107.6918098,-6.9417198,0.0 107.6918408,-6.9416411,0.0 107.6918605,-6.9415767,0.0 107.6918702,-6.9415374,0.0 107.6918821,-6.941389,0.0 107.6918815,-6.9413334,0.0 107.6918814,-6.9412602,0.0 107.6918707,-6.9411457,0.0</coordinates>
            </LineString>
        </Placemark>
        <Placemark id="20817">
            <name>Bulevar Utama</name>
            <styleUrl>#20818</styleUrl>
            <LineString id="20816">
                <coordinates>107.6939993,-6.9448711,0.0 107.6940451,-6.9451498,0.0 107.6940549,-6.9454198,0.0 107.6939956,-6.945748,0.0 107.693883,-6.9462931,0.0 107.6938426,-6.946504,0.0 107.6937835,-6.9467977,0.0 107.6936714,-6.9472801,0.0 107.6936446,-6.9474447,0.0 107.6936387,-6.9475888,0.0 107.6936481,-6.9477461,0.0 107.6936684,-6.9478875,0.0 107.6937141,-6.9481042,0.0 107.6937387,-6.9483439,0.0 107.6937397,-6.9485149,0.0 107.6937378,-6.9486526,0.0 107.693726,-6.9487685,0.0 107.6936982,-6.9489601,0.0 107.6936812,-6.9490793,0.0</coordinates>
            </LineString>
        </Placemark>
        <Placemark id="20821">
            <name>Jalan Gedebage Utama</name>
            <styleUrl>#20822</styleUrl>
            <LineString id="20820">
                <coordinates>107.6934996,-6.9431345,0.0 107.6936817,-6.943163,0.0</coordinates>
            </LineString>
        </Placemark>
        <Placemark id="20825">
            <name>Jalan Soekarno-Hatta</name>
            <styleUrl>#20826</styleUrl>
            <LineString id="20824">
                <coordinates>107.6919976,-6.9369777,0.0 107.6922068,-6.9369654,0.0</coordinates>
            </LineString>
        </Placemark>
        <Placemark id="20829">
            <name>Jalan Soekarno-Hatta</name>
            <styleUrl>#20830</styleUrl>
            <LineString id="20828">
                <coordinates>107.6925509,-6.9369475,0.0 107.6926303,-6.9369434,0.0</coordinates>
            </LineString>
        </Placemark>
        <Placemark id="20833">
            <name>Jalan Gedebage Utama</name>
            <styleUrl>#20834</styleUrl>
            <LineString id="20832">
                <coordinates>107.6913732,-6.9425918,0.0 107.691399,-6.9426272,0.0 107.6914349,-6.9426629,0.0 107.6915124,-6.9427329,0.0 107.6915856,-6.9427913,0.0 107.6916465,-6.9428238,0.0 107.6917398,-6.942856,0.0 107.6920158,-6.9429,0.0 107.6922591,-6.9429349,0.0</coordinates>
            </LineString>
        </Placemark>
        <Placemark id="20837">
            <name>Jalan Soekarno-Hatta</name>
            <styleUrl>#20838</styleUrl>
            <LineString id="20836">
                <coordinates>107.5823106,-6.941111,0.0 107.582497,-6.9413067,0.0 107.5826593,-6.9414771,0.0 107.5828645,-6.9416649,0.0 107.5831212,-6.9419015,0.0</coordinates>
            </LineString>
        </Placemark>
        <Placemark id="20841">
            <name>Bulevar Utama</name>
            <styleUrl>#20842</styleUrl>
            <LineString id="20840">
                <coordinates>107.6937023,-6.9434627,0.0 107.6939993,-6.9448711,0.0</coordinates>
            </LineString>
        </Placemark>
        <Placemark id="20845">
            <name>Grand Bulevar</name>
            <styleUrl>#20846</styleUrl>
            <LineString id="20844">
                <coordinates>107.695518,-6.9565498,0.0 107.6956096,-6.9565743,0.0</coordinates>
            </LineString>
        </Placemark>
    </Document>
</kml>
