<?xml version="1.0" encoding="UTF-8"?>
<kml xmlns="http://www.opengis.net/kml/2.2" xmlns:gx="http://www.google.com/kml/ext/2.2">
    <Document id="20047">
        <Style id="20053">
            <IconStyle id="20054">
                <colorMode>normal</colorMode>
                <scale>1</scale>
                <heading>0</heading>
                <Icon id="20055">
                    <href>http://maps.google.com/mapfiles/kml/pushpin/ylw-pushpin.png</href>
                </Icon>
            </IconStyle>
        </Style>
        <Style id="20058">
            <IconStyle id="20059">
                <colorMode>normal</colorMode>
                <scale>1</scale>
                <heading>0</heading>
                <Icon id="20060">
                    <href>http://maps.google.com/mapfiles/kml/pushpin/ylw-pushpin.png</href>
                </Icon>
            </IconStyle>
        </Style>
        <Style id="20063">
            <LineStyle id="20064">
                <color>ff912D66</color>
                <colorMode>normal</colorMode>
                <width>4</width>
            </LineStyle>
        </Style>
        <Style id="20067">
            <LineStyle id="20068">
                <color>ff912D66</color>
                <colorMode>normal</colorMode>
                <width>4</width>
            </LineStyle>
        </Style>
        <Style id="20071">
            <LineStyle id="20072">
                <color>ff912D66</color>
                <colorMode>normal</colorMode>
                <width>4</width>
            </LineStyle>
        </Style>
        <Style id="20075">
            <LineStyle id="20076">
                <color>ff912D66</color>
                <colorMode>normal</colorMode>
                <width>4</width>
            </LineStyle>
        </Style>
        <Style id="20079">
            <LineStyle id="20080">
                <color>ff912D66</color>
                <colorMode>normal</colorMode>
                <width>4</width>
            </LineStyle>
        </Style>
        <Style id="20083">
            <LineStyle id="20084">
                <color>ff912D66</color>
                <colorMode>normal</colorMode>
                <width>4</width>
            </LineStyle>
        </Style>
        <Style id="20087">
            <LineStyle id="20088">
                <color>ff912D66</color>
                <colorMode>normal</colorMode>
                <width>4</width>
            </LineStyle>
        </Style>
        <Style id="20091">
            <LineStyle id="20092">
                <color>ff912D66</color>
                <colorMode>normal</colorMode>
                <width>4</width>
            </LineStyle>
        </Style>
        <Style id="20095">
            <LineStyle id="20096">
                <color>ff912D66</color>
                <colorMode>normal</colorMode>
                <width>4</width>
            </LineStyle>
        </Style>
        <Style id="20099">
            <LineStyle id="20100">
                <color>ff912D66</color>
                <colorMode>normal</colorMode>
                <width>4</width>
            </LineStyle>
        </Style>
        <Style id="20103">
            <LineStyle id="20104">
                <color>ff912D66</color>
                <colorMode>normal</colorMode>
                <width>4</width>
            </LineStyle>
        </Style>
        <Style id="20107">
            <LineStyle id="20108">
                <color>ff912D66</color>
                <colorMode>normal</colorMode>
                <width>4</width>
            </LineStyle>
        </Style>
        <Style id="20111">
            <LineStyle id="20112">
                <color>ff912D66</color>
                <colorMode>normal</colorMode>
                <width>4</width>
            </LineStyle>
        </Style>
        <Style id="20115">
            <LineStyle id="20116">
                <color>ff912D66</color>
                <colorMode>normal</colorMode>
                <width>4</width>
            </LineStyle>
        </Style>
        <Style id="20119">
            <LineStyle id="20120">
                <color>ff912D66</color>
                <colorMode>normal</colorMode>
                <width>4</width>
            </LineStyle>
        </Style>
        <Style id="20123">
            <LineStyle id="20124">
                <color>ff912D66</color>
                <colorMode>normal</colorMode>
                <width>4</width>
            </LineStyle>
        </Style>
        <Style id="20127">
            <LineStyle id="20128">
                <color>ff912D66</color>
                <colorMode>normal</colorMode>
                <width>4</width>
            </LineStyle>
        </Style>
        <Style id="20131">
            <LineStyle id="20132">
                <color>ff912D66</color>
                <colorMode>normal</colorMode>
                <width>4</width>
            </LineStyle>
        </Style>
        <Style id="20135">
            <LineStyle id="20136">
                <color>ff912D66</color>
                <colorMode>normal</colorMode>
                <width>4</width>
            </LineStyle>
        </Style>
        <Style id="20139">
            <LineStyle id="20140">
                <color>ff912D66</color>
                <colorMode>normal</colorMode>
                <width>4</width>
            </LineStyle>
        </Style>
        <Style id="20143">
            <LineStyle id="20144">
                <color>ff912D66</color>
                <colorMode>normal</colorMode>
                <width>4</width>
            </LineStyle>
        </Style>
        <Style id="20147">
            <LineStyle id="20148">
                <color>ff912D66</color>
                <colorMode>normal</colorMode>
                <width>4</width>
            </LineStyle>
        </Style>
        <Style id="20151">
            <LineStyle id="20152">
                <color>ff912D66</color>
                <colorMode>normal</colorMode>
                <width>4</width>
            </LineStyle>
        </Style>
        <Style id="20155">
            <LineStyle id="20156">
                <color>ff912D66</color>
                <colorMode>normal</colorMode>
                <width>4</width>
            </LineStyle>
        </Style>
        <Style id="20159">
            <LineStyle id="20160">
                <color>ff912D66</color>
                <colorMode>normal</colorMode>
                <width>4</width>
            </LineStyle>
        </Style>
        <Style id="20163">
            <LineStyle id="20164">
                <color>ff912D66</color>
                <colorMode>normal</colorMode>
                <width>4</width>
            </LineStyle>
        </Style>
        <Style id="20167">
            <LineStyle id="20168">
                <color>ff912D66</color>
                <colorMode>normal</colorMode>
                <width>4</width>
            </LineStyle>
        </Style>
        <Style id="20171">
            <LineStyle id="20172">
                <color>ff912D66</color>
                <colorMode>normal</colorMode>
                <width>4</width>
            </LineStyle>
        </Style>
        <Style id="20175">
            <LineStyle id="20176">
                <color>ff912D66</color>
                <colorMode>normal</colorMode>
                <width>4</width>
            </LineStyle>
        </Style>
        <Style id="20179">
            <LineStyle id="20180">
                <color>ff912D66</color>
                <colorMode>normal</colorMode>
                <width>4</width>
            </LineStyle>
        </Style>
        <Style id="20183">
            <LineStyle id="20184">
                <color>ff912D66</color>
                <colorMode>normal</colorMode>
                <width>4</width>
            </LineStyle>
        </Style>
        <Style id="20187">
            <LineStyle id="20188">
                <color>ff912D66</color>
                <colorMode>normal</colorMode>
                <width>4</width>
            </LineStyle>
        </Style>
        <Style id="20191">
            <LineStyle id="20192">
                <color>ff912D66</color>
                <colorMode>normal</colorMode>
                <width>4</width>
            </LineStyle>
        </Style>
        <Style id="20195">
            <LineStyle id="20196">
                <color>ff912D66</color>
                <colorMode>normal</colorMode>
                <width>4</width>
            </LineStyle>
        </Style>
        <Style id="20199">
            <LineStyle id="20200">
                <color>ff912D66</color>
                <colorMode>normal</colorMode>
                <width>4</width>
            </LineStyle>
        </Style>
        <Style id="20203">
            <LineStyle id="20204">
                <color>ff912D66</color>
                <colorMode>normal</colorMode>
                <width>4</width>
            </LineStyle>
        </Style>
        <Style id="20207">
            <LineStyle id="20208">
                <color>ff912D66</color>
                <colorMode>normal</colorMode>
                <width>4</width>
            </LineStyle>
        </Style>
        <Style id="20211">
            <LineStyle id="20212">
                <color>ff912D66</color>
                <colorMode>normal</colorMode>
                <width>4</width>
            </LineStyle>
        </Style>
        <Style id="20215">
            <LineStyle id="20216">
                <color>ff912D66</color>
                <colorMode>normal</colorMode>
                <width>4</width>
            </LineStyle>
        </Style>
        <Style id="20219">
            <LineStyle id="20220">
                <color>ff912D66</color>
                <colorMode>normal</colorMode>
                <width>4</width>
            </LineStyle>
        </Style>
        <Style id="20223">
            <LineStyle id="20224">
                <color>ff912D66</color>
                <colorMode>normal</colorMode>
                <width>4</width>
            </LineStyle>
        </Style>
        <Style id="20227">
            <LineStyle id="20228">
                <color>ff912D66</color>
                <colorMode>normal</colorMode>
                <width>4</width>
            </LineStyle>
        </Style>
        <Style id="20231">
            <LineStyle id="20232">
                <color>ff912D66</color>
                <colorMode>normal</colorMode>
                <width>4</width>
            </LineStyle>
        </Style>
        <Style id="20235">
            <LineStyle id="20236">
                <color>ff912D66</color>
                <colorMode>normal</colorMode>
                <width>4</width>
            </LineStyle>
        </Style>
        <Style id="20239">
            <LineStyle id="20240">
                <color>ff912D66</color>
                <colorMode>normal</colorMode>
                <width>4</width>
            </LineStyle>
        </Style>
        <Style id="20243">
            <LineStyle id="20244">
                <color>ff912D66</color>
                <colorMode>normal</colorMode>
                <width>4</width>
            </LineStyle>
        </Style>
        <Style id="20247">
            <LineStyle id="20248">
                <color>ff912D66</color>
                <colorMode>normal</colorMode>
                <width>4</width>
            </LineStyle>
        </Style>
        <Style id="20251">
            <LineStyle id="20252">
                <color>ff912D66</color>
                <colorMode>normal</colorMode>
                <width>4</width>
            </LineStyle>
        </Style>
        <Style id="20255">
            <LineStyle id="20256">
                <color>ff912D66</color>
                <colorMode>normal</colorMode>
                <width>4</width>
            </LineStyle>
        </Style>
        <Style id="20259">
            <LineStyle id="20260">
                <color>ff912D66</color>
                <colorMode>normal</colorMode>
                <width>4</width>
            </LineStyle>
        </Style>
        <Style id="20263">
            <LineStyle id="20264">
                <color>ff912D66</color>
                <colorMode>normal</colorMode>
                <width>4</width>
            </LineStyle>
        </Style>
        <Style id="20267">
            <LineStyle id="20268">
                <color>ff912D66</color>
                <colorMode>normal</colorMode>
                <width>4</width>
            </LineStyle>
        </Style>
        <Style id="20271">
            <LineStyle id="20272">
                <color>ff912D66</color>
                <colorMode>normal</colorMode>
                <width>4</width>
            </LineStyle>
        </Style>
        <Style id="20275">
            <LineStyle id="20276">
                <color>ff912D66</color>
                <colorMode>normal</colorMode>
                <width>4</width>
            </LineStyle>
        </Style>
        <Style id="20279">
            <LineStyle id="20280">
                <color>ff912D66</color>
                <colorMode>normal</colorMode>
                <width>4</width>
            </LineStyle>
        </Style>
        <Style id="20283">
            <LineStyle id="20284">
                <color>ff912D66</color>
                <colorMode>normal</colorMode>
                <width>4</width>
            </LineStyle>
        </Style>
        <Style id="20287">
            <LineStyle id="20288">
                <color>ff912D66</color>
                <colorMode>normal</colorMode>
                <width>4</width>
            </LineStyle>
        </Style>
        <Style id="20291">
            <LineStyle id="20292">
                <color>ff912D66</color>
                <colorMode>normal</colorMode>
                <width>4</width>
            </LineStyle>
        </Style>
        <Style id="20295">
            <LineStyle id="20296">
                <color>ff912D66</color>
                <colorMode>normal</colorMode>
                <width>4</width>
            </LineStyle>
        </Style>
        <Style id="20299">
            <LineStyle id="20300">
                <color>ff912D66</color>
                <colorMode>normal</colorMode>
                <width>4</width>
            </LineStyle>
        </Style>
        <Style id="20303">
            <LineStyle id="20304">
                <color>ff912D66</color>
                <colorMode>normal</colorMode>
                <width>4</width>
            </LineStyle>
        </Style>
        <Style id="20307">
            <LineStyle id="20308">
                <color>ff912D66</color>
                <colorMode>normal</colorMode>
                <width>4</width>
            </LineStyle>
        </Style>
        <Style id="20311">
            <LineStyle id="20312">
                <color>ff912D66</color>
                <colorMode>normal</colorMode>
                <width>4</width>
            </LineStyle>
        </Style>
        <Style id="20315">
            <LineStyle id="20316">
                <color>ff912D66</color>
                <colorMode>normal</colorMode>
                <width>4</width>
            </LineStyle>
        </Style>
        <Style id="20319">
            <LineStyle id="20320">
                <color>ff912D66</color>
                <colorMode>normal</colorMode>
                <width>4</width>
            </LineStyle>
        </Style>
        <Style id="20323">
            <LineStyle id="20324">
                <color>ff912D66</color>
                <colorMode>normal</colorMode>
                <width>4</width>
            </LineStyle>
        </Style>
        <Style id="20327">
            <LineStyle id="20328">
                <color>ff912D66</color>
                <colorMode>normal</colorMode>
                <width>4</width>
            </LineStyle>
        </Style>
        <Style id="20331">
            <LineStyle id="20332">
                <color>ff912D66</color>
                <colorMode>normal</colorMode>
                <width>4</width>
            </LineStyle>
        </Style>
        <Style id="20335">
            <LineStyle id="20336">
                <color>ff912D66</color>
                <colorMode>normal</colorMode>
                <width>4</width>
            </LineStyle>
        </Style>
        <Style id="20339">
            <LineStyle id="20340">
                <color>ff912D66</color>
                <colorMode>normal</colorMode>
                <width>4</width>
            </LineStyle>
        </Style>
        <Style id="20343">
            <LineStyle id="20344">
                <color>ff912D66</color>
                <colorMode>normal</colorMode>
                <width>4</width>
            </LineStyle>
        </Style>
        <Style id="20347">
            <LineStyle id="20348">
                <color>ff912D66</color>
                <colorMode>normal</colorMode>
                <width>4</width>
            </LineStyle>
        </Style>
        <Style id="20351">
            <LineStyle id="20352">
                <color>ff912D66</color>
                <colorMode>normal</colorMode>
                <width>4</width>
            </LineStyle>
        </Style>
        <Style id="20355">
            <LineStyle id="20356">
                <color>ff912D66</color>
                <colorMode>normal</colorMode>
                <width>4</width>
            </LineStyle>
        </Style>
        <Style id="20359">
            <LineStyle id="20360">
                <color>ff912D66</color>
                <colorMode>normal</colorMode>
                <width>4</width>
            </LineStyle>
        </Style>
        <Style id="20363">
            <LineStyle id="20364">
                <color>ff912D66</color>
                <colorMode>normal</colorMode>
                <width>4</width>
            </LineStyle>
        </Style>
        <Style id="20367">
            <LineStyle id="20368">
                <color>ff912D66</color>
                <colorMode>normal</colorMode>
                <width>4</width>
            </LineStyle>
        </Style>
        <Style id="20371">
            <LineStyle id="20372">
                <color>ff912D66</color>
                <colorMode>normal</colorMode>
                <width>4</width>
            </LineStyle>
        </Style>
        <Style id="20375">
            <LineStyle id="20376">
                <color>ff912D66</color>
                <colorMode>normal</colorMode>
                <width>4</width>
            </LineStyle>
        </Style>
        <Style id="20379">
            <LineStyle id="20380">
                <color>ff912D66</color>
                <colorMode>normal</colorMode>
                <width>4</width>
            </LineStyle>
        </Style>
        <ExtendedData>
            <Data name="route-name">
                <value>Feeder 1: Gunung Batu → Stasiun Hall</value>
            </Data>
            <Data name="source">
                <value>Transport for Bandung</value>
            </Data>
        </ExtendedData>
        <Placemark id="20052">
            <name>Gunung Batu</name>
            <styleUrl>#20053</styleUrl>
            <Point id="20051">
                <coordinates>107.5672467,-6.8875315,0.0</coordinates>
            </Point>
        </Placemark>
        <Placemark id="20057">
            <name>Stasiun Hall</name>
            <styleUrl>#20058</styleUrl>
            <Point id="20056">
                <coordinates>107.6024325,-6.9161432,0.0</coordinates>
            </Point>
        </Placemark>
        <Placemark id="20062">
            <name>Jalan Cicendo</name>
            <styleUrl>#20063</styleUrl>
            <LineString id="20061">
                <coordinates>107.6044417,-6.9072201,0.0 107.6044521,-6.9072879,0.0 107.604458,-6.9073889,0.0 107.6044748,-6.9078654,0.0 107.6044776,-6.9079587,0.0 107.6044909,-6.9084617,0.0 107.6044917,-6.9087943,0.0 107.6044683,-6.9089756,0.0 107.6044333,-6.9091247,0.0 107.6043797,-6.9092856,0.0 107.6043042,-6.9094657,0.0 107.6042851,-6.9095101,0.0 107.6042598,-6.9095715,0.0 107.6042199,-6.9096823,0.0 107.6041664,-6.9098645,0.0 107.60413,-6.9100304,0.0 107.6041131,-6.910177,0.0 107.604095,-6.9104032,0.0 107.6040795,-6.910612,0.0 107.6040749,-6.9106747,0.0 107.6040736,-6.9106984,0.0 107.6040635,-6.9108642,0.0 107.6040608,-6.9109088,0.0 107.6039986,-6.911908,0.0 107.6039597,-6.9124977,0.0 107.6039561,-6.9125447,0.0</coordinates>
            </LineString>
        </Placemark>
        <Placemark id="20066">
            <name>Jalan Pajajaran</name>
            <styleUrl>#20067</styleUrl>
            <LineString id="20065">
                <coordinates>107.6073865,-6.9076628,0.0 107.6073442,-6.9076324,0.0 107.6072754,-6.9075859,0.0 107.6071035,-6.9074752,0.0 107.6070242,-6.9074318,0.0 107.6068765,-6.907351,0.0 107.6066403,-6.907244,0.0 107.6065225,-6.9072053,0.0 107.6064209,-6.9071852,0.0 107.6062761,-6.9071663,0.0 107.6061572,-6.9071583,0.0 107.6058415,-6.9071486,0.0 107.6055894,-6.9071347,0.0</coordinates>
            </LineString>
        </Placemark>
        <Placemark id="20070">
            <name>Jalan HOS. Cokroaminoto</name>
            <styleUrl>#20071</styleUrl>
            <LineString id="20069">
                <coordinates>107.5981394,-6.9147779,0.0 107.5981365,-6.9148374,0.0 107.5981359,-6.91495,0.0 107.5981514,-6.9151141,0.0 107.5981684,-6.9152126,0.0 107.5981841,-6.9153059,0.0 107.5982121,-6.9155148,0.0 107.5982179,-6.9155581,0.0 107.5982323,-6.9156913,0.0 107.5982633,-6.916131,0.0 107.5982691,-6.91619,0.0</coordinates>
            </LineString>
        </Placemark>
        <Placemark id="20074">
            <name>Jalan Kebon Kawung</name>
            <styleUrl>#20075</styleUrl>
            <LineString id="20073">
                <coordinates>107.6019305,-6.9125353,0.0 107.601745,-6.9125245,0.0</coordinates>
            </LineString>
        </Placemark>
        <Placemark id="20078">
            <name>Jalan Kebon Jati</name>
            <styleUrl>#20079</styleUrl>
            <LineString id="20077">
                <coordinates>107.5984551,-6.9163007,0.0 107.5986452,-6.9162913,0.0 107.5986682,-6.9162902,0.0 107.5987499,-6.9162865,0.0 107.5988546,-6.916282,0.0 107.5991941,-6.9162673,0.0 107.5995626,-6.9162453,0.0 107.599627,-6.9162422,0.0 107.6002509,-6.9162121,0.0 107.600424,-6.9162116,0.0 107.6005777,-6.9162099,0.0 107.6007548,-6.9162056,0.0 107.6010558,-6.9162013,0.0 107.6016262,-6.916191,0.0 107.6019595,-6.9161867,0.0 107.6022008,-6.9161702,0.0</coordinates>
            </LineString>
        </Placemark>
        <Placemark id="20082">
            <name>Jalan HOS. Cokroaminoto</name>
            <styleUrl>#20083</styleUrl>
            <LineString id="20081">
                <coordinates>107.5981313,-6.9141206,0.0 107.5981201,-6.9145111,0.0</coordinates>
            </LineString>
        </Placemark>
        <Placemark id="20086">
            <name>Jalan Gunung Batu</name>
            <styleUrl>#20087</styleUrl>
            <LineString id="20085">
                <coordinates>107.5666744,-6.889252,0.0 107.566898,-6.8893002,0.0 107.5673426,-6.8893961,0.0 107.5674492,-6.8894061,0.0 107.5679818,-6.8894316,0.0 107.568348,-6.8894666,0.0 107.5686609,-6.8895118,0.0 107.5688326,-6.8895366,0.0 107.5695663,-6.8896411,0.0 107.5698608,-6.8896958,0.0 107.5698999,-6.889704,0.0 107.5710969,-6.889956,0.0 107.571799,-6.8901058,0.0 107.5718812,-6.8901307,0.0 107.5719509,-6.8901682,0.0 107.5720118,-6.890214,0.0 107.5720632,-6.8902745,0.0</coordinates>
            </LineString>
        </Placemark>
        <Placemark id="20090">
            <name>Jalan Sukaraja II</name>
            <styleUrl>#20091</styleUrl>
            <LineString id="20089">
                <coordinates>107.5726332,-6.8935801,0.0 107.5726514,-6.8936053,0.0 107.5726767,-6.8936228,0.0 107.5727163,-6.8936381,0.0 107.5733107,-6.8937105,0.0 107.5737486,-6.8937594,0.0 107.57427,-6.8938125,0.0 107.5743129,-6.8938131,0.0 107.5743531,-6.8938051,0.0 107.5743913,-6.8937881,0.0</coordinates>
            </LineString>
        </Placemark>
        <Placemark id="20094">
            <name>Jalan Dakota</name>
            <styleUrl>#20095</styleUrl>
            <LineString id="20093">
                <coordinates>107.5720632,-6.8902745,0.0 107.5721035,-6.8903481,0.0 107.5721384,-6.8904395,0.0 107.5721625,-6.8905452,0.0 107.5721993,-6.8907689,0.0 107.572217,-6.8908761,0.0 107.5722324,-6.8909698,0.0 107.5722426,-6.8910315,0.0 107.5722985,-6.8913707,0.0 107.5723059,-6.8914155,0.0 107.5723375,-6.8916076,0.0 107.5723693,-6.8918003,0.0 107.5723836,-6.8918872,0.0 107.572441,-6.8922359,0.0 107.5725513,-6.8929057,0.0 107.5725776,-6.8930836,0.0 107.5726156,-6.8935189,0.0 107.5726238,-6.8935635,0.0 107.5726332,-6.8935801,0.0</coordinates>
            </LineString>
        </Placemark>
        <Placemark id="20098">
            <name>Overpass Gunung Batu</name>
            <styleUrl>#20099</styleUrl>
            <LineString id="20097">
                <coordinates>107.5668171,-6.8885326,0.0 107.566899,-6.8882692,0.0 107.5672212,-6.8875923,0.0 107.5672467,-6.8875315,0.0</coordinates>
            </LineString>
        </Placemark>
        <Placemark id="20102">
            <name>Jalan Sukaraja</name>
            <styleUrl>#20103</styleUrl>
            <LineString id="20101">
                <coordinates>107.5807947,-6.892408,0.0 107.580577,-6.8923312,0.0 107.5804965,-6.8922996,0.0 107.5804139,-6.8922691,0.0 107.5802699,-6.8922159,0.0 107.5798198,-6.8919878,0.0 107.579514,-6.8918344,0.0 107.5794555,-6.8918038,0.0</coordinates>
            </LineString>
        </Placemark>
        <Placemark id="20106">
            <name>Jalan Pajajaran</name>
            <styleUrl>#20107</styleUrl>
            <LineString id="20105">
                <coordinates>107.6055894,-6.9071347,0.0 107.6053829,-6.907135,0.0</coordinates>
            </LineString>
        </Placemark>
        <Placemark id="20110">
            <name>Jalan Cihampelas</name>
            <styleUrl>#20111</styleUrl>
            <LineString id="20109">
                <coordinates>107.6042016,-6.9003842,0.0 107.604264,-6.9008715,0.0</coordinates>
            </LineString>
        </Placemark>
        <Placemark id="20114">
            <name>Jalan Cihampelas</name>
            <styleUrl>#20115</styleUrl>
            <LineString id="20113">
                <coordinates>107.6041803,-6.900144,0.0 107.6041813,-6.9001579,0.0 107.604189,-6.9002755,0.0 107.6041992,-6.9003596,0.0 107.6042016,-6.9003842,0.0</coordinates>
            </LineString>
        </Placemark>
        <Placemark id="20118">
            <name>Jalan Dr. Djunjunan</name>
            <styleUrl>#20119</styleUrl>
            <LineString id="20117">
                <coordinates>107.5810582,-6.8921467,0.0 107.5811571,-6.8921678,0.0</coordinates>
            </LineString>
        </Placemark>
        <Placemark id="20122">
            <name>Jalan Dr. Djunjunan</name>
            <styleUrl>#20123</styleUrl>
            <LineString id="20121">
                <coordinates>107.5936018,-6.898303,0.0 107.594085,-6.8986577,0.0 107.5941136,-6.8986787,0.0 107.5944451,-6.8989736,0.0 107.5947669,-6.8992747,0.0 107.5950127,-6.8995008,0.0 107.5952583,-6.8996846,0.0 107.5954259,-6.8997986,0.0 107.5955508,-6.8998655,0.0 107.595629,-6.8999074,0.0</coordinates>
            </LineString>
        </Placemark>
        <Placemark id="20126">
            <name>Jalan Sukaraja</name>
            <styleUrl>#20127</styleUrl>
            <LineString id="20125">
                <coordinates>107.5807947,-6.892408,0.0 107.5808748,-6.8923832,0.0 107.580914,-6.8923693,0.0 107.5809542,-6.8923465,0.0 107.5809794,-6.8923212,0.0 107.5809993,-6.8922941,0.0 107.581013,-6.8922632,0.0</coordinates>
            </LineString>
        </Placemark>
        <Placemark id="20130">
            <name>Jalan Pasteur</name>
            <styleUrl>#20131</styleUrl>
            <LineString id="20129">
                <coordinates>107.5993001,-6.900202,0.0 107.599805,-6.900195,0.0 107.6003645,-6.900192,0.0 107.6008037,-6.9002057,0.0 107.6010655,-6.9002051,0.0</coordinates>
            </LineString>
        </Placemark>
        <Placemark id="20134">
            <name>Jalan Cihampelas</name>
            <styleUrl>#20135</styleUrl>
            <LineString id="20133">
                <coordinates>107.604369,-6.9041823,0.0 107.6043878,-6.9042234,0.0 107.6044168,-6.9042582,0.0 107.604454,-6.9042842,0.0</coordinates>
            </LineString>
        </Placemark>
        <Placemark id="20138">
            <name>Jalan Wastukencana</name>
            <styleUrl>#20139</styleUrl>
            <LineString id="20137">
                <coordinates>107.604454,-6.9042842,0.0 107.6045194,-6.9042857,0.0</coordinates>
            </LineString>
        </Placemark>
        <Placemark id="20142">
            <name>Jalan Wastukancana</name>
            <styleUrl>#20143</styleUrl>
            <LineString id="20141">
                <coordinates>107.6075644,-6.9054686,0.0 107.607609,-6.9055867,0.0 107.6076511,-6.9057161,0.0 107.6076853,-6.905845,0.0</coordinates>
            </LineString>
        </Placemark>
        <Placemark id="20146">
            <name>Jalan Dr. Djunjunan</name>
            <styleUrl>#20147</styleUrl>
            <LineString id="20145">
                <coordinates>107.595629,-6.8999074,0.0 107.5957356,-6.8999574,0.0 107.5958578,-6.9000055,0.0 107.5960113,-6.9000567,0.0 107.5962502,-6.9001202,0.0 107.5963399,-6.9001472,0.0 107.5964623,-6.9001732,0.0 107.596578,-6.9001845,0.0 107.5967905,-6.9002045,0.0 107.5970495,-6.9002074,0.0</coordinates>
            </LineString>
        </Placemark>
        <Placemark id="20150">
            <name>Overpass Gunung Batu</name>
            <styleUrl>#20151</styleUrl>
            <LineString id="20149">
                <coordinates>107.5668171,-6.8885326,0.0 107.5667162,-6.8890247,0.0</coordinates>
            </LineString>
        </Placemark>
        <Placemark id="20154">
            <name>Jalan Dr. Djunjunan</name>
            <styleUrl>#20155</styleUrl>
            <LineString id="20153">
                <coordinates>107.5819472,-6.8922747,0.0 107.582151,-6.8922778,0.0 107.5824915,-6.8922676,0.0 107.5829072,-6.8922539,0.0 107.5830115,-6.8922505,0.0 107.5831666,-6.89225,0.0 107.5835209,-6.8922577,0.0 107.5836678,-6.892264,0.0 107.5837576,-6.892272,0.0 107.5839104,-6.8922944,0.0 107.58417,-6.8923379,0.0 107.5844712,-6.8924032,0.0 107.5845652,-6.8924203,0.0 107.5845966,-6.8924318,0.0 107.5849478,-6.8925604,0.0 107.5851106,-6.8926214,0.0 107.5851944,-6.8926652,0.0 107.5852992,-6.8927221,0.0 107.5853945,-6.8927739,0.0 107.5854858,-6.8928249,0.0 107.5855165,-6.8928413,0.0 107.585756,-6.8929666,0.0 107.5858569,-6.8930235,0.0 107.5869911,-6.8938819,0.0 107.5871385,-6.8939896,0.0</coordinates>
            </LineString>
        </Placemark>
        <Placemark id="20158">
            <name>Jalan Pasteur</name>
            <styleUrl>#20159</styleUrl>
            <LineString id="20157">
                <coordinates>107.5985704,-6.900207,0.0 107.5988449,-6.9002092,0.0 107.5988968,-6.9002096,0.0</coordinates>
            </LineString>
        </Placemark>
        <Placemark id="20162">
            <name>Jalan Wastukancana</name>
            <styleUrl>#20163</styleUrl>
            <LineString id="20161">
                <coordinates>107.604907,-6.904268,0.0 107.6050035,-6.9041885,0.0 107.6051531,-6.9040927,0.0 107.605225,-6.9040549,0.0 107.6052645,-6.9040341,0.0 107.605369,-6.9039986,0.0 107.6054495,-6.9039862,0.0 107.6055461,-6.9039795,0.0 107.6056396,-6.9039773,0.0 107.6058035,-6.9039995,0.0 107.6059967,-6.9040381,0.0 107.6061616,-6.9040807,0.0 107.606306,-6.9041384,0.0 107.6063615,-6.9041606,0.0 107.6065841,-6.9042698,0.0</coordinates>
            </LineString>
        </Placemark>
        <Placemark id="20166">
            <name>Jalan Cihampelas</name>
            <styleUrl>#20167</styleUrl>
            <LineString id="20165">
                <coordinates>107.604264,-6.9008715,0.0 107.6042787,-6.9010952,0.0 107.6042858,-6.9012975,0.0 107.6043224,-6.9023437,0.0 107.6043266,-6.9027188,0.0 107.6043559,-6.9036874,0.0 107.6043657,-6.9040669,0.0 107.6043665,-6.9040981,0.0 107.604369,-6.9041823,0.0</coordinates>
            </LineString>
        </Placemark>
        <Placemark id="20170">
            <name>Jalan Dr. Djunjunan</name>
            <styleUrl>#20171</styleUrl>
            <LineString id="20169">
                <coordinates>107.5811571,-6.8921678,0.0 107.5813175,-6.892198,0.0 107.5819472,-6.8922747,0.0</coordinates>
            </LineString>
        </Placemark>
        <Placemark id="20174">
            <name>Jalan Pasteur</name>
            <styleUrl>#20175</styleUrl>
            <LineString id="20173">
                <coordinates>107.5977317,-6.9002067,0.0 107.5979866,-6.900214,0.0</coordinates>
            </LineString>
        </Placemark>
        <Placemark id="20178">
            <name>Jalan Wastukancana</name>
            <styleUrl>#20179</styleUrl>
            <LineString id="20177">
                <coordinates>107.6076516,-6.9060628,0.0 107.607682,-6.9063009,0.0 107.6076926,-6.9064512,0.0 107.6076908,-6.9066043,0.0 107.6076724,-6.9068066,0.0 107.6076183,-6.907233,0.0 107.6075667,-6.9075563,0.0 107.6075461,-6.9076136,0.0 107.6074993,-6.9076457,0.0 107.6073865,-6.9076628,0.0</coordinates>
            </LineString>
        </Placemark>
        <Placemark id="20182">
            <name>Jalan Pajajaran</name>
            <styleUrl>#20183</styleUrl>
            <LineString id="20181">
                <coordinates>107.6053829,-6.907135,0.0 107.6051824,-6.9071438,0.0 107.6051387,-6.9071446,0.0 107.6045501,-6.9071569,0.0 107.6045,-6.907158,0.0</coordinates>
            </LineString>
        </Placemark>
        <Placemark id="20186">
            <name>Jalan Dr. Djunjunan</name>
            <styleUrl>#20187</styleUrl>
            <LineString id="20185">
                <coordinates>107.5871385,-6.8939896,0.0 107.5878578,-6.8945044,0.0 107.5880764,-6.894663,0.0 107.5882514,-6.89479,0.0 107.5883596,-6.8948674,0.0 107.5883918,-6.8948914,0.0 107.5887732,-6.8951757,0.0 107.5888526,-6.8952324,0.0 107.5889151,-6.8952824,0.0 107.5889641,-6.8953196,0.0 107.5890741,-6.8954031,0.0 107.5891588,-6.8954636,0.0 107.5894242,-6.8956585,0.0 107.5895178,-6.8957186,0.0 107.5897248,-6.8958301,0.0 107.589913,-6.8959339,0.0 107.5901962,-6.8960883,0.0 107.5904656,-6.8962229,0.0 107.5905302,-6.8962586,0.0 107.5907946,-6.8964009,0.0 107.591108,-6.8965587,0.0 107.5912792,-6.8966614,0.0 107.5916942,-6.8968726,0.0 107.5919664,-6.8970436,0.0 107.5921671,-6.8971698,0.0 107.5922221,-6.8972027,0.0 107.5924064,-6.8973127,0.0 107.5926529,-6.8974821,0.0 107.5929713,-6.8977117,0.0 107.5930174,-6.8977454,0.0 107.5932178,-6.8979319,0.0 107.5935309,-6.8982345,0.0 107.5936018,-6.898303,0.0</coordinates>
            </LineString>
        </Placemark>
        <Placemark id="20190">
            <name>Jalan Sukaraja</name>
            <styleUrl>#20191</styleUrl>
            <LineString id="20189">
                <coordinates>107.5763426,-6.8911426,0.0 107.576486,-6.8911581,0.0</coordinates>
            </LineString>
        </Placemark>
        <Placemark id="20194">
            <name>Jalan Sukaraja</name>
            <styleUrl>#20195</styleUrl>
            <LineString id="20193">
                <coordinates>107.5761887,-6.89111,0.0 107.5763426,-6.8911426,0.0</coordinates>
            </LineString>
        </Placemark>
        <Placemark id="20198">
            <name>Overpass Gunung Batu</name>
            <styleUrl>#20199</styleUrl>
            <LineString id="20197">
                <coordinates>107.5667162,-6.8890247,0.0 107.5666744,-6.889252,0.0</coordinates>
            </LineString>
        </Placemark>
        <Placemark id="20202">
            <name>Route Segment</name>
            <styleUrl>#20203</styleUrl>
            <LineString id="20201">
                <coordinates>107.6077246,-6.9060495,0.0 107.6076516,-6.9060628,0.0</coordinates>
            </LineString>
        </Placemark>
        <Placemark id="20206">
            <name>Jalan Cicendo</name>
            <styleUrl>#20207</styleUrl>
            <LineString id="20205">
                <coordinates>107.6039561,-6.9125447,0.0 107.603934,-6.912602,0.0 107.6039133,-6.9126367,0.0 107.603885,-6.9126611,0.0</coordinates>
            </LineString>
        </Placemark>
        <Placemark id="20210">
            <name>Jalan HOS. Cokroaminoto</name>
            <styleUrl>#20211</styleUrl>
            <LineString id="20209">
                <coordinates>107.5982527,-6.912368,0.0 107.5981712,-6.9123893,0.0 107.5981013,-6.9124336,0.0 107.5980813,-6.9124536,0.0 107.5980631,-6.9124827,0.0 107.5980572,-6.9125176,0.0 107.5980576,-6.912581,0.0 107.5980619,-6.912679,0.0 107.5980673,-6.9127983,0.0 107.5980682,-6.9128159,0.0 107.5980735,-6.9128984,0.0 107.5980862,-6.9131496,0.0 107.5980866,-6.9131574,0.0 107.5980924,-6.9133033,0.0 107.5980951,-6.9133446,0.0 107.5980899,-6.9133886,0.0 107.5980724,-6.9134153,0.0</coordinates>
            </LineString>
        </Placemark>
        <Placemark id="20214">
            <name>Jalan HOS. Cokroaminoto</name>
            <styleUrl>#20215</styleUrl>
            <LineString id="20213">
                <coordinates>107.5981201,-6.9145111,0.0 107.5981205,-6.9145443,0.0</coordinates>
            </LineString>
        </Placemark>
        <Placemark id="20218">
            <name>Jalan HOS. Cokroaminoto</name>
            <styleUrl>#20219</styleUrl>
            <LineString id="20217">
                <coordinates>107.5981205,-6.9145443,0.0 107.5981401,-6.9145877,0.0 107.5981422,-6.9146201,0.0 107.5981394,-6.9147779,0.0</coordinates>
            </LineString>
        </Placemark>
        <Placemark id="20222">
            <name>Jalan Pajajaran</name>
            <styleUrl>#20223</styleUrl>
            <LineString id="20221">
                <coordinates>107.6045,-6.907158,0.0 107.6044996,-6.907174,0.0 107.6044946,-6.9071893,0.0 107.6044854,-6.9072025,0.0 107.6044728,-6.9072125,0.0 107.6044578,-6.9072185,0.0 107.6044417,-6.9072201,0.0</coordinates>
            </LineString>
        </Placemark>
        <Placemark id="20226">
            <name>Jalan Wastukancana</name>
            <styleUrl>#20227</styleUrl>
            <LineString id="20225">
                <coordinates>107.607556,-6.9054463,0.0 107.6075644,-6.9054686,0.0</coordinates>
            </LineString>
        </Placemark>
        <Placemark id="20230">
            <name>Jalan Dokter Djundjunan Setiakusumah</name>
            <styleUrl>#20231</styleUrl>
            <LineString id="20229">
                <coordinates>107.5973566,-6.9002078,0.0 107.5974384,-6.9002085,0.0</coordinates>
            </LineString>
        </Placemark>
        <Placemark id="20234">
            <name>Jalan Sukaraja II</name>
            <styleUrl>#20235</styleUrl>
            <LineString id="20233">
                <coordinates>107.5743913,-6.8937881,0.0 107.5744352,-6.8937597,0.0 107.5745582,-6.8936245,0.0 107.5748149,-6.8931333,0.0 107.5750083,-6.8926448,0.0 107.5751116,-6.8923726,0.0 107.5751806,-6.8922407,0.0 107.5753845,-6.8919678,0.0 107.5754545,-6.8918515,0.0 107.5754894,-6.891774,0.0 107.5755267,-6.8914682,0.0 107.5755656,-6.8913711,0.0 107.5756474,-6.8913072,0.0 107.5759728,-6.8911239,0.0 107.5760447,-6.8911007,0.0 107.5760771,-6.8910903,0.0 107.5761887,-6.89111,0.0</coordinates>
            </LineString>
        </Placemark>
        <Placemark id="20238">
            <name>Jalan Pasteur</name>
            <styleUrl>#20239</styleUrl>
            <LineString id="20237">
                <coordinates>107.6035214,-6.9002184,0.0 107.6038638,-6.9002105,0.0 107.6039813,-6.9001984,0.0 107.6040453,-6.9001871,0.0 107.6040633,-6.9001819,0.0 107.6041064,-6.9001685,0.0 107.6041803,-6.900144,0.0</coordinates>
            </LineString>
        </Placemark>
        <Placemark id="20242">
            <name>Jalan Pasteur</name>
            <styleUrl>#20243</styleUrl>
            <LineString id="20241">
                <coordinates>107.6031071,-6.9002112,0.0 107.6035214,-6.9002184,0.0</coordinates>
            </LineString>
        </Placemark>
        <Placemark id="20246">
            <name>Jalan Wastukancana</name>
            <styleUrl>#20247</styleUrl>
            <LineString id="20245">
                <coordinates>107.6047378,-6.9043028,0.0 107.604907,-6.904268,0.0</coordinates>
            </LineString>
        </Placemark>
        <Placemark id="20250">
            <name>Jalan Wastukancana</name>
            <styleUrl>#20251</styleUrl>
            <LineString id="20249">
                <coordinates>107.6045194,-6.9042857,0.0 107.6045928,-6.9042871,0.0 107.6046289,-6.9042878,0.0 107.6047378,-6.9043028,0.0</coordinates>
            </LineString>
        </Placemark>
        <Placemark id="20254">
            <name>Jalan Pasteur</name>
            <styleUrl>#20255</styleUrl>
            <LineString id="20253">
                <coordinates>107.5974384,-6.9002085,0.0 107.5977317,-6.9002067,0.0</coordinates>
            </LineString>
        </Placemark>
        <Placemark id="20258">
            <name>Jalan Wastukancana</name>
            <styleUrl>#20259</styleUrl>
            <LineString id="20257">
                <coordinates>107.6074587,-6.9052269,0.0 107.607556,-6.9054463,0.0</coordinates>
            </LineString>
        </Placemark>
        <Placemark id="20262">
            <name>Jalan Kebon Kawung</name>
            <styleUrl>#20263</styleUrl>
            <LineString id="20261">
                <coordinates>107.603885,-6.9126611,0.0 107.6038515,-6.9126567,0.0 107.6036069,-6.9126444,0.0 107.6032433,-6.9126176,0.0 107.6029824,-6.9125986,0.0 107.6029303,-6.9125954,0.0 107.6027169,-6.9125813,0.0 107.6024779,-6.9125651,0.0 107.6023535,-6.9125612,0.0 107.6022742,-6.9125566,0.0 107.6020122,-6.91254,0.0</coordinates>
            </LineString>
        </Placemark>
        <Placemark id="20266">
            <name>Jalan Kebon Kawung</name>
            <styleUrl>#20267</styleUrl>
            <LineString id="20265">
                <coordinates>107.6020122,-6.91254,0.0 107.6019305,-6.9125353,0.0</coordinates>
            </LineString>
        </Placemark>
        <Placemark id="20270">
            <name>Jalan HOS. Cokroaminoto</name>
            <styleUrl>#20271</styleUrl>
            <LineString id="20269">
                <coordinates>107.5980758,-6.9134531,0.0 107.5981284,-6.913989,0.0 107.5981313,-6.9140657,0.0 107.5981313,-6.9141206,0.0</coordinates>
            </LineString>
        </Placemark>
        <Placemark id="20274">
            <name>Jalan HOS. Cokroaminoto</name>
            <styleUrl>#20275</styleUrl>
            <LineString id="20273">
                <coordinates>107.5980724,-6.9134153,0.0 107.5980758,-6.9134531,0.0</coordinates>
            </LineString>
        </Placemark>
        <Placemark id="20278">
            <name>Jalan Prof. Dr. Surya Soemantri</name>
            <styleUrl>#20279</styleUrl>
            <LineString id="20277">
                <coordinates>107.581013,-6.8922632,0.0 107.5810582,-6.8921467,0.0</coordinates>
            </LineString>
        </Placemark>
        <Placemark id="20282">
            <name>Jalan Pasteur</name>
            <styleUrl>#20283</styleUrl>
            <LineString id="20281">
                <coordinates>107.5979866,-6.900214,0.0 107.5985704,-6.900207,0.0</coordinates>
            </LineString>
        </Placemark>
        <Placemark id="20286">
            <name>Jalan Pasteur</name>
            <styleUrl>#20287</styleUrl>
            <LineString id="20285">
                <coordinates>107.6022753,-6.900203,0.0 107.6027269,-6.9002045,0.0 107.6027515,-6.9002046,0.0 107.6029796,-6.9002088,0.0 107.6031071,-6.9002112,0.0</coordinates>
            </LineString>
        </Placemark>
        <Placemark id="20290">
            <name>Jalan Dr. Djunjunan</name>
            <styleUrl>#20291</styleUrl>
            <LineString id="20289">
                <coordinates>107.5970495,-6.9002074,0.0 107.5973566,-6.9002078,0.0</coordinates>
            </LineString>
        </Placemark>
        <Placemark id="20294">
            <name>Jalan Pasteur</name>
            <styleUrl>#20295</styleUrl>
            <LineString id="20293">
                <coordinates>107.5988968,-6.9002096,0.0 107.5993001,-6.900202,0.0</coordinates>
            </LineString>
        </Placemark>
        <Placemark id="20298">
            <name>Jalan Suniaraja</name>
            <styleUrl>#20299</styleUrl>
            <LineString id="20297">
                <coordinates>107.6022008,-6.9161702,0.0 107.6023308,-6.916154,0.0 107.6024325,-6.9161432,0.0</coordinates>
            </LineString>
        </Placemark>
        <Placemark id="20302">
            <name>Jalan Wastukancana</name>
            <styleUrl>#20303</styleUrl>
            <LineString id="20301">
                <coordinates>107.6076853,-6.905845,0.0 107.6077246,-6.9060495,0.0</coordinates>
            </LineString>
        </Placemark>
        <Placemark id="20306">
            <name>Jalan Wastukancana</name>
            <styleUrl>#20307</styleUrl>
            <LineString id="20305">
                <coordinates>107.6070138,-6.9046,0.0 107.6071411,-6.9047305,0.0</coordinates>
            </LineString>
        </Placemark>
        <Placemark id="20310">
            <name>Jalan Wastukancana</name>
            <styleUrl>#20311</styleUrl>
            <LineString id="20309">
                <coordinates>107.6071411,-6.9047305,0.0 107.607265,-6.9048943,0.0 107.607283,-6.9049195,0.0 107.6074067,-6.905129,0.0 107.6074587,-6.9052269,0.0</coordinates>
            </LineString>
        </Placemark>
        <Placemark id="20314">
            <name>Jalan Wastukancana</name>
            <styleUrl>#20315</styleUrl>
            <LineString id="20313">
                <coordinates>107.6069187,-6.9045127,0.0 107.6070138,-6.9046,0.0</coordinates>
            </LineString>
        </Placemark>
        <Placemark id="20318">
            <name>Jalan Wastukancana</name>
            <styleUrl>#20319</styleUrl>
            <LineString id="20317">
                <coordinates>107.6065841,-6.9042698,0.0 107.6067222,-6.904359,0.0 107.6068568,-6.9044553,0.0 107.6069187,-6.9045127,0.0</coordinates>
            </LineString>
        </Placemark>
        <Placemark id="20322">
            <name>Jalan Pasteur</name>
            <styleUrl>#20323</styleUrl>
            <LineString id="20321">
                <coordinates>107.6010655,-6.9002051,0.0 107.6021013,-6.9002033,0.0 107.6021562,-6.9002043,0.0 107.6022098,-6.9002031,0.0 107.6022753,-6.900203,0.0</coordinates>
            </LineString>
        </Placemark>
        <Placemark id="20326">
            <name>Jalan Sukaraja</name>
            <styleUrl>#20327</styleUrl>
            <LineString id="20325">
                <coordinates>107.5794007,-6.8917752,0.0 107.5790567,-6.8916313,0.0 107.5786575,-6.8914927,0.0 107.5785226,-6.8914458,0.0 107.5779404,-6.8913106,0.0 107.5772675,-6.8911676,0.0 107.5770756,-6.8911417,0.0 107.5768762,-6.8911396,0.0 107.5766618,-6.891156,0.0 107.576486,-6.8911581,0.0</coordinates>
            </LineString>
        </Placemark>
        <Placemark id="20330">
            <name>Jalan Sukaraja</name>
            <styleUrl>#20331</styleUrl>
            <LineString id="20329">
                <coordinates>107.5794555,-6.8918038,0.0 107.5794007,-6.8917752,0.0</coordinates>
            </LineString>
        </Placemark>
        <Placemark id="20334">
            <name>Jalan HOS. Cokroaminoto</name>
            <styleUrl>#20335</styleUrl>
            <LineString id="20333">
                <coordinates>107.5982691,-6.91619,0.0 107.5982712,-6.9162489,0.0 107.5982716,-6.9162705,0.0 107.5982729,-6.9163191,0.0</coordinates>
            </LineString>
        </Placemark>
        <Placemark id="20338">
            <name>Jalan Kebon Jati</name>
            <styleUrl>#20339</styleUrl>
            <LineString id="20337">
                <coordinates>107.5982729,-6.9163191,0.0 107.5984551,-6.9163007,0.0</coordinates>
            </LineString>
        </Placemark>
        <Placemark id="20342">
            <name>Jalan Kebon Kawung</name>
            <styleUrl>#20343</styleUrl>
            <LineString id="20341">
                <coordinates>107.6006435,-6.9124749,0.0 107.6002224,-6.9124495,0.0</coordinates>
            </LineString>
        </Placemark>
        <Placemark id="20346">
            <name>Jalan Kebon Kawung</name>
            <styleUrl>#20347</styleUrl>
            <LineString id="20345">
                <coordinates>107.6002224,-6.9124495,0.0 107.6000202,-6.912439,0.0</coordinates>
            </LineString>
        </Placemark>
        <Placemark id="20350">
            <name>Jalan Kebon Kawung</name>
            <styleUrl>#20351</styleUrl>
            <LineString id="20349">
                <coordinates>107.6000202,-6.912439,0.0 107.5993874,-6.9123994,0.0</coordinates>
            </LineString>
        </Placemark>
        <Placemark id="20354">
            <name>Jalan Kebon Kawung</name>
            <styleUrl>#20355</styleUrl>
            <LineString id="20353">
                <coordinates>107.5993874,-6.9123994,0.0 107.5990408,-6.912374,0.0 107.5990132,-6.912372,0.0</coordinates>
            </LineString>
        </Placemark>
        <Placemark id="20358">
            <name>Jalan Kebon Kawung</name>
            <styleUrl>#20359</styleUrl>
            <LineString id="20357">
                <coordinates>107.5990132,-6.912372,0.0 107.5982527,-6.912368,0.0</coordinates>
            </LineString>
        </Placemark>
        <Placemark id="20362">
            <name>Jalan Kebon Kawung</name>
            <styleUrl>#20363</styleUrl>
            <LineString id="20361">
                <coordinates>107.601745,-6.9125245,0.0 107.601624,-6.9125174,0.0</coordinates>
            </LineString>
        </Placemark>
        <Placemark id="20366">
            <name>Jalan Kebon Kawung</name>
            <styleUrl>#20367</styleUrl>
            <LineString id="20365">
                <coordinates>107.601624,-6.9125174,0.0 107.6015636,-6.9125139,0.0</coordinates>
            </LineString>
        </Placemark>
        <Placemark id="20370">
            <name>Jalan Kebon Kawung</name>
            <styleUrl>#20371</styleUrl>
            <LineString id="20369">
                <coordinates>107.6015636,-6.9125139,0.0 107.6010547,-6.9124917,0.0</coordinates>
            </LineString>
        </Placemark>
        <Placemark id="20374">
            <name>Jalan Kebon Kawung</name>
            <styleUrl>#20375</styleUrl>
            <LineString id="20373">
                <coordinates>107.6010547,-6.9124917,0.0 107.6009674,-6.9124878,0.0</coordinates>
            </LineString>
        </Placemark>
        <Placemark id="20378">
            <name>Jalan Kebon Kawung</name>
            <styleUrl>#20379</styleUrl>
            <LineString id="20377">
                <coordinates>107.6009674,-6.9124878,0.0 107.6007223,-6.9124771,0.0 107.6006435,-6.9124749,0.0</coordinates>
            </LineString>
        </Placemark>
    </Document>
</kml>
