<?xml version="1.0" encoding="UTF-8"?>
<kml xmlns="http://www.opengis.net/kml/2.2" xmlns:gx="http://www.google.com/kml/ext/2.2">
    <Document id="21747">
        <Style id="21753">
            <IconStyle id="21754">
                <colorMode>normal</colorMode>
                <scale>1</scale>
                <heading>0</heading>
                <Icon id="21755">
                    <href>http://maps.google.com/mapfiles/kml/pushpin/ylw-pushpin.png</href>
                </Icon>
            </IconStyle>
        </Style>
        <Style id="21758">
            <IconStyle id="21759">
                <colorMode>normal</colorMode>
                <scale>1</scale>
                <heading>0</heading>
                <Icon id="21760">
                    <href>http://maps.google.com/mapfiles/kml/pushpin/ylw-pushpin.png</href>
                </Icon>
            </IconStyle>
        </Style>
        <Style id="21763">
            <LineStyle id="21764">
                <color>ff1B1985</color>
                <colorMode>normal</colorMode>
                <width>4</width>
            </LineStyle>
        </Style>
        <Style id="21767">
            <LineStyle id="21768">
                <color>ff1B1985</color>
                <colorMode>normal</colorMode>
                <width>4</width>
            </LineStyle>
        </Style>
        <Style id="21771">
            <LineStyle id="21772">
                <color>ff1B1985</color>
                <colorMode>normal</colorMode>
                <width>4</width>
            </LineStyle>
        </Style>
        <Style id="21775">
            <LineStyle id="21776">
                <color>ff1B1985</color>
                <colorMode>normal</colorMode>
                <width>4</width>
            </LineStyle>
        </Style>
        <Style id="21779">
            <LineStyle id="21780">
                <color>ff1B1985</color>
                <colorMode>normal</colorMode>
                <width>4</width>
            </LineStyle>
        </Style>
        <Style id="21783">
            <LineStyle id="21784">
                <color>ff1B1985</color>
                <colorMode>normal</colorMode>
                <width>4</width>
            </LineStyle>
        </Style>
        <Style id="21787">
            <LineStyle id="21788">
                <color>ff1B1985</color>
                <colorMode>normal</colorMode>
                <width>4</width>
            </LineStyle>
        </Style>
        <Style id="21791">
            <LineStyle id="21792">
                <color>ff1B1985</color>
                <colorMode>normal</colorMode>
                <width>4</width>
            </LineStyle>
        </Style>
        <Style id="21795">
            <LineStyle id="21796">
                <color>ff1B1985</color>
                <colorMode>normal</colorMode>
                <width>4</width>
            </LineStyle>
        </Style>
        <Style id="21799">
            <LineStyle id="21800">
                <color>ff1B1985</color>
                <colorMode>normal</colorMode>
                <width>4</width>
            </LineStyle>
        </Style>
        <Style id="21803">
            <LineStyle id="21804">
                <color>ff1B1985</color>
                <colorMode>normal</colorMode>
                <width>4</width>
            </LineStyle>
        </Style>
        <Style id="21807">
            <LineStyle id="21808">
                <color>ff1B1985</color>
                <colorMode>normal</colorMode>
                <width>4</width>
            </LineStyle>
        </Style>
        <Style id="21811">
            <LineStyle id="21812">
                <color>ff1B1985</color>
                <colorMode>normal</colorMode>
                <width>4</width>
            </LineStyle>
        </Style>
        <Style id="21815">
            <LineStyle id="21816">
                <color>ff1B1985</color>
                <colorMode>normal</colorMode>
                <width>4</width>
            </LineStyle>
        </Style>
        <Style id="21819">
            <LineStyle id="21820">
                <color>ff1B1985</color>
                <colorMode>normal</colorMode>
                <width>4</width>
            </LineStyle>
        </Style>
        <Style id="21823">
            <LineStyle id="21824">
                <color>ff1B1985</color>
                <colorMode>normal</colorMode>
                <width>4</width>
            </LineStyle>
        </Style>
        <Style id="21827">
            <LineStyle id="21828">
                <color>ff1B1985</color>
                <colorMode>normal</colorMode>
                <width>4</width>
            </LineStyle>
        </Style>
        <Style id="21831">
            <LineStyle id="21832">
                <color>ff1B1985</color>
                <colorMode>normal</colorMode>
                <width>4</width>
            </LineStyle>
        </Style>
        <Style id="21835">
            <LineStyle id="21836">
                <color>ff1B1985</color>
                <colorMode>normal</colorMode>
                <width>4</width>
            </LineStyle>
        </Style>
        <Style id="21839">
            <LineStyle id="21840">
                <color>ff1B1985</color>
                <colorMode>normal</colorMode>
                <width>4</width>
            </LineStyle>
        </Style>
        <Style id="21843">
            <LineStyle id="21844">
                <color>ff1B1985</color>
                <colorMode>normal</colorMode>
                <width>4</width>
            </LineStyle>
        </Style>
        <Style id="21847">
            <LineStyle id="21848">
                <color>ff1B1985</color>
                <colorMode>normal</colorMode>
                <width>4</width>
            </LineStyle>
        </Style>
        <Style id="21851">
            <LineStyle id="21852">
                <color>ff1B1985</color>
                <colorMode>normal</colorMode>
                <width>4</width>
            </LineStyle>
        </Style>
        <Style id="21855">
            <LineStyle id="21856">
                <color>ff1B1985</color>
                <colorMode>normal</colorMode>
                <width>4</width>
            </LineStyle>
        </Style>
        <Style id="21859">
            <LineStyle id="21860">
                <color>ff1B1985</color>
                <colorMode>normal</colorMode>
                <width>4</width>
            </LineStyle>
        </Style>
        <Style id="21863">
            <LineStyle id="21864">
                <color>ff1B1985</color>
                <colorMode>normal</colorMode>
                <width>4</width>
            </LineStyle>
        </Style>
        <Style id="21867">
            <LineStyle id="21868">
                <color>ff1B1985</color>
                <colorMode>normal</colorMode>
                <width>4</width>
            </LineStyle>
        </Style>
        <Style id="21871">
            <LineStyle id="21872">
                <color>ff1B1985</color>
                <colorMode>normal</colorMode>
                <width>4</width>
            </LineStyle>
        </Style>
        <Style id="21875">
            <LineStyle id="21876">
                <color>ff1B1985</color>
                <colorMode>normal</colorMode>
                <width>4</width>
            </LineStyle>
        </Style>
        <Style id="21879">
            <LineStyle id="21880">
                <color>ff1B1985</color>
                <colorMode>normal</colorMode>
                <width>4</width>
            </LineStyle>
        </Style>
        <Style id="21883">
            <LineStyle id="21884">
                <color>ff1B1985</color>
                <colorMode>normal</colorMode>
                <width>4</width>
            </LineStyle>
        </Style>
        <Style id="21887">
            <LineStyle id="21888">
                <color>ff1B1985</color>
                <colorMode>normal</colorMode>
                <width>4</width>
            </LineStyle>
        </Style>
        <Style id="21891">
            <LineStyle id="21892">
                <color>ff1B1985</color>
                <colorMode>normal</colorMode>
                <width>4</width>
            </LineStyle>
        </Style>
        <Style id="21895">
            <LineStyle id="21896">
                <color>ff1B1985</color>
                <colorMode>normal</colorMode>
                <width>4</width>
            </LineStyle>
        </Style>
        <Style id="21899">
            <LineStyle id="21900">
                <color>ff1B1985</color>
                <colorMode>normal</colorMode>
                <width>4</width>
            </LineStyle>
        </Style>
        <Style id="21903">
            <LineStyle id="21904">
                <color>ff1B1985</color>
                <colorMode>normal</colorMode>
                <width>4</width>
            </LineStyle>
        </Style>
        <Style id="21907">
            <LineStyle id="21908">
                <color>ff1B1985</color>
                <colorMode>normal</colorMode>
                <width>4</width>
            </LineStyle>
        </Style>
        <Style id="21911">
            <LineStyle id="21912">
                <color>ff1B1985</color>
                <colorMode>normal</colorMode>
                <width>4</width>
            </LineStyle>
        </Style>
        <Style id="21915">
            <LineStyle id="21916">
                <color>ff1B1985</color>
                <colorMode>normal</colorMode>
                <width>4</width>
            </LineStyle>
        </Style>
        <Style id="21919">
            <LineStyle id="21920">
                <color>ff1B1985</color>
                <colorMode>normal</colorMode>
                <width>4</width>
            </LineStyle>
        </Style>
        <Style id="21923">
            <LineStyle id="21924">
                <color>ff1B1985</color>
                <colorMode>normal</colorMode>
                <width>4</width>
            </LineStyle>
        </Style>
        <Style id="21927">
            <LineStyle id="21928">
                <color>ff1B1985</color>
                <colorMode>normal</colorMode>
                <width>4</width>
            </LineStyle>
        </Style>
        <Style id="21931">
            <LineStyle id="21932">
                <color>ff1B1985</color>
                <colorMode>normal</colorMode>
                <width>4</width>
            </LineStyle>
        </Style>
        <Style id="21935">
            <LineStyle id="21936">
                <color>ff1B1985</color>
                <colorMode>normal</colorMode>
                <width>4</width>
            </LineStyle>
        </Style>
        <Style id="21939">
            <LineStyle id="21940">
                <color>ff1B1985</color>
                <colorMode>normal</colorMode>
                <width>4</width>
            </LineStyle>
        </Style>
        <Style id="21943">
            <LineStyle id="21944">
                <color>ff1B1985</color>
                <colorMode>normal</colorMode>
                <width>4</width>
            </LineStyle>
        </Style>
        <Style id="21947">
            <LineStyle id="21948">
                <color>ff1B1985</color>
                <colorMode>normal</colorMode>
                <width>4</width>
            </LineStyle>
        </Style>
        <Style id="21951">
            <LineStyle id="21952">
                <color>ff1B1985</color>
                <colorMode>normal</colorMode>
                <width>4</width>
            </LineStyle>
        </Style>
        <Style id="21955">
            <LineStyle id="21956">
                <color>ff1B1985</color>
                <colorMode>normal</colorMode>
                <width>4</width>
            </LineStyle>
        </Style>
        <Style id="21959">
            <LineStyle id="21960">
                <color>ff1B1985</color>
                <colorMode>normal</colorMode>
                <width>4</width>
            </LineStyle>
        </Style>
        <Style id="21963">
            <LineStyle id="21964">
                <color>ff1B1985</color>
                <colorMode>normal</colorMode>
                <width>4</width>
            </LineStyle>
        </Style>
        <Style id="21967">
            <LineStyle id="21968">
                <color>ff1B1985</color>
                <colorMode>normal</colorMode>
                <width>4</width>
            </LineStyle>
        </Style>
        <Style id="21971">
            <LineStyle id="21972">
                <color>ff1B1985</color>
                <colorMode>normal</colorMode>
                <width>4</width>
            </LineStyle>
        </Style>
        <Style id="21975">
            <LineStyle id="21976">
                <color>ff1B1985</color>
                <colorMode>normal</colorMode>
                <width>4</width>
            </LineStyle>
        </Style>
        <Style id="21979">
            <LineStyle id="21980">
                <color>ff1B1985</color>
                <colorMode>normal</colorMode>
                <width>4</width>
            </LineStyle>
        </Style>
        <Style id="21983">
            <LineStyle id="21984">
                <color>ff1B1985</color>
                <colorMode>normal</colorMode>
                <width>4</width>
            </LineStyle>
        </Style>
        <Style id="21987">
            <LineStyle id="21988">
                <color>ff1B1985</color>
                <colorMode>normal</colorMode>
                <width>4</width>
            </LineStyle>
        </Style>
        <Style id="21991">
            <LineStyle id="21992">
                <color>ff1B1985</color>
                <colorMode>normal</colorMode>
                <width>4</width>
            </LineStyle>
        </Style>
        <Style id="21995">
            <LineStyle id="21996">
                <color>ff1B1985</color>
                <colorMode>normal</colorMode>
                <width>4</width>
            </LineStyle>
        </Style>
        <Style id="21999">
            <LineStyle id="22000">
                <color>ff1B1985</color>
                <colorMode>normal</colorMode>
                <width>4</width>
            </LineStyle>
        </Style>
        <Style id="22003">
            <LineStyle id="22004">
                <color>ff1B1985</color>
                <colorMode>normal</colorMode>
                <width>4</width>
            </LineStyle>
        </Style>
        <Style id="22007">
            <LineStyle id="22008">
                <color>ff1B1985</color>
                <colorMode>normal</colorMode>
                <width>4</width>
            </LineStyle>
        </Style>
        <Style id="22011">
            <LineStyle id="22012">
                <color>ff1B1985</color>
                <colorMode>normal</colorMode>
                <width>4</width>
            </LineStyle>
        </Style>
        <Style id="22015">
            <LineStyle id="22016">
                <color>ff1B1985</color>
                <colorMode>normal</colorMode>
                <width>4</width>
            </LineStyle>
        </Style>
        <Style id="22019">
            <LineStyle id="22020">
                <color>ff1B1985</color>
                <colorMode>normal</colorMode>
                <width>4</width>
            </LineStyle>
        </Style>
        <Style id="22023">
            <LineStyle id="22024">
                <color>ff1B1985</color>
                <colorMode>normal</colorMode>
                <width>4</width>
            </LineStyle>
        </Style>
        <Style id="22027">
            <LineStyle id="22028">
                <color>ff1B1985</color>
                <colorMode>normal</colorMode>
                <width>4</width>
            </LineStyle>
        </Style>
        <Style id="22031">
            <LineStyle id="22032">
                <color>ff1B1985</color>
                <colorMode>normal</colorMode>
                <width>4</width>
            </LineStyle>
        </Style>
        <Style id="22035">
            <LineStyle id="22036">
                <color>ff1B1985</color>
                <colorMode>normal</colorMode>
                <width>4</width>
            </LineStyle>
        </Style>
        <Style id="22039">
            <LineStyle id="22040">
                <color>ff1B1985</color>
                <colorMode>normal</colorMode>
                <width>4</width>
            </LineStyle>
        </Style>
        <Style id="22043">
            <LineStyle id="22044">
                <color>ff1B1985</color>
                <colorMode>normal</colorMode>
                <width>4</width>
            </LineStyle>
        </Style>
        <Style id="22047">
            <LineStyle id="22048">
                <color>ff1B1985</color>
                <colorMode>normal</colorMode>
                <width>4</width>
            </LineStyle>
        </Style>
        <Style id="22051">
            <LineStyle id="22052">
                <color>ff1B1985</color>
                <colorMode>normal</colorMode>
                <width>4</width>
            </LineStyle>
        </Style>
        <Style id="22055">
            <LineStyle id="22056">
                <color>ff1B1985</color>
                <colorMode>normal</colorMode>
                <width>4</width>
            </LineStyle>
        </Style>
        <Style id="22059">
            <LineStyle id="22060">
                <color>ff1B1985</color>
                <colorMode>normal</colorMode>
                <width>4</width>
            </LineStyle>
        </Style>
        <Style id="22063">
            <LineStyle id="22064">
                <color>ff1B1985</color>
                <colorMode>normal</colorMode>
                <width>4</width>
            </LineStyle>
        </Style>
        <Style id="22067">
            <LineStyle id="22068">
                <color>ff1B1985</color>
                <colorMode>normal</colorMode>
                <width>4</width>
            </LineStyle>
        </Style>
        <Style id="22071">
            <LineStyle id="22072">
                <color>ff1B1985</color>
                <colorMode>normal</colorMode>
                <width>4</width>
            </LineStyle>
        </Style>
        <Style id="22075">
            <LineStyle id="22076">
                <color>ff1B1985</color>
                <colorMode>normal</colorMode>
                <width>4</width>
            </LineStyle>
        </Style>
        <Style id="22079">
            <LineStyle id="22080">
                <color>ff1B1985</color>
                <colorMode>normal</colorMode>
                <width>4</width>
            </LineStyle>
        </Style>
        <Style id="22083">
            <LineStyle id="22084">
                <color>ff1B1985</color>
                <colorMode>normal</colorMode>
                <width>4</width>
            </LineStyle>
        </Style>
        <Style id="22087">
            <LineStyle id="22088">
                <color>ff1B1985</color>
                <colorMode>normal</colorMode>
                <width>4</width>
            </LineStyle>
        </Style>
        <Style id="22091">
            <LineStyle id="22092">
                <color>ff1B1985</color>
                <colorMode>normal</colorMode>
                <width>4</width>
            </LineStyle>
        </Style>
        <Style id="22095">
            <LineStyle id="22096">
                <color>ff1B1985</color>
                <colorMode>normal</colorMode>
                <width>4</width>
            </LineStyle>
        </Style>
        <Style id="22099">
            <LineStyle id="22100">
                <color>ff1B1985</color>
                <colorMode>normal</colorMode>
                <width>4</width>
            </LineStyle>
        </Style>
        <Style id="22103">
            <LineStyle id="22104">
                <color>ff1B1985</color>
                <colorMode>normal</colorMode>
                <width>4</width>
            </LineStyle>
        </Style>
        <Style id="22107">
            <LineStyle id="22108">
                <color>ff1B1985</color>
                <colorMode>normal</colorMode>
                <width>4</width>
            </LineStyle>
        </Style>
        <Style id="22111">
            <LineStyle id="22112">
                <color>ff1B1985</color>
                <colorMode>normal</colorMode>
                <width>4</width>
            </LineStyle>
        </Style>
        <Style id="22115">
            <LineStyle id="22116">
                <color>ff1B1985</color>
                <colorMode>normal</colorMode>
                <width>4</width>
            </LineStyle>
        </Style>
        <Style id="22119">
            <LineStyle id="22120">
                <color>ff1B1985</color>
                <colorMode>normal</colorMode>
                <width>4</width>
            </LineStyle>
        </Style>
        <Style id="22123">
            <LineStyle id="22124">
                <color>ff1B1985</color>
                <colorMode>normal</colorMode>
                <width>4</width>
            </LineStyle>
        </Style>
        <Style id="22127">
            <LineStyle id="22128">
                <color>ff1B1985</color>
                <colorMode>normal</colorMode>
                <width>4</width>
            </LineStyle>
        </Style>
        <Style id="22131">
            <LineStyle id="22132">
                <color>ff1B1985</color>
                <colorMode>normal</colorMode>
                <width>4</width>
            </LineStyle>
        </Style>
        <Style id="22135">
            <LineStyle id="22136">
                <color>ff1B1985</color>
                <colorMode>normal</colorMode>
                <width>4</width>
            </LineStyle>
        </Style>
        <Style id="22139">
            <LineStyle id="22140">
                <color>ff1B1985</color>
                <colorMode>normal</colorMode>
                <width>4</width>
            </LineStyle>
        </Style>
        <Style id="22143">
            <LineStyle id="22144">
                <color>ff1B1985</color>
                <colorMode>normal</colorMode>
                <width>4</width>
            </LineStyle>
        </Style>
        <Style id="22147">
            <LineStyle id="22148">
                <color>ff1B1985</color>
                <colorMode>normal</colorMode>
                <width>4</width>
            </LineStyle>
        </Style>
        <Style id="22151">
            <LineStyle id="22152">
                <color>ff1B1985</color>
                <colorMode>normal</colorMode>
                <width>4</width>
            </LineStyle>
        </Style>
        <Style id="22155">
            <LineStyle id="22156">
                <color>ff1B1985</color>
                <colorMode>normal</colorMode>
                <width>4</width>
            </LineStyle>
        </Style>
        <Style id="22159">
            <LineStyle id="22160">
                <color>ff1B1985</color>
                <colorMode>normal</colorMode>
                <width>4</width>
            </LineStyle>
        </Style>
        <Style id="22163">
            <LineStyle id="22164">
                <color>ff1B1985</color>
                <colorMode>normal</colorMode>
                <width>4</width>
            </LineStyle>
        </Style>
        <Style id="22167">
            <LineStyle id="22168">
                <color>ff1B1985</color>
                <colorMode>normal</colorMode>
                <width>4</width>
            </LineStyle>
        </Style>
        <Style id="22171">
            <LineStyle id="22172">
                <color>ff1B1985</color>
                <colorMode>normal</colorMode>
                <width>4</width>
            </LineStyle>
        </Style>
        <Style id="22175">
            <LineStyle id="22176">
                <color>ff1B1985</color>
                <colorMode>normal</colorMode>
                <width>4</width>
            </LineStyle>
        </Style>
        <Style id="22179">
            <LineStyle id="22180">
                <color>ff1B1985</color>
                <colorMode>normal</colorMode>
                <width>4</width>
            </LineStyle>
        </Style>
        <Style id="22183">
            <LineStyle id="22184">
                <color>ff1B1985</color>
                <colorMode>normal</colorMode>
                <width>4</width>
            </LineStyle>
        </Style>
        <Style id="22187">
            <LineStyle id="22188">
                <color>ff1B1985</color>
                <colorMode>normal</colorMode>
                <width>4</width>
            </LineStyle>
        </Style>
        <Style id="22191">
            <LineStyle id="22192">
                <color>ff1B1985</color>
                <colorMode>normal</colorMode>
                <width>4</width>
            </LineStyle>
        </Style>
        <Style id="22195">
            <LineStyle id="22196">
                <color>ff1B1985</color>
                <colorMode>normal</colorMode>
                <width>4</width>
            </LineStyle>
        </Style>
        <Style id="22199">
            <LineStyle id="22200">
                <color>ff1B1985</color>
                <colorMode>normal</colorMode>
                <width>4</width>
            </LineStyle>
        </Style>
        <Style id="22203">
            <LineStyle id="22204">
                <color>ff1B1985</color>
                <colorMode>normal</colorMode>
                <width>4</width>
            </LineStyle>
        </Style>
        <Style id="22207">
            <LineStyle id="22208">
                <color>ff1B1985</color>
                <colorMode>normal</colorMode>
                <width>4</width>
            </LineStyle>
        </Style>
        <Style id="22211">
            <LineStyle id="22212">
                <color>ff1B1985</color>
                <colorMode>normal</colorMode>
                <width>4</width>
            </LineStyle>
        </Style>
        <Style id="22215">
            <LineStyle id="22216">
                <color>ff1B1985</color>
                <colorMode>normal</colorMode>
                <width>4</width>
            </LineStyle>
        </Style>
        <Style id="22219">
            <LineStyle id="22220">
                <color>ff1B1985</color>
                <colorMode>normal</colorMode>
                <width>4</width>
            </LineStyle>
        </Style>
        <Style id="22223">
            <LineStyle id="22224">
                <color>ff1B1985</color>
                <colorMode>normal</colorMode>
                <width>4</width>
            </LineStyle>
        </Style>
        <Style id="22227">
            <LineStyle id="22228">
                <color>ff1B1985</color>
                <colorMode>normal</colorMode>
                <width>4</width>
            </LineStyle>
        </Style>
        <Style id="22231">
            <LineStyle id="22232">
                <color>ff1B1985</color>
                <colorMode>normal</colorMode>
                <width>4</width>
            </LineStyle>
        </Style>
        <Style id="22235">
            <LineStyle id="22236">
                <color>ff1B1985</color>
                <colorMode>normal</colorMode>
                <width>4</width>
            </LineStyle>
        </Style>
        <Style id="22239">
            <LineStyle id="22240">
                <color>ff1B1985</color>
                <colorMode>normal</colorMode>
                <width>4</width>
            </LineStyle>
        </Style>
        <Style id="22243">
            <LineStyle id="22244">
                <color>ff1B1985</color>
                <colorMode>normal</colorMode>
                <width>4</width>
            </LineStyle>
        </Style>
        <Style id="22247">
            <LineStyle id="22248">
                <color>ff1B1985</color>
                <colorMode>normal</colorMode>
                <width>4</width>
            </LineStyle>
        </Style>
        <Style id="22251">
            <LineStyle id="22252">
                <color>ff1B1985</color>
                <colorMode>normal</colorMode>
                <width>4</width>
            </LineStyle>
        </Style>
        <Style id="22255">
            <LineStyle id="22256">
                <color>ff1B1985</color>
                <colorMode>normal</colorMode>
                <width>4</width>
            </LineStyle>
        </Style>
        <Style id="22259">
            <LineStyle id="22260">
                <color>ff1B1985</color>
                <colorMode>normal</colorMode>
                <width>4</width>
            </LineStyle>
        </Style>
        <Style id="22263">
            <LineStyle id="22264">
                <color>ff1B1985</color>
                <colorMode>normal</colorMode>
                <width>4</width>
            </LineStyle>
        </Style>
        <Style id="22267">
            <LineStyle id="22268">
                <color>ff1B1985</color>
                <colorMode>normal</colorMode>
                <width>4</width>
            </LineStyle>
        </Style>
        <Style id="22271">
            <LineStyle id="22272">
                <color>ff1B1985</color>
                <colorMode>normal</colorMode>
                <width>4</width>
            </LineStyle>
        </Style>
        <Style id="22275">
            <LineStyle id="22276">
                <color>ff1B1985</color>
                <colorMode>normal</colorMode>
                <width>4</width>
            </LineStyle>
        </Style>
        <Style id="22279">
            <LineStyle id="22280">
                <color>ff1B1985</color>
                <colorMode>normal</colorMode>
                <width>4</width>
            </LineStyle>
        </Style>
        <ExtendedData>
            <Data name="route-name">
                <value>Jalur 2: Ledeng → Leuwipanjang</value>
            </Data>
            <Data name="source">
                <value>Transport for Bandung</value>
            </Data>
        </ExtendedData>
        <Placemark id="21752">
            <name>Terminal Ledeng</name>
            <styleUrl>#21753</styleUrl>
            <Point id="21751">
                <coordinates>107.5951942,-6.85933,0.0</coordinates>
            </Point>
        </Placemark>
        <Placemark id="21757">
            <name>Terminal Leuwipanjang</name>
            <styleUrl>#21758</styleUrl>
            <Point id="21756">
                <coordinates>107.593264,-6.9458573,0.0</coordinates>
            </Point>
        </Placemark>
        <Placemark id="21762">
            <name>Jalan Cicendo</name>
            <styleUrl>#21763</styleUrl>
            <LineString id="21761">
                <coordinates>107.6044417,-6.9072201,0.0 107.6044521,-6.9072879,0.0 107.604458,-6.9073889,0.0 107.6044748,-6.9078654,0.0 107.6044776,-6.9079587,0.0 107.6044909,-6.9084617,0.0 107.6044917,-6.9087943,0.0 107.6044683,-6.9089756,0.0 107.6044333,-6.9091247,0.0 107.6043797,-6.9092856,0.0 107.6043042,-6.9094657,0.0 107.6042851,-6.9095101,0.0 107.6042598,-6.9095715,0.0 107.6042199,-6.9096823,0.0 107.6041664,-6.9098645,0.0 107.60413,-6.9100304,0.0 107.6041131,-6.910177,0.0 107.604095,-6.9104032,0.0 107.6040795,-6.910612,0.0 107.6040749,-6.9106747,0.0 107.6040736,-6.9106984,0.0 107.6040635,-6.9108642,0.0 107.6040608,-6.9109088,0.0 107.6039986,-6.911908,0.0 107.6039597,-6.9124977,0.0 107.6039561,-6.9125447,0.0</coordinates>
            </LineString>
        </Placemark>
        <Placemark id="21766">
            <name>Jalan Pajajaran</name>
            <styleUrl>#21767</styleUrl>
            <LineString id="21765">
                <coordinates>107.6073865,-6.9076628,0.0 107.6073442,-6.9076324,0.0 107.6072754,-6.9075859,0.0 107.6071035,-6.9074752,0.0 107.6070242,-6.9074318,0.0 107.6068765,-6.907351,0.0 107.6066403,-6.907244,0.0 107.6065225,-6.9072053,0.0 107.6064209,-6.9071852,0.0 107.6062761,-6.9071663,0.0 107.6061572,-6.9071583,0.0 107.6058415,-6.9071486,0.0 107.6055894,-6.9071347,0.0</coordinates>
            </LineString>
        </Placemark>
        <Placemark id="21770">
            <name>Jalan Otto Iskandardinata</name>
            <styleUrl>#21771</styleUrl>
            <LineString id="21769">
                <coordinates>107.6041077,-6.920785,0.0 107.604105,-6.9208199,0.0 107.6040989,-6.920927,0.0 107.6040733,-6.9214142,0.0 107.6040726,-6.9214269,0.0 107.6040276,-6.9219745,0.0 107.6040208,-6.9220583,0.0 107.6039434,-6.9230192,0.0 107.6039369,-6.9231152,0.0</coordinates>
            </LineString>
        </Placemark>
        <Placemark id="21774">
            <name>Jalan Braga</name>
            <styleUrl>#21775</styleUrl>
            <LineString id="21773">
                <coordinates>107.6090254,-6.9139243,0.0 107.6090188,-6.9140707,0.0 107.6090157,-6.9141626,0.0 107.6090099,-6.9144741,0.0 107.6090078,-6.9145319,0.0 107.609003,-6.9147575,0.0 107.6090004,-6.9148441,0.0 107.609,-6.9150767,0.0 107.6090001,-6.9151162,0.0 107.6089998,-6.9151478,0.0 107.6089988,-6.9152244,0.0</coordinates>
            </LineString>
        </Placemark>
        <Placemark id="21778">
            <name>Jalan Dokter Setiabudi</name>
            <styleUrl>#21779</styleUrl>
            <LineString id="21777">
                <coordinates>107.600512,-6.8825853,0.0 107.600617,-6.8827057,0.0 107.6010005,-6.8831201,0.0 107.6013125,-6.8834804,0.0</coordinates>
            </LineString>
        </Placemark>
        <Placemark id="21782">
            <name>Jalan Perintis Kemerdekaan</name>
            <styleUrl>#21783</styleUrl>
            <LineString id="21781">
                <coordinates>107.6075641,-6.9142136,0.0 107.6078626,-6.9140606,0.0 107.607935,-6.9140241,0.0 107.6079799,-6.9140014,0.0 107.6081711,-6.9139136,0.0 107.6082715,-6.9138902,0.0 107.6087543,-6.9138526,0.0 107.6088925,-6.9138457,0.0 107.6089516,-6.913844,0.0</coordinates>
            </LineString>
        </Placemark>
        <Placemark id="21786">
            <name>Jalan Otto Iskandardinata</name>
            <styleUrl>#21787</styleUrl>
            <LineString id="21785">
                <coordinates>107.6045054,-6.9158364,0.0 107.6044945,-6.9159639,0.0 107.6044519,-6.9164303,0.0 107.6044248,-6.9167276,0.0 107.6044046,-6.9168859,0.0 107.6043842,-6.9170712,0.0 107.6043506,-6.917436,0.0</coordinates>
            </LineString>
        </Placemark>
        <Placemark id="21790">
            <name>Jalan Sederhana</name>
            <styleUrl>#21791</styleUrl>
            <LineString id="21789">
                <coordinates>107.5982533,-6.8959337,0.0 107.598061,-6.8961075,0.0 107.597854,-6.8962946,0.0 107.5975318,-6.8966067,0.0</coordinates>
            </LineString>
        </Placemark>
        <Placemark id="21794">
            <name>Jalan Kebon Jukut</name>
            <styleUrl>#21795</styleUrl>
            <LineString id="21793">
                <coordinates>107.606975,-6.9145811,0.0 107.6070234,-6.9144595,0.0 107.6070791,-6.9143956,0.0 107.6071398,-6.9143537,0.0 107.6073185,-6.9143005,0.0</coordinates>
            </LineString>
        </Placemark>
        <Placemark id="21798">
            <name>Jalan Pasir Kaliki</name>
            <styleUrl>#21799</styleUrl>
            <LineString id="21797">
                <coordinates>107.5974217,-6.8991501,0.0 107.597458,-6.899457,0.0 107.5974799,-6.8999882,0.0 107.5974825,-6.9000048,0.0 107.5974905,-6.9000261,0.0 107.5974993,-6.9000414,0.0 107.5975127,-6.9000574,0.0 107.5975315,-6.900076,0.0 107.5975596,-6.900098,0.0 107.5975838,-6.9001146,0.0 107.5976133,-6.9001333,0.0 107.5976491,-6.9001556,0.0 107.5976841,-6.9001782,0.0 107.5977317,-6.9002067,0.0</coordinates>
            </LineString>
        </Placemark>
        <Placemark id="21802">
            <name>Jalan Dr. Setiabudi</name>
            <styleUrl>#21803</styleUrl>
            <LineString id="21801">
                <coordinates>107.5977931,-6.8782315,0.0 107.597931,-6.8785445,0.0 107.5980445,-6.8788022,0.0 107.5980688,-6.8788573,0.0 107.5981465,-6.8790417,0.0 107.5981885,-6.8791416,0.0 107.5983115,-6.8793952,0.0 107.5983643,-6.8795042,0.0 107.5985332,-6.8798525,0.0 107.5985364,-6.8798582,0.0 107.5985525,-6.8798922,0.0 107.5985829,-6.879955,0.0 107.598747,-6.8802981,0.0 107.5987865,-6.8803658,0.0 107.5988461,-6.8804679,0.0 107.5989984,-6.8807227,0.0 107.5990764,-6.8808677,0.0 107.5990993,-6.8809102,0.0 107.5991857,-6.8810641,0.0 107.5993479,-6.8813024,0.0</coordinates>
            </LineString>
        </Placemark>
        <Placemark id="21806">
            <name>Jalan Pajajaran</name>
            <styleUrl>#21807</styleUrl>
            <LineString id="21805">
                <coordinates>107.6055894,-6.9071347,0.0 107.6053829,-6.907135,0.0</coordinates>
            </LineString>
        </Placemark>
        <Placemark id="21810">
            <name>Jalan Kyai Haji Wahid Hasyim</name>
            <styleUrl>#21811</styleUrl>
            <LineString id="21809">
                <coordinates>107.5899199,-6.9452949,0.0 107.5899683,-6.9452286,0.0 107.5900352,-6.9451237,0.0 107.5901553,-6.9449353,0.0 107.5903058,-6.9446993,0.0 107.5904884,-6.944413,0.0 107.5905391,-6.9443334,0.0 107.5905904,-6.944253,0.0 107.590768,-6.9439758,0.0 107.5908061,-6.9439147,0.0 107.5908631,-6.9438253,0.0 107.5910269,-6.9435481,0.0</coordinates>
            </LineString>
        </Placemark>
        <Placemark id="21814">
            <name>Jalan Otto Iskandardinata</name>
            <styleUrl>#21815</styleUrl>
            <LineString id="21813">
                <coordinates>107.6032238,-6.935481,0.0 107.6032173,-6.935578,0.0 107.6032076,-6.9357215,0.0 107.6031855,-6.936049,0.0 107.6031741,-6.936219,0.0 107.6031624,-6.9363928,0.0 107.6031505,-6.9365689,0.0</coordinates>
            </LineString>
        </Placemark>
        <Placemark id="21818">
            <name>Jalan Otto Iskandardinata</name>
            <styleUrl>#21819</styleUrl>
            <LineString id="21817">
                <coordinates>107.603088,-6.9372221,0.0 107.6030728,-6.9373193,0.0</coordinates>
            </LineString>
        </Placemark>
        <Placemark id="21822">
            <name>Jalan Pasir Kaliki</name>
            <styleUrl>#21823</styleUrl>
            <LineString id="21821">
                <coordinates>107.5974,-6.8987139,0.0 107.5974075,-6.898977,0.0</coordinates>
            </LineString>
        </Placemark>
        <Placemark id="21826">
            <name>Jalan Dr. Setiabudi</name>
            <styleUrl>#21827</styleUrl>
            <LineString id="21825">
                <coordinates>107.5958267,-6.874066,0.0 107.5958839,-6.8741085,0.0 107.5959235,-6.8741451,0.0 107.5959994,-6.8742507,0.0 107.5960416,-6.8743074,0.0 107.596108,-6.8744075,0.0 107.5961314,-6.8744453,0.0 107.5962142,-6.8745818,0.0 107.5962411,-6.8746244,0.0 107.5962673,-6.8746659,0.0 107.5963577,-6.8748045,0.0 107.5964184,-6.8748932,0.0 107.5965371,-6.8750912,0.0 107.5966847,-6.8753563,0.0 107.5967496,-6.8754896,0.0 107.5967556,-6.8755022,0.0 107.5968567,-6.8756963,0.0 107.5969251,-6.8757837,0.0 107.5972243,-6.8760098,0.0 107.5973752,-6.876119,0.0 107.5974155,-6.8761599,0.0 107.59745,-6.8762097,0.0 107.5974932,-6.8762915,0.0 107.5975265,-6.8763939,0.0 107.5975398,-6.8764616,0.0 107.5975472,-6.8765469,0.0 107.597546,-6.8766334,0.0 107.5975168,-6.8767863,0.0 107.5975056,-6.8768315,0.0 107.59747,-6.8769861,0.0 107.5974504,-6.877112,0.0 107.5974554,-6.877208,0.0 107.5974773,-6.8773209,0.0 107.5975476,-6.8775669,0.0</coordinates>
            </LineString>
        </Placemark>
        <Placemark id="21830">
            <name>Jalan Suniaraja</name>
            <styleUrl>#21831</styleUrl>
            <LineString id="21829">
                <coordinates>107.6088792,-6.9162786,0.0 107.6088195,-6.9162932,0.0 107.6088005,-6.9162985,0.0 107.6084574,-6.9162802,0.0 107.6083144,-6.9162523,0.0 107.6081984,-6.9162109,0.0 107.6080929,-6.9161604,0.0 107.6080175,-6.9161132,0.0 107.6079775,-6.9160775,0.0</coordinates>
            </LineString>
        </Placemark>
        <Placemark id="21834">
            <name>Jalan Cihampelas</name>
            <styleUrl>#21835</styleUrl>
            <LineString id="21833">
                <coordinates>107.6042016,-6.9003842,0.0 107.604264,-6.9008715,0.0</coordinates>
            </LineString>
        </Placemark>
        <Placemark id="21838">
            <name>Jalan Cihampelas</name>
            <styleUrl>#21839</styleUrl>
            <LineString id="21837">
                <coordinates>107.6041803,-6.900144,0.0 107.6041813,-6.9001579,0.0 107.604189,-6.9002755,0.0 107.6041992,-6.9003596,0.0 107.6042016,-6.9003842,0.0</coordinates>
            </LineString>
        </Placemark>
        <Placemark id="21842">
            <name>Jalan Profesor Christiaan Eijkman</name>
            <styleUrl>#21843</styleUrl>
            <LineString id="21841">
                <coordinates>107.6014463,-6.8957141,0.0 107.6011223,-6.8958109,0.0 107.6008463,-6.8959681,0.0</coordinates>
            </LineString>
        </Placemark>
        <Placemark id="21846">
            <name>Jalan Pasteur</name>
            <styleUrl>#21847</styleUrl>
            <LineString id="21845">
                <coordinates>107.5993001,-6.900202,0.0 107.599805,-6.900195,0.0 107.6003645,-6.900192,0.0 107.6008037,-6.9002057,0.0 107.6010655,-6.9002051,0.0</coordinates>
            </LineString>
        </Placemark>
        <Placemark id="21850">
            <name>Jalan Cihampelas</name>
            <styleUrl>#21851</styleUrl>
            <LineString id="21849">
                <coordinates>107.604369,-6.9041823,0.0 107.6043878,-6.9042234,0.0 107.6044168,-6.9042582,0.0 107.604454,-6.9042842,0.0</coordinates>
            </LineString>
        </Placemark>
        <Placemark id="21854">
            <name>Jalan Wastukencana</name>
            <styleUrl>#21855</styleUrl>
            <LineString id="21853">
                <coordinates>107.604454,-6.9042842,0.0 107.6045194,-6.9042857,0.0</coordinates>
            </LineString>
        </Placemark>
        <Placemark id="21858">
            <name>Jalan Wastukancana</name>
            <styleUrl>#21859</styleUrl>
            <LineString id="21857">
                <coordinates>107.6075644,-6.9054686,0.0 107.607609,-6.9055867,0.0 107.6076511,-6.9057161,0.0 107.6076853,-6.905845,0.0</coordinates>
            </LineString>
        </Placemark>
        <Placemark id="21862">
            <name>Jalan Raden Adipati Aria Wiranatakusumah</name>
            <styleUrl>#21863</styleUrl>
            <LineString id="21861">
                <coordinates>107.60158,-6.8845161,0.0 107.6016942,-6.8850534,0.0 107.6018127,-6.8856638,0.0 107.6018854,-6.8859731,0.0 107.6021499,-6.8872977,0.0 107.6021691,-6.887391,0.0</coordinates>
            </LineString>
        </Placemark>
        <Placemark id="21866">
            <name>Jalan Dr. Setiabudi</name>
            <styleUrl>#21867</styleUrl>
            <LineString id="21865">
                <coordinates>107.5947487,-6.8601046,0.0 107.5947415,-6.8601534,0.0 107.5947299,-6.8602278,0.0 107.5946876,-6.860499,0.0 107.5946834,-6.8605895,0.0 107.594682,-6.8607123,0.0 107.594691,-6.8607829,0.0 107.5947113,-6.8608802,0.0 107.5947543,-6.8609845,0.0 107.5947885,-6.8610543,0.0 107.5948338,-6.861136,0.0 107.5948731,-6.8611888,0.0 107.5949141,-6.8612418,0.0 107.595009,-6.861346,0.0 107.5950885,-6.8614258,0.0 107.5951733,-6.8614881,0.0 107.595248,-6.861538,0.0 107.5954158,-6.8616512,0.0 107.5955484,-6.8617416,0.0 107.5958307,-6.8619379,0.0 107.5959866,-6.8620463,0.0 107.5961672,-6.8621719,0.0 107.5961991,-6.8622073,0.0 107.5962242,-6.8622608,0.0 107.5962237,-6.8623248,0.0 107.5962141,-6.862385,0.0 107.5961999,-6.8624213,0.0 107.5960469,-6.8627747,0.0 107.5959257,-6.8629855,0.0 107.5958359,-6.8630694,0.0 107.5957803,-6.8631238,0.0 107.5957352,-6.8631536,0.0 107.5956823,-6.8631776,0.0 107.5955819,-6.8632153,0.0 107.594751,-6.8634425,0.0</coordinates>
            </LineString>
        </Placemark>
        <Placemark id="21870">
            <name>Jalan Profesor Christiaan Eijkman</name>
            <styleUrl>#21871</styleUrl>
            <LineString id="21869">
                <coordinates>107.6014463,-6.8957141,0.0 107.6015518,-6.8957058,0.0 107.6021098,-6.8957803,0.0 107.6022353,-6.8957953,0.0 107.602268,-6.8958001,0.0</coordinates>
            </LineString>
        </Placemark>
        <Placemark id="21874">
            <name>Jalan Otto Iskandardinata</name>
            <styleUrl>#21875</styleUrl>
            <LineString id="21873">
                <coordinates>107.6038778,-6.9239323,0.0 107.6038646,-6.9241732,0.0 107.6038465,-6.9245138,0.0 107.6037853,-6.9255254,0.0 107.6037807,-6.9256072,0.0 107.6036969,-6.9271072,0.0 107.6036918,-6.9271992,0.0</coordinates>
            </LineString>
        </Placemark>
        <Placemark id="21878">
            <name>Jalan Otto Iskandardinata</name>
            <styleUrl>#21879</styleUrl>
            <LineString id="21877">
                <coordinates>107.6036918,-6.9271992,0.0 107.6036329,-6.9280445,0.0 107.6035899,-6.9285343,0.0 107.6035334,-6.9293987,0.0 107.603525,-6.9295081,0.0 107.6035222,-6.9295501,0.0 107.6034974,-6.9299465,0.0 107.6034816,-6.9301831,0.0 107.6034721,-6.9303229,0.0 107.6034681,-6.9303751,0.0 107.6034639,-6.9304346,0.0 107.6033984,-6.9314197,0.0</coordinates>
            </LineString>
        </Placemark>
        <Placemark id="21882">
            <name>Jalan Otto Iskandardinata</name>
            <styleUrl>#21883</styleUrl>
            <LineString id="21881">
                <coordinates>107.6039369,-6.9231152,0.0 107.6039303,-6.9231867,0.0</coordinates>
            </LineString>
        </Placemark>
        <Placemark id="21886">
            <name>Jalan Otto Iskandardinata</name>
            <styleUrl>#21887</styleUrl>
            <LineString id="21885">
                <coordinates>107.6032271,-6.9338577,0.0 107.603223,-6.9339734,0.0 107.6032159,-6.9342862,0.0</coordinates>
            </LineString>
        </Placemark>
        <Placemark id="21890">
            <name>Jalan Otto Iskandardinata</name>
            <styleUrl>#21891</styleUrl>
            <LineString id="21889">
                <coordinates>107.6033984,-6.9314197,0.0 107.6033222,-6.9324354,0.0 107.6033078,-6.9326292,0.0 107.603267,-6.9332705,0.0 107.6032353,-6.9337195,0.0 107.6032271,-6.9338577,0.0</coordinates>
            </LineString>
        </Placemark>
        <Placemark id="21894">
            <name>Jalan Soekarno-Hatta</name>
            <styleUrl>#21895</styleUrl>
            <LineString id="21893">
                <coordinates>107.5905372,-6.9458885,0.0 107.5906174,-6.9459184,0.0 107.5908186,-6.9459976,0.0 107.5909454,-6.9460471,0.0 107.5912869,-6.9461769,0.0 107.5915135,-6.946263,0.0 107.5919633,-6.946418,0.0 107.5920057,-6.9464327,0.0</coordinates>
            </LineString>
        </Placemark>
        <Placemark id="21898">
            <name>Jalan Pasteur</name>
            <styleUrl>#21899</styleUrl>
            <LineString id="21897">
                <coordinates>107.5985704,-6.900207,0.0 107.5988449,-6.9002092,0.0 107.5988968,-6.9002096,0.0</coordinates>
            </LineString>
        </Placemark>
        <Placemark id="21902">
            <name>Jalan Otto Iskandardinata</name>
            <styleUrl>#21903</styleUrl>
            <LineString id="21901">
                <coordinates>107.6042799,-6.9182744,0.0 107.6042732,-6.9184683,0.0 107.6042692,-6.9185844,0.0 107.6042559,-6.9187767,0.0 107.6042335,-6.9191016,0.0 107.6042292,-6.9191633,0.0 107.6042248,-6.9192265,0.0 107.6042217,-6.919272,0.0 107.6042084,-6.9194647,0.0 107.6041935,-6.9196695,0.0 107.6041829,-6.9198332,0.0 107.6041173,-6.9206576,0.0 107.6041133,-6.9207078,0.0 107.6041077,-6.920785,0.0</coordinates>
            </LineString>
        </Placemark>
        <Placemark id="21906">
            <name>Route Segment</name>
            <styleUrl>#21907</styleUrl>
            <LineString id="21905">
                <coordinates>107.5946801,-6.9470993,0.0 107.5949015,-6.9470904,0.0 107.5949654,-6.9470873,0.0 107.5949874,-6.9470844,0.0 107.5950189,-6.9470765,0.0 107.5950591,-6.9470659,0.0 107.5950873,-6.9470551,0.0 107.5951121,-6.9470451,0.0 107.5951365,-6.9470303,0.0 107.5951489,-6.9470195,0.0 107.5951597,-6.9470058,0.0 107.5951778,-6.9469812,0.0 107.5951852,-6.9469692,0.0 107.595202,-6.9469407,0.0 107.5952184,-6.9469031,0.0</coordinates>
            </LineString>
        </Placemark>
        <Placemark id="21910">
            <name>Jalan Wastukancana</name>
            <styleUrl>#21911</styleUrl>
            <LineString id="21909">
                <coordinates>107.604907,-6.904268,0.0 107.6050035,-6.9041885,0.0 107.6051531,-6.9040927,0.0 107.605225,-6.9040549,0.0 107.6052645,-6.9040341,0.0 107.605369,-6.9039986,0.0 107.6054495,-6.9039862,0.0 107.6055461,-6.9039795,0.0 107.6056396,-6.9039773,0.0 107.6058035,-6.9039995,0.0 107.6059967,-6.9040381,0.0 107.6061616,-6.9040807,0.0 107.606306,-6.9041384,0.0 107.6063615,-6.9041606,0.0 107.6065841,-6.9042698,0.0</coordinates>
            </LineString>
        </Placemark>
        <Placemark id="21914">
            <name>Jalan Cihampelas</name>
            <styleUrl>#21915</styleUrl>
            <LineString id="21913">
                <coordinates>107.604264,-6.9008715,0.0 107.6042787,-6.9010952,0.0 107.6042858,-6.9012975,0.0 107.6043224,-6.9023437,0.0 107.6043266,-6.9027188,0.0 107.6043559,-6.9036874,0.0 107.6043657,-6.9040669,0.0 107.6043665,-6.9040981,0.0 107.604369,-6.9041823,0.0</coordinates>
            </LineString>
        </Placemark>
        <Placemark id="21918">
            <name>Jalan Kyai Haji Wahid Hasyim</name>
            <styleUrl>#21919</styleUrl>
            <LineString id="21917">
                <coordinates>107.5920724,-6.9418438,0.0 107.5922389,-6.9415903,0.0 107.5924641,-6.9412448,0.0 107.5930896,-6.9402979,0.0 107.59314,-6.9402168,0.0 107.5932148,-6.9400962,0.0 107.5932356,-6.9400628,0.0 107.5933094,-6.939944,0.0 107.5934404,-6.9397331,0.0 107.5936005,-6.9394752,0.0 107.5937688,-6.9391642,0.0 107.5939092,-6.9389121,0.0 107.5939987,-6.938752,0.0 107.5940814,-6.9386042,0.0 107.5941015,-6.9385696,0.0 107.594148,-6.9384872,0.0 107.594204,-6.9383881,0.0 107.594524,-6.9378129,0.0 107.5945872,-6.9376992,0.0 107.5946221,-6.9376377,0.0 107.5946542,-6.9375847,0.0 107.5948299,-6.9373141,0.0</coordinates>
            </LineString>
        </Placemark>
        <Placemark id="21922">
            <name>Jalan Raden Adipati Aria Wiranatakusumah</name>
            <styleUrl>#21923</styleUrl>
            <LineString id="21921">
                <coordinates>107.6025639,-6.8915152,0.0 107.6025685,-6.8916549,0.0 107.6025732,-6.8920405,0.0 107.6025767,-6.8923319,0.0 107.6025976,-6.8928234,0.0 107.6026014,-6.892912,0.0 107.6026186,-6.8933289,0.0 107.602628,-6.8935563,0.0 107.6026469,-6.8940155,0.0 107.6026305,-6.8941606,0.0 107.6025407,-6.8946976,0.0 107.602517,-6.894782,0.0 107.6022794,-6.8957544,0.0 107.602268,-6.8958001,0.0</coordinates>
            </LineString>
        </Placemark>
        <Placemark id="21926">
            <name>Jalan Profesor Christiaan Eijkman</name>
            <styleUrl>#21927</styleUrl>
            <LineString id="21925">
                <coordinates>107.6008463,-6.8959681,0.0 107.6005885,-6.8961348,0.0 107.6003014,-6.8962499,0.0 107.6001433,-6.8962722,0.0 107.5999789,-6.8962674,0.0 107.5993726,-6.8961604,0.0</coordinates>
            </LineString>
        </Placemark>
        <Placemark id="21930">
            <name>Jalan Pasteur</name>
            <styleUrl>#21931</styleUrl>
            <LineString id="21929">
                <coordinates>107.5977317,-6.9002067,0.0 107.5979866,-6.900214,0.0</coordinates>
            </LineString>
        </Placemark>
        <Placemark id="21934">
            <name>Jalan Kebon Jukut</name>
            <styleUrl>#21935</styleUrl>
            <LineString id="21933">
                <coordinates>107.6046031,-6.9144539,0.0 107.6046132,-6.9144687,0.0 107.6046449,-6.9144848,0.0 107.606675,-6.9147337,0.0 107.606787,-6.9147395,0.0 107.6068501,-6.9147298,0.0 107.6069016,-6.9147011,0.0 107.6069388,-6.9146561,0.0 107.606975,-6.9145811,0.0</coordinates>
            </LineString>
        </Placemark>
        <Placemark id="21938">
            <name>Jalan Profesor Christiaan Eijkman</name>
            <styleUrl>#21939</styleUrl>
            <LineString id="21937">
                <coordinates>107.5993726,-6.8961604,0.0 107.5993061,-6.8961476,0.0 107.5989287,-6.8960775,0.0 107.5988179,-6.8960559,0.0 107.5986468,-6.8960201,0.0 107.5985248,-6.8959937,0.0</coordinates>
            </LineString>
        </Placemark>
        <Placemark id="21942">
            <name>Jalan Suniaraja</name>
            <styleUrl>#21943</styleUrl>
            <LineString id="21941">
                <coordinates>107.6059861,-6.9155367,0.0 107.6057907,-6.9155809,0.0 107.6055816,-6.9156321,0.0 107.6054049,-6.9156698,0.0 107.605226,-6.9157035,0.0 107.6046673,-6.9158052,0.0 107.6045054,-6.9158364,0.0</coordinates>
            </LineString>
        </Placemark>
        <Placemark id="21946">
            <name>Jalan Peta</name>
            <styleUrl>#21947</styleUrl>
            <LineString id="21945">
                <coordinates>107.5971376,-6.937801,0.0 107.5970548,-6.9377924,0.0</coordinates>
            </LineString>
        </Placemark>
        <Placemark id="21950">
            <name>Jalan Peta</name>
            <styleUrl>#21951</styleUrl>
            <LineString id="21949">
                <coordinates>107.6030728,-6.9373193,0.0 107.6029983,-6.9373153,0.0</coordinates>
            </LineString>
        </Placemark>
        <Placemark id="21954">
            <name>Jalan Peta</name>
            <styleUrl>#21955</styleUrl>
            <LineString id="21953">
                <coordinates>107.6021772,-6.9372552,0.0 107.602016,-6.9372409,0.0 107.6019146,-6.9372385,0.0 107.601703,-6.9372304,0.0 107.6014696,-6.937233,0.0 107.6010236,-6.9372742,0.0 107.6000125,-6.9374564,0.0 107.5998296,-6.9374914,0.0 107.5994727,-6.9375618,0.0</coordinates>
            </LineString>
        </Placemark>
        <Placemark id="21958">
            <name>Jalan Wastukancana</name>
            <styleUrl>#21959</styleUrl>
            <LineString id="21957">
                <coordinates>107.6076516,-6.9060628,0.0 107.607682,-6.9063009,0.0 107.6076926,-6.9064512,0.0 107.6076908,-6.9066043,0.0 107.6076724,-6.9068066,0.0 107.6076183,-6.907233,0.0 107.6075667,-6.9075563,0.0 107.6075461,-6.9076136,0.0 107.6074993,-6.9076457,0.0 107.6073865,-6.9076628,0.0</coordinates>
            </LineString>
        </Placemark>
        <Placemark id="21962">
            <name>Jalan Pajajaran</name>
            <styleUrl>#21963</styleUrl>
            <LineString id="21961">
                <coordinates>107.6053829,-6.907135,0.0 107.6051824,-6.9071438,0.0 107.6051387,-6.9071446,0.0 107.6045501,-6.9071569,0.0 107.6045,-6.907158,0.0</coordinates>
            </LineString>
        </Placemark>
        <Placemark id="21966">
            <name>Jalan Profesor Christiaan Eijkman</name>
            <styleUrl>#21967</styleUrl>
            <LineString id="21965">
                <coordinates>107.5985248,-6.8959937,0.0 107.5984723,-6.8959815,0.0</coordinates>
            </LineString>
        </Placemark>
        <Placemark id="21970">
            <name>Jalan Suniaraja</name>
            <styleUrl>#21971</styleUrl>
            <LineString id="21969">
                <coordinates>107.6073053,-6.9154939,0.0 107.6071157,-6.9154839,0.0</coordinates>
            </LineString>
        </Placemark>
        <Placemark id="21974">
            <name>Jalan Suniaraja</name>
            <styleUrl>#21975</styleUrl>
            <LineString id="21973">
                <coordinates>107.6071157,-6.9154839,0.0 107.6069686,-6.9154807,0.0 107.6066681,-6.915471,0.0 107.6065499,-6.9154703,0.0</coordinates>
            </LineString>
        </Placemark>
        <Placemark id="21978">
            <name>Route Segment</name>
            <styleUrl>#21979</styleUrl>
            <LineString id="21977">
                <coordinates>107.5952296,-6.9371632,0.0 107.5951614,-6.9371577,0.0 107.5950932,-6.9371631,0.0 107.5950268,-6.9371793,0.0 107.5949529,-6.9372115,0.0 107.5948865,-6.937257,0.0 107.5948299,-6.9373141,0.0</coordinates>
            </LineString>
        </Placemark>
        <Placemark id="21982">
            <name>Jalan Peta</name>
            <styleUrl>#21983</styleUrl>
            <LineString id="21981">
                <coordinates>107.5994727,-6.9375618,0.0 107.5993708,-6.9375805,0.0</coordinates>
            </LineString>
        </Placemark>
        <Placemark id="21986">
            <name>Jalan Peta</name>
            <styleUrl>#21987</styleUrl>
            <LineString id="21985">
                <coordinates>107.5993708,-6.9375805,0.0 107.5988884,-6.9376814,0.0 107.5984434,-6.9377562,0.0 107.5983423,-6.9377695,0.0 107.5980891,-6.9378047,0.0 107.5978299,-6.9378174,0.0 107.5975831,-6.9378255,0.0 107.5972383,-6.9378114,0.0 107.5971376,-6.937801,0.0</coordinates>
            </LineString>
        </Placemark>
        <Placemark id="21990">
            <name>Jalan Profesor Christiaan Eijkman</name>
            <styleUrl>#21991</styleUrl>
            <LineString id="21989">
                <coordinates>107.5984723,-6.8959815,0.0 107.5982533,-6.8959337,0.0</coordinates>
            </LineString>
        </Placemark>
        <Placemark id="21994">
            <name>Route Segment</name>
            <styleUrl>#21995</styleUrl>
            <LineString id="21993">
                <coordinates>107.5951942,-6.85933,0.0 107.5951855,-6.8593963,0.0 107.5951822,-6.8594053,0.0 107.5951748,-6.8594103,0.0 107.5948433,-6.8593552,0.0</coordinates>
            </LineString>
        </Placemark>
        <Placemark id="21998">
            <name>Route Segment</name>
            <styleUrl>#21999</styleUrl>
            <LineString id="21997">
                <coordinates>107.6077246,-6.9060495,0.0 107.6076516,-6.9060628,0.0</coordinates>
            </LineString>
        </Placemark>
        <Placemark id="22002">
            <name>Jalan Peta</name>
            <styleUrl>#22003</styleUrl>
            <LineString id="22001">
                <coordinates>107.5970548,-6.9377924,0.0 107.5970082,-6.9377848,0.0 107.5966811,-6.9377315,0.0 107.5963307,-6.9376489,0.0 107.5961367,-6.9375778,0.0 107.5959549,-6.937498,0.0 107.5955421,-6.9372977,0.0 107.5954936,-6.9372742,0.0</coordinates>
            </LineString>
        </Placemark>
        <Placemark id="22006">
            <name>Jalan Suniaraja</name>
            <styleUrl>#22007</styleUrl>
            <LineString id="22005">
                <coordinates>107.6065499,-6.9154703,0.0 107.6064784,-6.9154686,0.0 107.6063683,-6.9154661,0.0 107.6059861,-6.9155367,0.0</coordinates>
            </LineString>
        </Placemark>
        <Placemark id="22010">
            <name>Jalan Aceh</name>
            <styleUrl>#22011</styleUrl>
            <LineString id="22009">
                <coordinates>107.6041426,-6.9127091,0.0 107.604692,-6.9127619,0.0</coordinates>
            </LineString>
        </Placemark>
        <Placemark id="22014">
            <name>Jalan Cicendo</name>
            <styleUrl>#22015</styleUrl>
            <LineString id="22013">
                <coordinates>107.6039561,-6.9125447,0.0 107.6039966,-6.9126049,0.0 107.6040499,-6.9126535,0.0 107.6041426,-6.9127091,0.0</coordinates>
            </LineString>
        </Placemark>
        <Placemark id="22018">
            <name>Jalan Dr. Setiabudi</name>
            <styleUrl>#22019</styleUrl>
            <LineString id="22017">
                <coordinates>107.5940961,-6.8651081,0.0 107.5940723,-6.8653071,0.0 107.5940489,-6.8655021,0.0 107.5940436,-6.8655555,0.0 107.5939941,-6.866016,0.0 107.59398,-6.8661473,0.0 107.5939484,-6.8664124,0.0 107.5939402,-6.8664718,0.0 107.5939135,-6.8666897,0.0 107.593824,-6.8674042,0.0 107.5937888,-6.8677009,0.0 107.5937561,-6.8679333,0.0 107.5937127,-6.8682235,0.0 107.5937093,-6.8682462,0.0 107.593703,-6.868294,0.0 107.5936933,-6.8683616,0.0 107.5936592,-6.8686283,0.0 107.5936527,-6.8686846,0.0 107.5936366,-6.868816,0.0 107.5936184,-6.8689604,0.0 107.5936057,-6.869061,0.0 107.5935721,-6.8693613,0.0 107.5935632,-6.8694388,0.0 107.5935337,-6.8696955,0.0 107.5935252,-6.8697698,0.0 107.5935167,-6.8698675,0.0 107.5935096,-6.8699573,0.0 107.593506,-6.8701005,0.0 107.5935249,-6.8704256,0.0</coordinates>
            </LineString>
        </Placemark>
        <Placemark id="22022">
            <name>Jalan Otto Iskandardinata</name>
            <styleUrl>#22023</styleUrl>
            <LineString id="22021">
                <coordinates>107.6038843,-6.9238302,0.0 107.6038778,-6.9239323,0.0</coordinates>
            </LineString>
        </Placemark>
        <Placemark id="22026">
            <name>Jalan Raden Adipati Aria Wiranatakusumah</name>
            <styleUrl>#22027</styleUrl>
            <LineString id="22025">
                <coordinates>107.6013125,-6.8834804,0.0 107.60158,-6.8845161,0.0</coordinates>
            </LineString>
        </Placemark>
        <Placemark id="22030">
            <name>Jalan Braga</name>
            <styleUrl>#22031</styleUrl>
            <LineString id="22029">
                <coordinates>107.6089865,-6.9159412,0.0 107.6089646,-6.9160333,0.0 107.608966,-6.916108,0.0 107.6089644,-6.916155,0.0 107.6089606,-6.9161782,0.0 107.608954,-6.9162093,0.0 107.6089283,-6.9162468,0.0 107.6088792,-6.9162786,0.0</coordinates>
            </LineString>
        </Placemark>
        <Placemark id="22034">
            <name>Jalan Otto Iskandardinata</name>
            <styleUrl>#22035</styleUrl>
            <LineString id="22033">
                <coordinates>107.6031033,-6.9370152,0.0 107.6030927,-6.9371305,0.0 107.603088,-6.9372221,0.0</coordinates>
            </LineString>
        </Placemark>
        <Placemark id="22038">
            <name>Jalan Sederhana</name>
            <styleUrl>#22039</styleUrl>
            <LineString id="22037">
                <coordinates>107.5975318,-6.8966067,0.0 107.5974852,-6.8966564,0.0 107.5974629,-6.8966804,0.0</coordinates>
            </LineString>
        </Placemark>
        <Placemark id="22042">
            <name>Jalan Pasir Kaliki</name>
            <styleUrl>#22043</styleUrl>
            <LineString id="22041">
                <coordinates>107.5974629,-6.8966804,0.0 107.5973832,-6.8967895,0.0 107.5973739,-6.8968101,0.0 107.5973632,-6.8968394,0.0 107.5973563,-6.8969183,0.0 107.5973743,-6.8978579,0.0 107.5973757,-6.8980113,0.0 107.5973829,-6.8982378,0.0 107.5973873,-6.8983517,0.0 107.5973974,-6.8986245,0.0 107.5974,-6.8987139,0.0</coordinates>
            </LineString>
        </Placemark>
        <Placemark id="22046">
            <name>Jalan Perintis Kemerdekaan</name>
            <styleUrl>#22047</styleUrl>
            <LineString id="22045">
                <coordinates>107.6089516,-6.913844,0.0 107.6089515,-6.9138647,0.0 107.6089575,-6.9138845,0.0 107.6089691,-6.9139001,0.0 107.6089853,-6.9139148,0.0 107.6090046,-6.9139225,0.0 107.6090254,-6.9139243,0.0</coordinates>
            </LineString>
        </Placemark>
        <Placemark id="22050">
            <name>Jalan Pajajaran</name>
            <styleUrl>#22051</styleUrl>
            <LineString id="22049">
                <coordinates>107.6045,-6.907158,0.0 107.6044996,-6.907174,0.0 107.6044946,-6.9071893,0.0 107.6044854,-6.9072025,0.0 107.6044728,-6.9072125,0.0 107.6044578,-6.9072185,0.0 107.6044417,-6.9072201,0.0</coordinates>
            </LineString>
        </Placemark>
        <Placemark id="22054">
            <name>Jalan Wastukancana</name>
            <styleUrl>#22055</styleUrl>
            <LineString id="22053">
                <coordinates>107.607556,-6.9054463,0.0 107.6075644,-6.9054686,0.0</coordinates>
            </LineString>
        </Placemark>
        <Placemark id="22058">
            <name>Jalan Dr. Setiabudi</name>
            <styleUrl>#22059</styleUrl>
            <LineString id="22057">
                <coordinates>107.594751,-6.8634425,0.0 107.5946342,-6.8634956,0.0</coordinates>
            </LineString>
        </Placemark>
        <Placemark id="22062">
            <name>Jalan Leuwi Panjang</name>
            <styleUrl>#22063</styleUrl>
            <LineString id="22061">
                <coordinates>107.5952184,-6.9469031,0.0 107.5952459,-6.9466699,0.0 107.5952669,-6.9462117,0.0 107.595271,-6.9461694,0.0 107.5952757,-6.9461131,0.0 107.5952807,-6.9460535,0.0 107.5952859,-6.9459928,0.0 107.595295,-6.9458786,0.0</coordinates>
            </LineString>
        </Placemark>
        <Placemark id="22066">
            <name>Jalan Otto Iskandardinata</name>
            <styleUrl>#22067</styleUrl>
            <LineString id="22065">
                <coordinates>107.6031782,-6.9351372,0.0 107.6032137,-6.9352454,0.0 107.6032252,-6.9353491,0.0 107.6032238,-6.935481,0.0</coordinates>
            </LineString>
        </Placemark>
        <Placemark id="22070">
            <name>Jalan Otto Iskandardinata</name>
            <styleUrl>#22071</styleUrl>
            <LineString id="22069">
                <coordinates>107.6031505,-6.9365689,0.0 107.6031322,-6.9367751,0.0 107.6031033,-6.9370152,0.0</coordinates>
            </LineString>
        </Placemark>
        <Placemark id="22074">
            <name>Jalan Otto Iskandardinata</name>
            <styleUrl>#22075</styleUrl>
            <LineString id="22073">
                <coordinates>107.6032159,-6.9342862,0.0 107.6031855,-6.9349893,0.0 107.6031782,-6.9351372,0.0</coordinates>
            </LineString>
        </Placemark>
        <Placemark id="22078">
            <name>Jalan Suniaraja</name>
            <styleUrl>#22079</styleUrl>
            <LineString id="22077">
                <coordinates>107.6079775,-6.9160775,0.0 107.6079482,-6.9160431,0.0 107.6077131,-6.915765,0.0</coordinates>
            </LineString>
        </Placemark>
        <Placemark id="22082">
            <name>Jalan Peta</name>
            <styleUrl>#22083</styleUrl>
            <LineString id="22081">
                <coordinates>107.5954936,-6.9372742,0.0 107.5953437,-6.9372112,0.0 107.5952296,-6.9371632,0.0</coordinates>
            </LineString>
        </Placemark>
        <Placemark id="22086">
            <name>Jalan Otto Iskandardinata</name>
            <styleUrl>#22087</styleUrl>
            <LineString id="22085">
                <coordinates>107.6043506,-6.917436,0.0 107.6043216,-6.9177621,0.0 107.6042891,-6.9181663,0.0 107.6042799,-6.9182744,0.0</coordinates>
            </LineString>
        </Placemark>
        <Placemark id="22090">
            <name>Jalan Suniaraja</name>
            <styleUrl>#22091</styleUrl>
            <LineString id="22089">
                <coordinates>107.6073939,-6.915502,0.0 107.6073053,-6.9154939,0.0</coordinates>
            </LineString>
        </Placemark>
        <Placemark id="22094">
            <name>Jalan Suniaraja</name>
            <styleUrl>#22095</styleUrl>
            <LineString id="22093">
                <coordinates>107.6077131,-6.915765,0.0 107.6076272,-6.9156556,0.0 107.6075959,-6.9156165,0.0</coordinates>
            </LineString>
        </Placemark>
        <Placemark id="22098">
            <name>Jalan Suniaraja</name>
            <styleUrl>#22099</styleUrl>
            <LineString id="22097">
                <coordinates>107.6075959,-6.9156165,0.0 107.6074889,-6.9155475,0.0 107.6074384,-6.9155193,0.0 107.6073939,-6.915502,0.0</coordinates>
            </LineString>
        </Placemark>
        <Placemark id="22102">
            <name>Jalan Dr. Setiabudi</name>
            <styleUrl>#22103</styleUrl>
            <LineString id="22101">
                <coordinates>107.5975476,-6.8775669,0.0 107.5976126,-6.8777607,0.0 107.5976714,-6.8779208,0.0 107.5977931,-6.8782315,0.0</coordinates>
            </LineString>
        </Placemark>
        <Placemark id="22106">
            <name>Jalan Pasteur</name>
            <styleUrl>#22107</styleUrl>
            <LineString id="22105">
                <coordinates>107.6035214,-6.9002184,0.0 107.6038638,-6.9002105,0.0 107.6039813,-6.9001984,0.0 107.6040453,-6.9001871,0.0 107.6040633,-6.9001819,0.0 107.6041064,-6.9001685,0.0 107.6041803,-6.900144,0.0</coordinates>
            </LineString>
        </Placemark>
        <Placemark id="22110">
            <name>Jalan Pasteur</name>
            <styleUrl>#22111</styleUrl>
            <LineString id="22109">
                <coordinates>107.6031071,-6.9002112,0.0 107.6035214,-6.9002184,0.0</coordinates>
            </LineString>
        </Placemark>
        <Placemark id="22114">
            <name>Jalan Wastukancana</name>
            <styleUrl>#22115</styleUrl>
            <LineString id="22113">
                <coordinates>107.6047378,-6.9043028,0.0 107.604907,-6.904268,0.0</coordinates>
            </LineString>
        </Placemark>
        <Placemark id="22118">
            <name>Jalan Wastukancana</name>
            <styleUrl>#22119</styleUrl>
            <LineString id="22117">
                <coordinates>107.6045194,-6.9042857,0.0 107.6045928,-6.9042871,0.0 107.6046289,-6.9042878,0.0 107.6047378,-6.9043028,0.0</coordinates>
            </LineString>
        </Placemark>
        <Placemark id="22122">
            <name>Jalan Otto Iskandardinata</name>
            <styleUrl>#22123</styleUrl>
            <LineString id="22121">
                <coordinates>107.6039303,-6.9231867,0.0 107.6038843,-6.9238302,0.0</coordinates>
            </LineString>
        </Placemark>
        <Placemark id="22126">
            <name>Jalur Bus Kota Terminal Leuwipanjang</name>
            <styleUrl>#22127</styleUrl>
            <LineString id="22125">
                <coordinates>107.5938141,-6.9457411,0.0 107.593784,-6.9457712,0.0 107.5937535,-6.9458066,0.0 107.5937307,-6.9458374,0.0 107.5937192,-6.9458627,0.0 107.5937098,-6.9458851,0.0 107.5936877,-6.9458986,0.0 107.5936574,-6.9459061,0.0 107.593264,-6.9458573,0.0</coordinates>
            </LineString>
        </Placemark>
        <Placemark id="22130">
            <name>Jalan Wastukancana</name>
            <styleUrl>#22131</styleUrl>
            <LineString id="22129">
                <coordinates>107.6074587,-6.9052269,0.0 107.607556,-6.9054463,0.0</coordinates>
            </LineString>
        </Placemark>
        <Placemark id="22134">
            <name>Jalan Pasir Kaliki</name>
            <styleUrl>#22135</styleUrl>
            <LineString id="22133">
                <coordinates>107.5974075,-6.898977,0.0 107.5974217,-6.8991501,0.0</coordinates>
            </LineString>
        </Placemark>
        <Placemark id="22138">
            <name>Route Segment</name>
            <styleUrl>#22139</styleUrl>
            <LineString id="22137">
                <coordinates>107.5898972,-6.9453598,0.0 107.5898924,-6.9454526,0.0 107.5898937,-6.9455017,0.0 107.5899025,-6.94555,0.0 107.5899197,-6.9455844,0.0 107.5899482,-6.9456283,0.0 107.5899638,-6.9456485,0.0</coordinates>
            </LineString>
        </Placemark>
        <Placemark id="22142">
            <name>Jalan Pasteur</name>
            <styleUrl>#22143</styleUrl>
            <LineString id="22141">
                <coordinates>107.5979866,-6.900214,0.0 107.5985704,-6.900207,0.0</coordinates>
            </LineString>
        </Placemark>
        <Placemark id="22146">
            <name>Jalur Masuk Bus</name>
            <styleUrl>#22147</styleUrl>
            <LineString id="22145">
                <coordinates>107.595295,-6.9458786,0.0 107.5947542,-6.9458158,0.0</coordinates>
            </LineString>
        </Placemark>
        <Placemark id="22150">
            <name>Jalur Bus Kota dan AKAP</name>
            <styleUrl>#22151</styleUrl>
            <LineString id="22149">
                <coordinates>107.5944877,-6.9457804,0.0 107.5940855,-6.9457238,0.0</coordinates>
            </LineString>
        </Placemark>
        <Placemark id="22154">
            <name>Jalan Braga</name>
            <styleUrl>#22155</styleUrl>
            <LineString id="22153">
                <coordinates>107.6089988,-6.9152244,0.0 107.6089979,-6.9152703,0.0 107.6089865,-6.9159412,0.0</coordinates>
            </LineString>
        </Placemark>
        <Placemark id="22158">
            <name>Jalan Pasteur</name>
            <styleUrl>#22159</styleUrl>
            <LineString id="22157">
                <coordinates>107.6022753,-6.900203,0.0 107.6027269,-6.9002045,0.0 107.6027515,-6.9002046,0.0 107.6029796,-6.9002088,0.0 107.6031071,-6.9002112,0.0</coordinates>
            </LineString>
        </Placemark>
        <Placemark id="22162">
            <name>Jalan Pasteur</name>
            <styleUrl>#22163</styleUrl>
            <LineString id="22161">
                <coordinates>107.5988968,-6.9002096,0.0 107.5993001,-6.900202,0.0</coordinates>
            </LineString>
        </Placemark>
        <Placemark id="22166">
            <name>Jalan Dr. Setiabudi</name>
            <styleUrl>#22167</styleUrl>
            <LineString id="22165">
                <coordinates>107.5993479,-6.8813024,0.0 107.5994309,-6.8814326,0.0 107.5994716,-6.8814891,0.0 107.5996471,-6.8817279,0.0 107.5996965,-6.881795,0.0 107.6000907,-6.8822275,0.0 107.6001689,-6.8823036,0.0 107.6003584,-6.8824654,0.0 107.600512,-6.8825853,0.0</coordinates>
            </LineString>
        </Placemark>
        <Placemark id="22170">
            <name>Jalan Soekarno-Hatta</name>
            <styleUrl>#22171</styleUrl>
            <LineString id="22169">
                <coordinates>107.5920057,-6.9464327,0.0 107.5922205,-6.9465024,0.0 107.5923591,-6.9465464,0.0 107.5924183,-6.9465651,0.0 107.5929217,-6.946706,0.0 107.5930626,-6.9467395,0.0 107.5934341,-6.9468277,0.0</coordinates>
            </LineString>
        </Placemark>
        <Placemark id="22174">
            <name>Jalan Soekarno-Hatta</name>
            <styleUrl>#22175</styleUrl>
            <LineString id="22173">
                <coordinates>107.5899638,-6.9456485,0.0 107.5902641,-6.9457816,0.0 107.5904302,-6.9458446,0.0 107.5905372,-6.9458885,0.0</coordinates>
            </LineString>
        </Placemark>
        <Placemark id="22178">
            <name>Jalan Wastukancana</name>
            <styleUrl>#22179</styleUrl>
            <LineString id="22177">
                <coordinates>107.6076853,-6.905845,0.0 107.6077246,-6.9060495,0.0</coordinates>
            </LineString>
        </Placemark>
        <Placemark id="22182">
            <name>Jalan Dr. Setiabudi</name>
            <styleUrl>#22183</styleUrl>
            <LineString id="22181">
                <coordinates>107.5936179,-6.8707823,0.0 107.5937463,-6.8711539,0.0 107.5937922,-6.8712782,0.0 107.593895,-6.8715029,0.0 107.5940693,-6.8717924,0.0 107.5944136,-6.8722322,0.0 107.5948065,-6.8727176,0.0 107.5949802,-6.8729249,0.0 107.5951113,-6.8730936,0.0 107.5955371,-6.8736221,0.0 107.5956623,-6.8737793,0.0 107.5956814,-6.8738055,0.0 107.5956912,-6.8738171,0.0 107.5957307,-6.8738828,0.0 107.5957592,-6.8739356,0.0 107.5957878,-6.8739884,0.0 107.5958267,-6.874066,0.0</coordinates>
            </LineString>
        </Placemark>
        <Placemark id="22186">
            <name>Jalan Kyai Haji Wahid Hasyim</name>
            <styleUrl>#22187</styleUrl>
            <LineString id="22185">
                <coordinates>107.5899199,-6.9452949,0.0 107.5898972,-6.9453598,0.0</coordinates>
            </LineString>
        </Placemark>
        <Placemark id="22190">
            <name>Jalan Wastukancana</name>
            <styleUrl>#22191</styleUrl>
            <LineString id="22189">
                <coordinates>107.6070138,-6.9046,0.0 107.6071411,-6.9047305,0.0</coordinates>
            </LineString>
        </Placemark>
        <Placemark id="22194">
            <name>Jalan Wastukancana</name>
            <styleUrl>#22195</styleUrl>
            <LineString id="22193">
                <coordinates>107.6071411,-6.9047305,0.0 107.607265,-6.9048943,0.0 107.607283,-6.9049195,0.0 107.6074067,-6.905129,0.0 107.6074587,-6.9052269,0.0</coordinates>
            </LineString>
        </Placemark>
        <Placemark id="22198">
            <name>Jalan Dr. Setiabudi</name>
            <styleUrl>#22199</styleUrl>
            <LineString id="22197">
                <coordinates>107.5935249,-6.8704256,0.0 107.5936179,-6.8707823,0.0</coordinates>
            </LineString>
        </Placemark>
        <Placemark id="22202">
            <name>Jalan Perintis Kemerdekaan</name>
            <styleUrl>#22203</styleUrl>
            <LineString id="22201">
                <coordinates>107.6073185,-6.9143005,0.0 107.6073396,-6.9142915,0.0 107.6073918,-6.9142744,0.0 107.607494,-6.9142383,0.0 107.6075641,-6.9142136,0.0</coordinates>
            </LineString>
        </Placemark>
        <Placemark id="22206">
            <name>Jalan Soekarno-Hatta</name>
            <styleUrl>#22207</styleUrl>
            <LineString id="22205">
                <coordinates>107.5934341,-6.9468277,0.0 107.5935172,-6.946847,0.0 107.5935575,-6.9468564,0.0 107.5936688,-6.9468823,0.0 107.593986,-6.9469544,0.0 107.5940785,-6.9469738,0.0 107.5941765,-6.9469938,0.0 107.5942182,-6.9470057,0.0 107.5946413,-6.947092,0.0 107.5946801,-6.9470993,0.0</coordinates>
            </LineString>
        </Placemark>
        <Placemark id="22210">
            <name>Jalan Wastukancana</name>
            <styleUrl>#22211</styleUrl>
            <LineString id="22209">
                <coordinates>107.6069187,-6.9045127,0.0 107.6070138,-6.9046,0.0</coordinates>
            </LineString>
        </Placemark>
        <Placemark id="22214">
            <name>Jalan Wastukancana</name>
            <styleUrl>#22215</styleUrl>
            <LineString id="22213">
                <coordinates>107.6065841,-6.9042698,0.0 107.6067222,-6.904359,0.0 107.6068568,-6.9044553,0.0 107.6069187,-6.9045127,0.0</coordinates>
            </LineString>
        </Placemark>
        <Placemark id="22218">
            <name>Jalur Bus Kota dan AKAP</name>
            <styleUrl>#22219</styleUrl>
            <LineString id="22217">
                <coordinates>107.5940315,-6.9457129,0.0 107.5939798,-6.9457037,0.0</coordinates>
            </LineString>
        </Placemark>
        <Placemark id="22222">
            <name>Jalur Bus Kota dan AKAP</name>
            <styleUrl>#22223</styleUrl>
            <LineString id="22221">
                <coordinates>107.5940855,-6.9457238,0.0 107.5940315,-6.9457129,0.0</coordinates>
            </LineString>
        </Placemark>
        <Placemark id="22226">
            <name>Jalur Bus Kota dan AKAP</name>
            <styleUrl>#22227</styleUrl>
            <LineString id="22225">
                <coordinates>107.5947542,-6.9458158,0.0 107.5946724,-6.9458045,0.0 107.5944877,-6.9457804,0.0</coordinates>
            </LineString>
        </Placemark>
        <Placemark id="22230">
            <name>Jalan Dr. Setiabudi</name>
            <styleUrl>#22231</styleUrl>
            <LineString id="22229">
                <coordinates>107.5948433,-6.8593552,0.0 107.5948312,-6.8594241,0.0 107.5948088,-6.859551,0.0</coordinates>
            </LineString>
        </Placemark>
        <Placemark id="22234">
            <name>Jalan Dr. Setiabudi</name>
            <styleUrl>#22235</styleUrl>
            <LineString id="22233">
                <coordinates>107.5948052,-6.8595708,0.0 107.594757,-6.8600369,0.0 107.5947527,-6.8600724,0.0 107.5947487,-6.8601046,0.0</coordinates>
            </LineString>
        </Placemark>
        <Placemark id="22238">
            <name>Jalan Dr. Setiabudi</name>
            <styleUrl>#22239</styleUrl>
            <LineString id="22237">
                <coordinates>107.5948088,-6.859551,0.0 107.5948052,-6.8595708,0.0</coordinates>
            </LineString>
        </Placemark>
        <Placemark id="22242">
            <name>Jalan Raden Adipati Aria Wiranatakusumah</name>
            <styleUrl>#22243</styleUrl>
            <LineString id="22241">
                <coordinates>107.6022349,-6.8878097,0.0 107.6022457,-6.8878647,0.0 107.6022526,-6.8879165,0.0 107.6022762,-6.8881022,0.0 107.602334,-6.8886184,0.0 107.6024306,-6.8897621,0.0 107.6025268,-6.8910284,0.0 107.6025599,-6.8914898,0.0</coordinates>
            </LineString>
        </Placemark>
        <Placemark id="22246">
            <name>Jalan Raden Adipati Aria Wiranatakusumah</name>
            <styleUrl>#22247</styleUrl>
            <LineString id="22245">
                <coordinates>107.6025599,-6.8914898,0.0 107.6025639,-6.8915152,0.0</coordinates>
            </LineString>
        </Placemark>
        <Placemark id="22250">
            <name>Jalan Raden Adipati Aria Wiranatakusumah</name>
            <styleUrl>#22251</styleUrl>
            <LineString id="22249">
                <coordinates>107.6021691,-6.887391,0.0 107.6021839,-6.8874848,0.0 107.6022278,-6.8877643,0.0 107.6022305,-6.8877818,0.0 107.6022349,-6.8878097,0.0</coordinates>
            </LineString>
        </Placemark>
        <Placemark id="22254">
            <name>Jalan Pasteur</name>
            <styleUrl>#22255</styleUrl>
            <LineString id="22253">
                <coordinates>107.6010655,-6.9002051,0.0 107.6021013,-6.9002033,0.0 107.6021562,-6.9002043,0.0 107.6022098,-6.9002031,0.0 107.6022753,-6.900203,0.0</coordinates>
            </LineString>
        </Placemark>
        <Placemark id="22258">
            <name>Jalan Otto Iskandardinata</name>
            <styleUrl>#22259</styleUrl>
            <LineString id="22257">
                <coordinates>107.604692,-6.9127619,0.0 107.6046613,-6.913176,0.0 107.6046522,-6.9133158,0.0 107.6046393,-6.9134886,0.0 107.6046306,-6.9136374,0.0 107.6046271,-6.9136785,0.0 107.604621,-6.9137727,0.0 107.6046177,-6.9138395,0.0 107.6046089,-6.913972,0.0 107.6045855,-6.9143581,0.0 107.6045878,-6.9143974,0.0 107.6045929,-6.9144391,0.0 107.6046031,-6.9144539,0.0</coordinates>
            </LineString>
        </Placemark>
        <Placemark id="22262">
            <name>Jalan Peta</name>
            <styleUrl>#22263</styleUrl>
            <LineString id="22261">
                <coordinates>107.6029983,-6.9373153,0.0 107.6028855,-6.9373037,0.0 107.6028514,-6.9373009,0.0 107.6021772,-6.9372552,0.0</coordinates>
            </LineString>
        </Placemark>
        <Placemark id="22266">
            <name>Jalan Dr. Setiabudi</name>
            <styleUrl>#22267</styleUrl>
            <LineString id="22265">
                <coordinates>107.5946342,-6.8634956,0.0 107.594575,-6.8635338,0.0 107.5945119,-6.8636016,0.0 107.594469,-6.8636686,0.0 107.5943936,-6.8638479,0.0</coordinates>
            </LineString>
        </Placemark>
        <Placemark id="22270">
            <name>Jalan Dr. Setiabudi</name>
            <styleUrl>#22271</styleUrl>
            <LineString id="22269">
                <coordinates>107.5943936,-6.8638479,0.0 107.5943935,-6.8639227,0.0 107.594376,-6.8640132,0.0 107.5942986,-6.8642872,0.0 107.5942475,-6.8644965,0.0 107.594221,-6.8646108,0.0 107.5941843,-6.8648198,0.0 107.5941464,-6.8650627,0.0 107.5940961,-6.8651081,0.0</coordinates>
            </LineString>
        </Placemark>
        <Placemark id="22274">
            <name>Jalan Kyai Haji Wahid Hasyim</name>
            <styleUrl>#22275</styleUrl>
            <LineString id="22273">
                <coordinates>107.5910269,-6.9435481,0.0 107.5910603,-6.9434929,0.0 107.5910903,-6.9434463,0.0 107.5911028,-6.9434233,0.0 107.5911203,-6.9433931,0.0 107.5912147,-6.9432302,0.0 107.591257,-6.9431573,0.0 107.5913003,-6.9430856,0.0 107.5913435,-6.9430138,0.0 107.5914686,-6.9428144,0.0 107.5916513,-6.9425217,0.0 107.5918451,-6.942203,0.0 107.5918647,-6.9421708,0.0 107.59192,-6.9420837,0.0 107.5920724,-6.9418438,0.0</coordinates>
            </LineString>
        </Placemark>
        <Placemark id="22278">
            <name>Jalur Bus Kota</name>
            <styleUrl>#22279</styleUrl>
            <LineString id="22277">
                <coordinates>107.5939798,-6.9457037,0.0 107.5938141,-6.9457411,0.0</coordinates>
            </LineString>
        </Placemark>
    </Document>
</kml>
