<?xml version="1.0" encoding="UTF-8"?>
<kml xmlns="http://www.opengis.net/kml/2.2" xmlns:gx="http://www.google.com/kml/ext/2.2">
    <Document id="26254">
        <Style id="26260">
            <IconStyle id="26261">
                <colorMode>normal</colorMode>
                <scale>1</scale>
                <heading>0</heading>
                <Icon id="26262">
                    <href>http://maps.google.com/mapfiles/kml/pushpin/ylw-pushpin.png</href>
                </Icon>
            </IconStyle>
        </Style>
        <Style id="26265">
            <IconStyle id="26266">
                <colorMode>normal</colorMode>
                <scale>1</scale>
                <heading>0</heading>
                <Icon id="26267">
                    <href>http://maps.google.com/mapfiles/kml/pushpin/ylw-pushpin.png</href>
                </Icon>
            </IconStyle>
        </Style>
        <Style id="26270">
            <LineStyle id="26271">
                <color>ff23DFD7</color>
                <colorMode>normal</colorMode>
                <width>4</width>
            </LineStyle>
        </Style>
        <Style id="26274">
            <LineStyle id="26275">
                <color>ff23DFD7</color>
                <colorMode>normal</colorMode>
                <width>4</width>
            </LineStyle>
        </Style>
        <Style id="26278">
            <LineStyle id="26279">
                <color>ff23DFD7</color>
                <colorMode>normal</colorMode>
                <width>4</width>
            </LineStyle>
        </Style>
        <Style id="26282">
            <LineStyle id="26283">
                <color>ff23DFD7</color>
                <colorMode>normal</colorMode>
                <width>4</width>
            </LineStyle>
        </Style>
        <Style id="26286">
            <LineStyle id="26287">
                <color>ff23DFD7</color>
                <colorMode>normal</colorMode>
                <width>4</width>
            </LineStyle>
        </Style>
        <Style id="26290">
            <LineStyle id="26291">
                <color>ff23DFD7</color>
                <colorMode>normal</colorMode>
                <width>4</width>
            </LineStyle>
        </Style>
        <Style id="26294">
            <LineStyle id="26295">
                <color>ff23DFD7</color>
                <colorMode>normal</colorMode>
                <width>4</width>
            </LineStyle>
        </Style>
        <Style id="26298">
            <LineStyle id="26299">
                <color>ff23DFD7</color>
                <colorMode>normal</colorMode>
                <width>4</width>
            </LineStyle>
        </Style>
        <Style id="26302">
            <LineStyle id="26303">
                <color>ff23DFD7</color>
                <colorMode>normal</colorMode>
                <width>4</width>
            </LineStyle>
        </Style>
        <Style id="26306">
            <LineStyle id="26307">
                <color>ff23DFD7</color>
                <colorMode>normal</colorMode>
                <width>4</width>
            </LineStyle>
        </Style>
        <Style id="26310">
            <LineStyle id="26311">
                <color>ff23DFD7</color>
                <colorMode>normal</colorMode>
                <width>4</width>
            </LineStyle>
        </Style>
        <Style id="26314">
            <LineStyle id="26315">
                <color>ff23DFD7</color>
                <colorMode>normal</colorMode>
                <width>4</width>
            </LineStyle>
        </Style>
        <Style id="26318">
            <LineStyle id="26319">
                <color>ff23DFD7</color>
                <colorMode>normal</colorMode>
                <width>4</width>
            </LineStyle>
        </Style>
        <Style id="26322">
            <LineStyle id="26323">
                <color>ff23DFD7</color>
                <colorMode>normal</colorMode>
                <width>4</width>
            </LineStyle>
        </Style>
        <Style id="26326">
            <LineStyle id="26327">
                <color>ff23DFD7</color>
                <colorMode>normal</colorMode>
                <width>4</width>
            </LineStyle>
        </Style>
        <Style id="26330">
            <LineStyle id="26331">
                <color>ff23DFD7</color>
                <colorMode>normal</colorMode>
                <width>4</width>
            </LineStyle>
        </Style>
        <Style id="26334">
            <LineStyle id="26335">
                <color>ff23DFD7</color>
                <colorMode>normal</colorMode>
                <width>4</width>
            </LineStyle>
        </Style>
        <Style id="26338">
            <LineStyle id="26339">
                <color>ff23DFD7</color>
                <colorMode>normal</colorMode>
                <width>4</width>
            </LineStyle>
        </Style>
        <Style id="26342">
            <LineStyle id="26343">
                <color>ff23DFD7</color>
                <colorMode>normal</colorMode>
                <width>4</width>
            </LineStyle>
        </Style>
        <Style id="26346">
            <LineStyle id="26347">
                <color>ff23DFD7</color>
                <colorMode>normal</colorMode>
                <width>4</width>
            </LineStyle>
        </Style>
        <Style id="26350">
            <LineStyle id="26351">
                <color>ff23DFD7</color>
                <colorMode>normal</colorMode>
                <width>4</width>
            </LineStyle>
        </Style>
        <Style id="26354">
            <LineStyle id="26355">
                <color>ff23DFD7</color>
                <colorMode>normal</colorMode>
                <width>4</width>
            </LineStyle>
        </Style>
        <Style id="26358">
            <LineStyle id="26359">
                <color>ff23DFD7</color>
                <colorMode>normal</colorMode>
                <width>4</width>
            </LineStyle>
        </Style>
        <Style id="26362">
            <LineStyle id="26363">
                <color>ff23DFD7</color>
                <colorMode>normal</colorMode>
                <width>4</width>
            </LineStyle>
        </Style>
        <Style id="26366">
            <LineStyle id="26367">
                <color>ff23DFD7</color>
                <colorMode>normal</colorMode>
                <width>4</width>
            </LineStyle>
        </Style>
        <Style id="26370">
            <LineStyle id="26371">
                <color>ff23DFD7</color>
                <colorMode>normal</colorMode>
                <width>4</width>
            </LineStyle>
        </Style>
        <Style id="26374">
            <LineStyle id="26375">
                <color>ff23DFD7</color>
                <colorMode>normal</colorMode>
                <width>4</width>
            </LineStyle>
        </Style>
        <Style id="26378">
            <LineStyle id="26379">
                <color>ff23DFD7</color>
                <colorMode>normal</colorMode>
                <width>4</width>
            </LineStyle>
        </Style>
        <Style id="26382">
            <LineStyle id="26383">
                <color>ff23DFD7</color>
                <colorMode>normal</colorMode>
                <width>4</width>
            </LineStyle>
        </Style>
        <Style id="26386">
            <LineStyle id="26387">
                <color>ff23DFD7</color>
                <colorMode>normal</colorMode>
                <width>4</width>
            </LineStyle>
        </Style>
        <Style id="26390">
            <LineStyle id="26391">
                <color>ff23DFD7</color>
                <colorMode>normal</colorMode>
                <width>4</width>
            </LineStyle>
        </Style>
        <Style id="26394">
            <LineStyle id="26395">
                <color>ff23DFD7</color>
                <colorMode>normal</colorMode>
                <width>4</width>
            </LineStyle>
        </Style>
        <Style id="26398">
            <LineStyle id="26399">
                <color>ff23DFD7</color>
                <colorMode>normal</colorMode>
                <width>4</width>
            </LineStyle>
        </Style>
        <Style id="26402">
            <LineStyle id="26403">
                <color>ff23DFD7</color>
                <colorMode>normal</colorMode>
                <width>4</width>
            </LineStyle>
        </Style>
        <Style id="26406">
            <LineStyle id="26407">
                <color>ff23DFD7</color>
                <colorMode>normal</colorMode>
                <width>4</width>
            </LineStyle>
        </Style>
        <Style id="26410">
            <LineStyle id="26411">
                <color>ff23DFD7</color>
                <colorMode>normal</colorMode>
                <width>4</width>
            </LineStyle>
        </Style>
        <Style id="26414">
            <LineStyle id="26415">
                <color>ff23DFD7</color>
                <colorMode>normal</colorMode>
                <width>4</width>
            </LineStyle>
        </Style>
        <Style id="26418">
            <LineStyle id="26419">
                <color>ff23DFD7</color>
                <colorMode>normal</colorMode>
                <width>4</width>
            </LineStyle>
        </Style>
        <Style id="26422">
            <LineStyle id="26423">
                <color>ff23DFD7</color>
                <colorMode>normal</colorMode>
                <width>4</width>
            </LineStyle>
        </Style>
        <Style id="26426">
            <LineStyle id="26427">
                <color>ff23DFD7</color>
                <colorMode>normal</colorMode>
                <width>4</width>
            </LineStyle>
        </Style>
        <Style id="26430">
            <LineStyle id="26431">
                <color>ff23DFD7</color>
                <colorMode>normal</colorMode>
                <width>4</width>
            </LineStyle>
        </Style>
        <Style id="26434">
            <LineStyle id="26435">
                <color>ff23DFD7</color>
                <colorMode>normal</colorMode>
                <width>4</width>
            </LineStyle>
        </Style>
        <Style id="26438">
            <LineStyle id="26439">
                <color>ff23DFD7</color>
                <colorMode>normal</colorMode>
                <width>4</width>
            </LineStyle>
        </Style>
        <Style id="26442">
            <LineStyle id="26443">
                <color>ff23DFD7</color>
                <colorMode>normal</colorMode>
                <width>4</width>
            </LineStyle>
        </Style>
        <Style id="26446">
            <LineStyle id="26447">
                <color>ff23DFD7</color>
                <colorMode>normal</colorMode>
                <width>4</width>
            </LineStyle>
        </Style>
        <Style id="26450">
            <LineStyle id="26451">
                <color>ff23DFD7</color>
                <colorMode>normal</colorMode>
                <width>4</width>
            </LineStyle>
        </Style>
        <Style id="26454">
            <LineStyle id="26455">
                <color>ff23DFD7</color>
                <colorMode>normal</colorMode>
                <width>4</width>
            </LineStyle>
        </Style>
        <Style id="26458">
            <LineStyle id="26459">
                <color>ff23DFD7</color>
                <colorMode>normal</colorMode>
                <width>4</width>
            </LineStyle>
        </Style>
        <Style id="26462">
            <LineStyle id="26463">
                <color>ff23DFD7</color>
                <colorMode>normal</colorMode>
                <width>4</width>
            </LineStyle>
        </Style>
        <Style id="26466">
            <LineStyle id="26467">
                <color>ff23DFD7</color>
                <colorMode>normal</colorMode>
                <width>4</width>
            </LineStyle>
        </Style>
        <Style id="26470">
            <LineStyle id="26471">
                <color>ff23DFD7</color>
                <colorMode>normal</colorMode>
                <width>4</width>
            </LineStyle>
        </Style>
        <Style id="26474">
            <LineStyle id="26475">
                <color>ff23DFD7</color>
                <colorMode>normal</colorMode>
                <width>4</width>
            </LineStyle>
        </Style>
        <Style id="26478">
            <LineStyle id="26479">
                <color>ff23DFD7</color>
                <colorMode>normal</colorMode>
                <width>4</width>
            </LineStyle>
        </Style>
        <Style id="26482">
            <LineStyle id="26483">
                <color>ff23DFD7</color>
                <colorMode>normal</colorMode>
                <width>4</width>
            </LineStyle>
        </Style>
        <Style id="26486">
            <LineStyle id="26487">
                <color>ff23DFD7</color>
                <colorMode>normal</colorMode>
                <width>4</width>
            </LineStyle>
        </Style>
        <Style id="26490">
            <LineStyle id="26491">
                <color>ff23DFD7</color>
                <colorMode>normal</colorMode>
                <width>4</width>
            </LineStyle>
        </Style>
        <Style id="26494">
            <LineStyle id="26495">
                <color>ff23DFD7</color>
                <colorMode>normal</colorMode>
                <width>4</width>
            </LineStyle>
        </Style>
        <Style id="26498">
            <LineStyle id="26499">
                <color>ff23DFD7</color>
                <colorMode>normal</colorMode>
                <width>4</width>
            </LineStyle>
        </Style>
        <Style id="26502">
            <LineStyle id="26503">
                <color>ff23DFD7</color>
                <colorMode>normal</colorMode>
                <width>4</width>
            </LineStyle>
        </Style>
        <Style id="26506">
            <LineStyle id="26507">
                <color>ff23DFD7</color>
                <colorMode>normal</colorMode>
                <width>4</width>
            </LineStyle>
        </Style>
        <Style id="26510">
            <LineStyle id="26511">
                <color>ff23DFD7</color>
                <colorMode>normal</colorMode>
                <width>4</width>
            </LineStyle>
        </Style>
        <Style id="26514">
            <LineStyle id="26515">
                <color>ff23DFD7</color>
                <colorMode>normal</colorMode>
                <width>4</width>
            </LineStyle>
        </Style>
        <Style id="26518">
            <LineStyle id="26519">
                <color>ff23DFD7</color>
                <colorMode>normal</colorMode>
                <width>4</width>
            </LineStyle>
        </Style>
        <Style id="26522">
            <LineStyle id="26523">
                <color>ff23DFD7</color>
                <colorMode>normal</colorMode>
                <width>4</width>
            </LineStyle>
        </Style>
        <Style id="26526">
            <LineStyle id="26527">
                <color>ff23DFD7</color>
                <colorMode>normal</colorMode>
                <width>4</width>
            </LineStyle>
        </Style>
        <Style id="26530">
            <LineStyle id="26531">
                <color>ff23DFD7</color>
                <colorMode>normal</colorMode>
                <width>4</width>
            </LineStyle>
        </Style>
        <Style id="26534">
            <LineStyle id="26535">
                <color>ff23DFD7</color>
                <colorMode>normal</colorMode>
                <width>4</width>
            </LineStyle>
        </Style>
        <Style id="26538">
            <LineStyle id="26539">
                <color>ff23DFD7</color>
                <colorMode>normal</colorMode>
                <width>4</width>
            </LineStyle>
        </Style>
        <Style id="26542">
            <LineStyle id="26543">
                <color>ff23DFD7</color>
                <colorMode>normal</colorMode>
                <width>4</width>
            </LineStyle>
        </Style>
        <Style id="26546">
            <LineStyle id="26547">
                <color>ff23DFD7</color>
                <colorMode>normal</colorMode>
                <width>4</width>
            </LineStyle>
        </Style>
        <Style id="26550">
            <LineStyle id="26551">
                <color>ff23DFD7</color>
                <colorMode>normal</colorMode>
                <width>4</width>
            </LineStyle>
        </Style>
        <Style id="26554">
            <LineStyle id="26555">
                <color>ff23DFD7</color>
                <colorMode>normal</colorMode>
                <width>4</width>
            </LineStyle>
        </Style>
        <Style id="26558">
            <LineStyle id="26559">
                <color>ff23DFD7</color>
                <colorMode>normal</colorMode>
                <width>4</width>
            </LineStyle>
        </Style>
        <Style id="26562">
            <LineStyle id="26563">
                <color>ff23DFD7</color>
                <colorMode>normal</colorMode>
                <width>4</width>
            </LineStyle>
        </Style>
        <Style id="26566">
            <LineStyle id="26567">
                <color>ff23DFD7</color>
                <colorMode>normal</colorMode>
                <width>4</width>
            </LineStyle>
        </Style>
        <Style id="26570">
            <LineStyle id="26571">
                <color>ff23DFD7</color>
                <colorMode>normal</colorMode>
                <width>4</width>
            </LineStyle>
        </Style>
        <Style id="26574">
            <LineStyle id="26575">
                <color>ff23DFD7</color>
                <colorMode>normal</colorMode>
                <width>4</width>
            </LineStyle>
        </Style>
        <Style id="26578">
            <LineStyle id="26579">
                <color>ff23DFD7</color>
                <colorMode>normal</colorMode>
                <width>4</width>
            </LineStyle>
        </Style>
        <Style id="26582">
            <LineStyle id="26583">
                <color>ff23DFD7</color>
                <colorMode>normal</colorMode>
                <width>4</width>
            </LineStyle>
        </Style>
        <Style id="26586">
            <LineStyle id="26587">
                <color>ff23DFD7</color>
                <colorMode>normal</colorMode>
                <width>4</width>
            </LineStyle>
        </Style>
        <Style id="26590">
            <LineStyle id="26591">
                <color>ff23DFD7</color>
                <colorMode>normal</colorMode>
                <width>4</width>
            </LineStyle>
        </Style>
        <Style id="26594">
            <LineStyle id="26595">
                <color>ff23DFD7</color>
                <colorMode>normal</colorMode>
                <width>4</width>
            </LineStyle>
        </Style>
        <Style id="26598">
            <LineStyle id="26599">
                <color>ff23DFD7</color>
                <colorMode>normal</colorMode>
                <width>4</width>
            </LineStyle>
        </Style>
        <Style id="26602">
            <LineStyle id="26603">
                <color>ff23DFD7</color>
                <colorMode>normal</colorMode>
                <width>4</width>
            </LineStyle>
        </Style>
        <Style id="26606">
            <LineStyle id="26607">
                <color>ff23DFD7</color>
                <colorMode>normal</colorMode>
                <width>4</width>
            </LineStyle>
        </Style>
        <Style id="26610">
            <LineStyle id="26611">
                <color>ff23DFD7</color>
                <colorMode>normal</colorMode>
                <width>4</width>
            </LineStyle>
        </Style>
        <Style id="26614">
            <LineStyle id="26615">
                <color>ff23DFD7</color>
                <colorMode>normal</colorMode>
                <width>4</width>
            </LineStyle>
        </Style>
        <Style id="26618">
            <LineStyle id="26619">
                <color>ff23DFD7</color>
                <colorMode>normal</colorMode>
                <width>4</width>
            </LineStyle>
        </Style>
        <Style id="26622">
            <LineStyle id="26623">
                <color>ff23DFD7</color>
                <colorMode>normal</colorMode>
                <width>4</width>
            </LineStyle>
        </Style>
        <Style id="26626">
            <LineStyle id="26627">
                <color>ff23DFD7</color>
                <colorMode>normal</colorMode>
                <width>4</width>
            </LineStyle>
        </Style>
        <Style id="26630">
            <LineStyle id="26631">
                <color>ff23DFD7</color>
                <colorMode>normal</colorMode>
                <width>4</width>
            </LineStyle>
        </Style>
        <Style id="26634">
            <LineStyle id="26635">
                <color>ff23DFD7</color>
                <colorMode>normal</colorMode>
                <width>4</width>
            </LineStyle>
        </Style>
        <Style id="26638">
            <LineStyle id="26639">
                <color>ff23DFD7</color>
                <colorMode>normal</colorMode>
                <width>4</width>
            </LineStyle>
        </Style>
        <Style id="26642">
            <LineStyle id="26643">
                <color>ff23DFD7</color>
                <colorMode>normal</colorMode>
                <width>4</width>
            </LineStyle>
        </Style>
        <Style id="26646">
            <LineStyle id="26647">
                <color>ff23DFD7</color>
                <colorMode>normal</colorMode>
                <width>4</width>
            </LineStyle>
        </Style>
        <Style id="26650">
            <LineStyle id="26651">
                <color>ff23DFD7</color>
                <colorMode>normal</colorMode>
                <width>4</width>
            </LineStyle>
        </Style>
        <Style id="26654">
            <LineStyle id="26655">
                <color>ff23DFD7</color>
                <colorMode>normal</colorMode>
                <width>4</width>
            </LineStyle>
        </Style>
        <Style id="26658">
            <LineStyle id="26659">
                <color>ff23DFD7</color>
                <colorMode>normal</colorMode>
                <width>4</width>
            </LineStyle>
        </Style>
        <Style id="26662">
            <LineStyle id="26663">
                <color>ff23DFD7</color>
                <colorMode>normal</colorMode>
                <width>4</width>
            </LineStyle>
        </Style>
        <Style id="26666">
            <LineStyle id="26667">
                <color>ff23DFD7</color>
                <colorMode>normal</colorMode>
                <width>4</width>
            </LineStyle>
        </Style>
        <Style id="26670">
            <LineStyle id="26671">
                <color>ff23DFD7</color>
                <colorMode>normal</colorMode>
                <width>4</width>
            </LineStyle>
        </Style>
        <Style id="26674">
            <LineStyle id="26675">
                <color>ff23DFD7</color>
                <colorMode>normal</colorMode>
                <width>4</width>
            </LineStyle>
        </Style>
        <Style id="26678">
            <LineStyle id="26679">
                <color>ff23DFD7</color>
                <colorMode>normal</colorMode>
                <width>4</width>
            </LineStyle>
        </Style>
        <Style id="26682">
            <LineStyle id="26683">
                <color>ff23DFD7</color>
                <colorMode>normal</colorMode>
                <width>4</width>
            </LineStyle>
        </Style>
        <Style id="26686">
            <LineStyle id="26687">
                <color>ff23DFD7</color>
                <colorMode>normal</colorMode>
                <width>4</width>
            </LineStyle>
        </Style>
        <Style id="26690">
            <LineStyle id="26691">
                <color>ff23DFD7</color>
                <colorMode>normal</colorMode>
                <width>4</width>
            </LineStyle>
        </Style>
        <Style id="26694">
            <LineStyle id="26695">
                <color>ff23DFD7</color>
                <colorMode>normal</colorMode>
                <width>4</width>
            </LineStyle>
        </Style>
        <Style id="26698">
            <LineStyle id="26699">
                <color>ff23DFD7</color>
                <colorMode>normal</colorMode>
                <width>4</width>
            </LineStyle>
        </Style>
        <Style id="26702">
            <LineStyle id="26703">
                <color>ff23DFD7</color>
                <colorMode>normal</colorMode>
                <width>4</width>
            </LineStyle>
        </Style>
        <Style id="26706">
            <LineStyle id="26707">
                <color>ff23DFD7</color>
                <colorMode>normal</colorMode>
                <width>4</width>
            </LineStyle>
        </Style>
        <Style id="26710">
            <LineStyle id="26711">
                <color>ff23DFD7</color>
                <colorMode>normal</colorMode>
                <width>4</width>
            </LineStyle>
        </Style>
        <Style id="26714">
            <LineStyle id="26715">
                <color>ff23DFD7</color>
                <colorMode>normal</colorMode>
                <width>4</width>
            </LineStyle>
        </Style>
        <Style id="26718">
            <LineStyle id="26719">
                <color>ff23DFD7</color>
                <colorMode>normal</colorMode>
                <width>4</width>
            </LineStyle>
        </Style>
        <Style id="26722">
            <LineStyle id="26723">
                <color>ff23DFD7</color>
                <colorMode>normal</colorMode>
                <width>4</width>
            </LineStyle>
        </Style>
        <Style id="26726">
            <LineStyle id="26727">
                <color>ff23DFD7</color>
                <colorMode>normal</colorMode>
                <width>4</width>
            </LineStyle>
        </Style>
        <Style id="26730">
            <LineStyle id="26731">
                <color>ff23DFD7</color>
                <colorMode>normal</colorMode>
                <width>4</width>
            </LineStyle>
        </Style>
        <Style id="26734">
            <LineStyle id="26735">
                <color>ff23DFD7</color>
                <colorMode>normal</colorMode>
                <width>4</width>
            </LineStyle>
        </Style>
        <Style id="26738">
            <LineStyle id="26739">
                <color>ff23DFD7</color>
                <colorMode>normal</colorMode>
                <width>4</width>
            </LineStyle>
        </Style>
        <Style id="26742">
            <LineStyle id="26743">
                <color>ff23DFD7</color>
                <colorMode>normal</colorMode>
                <width>4</width>
            </LineStyle>
        </Style>
        <Style id="26746">
            <LineStyle id="26747">
                <color>ff23DFD7</color>
                <colorMode>normal</colorMode>
                <width>4</width>
            </LineStyle>
        </Style>
        <Style id="26750">
            <LineStyle id="26751">
                <color>ff23DFD7</color>
                <colorMode>normal</colorMode>
                <width>4</width>
            </LineStyle>
        </Style>
        <Style id="26754">
            <LineStyle id="26755">
                <color>ff23DFD7</color>
                <colorMode>normal</colorMode>
                <width>4</width>
            </LineStyle>
        </Style>
        <Style id="26758">
            <LineStyle id="26759">
                <color>ff23DFD7</color>
                <colorMode>normal</colorMode>
                <width>4</width>
            </LineStyle>
        </Style>
        <Style id="26762">
            <LineStyle id="26763">
                <color>ff23DFD7</color>
                <colorMode>normal</colorMode>
                <width>4</width>
            </LineStyle>
        </Style>
        <Style id="26766">
            <LineStyle id="26767">
                <color>ff23DFD7</color>
                <colorMode>normal</colorMode>
                <width>4</width>
            </LineStyle>
        </Style>
        <Style id="26770">
            <LineStyle id="26771">
                <color>ff23DFD7</color>
                <colorMode>normal</colorMode>
                <width>4</width>
            </LineStyle>
        </Style>
        <Style id="26774">
            <LineStyle id="26775">
                <color>ff23DFD7</color>
                <colorMode>normal</colorMode>
                <width>4</width>
            </LineStyle>
        </Style>
        <Style id="26778">
            <LineStyle id="26779">
                <color>ff23DFD7</color>
                <colorMode>normal</colorMode>
                <width>4</width>
            </LineStyle>
        </Style>
        <Style id="26782">
            <LineStyle id="26783">
                <color>ff23DFD7</color>
                <colorMode>normal</colorMode>
                <width>4</width>
            </LineStyle>
        </Style>
        <Style id="26786">
            <LineStyle id="26787">
                <color>ff23DFD7</color>
                <colorMode>normal</colorMode>
                <width>4</width>
            </LineStyle>
        </Style>
        <Style id="26790">
            <LineStyle id="26791">
                <color>ff23DFD7</color>
                <colorMode>normal</colorMode>
                <width>4</width>
            </LineStyle>
        </Style>
        <Style id="26794">
            <LineStyle id="26795">
                <color>ff23DFD7</color>
                <colorMode>normal</colorMode>
                <width>4</width>
            </LineStyle>
        </Style>
        <Style id="26798">
            <LineStyle id="26799">
                <color>ff23DFD7</color>
                <colorMode>normal</colorMode>
                <width>4</width>
            </LineStyle>
        </Style>
        <Style id="26802">
            <LineStyle id="26803">
                <color>ff23DFD7</color>
                <colorMode>normal</colorMode>
                <width>4</width>
            </LineStyle>
        </Style>
        <Style id="26806">
            <LineStyle id="26807">
                <color>ff23DFD7</color>
                <colorMode>normal</colorMode>
                <width>4</width>
            </LineStyle>
        </Style>
        <Style id="26810">
            <LineStyle id="26811">
                <color>ff23DFD7</color>
                <colorMode>normal</colorMode>
                <width>4</width>
            </LineStyle>
        </Style>
        <Style id="26814">
            <LineStyle id="26815">
                <color>ff23DFD7</color>
                <colorMode>normal</colorMode>
                <width>4</width>
            </LineStyle>
        </Style>
        <ExtendedData>
            <Data name="route-name">
                <value>Jalur KBP: Kota Baru Parahyangan → Alun-alun Bandung via Tol Pasteur</value>
            </Data>
            <Data name="source">
                <value>Transport for Bandung</value>
            </Data>
        </ExtendedData>
        <Placemark id="26259">
            <name>Tatar Subanglarang</name>
            <styleUrl>#26260</styleUrl>
            <Point id="26258">
                <coordinates>107.4554476,-6.8818457,0.0</coordinates>
            </Point>
        </Placemark>
        <Placemark id="26264">
            <name>Alun-alun Bandung</name>
            <styleUrl>#26265</styleUrl>
            <Point id="26263">
                <coordinates>107.6071309,-6.9211347,0.0</coordinates>
            </Point>
        </Placemark>
        <Placemark id="26269">
            <name>Jalan Merdeka</name>
            <styleUrl>#26270</styleUrl>
            <LineString id="26268">
                <coordinates>107.6106377,-6.9069919,0.0 107.6106352,-6.9070989,0.0 107.6106494,-6.9075604,0.0 107.610662,-6.908124,0.0 107.610666,-6.9084915,0.0 107.6106694,-6.9088197,0.0 107.6106685,-6.9088817,0.0 107.6106745,-6.9090787,0.0 107.6106708,-6.9093054,0.0 107.6106596,-6.9096428,0.0 107.6106582,-6.909665,0.0 107.610654,-6.909795,0.0</coordinates>
            </LineString>
        </Placemark>
        <Placemark id="26273">
            <name>Jalan L.L. RE. Martadinata</name>
            <styleUrl>#26274</styleUrl>
            <LineString id="26272">
                <coordinates>107.6079412,-6.9065104,0.0 107.6081981,-6.9065975,0.0 107.6083321,-6.9066257,0.0 107.6092299,-6.9067838,0.0 107.6093359,-6.9068089,0.0</coordinates>
            </LineString>
        </Placemark>
        <Placemark id="26277">
            <name>Jalan Lembong</name>
            <styleUrl>#26278</styleUrl>
            <LineString id="26276">
                <coordinates>107.6092086,-6.9161842,0.0 107.6092295,-6.9161907,0.0 107.6094526,-6.9162909,0.0 107.6097121,-6.9164037,0.0 107.609811,-6.916445,0.0 107.6099117,-6.9164912,0.0 107.610072,-6.9165602,0.0</coordinates>
            </LineString>
        </Placemark>
        <Placemark id="26281">
            <name>Jalan Braga</name>
            <styleUrl>#26282</styleUrl>
            <LineString id="26280">
                <coordinates>107.6090254,-6.9139243,0.0 107.6090188,-6.9140707,0.0 107.6090157,-6.9141626,0.0 107.6090099,-6.9144741,0.0 107.6090078,-6.9145319,0.0 107.609003,-6.9147575,0.0 107.6090004,-6.9148441,0.0 107.609,-6.9150767,0.0 107.6090001,-6.9151162,0.0 107.6089998,-6.9151478,0.0 107.6089988,-6.9152244,0.0</coordinates>
            </LineString>
        </Placemark>
        <Placemark id="26285">
            <name>Jalan Perintis Kemerdekaan</name>
            <styleUrl>#26286</styleUrl>
            <LineString id="26284">
                <coordinates>107.6103525,-6.9136021,0.0 107.6100125,-6.9139146,0.0 107.6099856,-6.9139284,0.0 107.6099474,-6.9139366,0.0 107.6099053,-6.913944,0.0 107.6098104,-6.9139382,0.0 107.6097898,-6.9139349,0.0 107.6097692,-6.9139315,0.0 107.6096401,-6.9139177,0.0 107.6091737,-6.9138665,0.0 107.609095,-6.9138574,0.0</coordinates>
            </LineString>
        </Placemark>
        <Placemark id="26289">
            <name>Simpang Susun Pasteur</name>
            <styleUrl>#26290</styleUrl>
            <LineString id="26288">
                <coordinates>107.5320142,-6.8974751,0.0 107.5321888,-6.8976635,0.0 107.5323343,-6.8978526,0.0 107.5324765,-6.8980623,0.0 107.5326217,-6.8982762,0.0 107.5328554,-6.8986115,0.0 107.5330056,-6.8987953,0.0 107.533099,-6.8989137,0.0 107.5332215,-6.8990382,0.0 107.5333409,-6.8991381,0.0 107.5334807,-6.899242,0.0</coordinates>
            </LineString>
        </Placemark>
        <Placemark id="26293">
            <name>Jalan Tol Pasteur</name>
            <styleUrl>#26294</styleUrl>
            <LineString id="26292">
                <coordinates>107.5442018,-6.8971096,0.0 107.5456904,-6.8958854,0.0 107.5480172,-6.8938976,0.0 107.5489471,-6.8931211,0.0 107.5493918,-6.8927939,0.0 107.5496909,-6.8925769,0.0 107.5502679,-6.8921722,0.0 107.5505385,-6.8919818,0.0 107.5509038,-6.8917459,0.0</coordinates>
            </LineString>
        </Placemark>
        <Placemark id="26297">
            <name>Jalan Tol Pasteur</name>
            <styleUrl>#26298</styleUrl>
            <LineString id="26296">
                <coordinates>107.5557732,-6.8890435,0.0 107.556287,-6.8888459,0.0</coordinates>
            </LineString>
        </Placemark>
        <Placemark id="26301">
            <name>Jalan Tol Pasteur</name>
            <styleUrl>#26302</styleUrl>
            <LineString id="26300">
                <coordinates>107.5766742,-6.8908459,0.0 107.5776826,-6.8910057,0.0 107.5778866,-6.89105,0.0 107.5784177,-6.891176,0.0 107.5788327,-6.8913119,0.0 107.5794048,-6.8915466,0.0 107.5800361,-6.8918421,0.0 107.5803089,-6.8919422,0.0</coordinates>
            </LineString>
        </Placemark>
        <Placemark id="26305">
            <name>Jalan Tol Pasteur</name>
            <styleUrl>#26306</styleUrl>
            <LineString id="26304">
                <coordinates>107.5509038,-6.8917459,0.0 107.5514155,-6.8914498,0.0</coordinates>
            </LineString>
        </Placemark>
        <Placemark id="26309">
            <name>Jalan Tol Pasteur</name>
            <styleUrl>#26310</styleUrl>
            <LineString id="26308">
                <coordinates>107.5532875,-6.8903596,0.0 107.5534902,-6.8902443,0.0 107.5545679,-6.8896312,0.0 107.5551385,-6.8893442,0.0 107.5557732,-6.8890435,0.0</coordinates>
            </LineString>
        </Placemark>
        <Placemark id="26313">
            <name>Jalan Tol Padalarang–Cileunyi</name>
            <styleUrl>#26314</styleUrl>
            <LineString id="26312">
                <coordinates>107.5049389,-6.8587713,0.0 107.5049758,-6.8591998,0.0 107.5049919,-6.8593343,0.0 107.5050858,-6.8601437,0.0 107.5051448,-6.8605487,0.0 107.5053384,-6.8615268,0.0 107.5055418,-6.8623563,0.0 107.5057641,-6.8630736,0.0 107.5059199,-6.8635472,0.0 107.5060155,-6.8637752,0.0</coordinates>
            </LineString>
        </Placemark>
        <Placemark id="26317">
            <name>Jalan Kota Baru Parahyangan</name>
            <styleUrl>#26318</styleUrl>
            <LineString id="26316">
                <coordinates>107.4843016,-6.858936,0.0 107.484316,-6.8588447,0.0 107.4843572,-6.8587619,0.0</coordinates>
            </LineString>
        </Placemark>
        <Placemark id="26321">
            <name>Jalan Kota Baru Parahyangan</name>
            <styleUrl>#26322</styleUrl>
            <LineString id="26320">
                <coordinates>107.4940543,-6.8517636,0.0 107.4940828,-6.8517621,0.0 107.4941082,-6.8517594,0.0 107.4941315,-6.851755,0.0 107.4941572,-6.8517482,0.0 107.4941813,-6.85174,0.0 107.4942078,-6.8517287,0.0 107.4942327,-6.851716,0.0 107.4942529,-6.8517024,0.0 107.4942697,-6.8516875,0.0 107.4942868,-6.8516703,0.0 107.4943012,-6.8516526,0.0 107.4946927,-6.8510954,0.0 107.4947508,-6.8510173,0.0 107.4948956,-6.8508267,0.0 107.4952692,-6.8503346,0.0</coordinates>
            </LineString>
        </Placemark>
        <Placemark id="26325">
            <name>Jalan Parahyangan</name>
            <styleUrl>#26326</styleUrl>
            <LineString id="26324">
                <coordinates>107.4698236,-6.8663608,0.0 107.4709548,-6.8663543,0.0 107.4710013,-6.8663564,0.0 107.4712124,-6.8663744,0.0 107.4715875,-6.8664065,0.0 107.4724782,-6.8666043,0.0 107.4727666,-6.8666285,0.0 107.4730216,-6.8666102,0.0 107.4732532,-6.8665769,0.0 107.4734039,-6.8665328,0.0 107.473782,-6.8664222,0.0 107.4743417,-6.8662699,0.0 107.4746263,-6.8661924,0.0 107.4748755,-6.8661558,0.0 107.4750387,-6.866138,0.0 107.4751899,-6.8661306,0.0 107.4752676,-6.8661302,0.0 107.4760018,-6.8660868,0.0 107.4764356,-6.866007,0.0</coordinates>
            </LineString>
        </Placemark>
        <Placemark id="26329">
            <name>Jalan Parahyangan</name>
            <styleUrl>#26330</styleUrl>
            <LineString id="26328">
                <coordinates>107.4764356,-6.866007,0.0 107.4770717,-6.8658522,0.0</coordinates>
            </LineString>
        </Placemark>
        <Placemark id="26333">
            <name>Jalan Parahyangan</name>
            <styleUrl>#26334</styleUrl>
            <LineString id="26332">
                <coordinates>107.4692162,-6.8663547,0.0 107.4698236,-6.8663608,0.0</coordinates>
            </LineString>
        </Placemark>
        <Placemark id="26337">
            <name>Jalan Parahyangan</name>
            <styleUrl>#26338</styleUrl>
            <LineString id="26336">
                <coordinates>107.4770717,-6.8658522,0.0 107.4771828,-6.865811,0.0 107.4774403,-6.8657151,0.0 107.4776325,-6.8656175,0.0 107.477789,-6.8655128,0.0 107.4778845,-6.8654372,0.0</coordinates>
            </LineString>
        </Placemark>
        <Placemark id="26341">
            <name>Jalan Tol Padalarang–Cileunyi</name>
            <styleUrl>#26342</styleUrl>
            <LineString id="26340">
                <coordinates>107.5060155,-6.8637752,0.0 107.5062217,-6.8643278,0.0</coordinates>
            </LineString>
        </Placemark>
        <Placemark id="26345">
            <name>Jalan Tamblong</name>
            <styleUrl>#26346</styleUrl>
            <LineString id="26344">
                <coordinates>107.6122092,-6.9201091,0.0 107.6121953,-6.9202135,0.0 107.612155,-6.9205282,0.0 107.6121207,-6.9208351,0.0 107.6120718,-6.9213137,0.0 107.6120281,-6.9216096,0.0 107.6120154,-6.9217245,0.0</coordinates>
            </LineString>
        </Placemark>
        <Placemark id="26349">
            <name>Jalan Lembong</name>
            <styleUrl>#26350</styleUrl>
            <LineString id="26348">
                <coordinates>107.6109278,-6.9169939,0.0 107.6111029,-6.9170839,0.0 107.6113003,-6.9171832,0.0 107.6113378,-6.917202,0.0</coordinates>
            </LineString>
        </Placemark>
        <Placemark id="26353">
            <name>Jalan Cihampelas</name>
            <styleUrl>#26354</styleUrl>
            <LineString id="26352">
                <coordinates>107.6042016,-6.9003842,0.0 107.604264,-6.9008715,0.0</coordinates>
            </LineString>
        </Placemark>
        <Placemark id="26357">
            <name>Jalan Cihampelas</name>
            <styleUrl>#26358</styleUrl>
            <LineString id="26356">
                <coordinates>107.6041803,-6.900144,0.0 107.6041813,-6.9001579,0.0 107.604189,-6.9002755,0.0 107.6041992,-6.9003596,0.0 107.6042016,-6.9003842,0.0</coordinates>
            </LineString>
        </Placemark>
        <Placemark id="26361">
            <name>Jalan Dr. Djunjunan</name>
            <styleUrl>#26362</styleUrl>
            <LineString id="26360">
                <coordinates>107.5810582,-6.8921467,0.0 107.5811571,-6.8921678,0.0</coordinates>
            </LineString>
        </Placemark>
        <Placemark id="26365">
            <name>Jalan Dr. Djunjunan</name>
            <styleUrl>#26366</styleUrl>
            <LineString id="26364">
                <coordinates>107.5936018,-6.898303,0.0 107.594085,-6.8986577,0.0 107.5941136,-6.8986787,0.0 107.5944451,-6.8989736,0.0 107.5947669,-6.8992747,0.0 107.5950127,-6.8995008,0.0 107.5952583,-6.8996846,0.0 107.5954259,-6.8997986,0.0 107.5955508,-6.8998655,0.0 107.595629,-6.8999074,0.0</coordinates>
            </LineString>
        </Placemark>
        <Placemark id="26369">
            <name>Jalan Pasteur</name>
            <styleUrl>#26370</styleUrl>
            <LineString id="26368">
                <coordinates>107.5993001,-6.900202,0.0 107.599805,-6.900195,0.0 107.6003645,-6.900192,0.0 107.6008037,-6.9002057,0.0 107.6010655,-6.9002051,0.0</coordinates>
            </LineString>
        </Placemark>
        <Placemark id="26373">
            <name>Jalan Cihampelas</name>
            <styleUrl>#26374</styleUrl>
            <LineString id="26372">
                <coordinates>107.604369,-6.9041823,0.0 107.6043878,-6.9042234,0.0 107.6044168,-6.9042582,0.0 107.604454,-6.9042842,0.0</coordinates>
            </LineString>
        </Placemark>
        <Placemark id="26377">
            <name>Jalan Wastukencana</name>
            <styleUrl>#26378</styleUrl>
            <LineString id="26376">
                <coordinates>107.604454,-6.9042842,0.0 107.6045194,-6.9042857,0.0</coordinates>
            </LineString>
        </Placemark>
        <Placemark id="26381">
            <name>Jalan Wastukancana</name>
            <styleUrl>#26382</styleUrl>
            <LineString id="26380">
                <coordinates>107.6075644,-6.9054686,0.0 107.607609,-6.9055867,0.0 107.6076511,-6.9057161,0.0 107.6076853,-6.905845,0.0</coordinates>
            </LineString>
        </Placemark>
        <Placemark id="26385">
            <name>Jalan Merdeka</name>
            <styleUrl>#26386</styleUrl>
            <LineString id="26384">
                <coordinates>107.6106164,-6.9099691,0.0 107.6106159,-6.9099991,0.0 107.6106153,-6.9100253,0.0 107.6106014,-6.9104158,0.0 107.6105812,-6.9108691,0.0 107.6105492,-6.9114267,0.0 107.6105236,-6.9118509,0.0 107.610489,-6.9122567,0.0 107.6104606,-6.9125904,0.0 107.6104461,-6.9127255,0.0 107.6104424,-6.9127679,0.0 107.6103525,-6.9136021,0.0</coordinates>
            </LineString>
        </Placemark>
        <Placemark id="26389">
            <name>Route Segment</name>
            <styleUrl>#26390</styleUrl>
            <LineString id="26388">
                <coordinates>107.611899,-6.9174826,0.0 107.6119638,-6.9175519,0.0 107.6120629,-6.9176091,0.0 107.6121927,-6.9176855,0.0 107.6122735,-6.9177431,0.0 107.612341,-6.9177922,0.0 107.6123749,-6.9178256,0.0 107.6124026,-6.9178815,0.0 107.6124151,-6.9179473,0.0 107.6124086,-6.91811,0.0 107.6124036,-6.9181433,0.0 107.6123969,-6.9182059,0.0 107.6123918,-6.9182691,0.0</coordinates>
            </LineString>
        </Placemark>
        <Placemark id="26393">
            <name>Jalan L.L. RE. Martadinata</name>
            <styleUrl>#26394</styleUrl>
            <LineString id="26392">
                <coordinates>107.6093359,-6.9068089,0.0 107.6094718,-6.9068328,0.0 107.6096165,-6.9068537,0.0 107.6097643,-6.906873,0.0 107.6103896,-6.9069656,0.0 107.6104091,-6.9069683,0.0 107.6105769,-6.9069872,0.0</coordinates>
            </LineString>
        </Placemark>
        <Placemark id="26397">
            <name>Jalan Wastukancana</name>
            <styleUrl>#26398</styleUrl>
            <LineString id="26396">
                <coordinates>107.6077246,-6.9060495,0.0 107.6077494,-6.9061802,0.0 107.6077784,-6.906285,0.0 107.6078246,-6.906372,0.0 107.607872,-6.9064327,0.0 107.6079412,-6.9065104,0.0</coordinates>
            </LineString>
        </Placemark>
        <Placemark id="26401">
            <name>Jalan Dr. Djunjunan</name>
            <styleUrl>#26402</styleUrl>
            <LineString id="26400">
                <coordinates>107.595629,-6.8999074,0.0 107.5957356,-6.8999574,0.0 107.5958578,-6.9000055,0.0 107.5960113,-6.9000567,0.0 107.5962502,-6.9001202,0.0 107.5963399,-6.9001472,0.0 107.5964623,-6.9001732,0.0 107.596578,-6.9001845,0.0 107.5967905,-6.9002045,0.0 107.5970495,-6.9002074,0.0</coordinates>
            </LineString>
        </Placemark>
        <Placemark id="26405">
            <name>Jalan Dr. Djunjunan</name>
            <styleUrl>#26406</styleUrl>
            <LineString id="26404">
                <coordinates>107.5819472,-6.8922747,0.0 107.582151,-6.8922778,0.0 107.5824915,-6.8922676,0.0 107.5829072,-6.8922539,0.0 107.5830115,-6.8922505,0.0 107.5831666,-6.89225,0.0 107.5835209,-6.8922577,0.0 107.5836678,-6.892264,0.0 107.5837576,-6.892272,0.0 107.5839104,-6.8922944,0.0 107.58417,-6.8923379,0.0 107.5844712,-6.8924032,0.0 107.5845652,-6.8924203,0.0 107.5845966,-6.8924318,0.0 107.5849478,-6.8925604,0.0 107.5851106,-6.8926214,0.0 107.5851944,-6.8926652,0.0 107.5852992,-6.8927221,0.0 107.5853945,-6.8927739,0.0 107.5854858,-6.8928249,0.0 107.5855165,-6.8928413,0.0 107.585756,-6.8929666,0.0 107.5858569,-6.8930235,0.0 107.5869911,-6.8938819,0.0 107.5871385,-6.8939896,0.0</coordinates>
            </LineString>
        </Placemark>
        <Placemark id="26409">
            <name>Jalan Pasteur</name>
            <styleUrl>#26410</styleUrl>
            <LineString id="26408">
                <coordinates>107.5985704,-6.900207,0.0 107.5988449,-6.9002092,0.0 107.5988968,-6.9002096,0.0</coordinates>
            </LineString>
        </Placemark>
        <Placemark id="26413">
            <name>Jalan Asia Afrika</name>
            <styleUrl>#26414</styleUrl>
            <LineString id="26412">
                <coordinates>107.607195,-6.9211421,0.0 107.6071709,-6.9211388,0.0 107.6071309,-6.9211347,0.0</coordinates>
            </LineString>
        </Placemark>
        <Placemark id="26417">
            <name>Jalan Wastukancana</name>
            <styleUrl>#26418</styleUrl>
            <LineString id="26416">
                <coordinates>107.604907,-6.904268,0.0 107.6050035,-6.9041885,0.0 107.6051531,-6.9040927,0.0 107.605225,-6.9040549,0.0 107.6052645,-6.9040341,0.0 107.605369,-6.9039986,0.0 107.6054495,-6.9039862,0.0 107.6055461,-6.9039795,0.0 107.6056396,-6.9039773,0.0 107.6058035,-6.9039995,0.0 107.6059967,-6.9040381,0.0 107.6061616,-6.9040807,0.0 107.606306,-6.9041384,0.0 107.6063615,-6.9041606,0.0 107.6065841,-6.9042698,0.0</coordinates>
            </LineString>
        </Placemark>
        <Placemark id="26421">
            <name>Jalan Cihampelas</name>
            <styleUrl>#26422</styleUrl>
            <LineString id="26420">
                <coordinates>107.604264,-6.9008715,0.0 107.6042787,-6.9010952,0.0 107.6042858,-6.9012975,0.0 107.6043224,-6.9023437,0.0 107.6043266,-6.9027188,0.0 107.6043559,-6.9036874,0.0 107.6043657,-6.9040669,0.0 107.6043665,-6.9040981,0.0 107.604369,-6.9041823,0.0</coordinates>
            </LineString>
        </Placemark>
        <Placemark id="26425">
            <name>Jalan Dr. Djunjunan</name>
            <styleUrl>#26426</styleUrl>
            <LineString id="26424">
                <coordinates>107.5811571,-6.8921678,0.0 107.5813175,-6.892198,0.0 107.5819472,-6.8922747,0.0</coordinates>
            </LineString>
        </Placemark>
        <Placemark id="26429">
            <name>Jalan Pasteur</name>
            <styleUrl>#26430</styleUrl>
            <LineString id="26428">
                <coordinates>107.5977317,-6.9002067,0.0 107.5979866,-6.900214,0.0</coordinates>
            </LineString>
        </Placemark>
        <Placemark id="26433">
            <name>Jalan Raya Padalarang</name>
            <styleUrl>#26434</styleUrl>
            <LineString id="26432">
                <coordinates>107.4971959,-6.8514713,0.0 107.4972695,-6.8515233,0.0 107.4973395,-6.8515925,0.0</coordinates>
            </LineString>
        </Placemark>
        <Placemark id="26437">
            <name>Jalan Raya Padalarang</name>
            <styleUrl>#26438</styleUrl>
            <LineString id="26436">
                <coordinates>107.4962036,-6.8508025,0.0 107.4967304,-6.8511712,0.0 107.4968808,-6.8512765,0.0 107.4969413,-6.8513159,0.0</coordinates>
            </LineString>
        </Placemark>
        <Placemark id="26441">
            <name>Jalan Tol Padalarang–Cileunyi</name>
            <styleUrl>#26442</styleUrl>
            <LineString id="26440">
                <coordinates>107.5062217,-6.8643278,0.0 107.5066949,-6.8653666,0.0 107.5072222,-6.8663708,0.0 107.5075119,-6.866858,0.0 107.5078268,-6.867363,0.0 107.5079772,-6.8675862,0.0 107.5081789,-6.8678786,0.0 107.5085104,-6.8683394,0.0 107.5088476,-6.8687773,0.0 107.509236,-6.8692841,0.0 107.5101417,-6.8704337,0.0 107.510536,-6.8709716,0.0 107.5109062,-6.8714509,0.0 107.5117091,-6.87252,0.0 107.5128334,-6.8739573,0.0 107.5138864,-6.8753879,0.0 107.5148778,-6.8767929,0.0 107.5152423,-6.877314,0.0 107.5153845,-6.877535,0.0 107.5160372,-6.8785702,0.0 107.5160457,-6.8785833,0.0 107.516402,-6.8791334,0.0 107.5166515,-6.8795142,0.0 107.5169612,-6.8800215,0.0 107.5172831,-6.8804955,0.0 107.5175393,-6.8808936,0.0 107.5179389,-6.8815114,0.0 107.5182916,-6.882048,0.0 107.5187208,-6.882703,0.0 107.5191392,-6.8833248,0.0 107.5194597,-6.8837815,0.0 107.5198594,-6.8843554,0.0 107.5202161,-6.8848919,0.0 107.52101,-6.8861235,0.0 107.5214472,-6.8867812,0.0 107.5220266,-6.887664,0.0 107.5224262,-6.8882671,0.0 107.5228675,-6.8889048,0.0 107.5229882,-6.889066,0.0 107.5233489,-6.8895293,0.0 107.5237834,-6.8900712,0.0 107.5242096,-6.8905523,0.0 107.5248302,-6.8911956,0.0 107.5251589,-6.8915162,0.0 107.5256824,-6.8919884,0.0 107.5260033,-6.8922545,0.0 107.5262525,-6.8924611,0.0 107.5268948,-6.8929457,0.0 107.5276177,-6.8934263,0.0 107.5283982,-6.8939423,0.0 107.5288937,-6.8942811,0.0 107.5291984,-6.8945091,0.0 107.529746,-6.8949548,0.0 107.5304501,-6.895647,0.0 107.5309438,-6.8961476,0.0 107.5314733,-6.8967588,0.0 107.5320142,-6.8974751,0.0</coordinates>
            </LineString>
        </Placemark>
        <Placemark id="26445">
            <name>Jalan Dr. Djunjunan</name>
            <styleUrl>#26446</styleUrl>
            <LineString id="26444">
                <coordinates>107.5871385,-6.8939896,0.0 107.5878578,-6.8945044,0.0 107.5880764,-6.894663,0.0 107.5882514,-6.89479,0.0 107.5883596,-6.8948674,0.0 107.5883918,-6.8948914,0.0 107.5887732,-6.8951757,0.0 107.5888526,-6.8952324,0.0 107.5889151,-6.8952824,0.0 107.5889641,-6.8953196,0.0 107.5890741,-6.8954031,0.0 107.5891588,-6.8954636,0.0 107.5894242,-6.8956585,0.0 107.5895178,-6.8957186,0.0 107.5897248,-6.8958301,0.0 107.589913,-6.8959339,0.0 107.5901962,-6.8960883,0.0 107.5904656,-6.8962229,0.0 107.5905302,-6.8962586,0.0 107.5907946,-6.8964009,0.0 107.591108,-6.8965587,0.0 107.5912792,-6.8966614,0.0 107.5916942,-6.8968726,0.0 107.5919664,-6.8970436,0.0 107.5921671,-6.8971698,0.0 107.5922221,-6.8972027,0.0 107.5924064,-6.8973127,0.0 107.5926529,-6.8974821,0.0 107.5929713,-6.8977117,0.0 107.5930174,-6.8977454,0.0 107.5932178,-6.8979319,0.0 107.5935309,-6.8982345,0.0 107.5936018,-6.898303,0.0</coordinates>
            </LineString>
        </Placemark>
        <Placemark id="26449">
            <name>Simpang Susun Padalarang</name>
            <styleUrl>#26450</styleUrl>
            <LineString id="26448">
                <coordinates>107.5031961,-6.8533945,0.0 107.5054415,-6.8539201,0.0 107.5057705,-6.8540119,0.0 107.5058435,-6.8540389,0.0 107.5059266,-6.8540789,0.0 107.5059924,-6.8541188,0.0 107.5060915,-6.8541947,0.0 107.5061519,-6.8542373,0.0 107.5062177,-6.8542906,0.0 107.5062686,-6.8543439,0.0 107.5063503,-6.8544396,0.0 107.5063947,-6.854501,0.0 107.5064296,-6.8545569,0.0 107.5064738,-6.8546208,0.0 107.506514,-6.854726,0.0 107.5065409,-6.8547886,0.0 107.5065689,-6.8548631,0.0 107.5066026,-6.854975,0.0 107.50662,-6.8550576,0.0 107.5066294,-6.8551295,0.0 107.5066361,-6.8551934,0.0 107.5066361,-6.8552986,0.0 107.5066388,-6.8553998,0.0 107.5066307,-6.8554983,0.0 107.5066078,-6.8556074,0.0 107.5065717,-6.855698,0.0 107.5065032,-6.8558737,0.0 107.5064349,-6.8559923,0.0 107.5063919,-6.8560708,0.0 107.5063263,-6.856164,0.0 107.5062646,-6.8562333,0.0 107.5062083,-6.8562879,0.0 107.5061103,-6.8563651,0.0 107.5058783,-6.8565329,0.0 107.5057107,-6.8566567,0.0 107.5056328,-6.8567267,0.0 107.5055873,-6.8567686,0.0 107.5053834,-6.8570068,0.0 107.5051903,-6.8573264,0.0 107.5050871,-6.8575874,0.0 107.5050669,-6.8576487,0.0 107.5050012,-6.8580268,0.0 107.5049683,-6.8584194,0.0 107.5049389,-6.8587713,0.0</coordinates>
            </LineString>
        </Placemark>
        <Placemark id="26453">
            <name>Jalan Asia Afrika</name>
            <styleUrl>#26454</styleUrl>
            <LineString id="26452">
                <coordinates>107.6120154,-6.9217245,0.0 107.6118219,-6.9217006,0.0</coordinates>
            </LineString>
        </Placemark>
        <Placemark id="26457">
            <name>Jalan Asia Afrika</name>
            <styleUrl>#26458</styleUrl>
            <LineString id="26456">
                <coordinates>107.6077961,-6.9212245,0.0 107.6076762,-6.9212089,0.0 107.6075753,-6.921193,0.0 107.6072432,-6.9211493,0.0 107.607195,-6.9211421,0.0</coordinates>
            </LineString>
        </Placemark>
        <Placemark id="26461">
            <name>Jalan Tol Pasteur</name>
            <styleUrl>#26462</styleUrl>
            <LineString id="26460">
                <coordinates>107.5401061,-6.8987269,0.0 107.5403015,-6.8986938,0.0</coordinates>
            </LineString>
        </Placemark>
        <Placemark id="26465">
            <name>Jalan L.L. RE. Martadinata</name>
            <styleUrl>#26466</styleUrl>
            <LineString id="26464">
                <coordinates>107.6106377,-6.9069919,0.0 107.6105769,-6.9069872,0.0</coordinates>
            </LineString>
        </Placemark>
        <Placemark id="26469">
            <name>Jalan Tol Pasteur</name>
            <styleUrl>#26470</styleUrl>
            <LineString id="26468">
                <coordinates>107.5613488,-6.887945,0.0 107.561848,-6.8879396,0.0 107.5623094,-6.8879609,0.0</coordinates>
            </LineString>
        </Placemark>
        <Placemark id="26473">
            <name>Jalan Tol Pasteur</name>
            <styleUrl>#26474</styleUrl>
            <LineString id="26472">
                <coordinates>107.556287,-6.8888459,0.0 107.5565198,-6.8887544,0.0 107.5568564,-6.8886506,0.0 107.557413,-6.8884948,0.0 107.5579306,-6.8883643,0.0 107.5584325,-6.8882539,0.0 107.5593678,-6.8880771,0.0 107.5606123,-6.8879631,0.0 107.5613488,-6.887945,0.0</coordinates>
            </LineString>
        </Placemark>
        <Placemark id="26477">
            <name>Jalan Raya Padalarang</name>
            <styleUrl>#26478</styleUrl>
            <LineString id="26476">
                <coordinates>107.4956199,-6.8503909,0.0 107.4960649,-6.8507054,0.0 107.4961485,-6.850764,0.0 107.4962036,-6.8508025,0.0</coordinates>
            </LineString>
        </Placemark>
        <Placemark id="26481">
            <name>Jalan Guru Gantangan</name>
            <styleUrl>#26482</styleUrl>
            <LineString id="26480">
                <coordinates>107.4556334,-6.8816863,0.0 107.4559928,-6.8813166,0.0 107.4562589,-6.881088,0.0 107.4565357,-6.8808902,0.0 107.4568273,-6.8807002,0.0 107.4571377,-6.8805315,0.0 107.4573321,-6.8804423,0.0 107.4576874,-6.8803065,0.0 107.4580586,-6.880202,0.0 107.4584475,-6.880122,0.0 107.4585481,-6.8801047,0.0 107.4586664,-6.8800913,0.0 107.4600619,-6.8800819,0.0 107.4601515,-6.8800824,0.0 107.4615047,-6.8800752,0.0 107.4615576,-6.8800746,0.0 107.4616011,-6.8800734,0.0 107.4616237,-6.8800727,0.0 107.4617313,-6.880057,0.0 107.4618159,-6.8800372,0.0 107.4619,-6.8800013,0.0 107.4619465,-6.879973,0.0 107.4620209,-6.879921,0.0 107.4621114,-6.8798424,0.0 107.4622495,-6.8796694,0.0 107.462322,-6.8795276,0.0 107.4623481,-6.879445,0.0 107.4623622,-6.8793478,0.0 107.4623595,-6.8782534,0.0 107.4623481,-6.8765953,0.0 107.4623434,-6.8765185,0.0 107.4623421,-6.8761889,0.0 107.4623501,-6.8757456,0.0 107.4623542,-6.8756856,0.0 107.4623588,-6.875659,0.0 107.4623877,-6.8755572,0.0 107.4624212,-6.8755006,0.0 107.4629181,-6.8749114,0.0 107.4629422,-6.8748668,0.0 107.4629556,-6.8748422,0.0 107.4629764,-6.8747942,0.0 107.4629851,-6.8747157,0.0 107.4629912,-6.8744667,0.0 107.4629962,-6.8740043,0.0 107.462998,-6.8738661,0.0 107.463012,-6.8737337,0.0 107.4630287,-6.8736199,0.0 107.4630435,-6.8734375,0.0 107.4630448,-6.8722365,0.0 107.4630502,-6.8719462,0.0 107.4630659,-6.8718518,0.0 107.4630965,-6.8718086,0.0 107.4631273,-6.8717698,0.0 107.4631677,-6.8717385,0.0 107.4632222,-6.8717189,0.0 107.4632809,-6.8717026,0.0 107.463423,-6.8716959,0.0 107.4636416,-6.8716979,0.0 107.4643475,-6.8716897,0.0 107.4644334,-6.8716871,0.0 107.4652957,-6.8716916,0.0 107.4653599,-6.8716943,0.0 107.4657143,-6.8716914,0.0</coordinates>
            </LineString>
        </Placemark>
        <Placemark id="26485">
            <name>Jalan Tol Pasteur</name>
            <styleUrl>#26486</styleUrl>
            <LineString id="26484">
                <coordinates>107.5732682,-6.8901054,0.0 107.5742568,-6.8903203,0.0</coordinates>
            </LineString>
        </Placemark>
        <Placemark id="26489">
            <name>Jalan Tol Pasteur</name>
            <styleUrl>#26490</styleUrl>
            <LineString id="26488">
                <coordinates>107.5623094,-6.8879609,0.0 107.562768,-6.8879982,0.0 107.5632629,-6.8880621,0.0 107.5637612,-6.888141,0.0 107.5663635,-6.8886612,0.0 107.5668358,-6.8887555,0.0 107.572397,-6.8899162,0.0</coordinates>
            </LineString>
        </Placemark>
        <Placemark id="26493">
            <name>Jalan Panyawangan</name>
            <styleUrl>#26494</styleUrl>
            <LineString id="26492">
                <coordinates>107.4870991,-6.8578224,0.0 107.4874491,-6.8577118,0.0</coordinates>
            </LineString>
        </Placemark>
        <Placemark id="26497">
            <name>Jalan Panyawangan</name>
            <styleUrl>#26498</styleUrl>
            <LineString id="26496">
                <coordinates>107.4847723,-6.8586782,0.0 107.4848686,-6.8586859,0.0 107.4849119,-6.8586783,0.0 107.4849501,-6.8586647,0.0 107.4850957,-6.8585927,0.0 107.4851542,-6.8585673,0.0 107.485469,-6.8584169,0.0 107.4858086,-6.8582717,0.0 107.4863356,-6.8580663,0.0 107.4867539,-6.8579294,0.0 107.4870991,-6.8578224,0.0</coordinates>
            </LineString>
        </Placemark>
        <Placemark id="26501">
            <name>Jalan Tol Pasteur</name>
            <styleUrl>#26502</styleUrl>
            <LineString id="26500">
                <coordinates>107.574635,-6.8904026,0.0 107.5747721,-6.8904324,0.0</coordinates>
            </LineString>
        </Placemark>
        <Placemark id="26505">
            <name>Jalan Tol Pasteur</name>
            <styleUrl>#26506</styleUrl>
            <LineString id="26504">
                <coordinates>107.5742568,-6.8903203,0.0 107.5744614,-6.8903648,0.0 107.574635,-6.8904026,0.0</coordinates>
            </LineString>
        </Placemark>
        <Placemark id="26509">
            <name>Simpang Susun Padalarang</name>
            <styleUrl>#26510</styleUrl>
            <LineString id="26508">
                <coordinates>107.4988925,-6.8524025,0.0 107.4990086,-6.8524365,0.0 107.4991309,-6.8524626,0.0</coordinates>
            </LineString>
        </Placemark>
        <Placemark id="26513">
            <name>Jalan Tamblong</name>
            <styleUrl>#26514</styleUrl>
            <LineString id="26512">
                <coordinates>107.61235,-6.918793,0.0 107.6123364,-6.9189576,0.0 107.6122952,-6.9194549,0.0 107.6122402,-6.9198677,0.0 107.6122212,-6.9200158,0.0 107.6122183,-6.920038,0.0 107.6122118,-6.9200856,0.0 107.6122092,-6.9201091,0.0</coordinates>
            </LineString>
        </Placemark>
        <Placemark id="26517">
            <name>Simpang Susun Padalarang</name>
            <styleUrl>#26518</styleUrl>
            <LineString id="26516">
                <coordinates>107.5008416,-6.8528829,0.0 107.5010864,-6.8529534,0.0</coordinates>
            </LineString>
        </Placemark>
        <Placemark id="26521">
            <name>Simpang Susun Padalarang</name>
            <styleUrl>#26522</styleUrl>
            <LineString id="26520">
                <coordinates>107.4999894,-6.8525406,0.0 107.5001299,-6.8525699,0.0</coordinates>
            </LineString>
        </Placemark>
        <Placemark id="26525">
            <name>Simpang Susun Padalarang</name>
            <styleUrl>#26526</styleUrl>
            <LineString id="26524">
                <coordinates>107.5001299,-6.8525699,0.0 107.5004925,-6.8526861,0.0 107.5006534,-6.8527607,0.0 107.5008416,-6.8528829,0.0</coordinates>
            </LineString>
        </Placemark>
        <Placemark id="26529">
            <name>Simpang Susun Padalarang</name>
            <styleUrl>#26530</styleUrl>
            <LineString id="26528">
                <coordinates>107.4992862,-6.852491,0.0 107.4995212,-6.8525012,0.0</coordinates>
            </LineString>
        </Placemark>
        <Placemark id="26533">
            <name>Simpang Susun Padalarang</name>
            <styleUrl>#26534</styleUrl>
            <LineString id="26532">
                <coordinates>107.4991309,-6.8524626,0.0 107.4992278,-6.8524851,0.0 107.4992862,-6.852491,0.0</coordinates>
            </LineString>
        </Placemark>
        <Placemark id="26537">
            <name>Jalan Raya Padalarang</name>
            <styleUrl>#26538</styleUrl>
            <LineString id="26536">
                <coordinates>107.4952692,-6.8503346,0.0 107.4952919,-6.8503154,0.0 107.4953092,-6.8503026,0.0 107.4953245,-6.8502937,0.0 107.4953422,-6.8502863,0.0 107.4953615,-6.8502816,0.0 107.4953823,-6.8502789,0.0 107.4954033,-6.8502783,0.0 107.4954263,-6.8502797,0.0 107.495444,-6.8502829,0.0 107.4954666,-6.8502899,0.0 107.4954882,-6.8502996,0.0 107.4955059,-6.8503087,0.0 107.4955273,-6.8503217,0.0</coordinates>
            </LineString>
        </Placemark>
        <Placemark id="26541">
            <name>Jalan Perintis Kemerdekaan</name>
            <styleUrl>#26542</styleUrl>
            <LineString id="26540">
                <coordinates>107.609095,-6.9138574,0.0 107.6090913,-6.9138784,0.0 107.6090812,-6.9138972,0.0 107.6090659,-6.9139121,0.0 107.6090466,-6.9139217,0.0 107.6090254,-6.9139243,0.0</coordinates>
            </LineString>
        </Placemark>
        <Placemark id="26545">
            <name>Jalan Guru Gantangan</name>
            <styleUrl>#26546</styleUrl>
            <LineString id="26544">
                <coordinates>107.4657143,-6.8716914,0.0 107.4660366,-6.8716903,0.0 107.4661255,-6.87169,0.0 107.4662259,-6.871689,0.0 107.4665508,-6.8716856,0.0 107.4668179,-6.8716824,0.0 107.4669311,-6.871681,0.0 107.4669833,-6.8716902,0.0 107.4670442,-6.8717143,0.0 107.4670875,-6.871751,0.0 107.4671214,-6.8717932,0.0 107.467158,-6.8718723,0.0 107.4672441,-6.8720848,0.0 107.4672949,-6.8722013,0.0</coordinates>
            </LineString>
        </Placemark>
        <Placemark id="26549">
            <name>Jalan Guru Gantangan</name>
            <styleUrl>#26550</styleUrl>
            <LineString id="26548">
                <coordinates>107.4672949,-6.8722013,0.0 107.4673923,-6.8723216,0.0 107.4674392,-6.8723622,0.0 107.467478,-6.872382,0.0 107.4675478,-6.8724058,0.0 107.4676586,-6.8724237,0.0 107.4684396,-6.8724164,0.0 107.4685726,-6.8724151,0.0 107.4687019,-6.8724159,0.0 107.4692856,-6.8724249,0.0 107.469391,-6.8724265,0.0 107.469765,-6.8724205,0.0 107.4698503,-6.8724022,0.0 107.4698898,-6.8723876,0.0 107.469928,-6.8723596,0.0 107.4700417,-6.8722477,0.0 107.4702697,-6.8719582,0.0 107.4702977,-6.8719064,0.0 107.4703082,-6.8718697,0.0 107.4703047,-6.8717964,0.0 107.4702856,-6.8717601,0.0</coordinates>
            </LineString>
        </Placemark>
        <Placemark id="26553">
            <name>Jalan Asia Afrika</name>
            <styleUrl>#26554</styleUrl>
            <LineString id="26552">
                <coordinates>107.6094601,-6.9214117,0.0 107.6092801,-6.921392,0.0 107.6090723,-6.9213678,0.0 107.6088911,-6.921347,0.0 107.6087921,-6.9213346,0.0 107.6082723,-6.9212776,0.0 107.6080497,-6.9212529,0.0 107.6077961,-6.9212245,0.0</coordinates>
            </LineString>
        </Placemark>
        <Placemark id="26557">
            <name>Jalan Wastukancana</name>
            <styleUrl>#26558</styleUrl>
            <LineString id="26556">
                <coordinates>107.607556,-6.9054463,0.0 107.6075644,-6.9054686,0.0</coordinates>
            </LineString>
        </Placemark>
        <Placemark id="26561">
            <name>Jalan Gelap Nyawang</name>
            <styleUrl>#26562</styleUrl>
            <LineString id="26560">
                <coordinates>107.4687239,-6.8679702,0.0 107.4687013,-6.8673805,0.0 107.468677,-6.8667471,0.0 107.468676,-6.8667194,0.0 107.4686667,-6.8664634,0.0</coordinates>
            </LineString>
        </Placemark>
        <Placemark id="26565">
            <name>Jalan Parahyangan</name>
            <styleUrl>#26566</styleUrl>
            <LineString id="26564">
                <coordinates>107.4687633,-6.8663594,0.0 107.468989,-6.8663525,0.0 107.4692162,-6.8663547,0.0</coordinates>
            </LineString>
        </Placemark>
        <Placemark id="26569">
            <name>Jalan Panyawangan</name>
            <styleUrl>#26570</styleUrl>
            <LineString id="26568">
                <coordinates>107.4874491,-6.8577118,0.0 107.4876716,-6.8576416,0.0 107.4879757,-6.8575383,0.0 107.488122,-6.8574912,0.0 107.488308,-6.8574314,0.0 107.4885459,-6.8573551,0.0 107.4888892,-6.8572401,0.0 107.4892812,-6.8570951,0.0 107.4894686,-6.8570082,0.0 107.489531,-6.8569726,0.0 107.4896523,-6.8569034,0.0 107.4897438,-6.8568342,0.0 107.4899844,-6.8566524,0.0 107.4900085,-6.8566282,0.0 107.4901429,-6.8564932,0.0 107.4901532,-6.8564805,0.0 107.4902639,-6.8563447,0.0 107.490483,-6.8560057,0.0 107.4904865,-6.8559994,0.0 107.4905871,-6.8557926,0.0 107.4906776,-6.855566,0.0 107.4907709,-6.8552799,0.0 107.4908185,-6.8551202,0.0 107.4908989,-6.854854,0.0 107.4910049,-6.8546029,0.0 107.4910743,-6.8544566,0.0 107.491121,-6.8543751,0.0 107.4912161,-6.8542267,0.0 107.4913222,-6.8540756,0.0 107.49144,-6.8539351,0.0 107.4915761,-6.8537961,0.0 107.491837,-6.8535702,0.0 107.4921311,-6.853325,0.0 107.4923265,-6.8531708,0.0 107.4925389,-6.8530232,0.0 107.4928491,-6.8528116,0.0 107.4932077,-6.8525742,0.0 107.493305,-6.8525093,0.0 107.4933647,-6.8524575,0.0 107.4934922,-6.8523177,0.0</coordinates>
            </LineString>
        </Placemark>
        <Placemark id="26573">
            <name>Jalan Dokter Djundjunan Setiakusumah</name>
            <styleUrl>#26574</styleUrl>
            <LineString id="26572">
                <coordinates>107.5973566,-6.9002078,0.0 107.5974384,-6.9002085,0.0</coordinates>
            </LineString>
        </Placemark>
        <Placemark id="26577">
            <name>Jalan Kota Baru Parahyangan</name>
            <styleUrl>#26578</styleUrl>
            <LineString id="26576">
                <coordinates>107.4934922,-6.8523177,0.0 107.4934922,-6.8522266,0.0 107.4935001,-6.8521613,0.0 107.4935127,-6.8521063,0.0 107.4935344,-6.8520506,0.0 107.4935642,-6.8520008,0.0 107.493597,-6.8519537,0.0 107.4936319,-6.8519114,0.0 107.493668,-6.851876,0.0 107.4937065,-6.8518461,0.0 107.493751,-6.8518207,0.0 107.493795,-6.8518006,0.0 107.4938418,-6.8517845,0.0 107.4938843,-6.8517736,0.0 107.4939237,-6.8517673,0.0 107.4939593,-6.8517637,0.0 107.4940018,-6.8517618,0.0 107.4940543,-6.8517636,0.0</coordinates>
            </LineString>
        </Placemark>
        <Placemark id="26581">
            <name>Jalan Merdeka</name>
            <styleUrl>#26582</styleUrl>
            <LineString id="26580">
                <coordinates>107.610654,-6.909795,0.0 107.6106452,-6.9098761,0.0 107.6106164,-6.9099691,0.0</coordinates>
            </LineString>
        </Placemark>
        <Placemark id="26585">
            <name>Jalan Lembong</name>
            <styleUrl>#26586</styleUrl>
            <LineString id="26584">
                <coordinates>107.610072,-6.9165602,0.0 107.6101313,-6.9165901,0.0 107.6106113,-6.9168303,0.0 107.6108249,-6.916942,0.0 107.6109278,-6.9169939,0.0</coordinates>
            </LineString>
        </Placemark>
        <Placemark id="26589">
            <name>Jalan Lembong</name>
            <styleUrl>#26590</styleUrl>
            <LineString id="26588">
                <coordinates>107.6089865,-6.9159412,0.0 107.6090126,-6.9160368,0.0 107.6090539,-6.9160779,0.0 107.6090668,-6.9160857,0.0 107.6091109,-6.9161236,0.0 107.6092086,-6.9161842,0.0</coordinates>
            </LineString>
        </Placemark>
        <Placemark id="26593">
            <name>Simpang Susun Padalarang</name>
            <styleUrl>#26594</styleUrl>
            <LineString id="26592">
                <coordinates>107.4981443,-6.852042,0.0 107.4986079,-6.8522645,0.0 107.4987893,-6.852358,0.0</coordinates>
            </LineString>
        </Placemark>
        <Placemark id="26597">
            <name>Simpang Susun Padalarang</name>
            <styleUrl>#26598</styleUrl>
            <LineString id="26596">
                <coordinates>107.5010864,-6.8529534,0.0 107.5014715,-6.8530643,0.0 107.5031961,-6.8533945,0.0</coordinates>
            </LineString>
        </Placemark>
        <Placemark id="26601">
            <name>Simpang Susun Padalarang</name>
            <styleUrl>#26602</styleUrl>
            <LineString id="26600">
                <coordinates>107.4987893,-6.852358,0.0 107.4988925,-6.8524025,0.0</coordinates>
            </LineString>
        </Placemark>
        <Placemark id="26605">
            <name>Simpang Susun Padalarang</name>
            <styleUrl>#26606</styleUrl>
            <LineString id="26604">
                <coordinates>107.4973395,-6.8515925,0.0 107.4974347,-6.8516593,0.0 107.4977037,-6.851815,0.0 107.4978781,-6.8519152,0.0 107.4981443,-6.852042,0.0</coordinates>
            </LineString>
        </Placemark>
        <Placemark id="26609">
            <name>Simpang Susun Padalarang</name>
            <styleUrl>#26610</styleUrl>
            <LineString id="26608">
                <coordinates>107.4995212,-6.8525012,0.0 107.4997348,-6.8525037,0.0</coordinates>
            </LineString>
        </Placemark>
        <Placemark id="26613">
            <name>Simpang Susun Padalarang</name>
            <styleUrl>#26614</styleUrl>
            <LineString id="26612">
                <coordinates>107.4997348,-6.8525037,0.0 107.4999894,-6.8525406,0.0</coordinates>
            </LineString>
        </Placemark>
        <Placemark id="26617">
            <name>Jalan Tol Pasteur</name>
            <styleUrl>#26618</styleUrl>
            <LineString id="26616">
                <coordinates>107.5383108,-6.8990527,0.0 107.5401061,-6.8987269,0.0</coordinates>
            </LineString>
        </Placemark>
        <Placemark id="26621">
            <name>Simpang Susun Pasteur</name>
            <styleUrl>#26622</styleUrl>
            <LineString id="26620">
                <coordinates>107.5334807,-6.899242,0.0 107.5336567,-6.8993504,0.0 107.5338831,-6.8994571,0.0 107.5340697,-6.8995261,0.0 107.5343192,-6.8995864,0.0 107.5345655,-6.8996219,0.0 107.534757,-6.8996283,0.0 107.5349289,-6.8996234,0.0 107.5352737,-6.8995791,0.0 107.5356184,-6.8995347,0.0</coordinates>
            </LineString>
        </Placemark>
        <Placemark id="26625">
            <name>Jalan Tol Pasteur</name>
            <styleUrl>#26626</styleUrl>
            <LineString id="26624">
                <coordinates>107.5429076,-6.8979358,0.0 107.5429867,-6.8978945,0.0 107.5435586,-6.8975492,0.0 107.5438692,-6.89735,0.0 107.5442018,-6.8971096,0.0</coordinates>
            </LineString>
        </Placemark>
        <Placemark id="26629">
            <name>Jalan Tol Pasteur</name>
            <styleUrl>#26630</styleUrl>
            <LineString id="26628">
                <coordinates>107.5403015,-6.8986938,0.0 107.5408021,-6.8985988,0.0 107.5414351,-6.8984524,0.0 107.5420815,-6.898266,0.0 107.5429076,-6.8979358,0.0</coordinates>
            </LineString>
        </Placemark>
        <Placemark id="26633">
            <name>Jalan Tol Pasteur</name>
            <styleUrl>#26634</styleUrl>
            <LineString id="26632">
                <coordinates>107.5747721,-6.8904324,0.0 107.5754353,-6.8905766,0.0 107.5766742,-6.8908459,0.0</coordinates>
            </LineString>
        </Placemark>
        <Placemark id="26637">
            <name>Jalan Tol Pasteur</name>
            <styleUrl>#26638</styleUrl>
            <LineString id="26636">
                <coordinates>107.572397,-6.8899162,0.0 107.5732682,-6.8901054,0.0</coordinates>
            </LineString>
        </Placemark>
        <Placemark id="26641">
            <name>Jalan Pasteur</name>
            <styleUrl>#26642</styleUrl>
            <LineString id="26640">
                <coordinates>107.6035214,-6.9002184,0.0 107.6038638,-6.9002105,0.0 107.6039813,-6.9001984,0.0 107.6040453,-6.9001871,0.0 107.6040633,-6.9001819,0.0 107.6041064,-6.9001685,0.0 107.6041803,-6.900144,0.0</coordinates>
            </LineString>
        </Placemark>
        <Placemark id="26645">
            <name>Jalan Pasteur</name>
            <styleUrl>#26646</styleUrl>
            <LineString id="26644">
                <coordinates>107.6031071,-6.9002112,0.0 107.6035214,-6.9002184,0.0</coordinates>
            </LineString>
        </Placemark>
        <Placemark id="26649">
            <name>Jalan Wastukancana</name>
            <styleUrl>#26650</styleUrl>
            <LineString id="26648">
                <coordinates>107.6047378,-6.9043028,0.0 107.604907,-6.904268,0.0</coordinates>
            </LineString>
        </Placemark>
        <Placemark id="26653">
            <name>Jalan Wastukancana</name>
            <styleUrl>#26654</styleUrl>
            <LineString id="26652">
                <coordinates>107.6045194,-6.9042857,0.0 107.6045928,-6.9042871,0.0 107.6046289,-6.9042878,0.0 107.6047378,-6.9043028,0.0</coordinates>
            </LineString>
        </Placemark>
        <Placemark id="26657">
            <name>Jalan Tol Pasteur</name>
            <styleUrl>#26658</styleUrl>
            <LineString id="26656">
                <coordinates>107.5803089,-6.8919422,0.0 107.5806628,-6.8920594,0.0 107.5808421,-6.8921069,0.0 107.5809566,-6.8921325,0.0 107.5810582,-6.8921467,0.0</coordinates>
            </LineString>
        </Placemark>
        <Placemark id="26661">
            <name>Jalan Pasteur</name>
            <styleUrl>#26662</styleUrl>
            <LineString id="26660">
                <coordinates>107.5974384,-6.9002085,0.0 107.5977317,-6.9002067,0.0</coordinates>
            </LineString>
        </Placemark>
        <Placemark id="26665">
            <name>Jalan Wastukancana</name>
            <styleUrl>#26666</styleUrl>
            <LineString id="26664">
                <coordinates>107.6074587,-6.9052269,0.0 107.607556,-6.9054463,0.0</coordinates>
            </LineString>
        </Placemark>
        <Placemark id="26669">
            <name>Jalan Pasteur</name>
            <styleUrl>#26670</styleUrl>
            <LineString id="26668">
                <coordinates>107.5979866,-6.900214,0.0 107.5985704,-6.900207,0.0</coordinates>
            </LineString>
        </Placemark>
        <Placemark id="26673">
            <name>Jalan Gelap Nyawang</name>
            <styleUrl>#26674</styleUrl>
            <LineString id="26672">
                <coordinates>107.4702856,-6.8717601,0.0 107.469883,-6.8714144,0.0 107.4696642,-6.8711864,0.0 107.4695079,-6.8709954,0.0 107.4693327,-6.8707652,0.0 107.4692255,-6.8705863,0.0 107.4691295,-6.8704043,0.0 107.4689821,-6.8700875,0.0 107.4688584,-6.869746,0.0 107.4688047,-6.8695486,0.0 107.4687874,-6.8693498,0.0 107.4687767,-6.8692093,0.0 107.4687687,-6.8690687,0.0 107.4687526,-6.8686557,0.0 107.4687442,-6.8684398,0.0 107.4687366,-6.8682788,0.0 107.4687254,-6.8680423,0.0 107.4687239,-6.8679702,0.0</coordinates>
            </LineString>
        </Placemark>
        <Placemark id="26677">
            <name>Jalan Braga</name>
            <styleUrl>#26678</styleUrl>
            <LineString id="26676">
                <coordinates>107.6089988,-6.9152244,0.0 107.6089979,-6.9152703,0.0 107.6089865,-6.9159412,0.0</coordinates>
            </LineString>
        </Placemark>
        <Placemark id="26681">
            <name>Jalan Pasteur</name>
            <styleUrl>#26682</styleUrl>
            <LineString id="26680">
                <coordinates>107.6022753,-6.900203,0.0 107.6027269,-6.9002045,0.0 107.6027515,-6.9002046,0.0 107.6029796,-6.9002088,0.0 107.6031071,-6.9002112,0.0</coordinates>
            </LineString>
        </Placemark>
        <Placemark id="26685">
            <name>Jalan Dr. Djunjunan</name>
            <styleUrl>#26686</styleUrl>
            <LineString id="26684">
                <coordinates>107.5970495,-6.9002074,0.0 107.5973566,-6.9002078,0.0</coordinates>
            </LineString>
        </Placemark>
        <Placemark id="26689">
            <name>Jalan Pasteur</name>
            <styleUrl>#26690</styleUrl>
            <LineString id="26688">
                <coordinates>107.5988968,-6.9002096,0.0 107.5993001,-6.900202,0.0</coordinates>
            </LineString>
        </Placemark>
        <Placemark id="26693">
            <name>Jalan Wastukancana</name>
            <styleUrl>#26694</styleUrl>
            <LineString id="26692">
                <coordinates>107.6076853,-6.905845,0.0 107.6077246,-6.9060495,0.0</coordinates>
            </LineString>
        </Placemark>
        <Placemark id="26697">
            <name>Jalan Wastukancana</name>
            <styleUrl>#26698</styleUrl>
            <LineString id="26696">
                <coordinates>107.6070138,-6.9046,0.0 107.6071411,-6.9047305,0.0</coordinates>
            </LineString>
        </Placemark>
        <Placemark id="26701">
            <name>Jalan Wastukancana</name>
            <styleUrl>#26702</styleUrl>
            <LineString id="26700">
                <coordinates>107.6071411,-6.9047305,0.0 107.607265,-6.9048943,0.0 107.607283,-6.9049195,0.0 107.6074067,-6.905129,0.0 107.6074587,-6.9052269,0.0</coordinates>
            </LineString>
        </Placemark>
        <Placemark id="26705">
            <name>Jalan Tol Pasteur</name>
            <styleUrl>#26706</styleUrl>
            <LineString id="26704">
                <coordinates>107.5356184,-6.8995347,0.0 107.5363457,-6.8993873,0.0</coordinates>
            </LineString>
        </Placemark>
        <Placemark id="26709">
            <name>Jalan Tol Pasteur</name>
            <styleUrl>#26710</styleUrl>
            <LineString id="26708">
                <coordinates>107.5363457,-6.8993873,0.0 107.5383108,-6.8990527,0.0</coordinates>
            </LineString>
        </Placemark>
        <Placemark id="26713">
            <name>Jalan Tol Pasteur</name>
            <styleUrl>#26714</styleUrl>
            <LineString id="26712">
                <coordinates>107.5514155,-6.8914498,0.0 107.552835,-6.8906171,0.0 107.5532875,-6.8903596,0.0</coordinates>
            </LineString>
        </Placemark>
        <Placemark id="26717">
            <name>Jalan Wastukancana</name>
            <styleUrl>#26718</styleUrl>
            <LineString id="26716">
                <coordinates>107.6069187,-6.9045127,0.0 107.6070138,-6.9046,0.0</coordinates>
            </LineString>
        </Placemark>
        <Placemark id="26721">
            <name>Jalan Wastukancana</name>
            <styleUrl>#26722</styleUrl>
            <LineString id="26720">
                <coordinates>107.6065841,-6.9042698,0.0 107.6067222,-6.904359,0.0 107.6068568,-6.9044553,0.0 107.6069187,-6.9045127,0.0</coordinates>
            </LineString>
        </Placemark>
        <Placemark id="26725">
            <name>Jalan Raya Padalarang</name>
            <styleUrl>#26726</styleUrl>
            <LineString id="26724">
                <coordinates>107.4969413,-6.8513159,0.0 107.4971959,-6.8514713,0.0</coordinates>
            </LineString>
        </Placemark>
        <Placemark id="26729">
            <name>Jalan Parahyangan</name>
            <styleUrl>#26730</styleUrl>
            <LineString id="26728">
                <coordinates>107.46866,-6.8663613,0.0 107.4687633,-6.8663594,0.0</coordinates>
            </LineString>
        </Placemark>
        <Placemark id="26733">
            <name>Jalan Parahyangan</name>
            <styleUrl>#26734</styleUrl>
            <LineString id="26732">
                <coordinates>107.4686667,-6.8664634,0.0 107.46866,-6.8663613,0.0</coordinates>
            </LineString>
        </Placemark>
        <Placemark id="26737">
            <name>Jalan Pasteur</name>
            <styleUrl>#26738</styleUrl>
            <LineString id="26736">
                <coordinates>107.6010655,-6.9002051,0.0 107.6021013,-6.9002033,0.0 107.6021562,-6.9002043,0.0 107.6022098,-6.9002031,0.0 107.6022753,-6.900203,0.0</coordinates>
            </LineString>
        </Placemark>
        <Placemark id="26741">
            <name>Jalan Tamblong</name>
            <styleUrl>#26742</styleUrl>
            <LineString id="26740">
                <coordinates>107.6123918,-6.9182691,0.0 107.6123449,-6.9186433,0.0 107.6123419,-6.9187305,0.0 107.61235,-6.918793,0.0</coordinates>
            </LineString>
        </Placemark>
        <Placemark id="26745">
            <name>Jalan Raya Padalarang</name>
            <styleUrl>#26746</styleUrl>
            <LineString id="26744">
                <coordinates>107.4955273,-6.8503217,0.0 107.4956199,-6.8503909,0.0</coordinates>
            </LineString>
        </Placemark>
        <Placemark id="26749">
            <name>Jalan Kota Baru Parahyangan</name>
            <styleUrl>#26750</styleUrl>
            <LineString id="26748">
                <coordinates>107.4843572,-6.8587619,0.0 107.4844215,-6.858695,0.0 107.484503,-6.8586504,0.0 107.4845942,-6.858632,0.0 107.4846868,-6.8586416,0.0 107.4847723,-6.8586782,0.0</coordinates>
            </LineString>
        </Placemark>
        <Placemark id="26753">
            <name>Jalan Lokal</name>
            <styleUrl>#26754</styleUrl>
            <LineString id="26752">
                <coordinates>107.4556535,-6.8818859,0.0 107.4556219,-6.8819008,0.0 107.4555808,-6.8819203,0.0 107.4555018,-6.8819049,0.0 107.4554476,-6.8818457,0.0 107.4554396,-6.8817662,0.0 107.4554809,-6.8816975,0.0 107.4555553,-6.8816669,0.0 107.4556334,-6.8816863,0.0</coordinates>
            </LineString>
        </Placemark>
        <Placemark id="26757">
            <name>Jalan Lembong</name>
            <styleUrl>#26758</styleUrl>
            <LineString id="26756">
                <coordinates>107.6113378,-6.917202,0.0 107.6114765,-6.9172727,0.0</coordinates>
            </LineString>
        </Placemark>
        <Placemark id="26761">
            <name>Jalan Lembong</name>
            <styleUrl>#26762</styleUrl>
            <LineString id="26760">
                <coordinates>107.6114765,-6.9172727,0.0 107.6115788,-6.9173248,0.0</coordinates>
            </LineString>
        </Placemark>
        <Placemark id="26765">
            <name>Jalan Lembong</name>
            <styleUrl>#26766</styleUrl>
            <LineString id="26764">
                <coordinates>107.6115788,-6.9173248,0.0 107.6118099,-6.9174381,0.0 107.611899,-6.9174826,0.0</coordinates>
            </LineString>
        </Placemark>
        <Placemark id="26769">
            <name>Jalan Asia Afrika</name>
            <styleUrl>#26770</styleUrl>
            <LineString id="26768">
                <coordinates>107.6098267,-6.921461,0.0 107.6097986,-6.9214572,0.0 107.6094601,-6.9214117,0.0</coordinates>
            </LineString>
        </Placemark>
        <Placemark id="26773">
            <name>Jalan Asia Afrika</name>
            <styleUrl>#26774</styleUrl>
            <LineString id="26772">
                <coordinates>107.6118219,-6.9217006,0.0 107.6115001,-6.9216626,0.0 107.6114214,-6.9216524,0.0 107.6112374,-6.9216318,0.0 107.6110246,-6.9216047,0.0 107.6108437,-6.9215848,0.0 107.6106307,-6.9215569,0.0 107.6104259,-6.9215335,0.0 107.610212,-6.9215095,0.0 107.6101463,-6.9215025,0.0 107.6099829,-6.9214819,0.0 107.6099373,-6.9214762,0.0 107.6098267,-6.921461,0.0</coordinates>
            </LineString>
        </Placemark>
        <Placemark id="26777">
            <name>Jalan Parahyangan</name>
            <styleUrl>#26778</styleUrl>
            <LineString id="26776">
                <coordinates>107.4778845,-6.8654372,0.0 107.4779539,-6.8653639,0.0</coordinates>
            </LineString>
        </Placemark>
        <Placemark id="26781">
            <name>Jalan Parahyangan</name>
            <styleUrl>#26782</styleUrl>
            <LineString id="26780">
                <coordinates>107.4779539,-6.8653639,0.0 107.4780103,-6.8652956,0.0 107.4782493,-6.8649836,0.0 107.4783521,-6.8648529,0.0 107.478623,-6.8644852,0.0</coordinates>
            </LineString>
        </Placemark>
        <Placemark id="26785">
            <name>Jalan Parahyangan</name>
            <styleUrl>#26786</styleUrl>
            <LineString id="26784">
                <coordinates>107.478623,-6.8644852,0.0 107.4787665,-6.8642969,0.0</coordinates>
            </LineString>
        </Placemark>
        <Placemark id="26789">
            <name>Jalan Parahyangan</name>
            <styleUrl>#26790</styleUrl>
            <LineString id="26788">
                <coordinates>107.4787665,-6.8642969,0.0 107.4793221,-6.8635501,0.0</coordinates>
            </LineString>
        </Placemark>
        <Placemark id="26793">
            <name>Jalan Parahyangan</name>
            <styleUrl>#26794</styleUrl>
            <LineString id="26792">
                <coordinates>107.4793221,-6.8635501,0.0 107.4794588,-6.8633663,0.0 107.4796486,-6.863124,0.0 107.4798236,-6.8628897,0.0 107.4799998,-6.862669,0.0 107.4800828,-6.862553,0.0</coordinates>
            </LineString>
        </Placemark>
        <Placemark id="26797">
            <name>Jalan Parahyangan</name>
            <styleUrl>#26798</styleUrl>
            <LineString id="26796">
                <coordinates>107.4800828,-6.862553,0.0 107.4801029,-6.862525,0.0 107.4802167,-6.862388,0.0 107.4803343,-6.8622504,0.0 107.4804332,-6.8621429,0.0 107.4805167,-6.862052,0.0 107.4805786,-6.8619949,0.0 107.4805918,-6.8619827,0.0 107.4807916,-6.8617955,0.0 107.4810311,-6.8615717,0.0 107.4812216,-6.8613836,0.0</coordinates>
            </LineString>
        </Placemark>
        <Placemark id="26801">
            <name>Jalan Parahyangan</name>
            <styleUrl>#26802</styleUrl>
            <LineString id="26800">
                <coordinates>107.4812216,-6.8613836,0.0 107.4812976,-6.8613194,0.0</coordinates>
            </LineString>
        </Placemark>
        <Placemark id="26805">
            <name>Jalan Parahyangan</name>
            <styleUrl>#26806</styleUrl>
            <LineString id="26804">
                <coordinates>107.4812976,-6.8613194,0.0 107.4814863,-6.861144,0.0 107.4817917,-6.8608628,0.0 107.4818339,-6.8608239,0.0 107.4821886,-6.8605153,0.0 107.4824943,-6.8602586,0.0</coordinates>
            </LineString>
        </Placemark>
        <Placemark id="26809">
            <name>Jalan Parahyangan</name>
            <styleUrl>#26810</styleUrl>
            <LineString id="26808">
                <coordinates>107.4824943,-6.8602586,0.0 107.4826237,-6.86015,0.0 107.482933,-6.85992,0.0 107.4832819,-6.8596702,0.0 107.4836672,-6.8594023,0.0 107.4838823,-6.8592668,0.0 107.4839107,-6.8592489,0.0 107.4841227,-6.8591076,0.0</coordinates>
            </LineString>
        </Placemark>
        <Placemark id="26813">
            <name>Jalan Parahyangan</name>
            <styleUrl>#26814</styleUrl>
            <LineString id="26812">
                <coordinates>107.4841227,-6.8591076,0.0 107.484169,-6.8590739,0.0 107.484233,-6.8590098,0.0 107.4843016,-6.858936,0.0</coordinates>
            </LineString>
        </Placemark>
    </Document>
</kml>
