<?xml version="1.0" encoding="UTF-8"?>
<kml xmlns="http://www.opengis.net/kml/2.2" xmlns:gx="http://www.google.com/kml/ext/2.2">
    <Document id="21384">
        <Style id="21390">
            <IconStyle id="21391">
                <colorMode>normal</colorMode>
                <scale>1</scale>
                <heading>0</heading>
                <Icon id="21392">
                    <href>http://maps.google.com/mapfiles/kml/pushpin/ylw-pushpin.png</href>
                </Icon>
            </IconStyle>
        </Style>
        <Style id="21395">
            <IconStyle id="21396">
                <colorMode>normal</colorMode>
                <scale>1</scale>
                <heading>0</heading>
                <Icon id="21397">
                    <href>http://maps.google.com/mapfiles/kml/pushpin/ylw-pushpin.png</href>
                </Icon>
            </IconStyle>
        </Style>
        <Style id="21400">
            <LineStyle id="21401">
                <color>ff1B1985</color>
                <colorMode>normal</colorMode>
                <width>4</width>
            </LineStyle>
        </Style>
        <Style id="21404">
            <LineStyle id="21405">
                <color>ff1B1985</color>
                <colorMode>normal</colorMode>
                <width>4</width>
            </LineStyle>
        </Style>
        <Style id="21408">
            <LineStyle id="21409">
                <color>ff1B1985</color>
                <colorMode>normal</colorMode>
                <width>4</width>
            </LineStyle>
        </Style>
        <Style id="21412">
            <LineStyle id="21413">
                <color>ff1B1985</color>
                <colorMode>normal</colorMode>
                <width>4</width>
            </LineStyle>
        </Style>
        <Style id="21416">
            <LineStyle id="21417">
                <color>ff1B1985</color>
                <colorMode>normal</colorMode>
                <width>4</width>
            </LineStyle>
        </Style>
        <Style id="21420">
            <LineStyle id="21421">
                <color>ff1B1985</color>
                <colorMode>normal</colorMode>
                <width>4</width>
            </LineStyle>
        </Style>
        <Style id="21424">
            <LineStyle id="21425">
                <color>ff1B1985</color>
                <colorMode>normal</colorMode>
                <width>4</width>
            </LineStyle>
        </Style>
        <Style id="21428">
            <LineStyle id="21429">
                <color>ff1B1985</color>
                <colorMode>normal</colorMode>
                <width>4</width>
            </LineStyle>
        </Style>
        <Style id="21432">
            <LineStyle id="21433">
                <color>ff1B1985</color>
                <colorMode>normal</colorMode>
                <width>4</width>
            </LineStyle>
        </Style>
        <Style id="21436">
            <LineStyle id="21437">
                <color>ff1B1985</color>
                <colorMode>normal</colorMode>
                <width>4</width>
            </LineStyle>
        </Style>
        <Style id="21440">
            <LineStyle id="21441">
                <color>ff1B1985</color>
                <colorMode>normal</colorMode>
                <width>4</width>
            </LineStyle>
        </Style>
        <Style id="21444">
            <LineStyle id="21445">
                <color>ff1B1985</color>
                <colorMode>normal</colorMode>
                <width>4</width>
            </LineStyle>
        </Style>
        <Style id="21448">
            <LineStyle id="21449">
                <color>ff1B1985</color>
                <colorMode>normal</colorMode>
                <width>4</width>
            </LineStyle>
        </Style>
        <Style id="21452">
            <LineStyle id="21453">
                <color>ff1B1985</color>
                <colorMode>normal</colorMode>
                <width>4</width>
            </LineStyle>
        </Style>
        <Style id="21456">
            <LineStyle id="21457">
                <color>ff1B1985</color>
                <colorMode>normal</colorMode>
                <width>4</width>
            </LineStyle>
        </Style>
        <Style id="21460">
            <LineStyle id="21461">
                <color>ff1B1985</color>
                <colorMode>normal</colorMode>
                <width>4</width>
            </LineStyle>
        </Style>
        <Style id="21464">
            <LineStyle id="21465">
                <color>ff1B1985</color>
                <colorMode>normal</colorMode>
                <width>4</width>
            </LineStyle>
        </Style>
        <Style id="21468">
            <LineStyle id="21469">
                <color>ff1B1985</color>
                <colorMode>normal</colorMode>
                <width>4</width>
            </LineStyle>
        </Style>
        <Style id="21472">
            <LineStyle id="21473">
                <color>ff1B1985</color>
                <colorMode>normal</colorMode>
                <width>4</width>
            </LineStyle>
        </Style>
        <Style id="21476">
            <LineStyle id="21477">
                <color>ff1B1985</color>
                <colorMode>normal</colorMode>
                <width>4</width>
            </LineStyle>
        </Style>
        <Style id="21480">
            <LineStyle id="21481">
                <color>ff1B1985</color>
                <colorMode>normal</colorMode>
                <width>4</width>
            </LineStyle>
        </Style>
        <Style id="21484">
            <LineStyle id="21485">
                <color>ff1B1985</color>
                <colorMode>normal</colorMode>
                <width>4</width>
            </LineStyle>
        </Style>
        <Style id="21488">
            <LineStyle id="21489">
                <color>ff1B1985</color>
                <colorMode>normal</colorMode>
                <width>4</width>
            </LineStyle>
        </Style>
        <Style id="21492">
            <LineStyle id="21493">
                <color>ff1B1985</color>
                <colorMode>normal</colorMode>
                <width>4</width>
            </LineStyle>
        </Style>
        <Style id="21496">
            <LineStyle id="21497">
                <color>ff1B1985</color>
                <colorMode>normal</colorMode>
                <width>4</width>
            </LineStyle>
        </Style>
        <Style id="21500">
            <LineStyle id="21501">
                <color>ff1B1985</color>
                <colorMode>normal</colorMode>
                <width>4</width>
            </LineStyle>
        </Style>
        <Style id="21504">
            <LineStyle id="21505">
                <color>ff1B1985</color>
                <colorMode>normal</colorMode>
                <width>4</width>
            </LineStyle>
        </Style>
        <Style id="21508">
            <LineStyle id="21509">
                <color>ff1B1985</color>
                <colorMode>normal</colorMode>
                <width>4</width>
            </LineStyle>
        </Style>
        <Style id="21512">
            <LineStyle id="21513">
                <color>ff1B1985</color>
                <colorMode>normal</colorMode>
                <width>4</width>
            </LineStyle>
        </Style>
        <Style id="21516">
            <LineStyle id="21517">
                <color>ff1B1985</color>
                <colorMode>normal</colorMode>
                <width>4</width>
            </LineStyle>
        </Style>
        <Style id="21520">
            <LineStyle id="21521">
                <color>ff1B1985</color>
                <colorMode>normal</colorMode>
                <width>4</width>
            </LineStyle>
        </Style>
        <Style id="21524">
            <LineStyle id="21525">
                <color>ff1B1985</color>
                <colorMode>normal</colorMode>
                <width>4</width>
            </LineStyle>
        </Style>
        <Style id="21528">
            <LineStyle id="21529">
                <color>ff1B1985</color>
                <colorMode>normal</colorMode>
                <width>4</width>
            </LineStyle>
        </Style>
        <Style id="21532">
            <LineStyle id="21533">
                <color>ff1B1985</color>
                <colorMode>normal</colorMode>
                <width>4</width>
            </LineStyle>
        </Style>
        <Style id="21536">
            <LineStyle id="21537">
                <color>ff1B1985</color>
                <colorMode>normal</colorMode>
                <width>4</width>
            </LineStyle>
        </Style>
        <Style id="21540">
            <LineStyle id="21541">
                <color>ff1B1985</color>
                <colorMode>normal</colorMode>
                <width>4</width>
            </LineStyle>
        </Style>
        <Style id="21544">
            <LineStyle id="21545">
                <color>ff1B1985</color>
                <colorMode>normal</colorMode>
                <width>4</width>
            </LineStyle>
        </Style>
        <Style id="21548">
            <LineStyle id="21549">
                <color>ff1B1985</color>
                <colorMode>normal</colorMode>
                <width>4</width>
            </LineStyle>
        </Style>
        <Style id="21552">
            <LineStyle id="21553">
                <color>ff1B1985</color>
                <colorMode>normal</colorMode>
                <width>4</width>
            </LineStyle>
        </Style>
        <Style id="21556">
            <LineStyle id="21557">
                <color>ff1B1985</color>
                <colorMode>normal</colorMode>
                <width>4</width>
            </LineStyle>
        </Style>
        <Style id="21560">
            <LineStyle id="21561">
                <color>ff1B1985</color>
                <colorMode>normal</colorMode>
                <width>4</width>
            </LineStyle>
        </Style>
        <Style id="21564">
            <LineStyle id="21565">
                <color>ff1B1985</color>
                <colorMode>normal</colorMode>
                <width>4</width>
            </LineStyle>
        </Style>
        <Style id="21568">
            <LineStyle id="21569">
                <color>ff1B1985</color>
                <colorMode>normal</colorMode>
                <width>4</width>
            </LineStyle>
        </Style>
        <Style id="21572">
            <LineStyle id="21573">
                <color>ff1B1985</color>
                <colorMode>normal</colorMode>
                <width>4</width>
            </LineStyle>
        </Style>
        <Style id="21576">
            <LineStyle id="21577">
                <color>ff1B1985</color>
                <colorMode>normal</colorMode>
                <width>4</width>
            </LineStyle>
        </Style>
        <Style id="21580">
            <LineStyle id="21581">
                <color>ff1B1985</color>
                <colorMode>normal</colorMode>
                <width>4</width>
            </LineStyle>
        </Style>
        <Style id="21584">
            <LineStyle id="21585">
                <color>ff1B1985</color>
                <colorMode>normal</colorMode>
                <width>4</width>
            </LineStyle>
        </Style>
        <Style id="21588">
            <LineStyle id="21589">
                <color>ff1B1985</color>
                <colorMode>normal</colorMode>
                <width>4</width>
            </LineStyle>
        </Style>
        <Style id="21592">
            <LineStyle id="21593">
                <color>ff1B1985</color>
                <colorMode>normal</colorMode>
                <width>4</width>
            </LineStyle>
        </Style>
        <Style id="21596">
            <LineStyle id="21597">
                <color>ff1B1985</color>
                <colorMode>normal</colorMode>
                <width>4</width>
            </LineStyle>
        </Style>
        <Style id="21600">
            <LineStyle id="21601">
                <color>ff1B1985</color>
                <colorMode>normal</colorMode>
                <width>4</width>
            </LineStyle>
        </Style>
        <Style id="21604">
            <LineStyle id="21605">
                <color>ff1B1985</color>
                <colorMode>normal</colorMode>
                <width>4</width>
            </LineStyle>
        </Style>
        <Style id="21608">
            <LineStyle id="21609">
                <color>ff1B1985</color>
                <colorMode>normal</colorMode>
                <width>4</width>
            </LineStyle>
        </Style>
        <Style id="21612">
            <LineStyle id="21613">
                <color>ff1B1985</color>
                <colorMode>normal</colorMode>
                <width>4</width>
            </LineStyle>
        </Style>
        <Style id="21616">
            <LineStyle id="21617">
                <color>ff1B1985</color>
                <colorMode>normal</colorMode>
                <width>4</width>
            </LineStyle>
        </Style>
        <Style id="21620">
            <LineStyle id="21621">
                <color>ff1B1985</color>
                <colorMode>normal</colorMode>
                <width>4</width>
            </LineStyle>
        </Style>
        <Style id="21624">
            <LineStyle id="21625">
                <color>ff1B1985</color>
                <colorMode>normal</colorMode>
                <width>4</width>
            </LineStyle>
        </Style>
        <Style id="21628">
            <LineStyle id="21629">
                <color>ff1B1985</color>
                <colorMode>normal</colorMode>
                <width>4</width>
            </LineStyle>
        </Style>
        <Style id="21632">
            <LineStyle id="21633">
                <color>ff1B1985</color>
                <colorMode>normal</colorMode>
                <width>4</width>
            </LineStyle>
        </Style>
        <Style id="21636">
            <LineStyle id="21637">
                <color>ff1B1985</color>
                <colorMode>normal</colorMode>
                <width>4</width>
            </LineStyle>
        </Style>
        <Style id="21640">
            <LineStyle id="21641">
                <color>ff1B1985</color>
                <colorMode>normal</colorMode>
                <width>4</width>
            </LineStyle>
        </Style>
        <Style id="21644">
            <LineStyle id="21645">
                <color>ff1B1985</color>
                <colorMode>normal</colorMode>
                <width>4</width>
            </LineStyle>
        </Style>
        <Style id="21648">
            <LineStyle id="21649">
                <color>ff1B1985</color>
                <colorMode>normal</colorMode>
                <width>4</width>
            </LineStyle>
        </Style>
        <Style id="21652">
            <LineStyle id="21653">
                <color>ff1B1985</color>
                <colorMode>normal</colorMode>
                <width>4</width>
            </LineStyle>
        </Style>
        <Style id="21656">
            <LineStyle id="21657">
                <color>ff1B1985</color>
                <colorMode>normal</colorMode>
                <width>4</width>
            </LineStyle>
        </Style>
        <Style id="21660">
            <LineStyle id="21661">
                <color>ff1B1985</color>
                <colorMode>normal</colorMode>
                <width>4</width>
            </LineStyle>
        </Style>
        <Style id="21664">
            <LineStyle id="21665">
                <color>ff1B1985</color>
                <colorMode>normal</colorMode>
                <width>4</width>
            </LineStyle>
        </Style>
        <Style id="21668">
            <LineStyle id="21669">
                <color>ff1B1985</color>
                <colorMode>normal</colorMode>
                <width>4</width>
            </LineStyle>
        </Style>
        <Style id="21672">
            <LineStyle id="21673">
                <color>ff1B1985</color>
                <colorMode>normal</colorMode>
                <width>4</width>
            </LineStyle>
        </Style>
        <Style id="21676">
            <LineStyle id="21677">
                <color>ff1B1985</color>
                <colorMode>normal</colorMode>
                <width>4</width>
            </LineStyle>
        </Style>
        <Style id="21680">
            <LineStyle id="21681">
                <color>ff1B1985</color>
                <colorMode>normal</colorMode>
                <width>4</width>
            </LineStyle>
        </Style>
        <Style id="21684">
            <LineStyle id="21685">
                <color>ff1B1985</color>
                <colorMode>normal</colorMode>
                <width>4</width>
            </LineStyle>
        </Style>
        <Style id="21688">
            <LineStyle id="21689">
                <color>ff1B1985</color>
                <colorMode>normal</colorMode>
                <width>4</width>
            </LineStyle>
        </Style>
        <Style id="21692">
            <LineStyle id="21693">
                <color>ff1B1985</color>
                <colorMode>normal</colorMode>
                <width>4</width>
            </LineStyle>
        </Style>
        <Style id="21696">
            <LineStyle id="21697">
                <color>ff1B1985</color>
                <colorMode>normal</colorMode>
                <width>4</width>
            </LineStyle>
        </Style>
        <Style id="21700">
            <LineStyle id="21701">
                <color>ff1B1985</color>
                <colorMode>normal</colorMode>
                <width>4</width>
            </LineStyle>
        </Style>
        <Style id="21704">
            <LineStyle id="21705">
                <color>ff1B1985</color>
                <colorMode>normal</colorMode>
                <width>4</width>
            </LineStyle>
        </Style>
        <Style id="21708">
            <LineStyle id="21709">
                <color>ff1B1985</color>
                <colorMode>normal</colorMode>
                <width>4</width>
            </LineStyle>
        </Style>
        <Style id="21712">
            <LineStyle id="21713">
                <color>ff1B1985</color>
                <colorMode>normal</colorMode>
                <width>4</width>
            </LineStyle>
        </Style>
        <Style id="21716">
            <LineStyle id="21717">
                <color>ff1B1985</color>
                <colorMode>normal</colorMode>
                <width>4</width>
            </LineStyle>
        </Style>
        <Style id="21720">
            <LineStyle id="21721">
                <color>ff1B1985</color>
                <colorMode>normal</colorMode>
                <width>4</width>
            </LineStyle>
        </Style>
        <Style id="21724">
            <LineStyle id="21725">
                <color>ff1B1985</color>
                <colorMode>normal</colorMode>
                <width>4</width>
            </LineStyle>
        </Style>
        <Style id="21728">
            <LineStyle id="21729">
                <color>ff1B1985</color>
                <colorMode>normal</colorMode>
                <width>4</width>
            </LineStyle>
        </Style>
        <Style id="21732">
            <LineStyle id="21733">
                <color>ff1B1985</color>
                <colorMode>normal</colorMode>
                <width>4</width>
            </LineStyle>
        </Style>
        <Style id="21736">
            <LineStyle id="21737">
                <color>ff1B1985</color>
                <colorMode>normal</colorMode>
                <width>4</width>
            </LineStyle>
        </Style>
        <Style id="21740">
            <LineStyle id="21741">
                <color>ff1B1985</color>
                <colorMode>normal</colorMode>
                <width>4</width>
            </LineStyle>
        </Style>
        <Style id="21744">
            <LineStyle id="21745">
                <color>ff1B1985</color>
                <colorMode>normal</colorMode>
                <width>4</width>
            </LineStyle>
        </Style>
        <ExtendedData>
            <Data name="route-name">
                <value>Jalur 2: Leuwipanjang → Ledeng</value>
            </Data>
            <Data name="source">
                <value>Transport for Bandung</value>
            </Data>
        </ExtendedData>
        <Placemark id="21389">
            <name>Terminal Leuwipanjang</name>
            <styleUrl>#21390</styleUrl>
            <Point id="21388">
                <coordinates>107.593264,-6.9458573,0.0</coordinates>
            </Point>
        </Placemark>
        <Placemark id="21394">
            <name>Museum Pendidikan Nasional UPI</name>
            <styleUrl>#21395</styleUrl>
            <Point id="21393">
                <coordinates>107.594757,-6.8600369,0.0</coordinates>
            </Point>
        </Placemark>
        <Placemark id="21399">
            <name>Jalan dr. Cipto</name>
            <styleUrl>#21400</styleUrl>
            <LineString id="21398">
                <coordinates>107.5987941,-6.906746,0.0 107.598872,-6.9067165,0.0 107.5989545,-6.9066778,0.0 107.5990502,-6.906628,0.0 107.5992263,-6.9065364,0.0 107.5993463,-6.906452,0.0 107.5993927,-6.9064224,0.0 107.5994104,-6.9064093,0.0 107.5995751,-6.906281,0.0 107.5999209,-6.906024,0.0 107.6004411,-6.9056086,0.0 107.6010414,-6.9051709,0.0 107.6011536,-6.9050808,0.0 107.6012857,-6.9049836,0.0 107.6013253,-6.9049355,0.0 107.601339,-6.9048875,0.0</coordinates>
            </LineString>
        </Placemark>
        <Placemark id="21403">
            <name>Jalan Doktor Louis Otten</name>
            <styleUrl>#21404</styleUrl>
            <LineString id="21402">
                <coordinates>107.5996034,-6.9021781,0.0 107.5995001,-6.9020788,0.0</coordinates>
            </LineString>
        </Placemark>
        <Placemark id="21407">
            <name>Jalan Gardujati</name>
            <styleUrl>#21408</styleUrl>
            <LineString id="21406">
                <coordinates>107.5982824,-6.9187314,0.0 107.5983085,-6.9194279,0.0 107.5983096,-6.9194582,0.0 107.5983293,-6.919971,0.0 107.5983308,-6.92001,0.0 107.5983366,-6.920102,0.0</coordinates>
            </LineString>
        </Placemark>
        <Placemark id="21411">
            <name>Jalan Pasir Kaliki</name>
            <styleUrl>#21412</styleUrl>
            <LineString id="21410">
                <coordinates>107.597321,-6.898017,0.0 107.5973143,-6.897839,0.0 107.5973006,-6.8973077,0.0 107.5972936,-6.8969114,0.0 107.5972895,-6.8968371,0.0</coordinates>
            </LineString>
        </Placemark>
        <Placemark id="21415">
            <name>Jalan Sukajadi</name>
            <styleUrl>#21416</styleUrl>
            <LineString id="21414">
                <coordinates>107.5967323,-6.8873957,0.0 107.5967238,-6.8872476,0.0 107.5967027,-6.8868139,0.0 107.5967016,-6.8867916,0.0</coordinates>
            </LineString>
        </Placemark>
        <Placemark id="21419">
            <name>Jalan Sukajadi</name>
            <styleUrl>#21420</styleUrl>
            <LineString id="21418">
                <coordinates>107.5961957,-6.8768743,0.0 107.5961919,-6.8768247,0.0 107.5961498,-6.8762747,0.0 107.5961192,-6.8758667,0.0 107.5960887,-6.8756034,0.0 107.5960697,-6.8754397,0.0 107.5960058,-6.8749813,0.0 107.595994,-6.8749009,0.0 107.5959746,-6.8747745,0.0 107.5958725,-6.8743267,0.0 107.5958215,-6.8741565,0.0 107.5958267,-6.874066,0.0</coordinates>
            </LineString>
        </Placemark>
        <Placemark id="21423">
            <name>Jalan HOS. Cokroaminoto</name>
            <styleUrl>#21424</styleUrl>
            <LineString id="21422">
                <coordinates>107.5980296,-6.9131529,0.0 107.5980155,-6.9128993,0.0 107.5980004,-6.9126452,0.0</coordinates>
            </LineString>
        </Placemark>
        <Placemark id="21427">
            <name>Jalan HOS. Cokroaminoto</name>
            <styleUrl>#21428</styleUrl>
            <LineString id="21426">
                <coordinates>107.5981313,-6.9141206,0.0 107.5981201,-6.9145111,0.0</coordinates>
            </LineString>
        </Placemark>
        <Placemark id="21431">
            <name>Jalan Sukajadi</name>
            <styleUrl>#21432</styleUrl>
            <LineString id="21430">
                <coordinates>107.5962548,-6.8783299,0.0 107.596246,-6.8780655,0.0 107.5962436,-6.8779934,0.0 107.5962315,-6.8776265,0.0 107.5962243,-6.8774107,0.0</coordinates>
            </LineString>
        </Placemark>
        <Placemark id="21435">
            <name>Jalan Sukajadi</name>
            <styleUrl>#21436</styleUrl>
            <LineString id="21434">
                <coordinates>107.5965234,-6.8840238,0.0 107.5965088,-6.8836453,0.0 107.5965062,-6.8835624,0.0 107.596503,-6.8834688,0.0 107.5964741,-6.8826331,0.0 107.5964702,-6.8825274,0.0 107.5964601,-6.8821498,0.0 107.5964542,-6.8820032,0.0 107.596444,-6.8817861,0.0 107.5964302,-6.8814833,0.0 107.5964257,-6.8813836,0.0 107.5964243,-6.8813611,0.0 107.5963984,-6.8809341,0.0</coordinates>
            </LineString>
        </Placemark>
        <Placemark id="21439">
            <name>Jalan Doktor Louis Otten</name>
            <styleUrl>#21440</styleUrl>
            <LineString id="21438">
                <coordinates>107.6009396,-6.9034374,0.0 107.6001443,-6.9026808,0.0 107.5996034,-6.9021781,0.0</coordinates>
            </LineString>
        </Placemark>
        <Placemark id="21443">
            <name>Jalan Doktor Louis Otten</name>
            <styleUrl>#21444</styleUrl>
            <LineString id="21442">
                <coordinates>107.5995001,-6.9020788,0.0 107.5993337,-6.9019138,0.0 107.5985614,-6.9011751,0.0</coordinates>
            </LineString>
        </Placemark>
        <Placemark id="21447">
            <name>Jalan HOS. Cokroaminoto</name>
            <styleUrl>#21448</styleUrl>
            <LineString id="21446">
                <coordinates>107.5982102,-6.9163251,0.0 107.5982087,-6.9161927,0.0 107.5982045,-6.9161384,0.0 107.5981715,-6.9156959,0.0 107.598156,-6.9155614,0.0 107.5981533,-6.9155424,0.0 107.5981204,-6.9153156,0.0 107.5981054,-6.9152242,0.0 107.5980922,-6.9151108,0.0 107.5980776,-6.9149475,0.0 107.5980911,-6.9146113,0.0</coordinates>
            </LineString>
        </Placemark>
        <Placemark id="21451">
            <name>Jalan Kopo</name>
            <styleUrl>#21452</styleUrl>
            <LineString id="21450">
                <coordinates>107.5973451,-6.9298621,0.0 107.5975851,-6.9290648,0.0 107.5976634,-6.9287613,0.0 107.5979226,-6.9278179,0.0 107.5979756,-6.9275908,0.0 107.5980791,-6.9272681,0.0 107.5982512,-6.9267282,0.0</coordinates>
            </LineString>
        </Placemark>
        <Placemark id="21455">
            <name>Jalan Pasir Kaliki</name>
            <styleUrl>#21456</styleUrl>
            <LineString id="21454">
                <coordinates>107.5973503,-6.8989275,0.0 107.5973395,-6.8985629,0.0 107.5973325,-6.8983576,0.0 107.5973274,-6.898195,0.0 107.5973223,-6.8980478,0.0 107.597321,-6.898017,0.0</coordinates>
            </LineString>
        </Placemark>
        <Placemark id="21459">
            <name>Jalan Kyai Haji Wahid Hasyim</name>
            <styleUrl>#21460</styleUrl>
            <LineString id="21458">
                <coordinates>107.5951535,-6.9367787,0.0 107.5951874,-6.9367303,0.0 107.5954226,-6.9363544,0.0 107.5954941,-6.9362235,0.0</coordinates>
            </LineString>
        </Placemark>
        <Placemark id="21463">
            <name>Jalan Kyai Haji Wahid Hasyim</name>
            <styleUrl>#21464</styleUrl>
            <LineString id="21462">
                <coordinates>107.5949807,-6.9370518,0.0 107.5950123,-6.9370007,0.0 107.5950424,-6.936952,0.0</coordinates>
            </LineString>
        </Placemark>
        <Placemark id="21467">
            <name>Jalan Kyai Haji Wahid Hasyim</name>
            <styleUrl>#21468</styleUrl>
            <LineString id="21466">
                <coordinates>107.5973451,-6.9298621,0.0 107.5973301,-6.9299133,0.0 107.5972016,-6.9302644,0.0 107.5970386,-6.9307403,0.0 107.5969018,-6.9312049,0.0 107.5968867,-6.9312445,0.0 107.5968361,-6.9313926,0.0 107.596765,-6.9316642,0.0 107.5965357,-6.9324963,0.0 107.5964545,-6.9328118,0.0 107.5962936,-6.9333363,0.0 107.5962648,-6.9334355,0.0 107.5961649,-6.9337657,0.0 107.5960696,-6.9340985,0.0 107.5959697,-6.9344586,0.0 107.5959114,-6.9346696,0.0 107.5958912,-6.9347433,0.0 107.5958242,-6.9349871,0.0 107.5957332,-6.9353237,0.0 107.5956715,-6.9355604,0.0 107.5955747,-6.9359434,0.0 107.5954941,-6.9362235,0.0</coordinates>
            </LineString>
        </Placemark>
        <Placemark id="21471">
            <name>Jalan HOS. Cokroaminoto</name>
            <styleUrl>#21472</styleUrl>
            <LineString id="21470">
                <coordinates>107.5979469,-6.9117824,0.0 107.5979313,-6.9116207,0.0</coordinates>
            </LineString>
        </Placemark>
        <Placemark id="21475">
            <name>Jalan Dr. Setiabudi</name>
            <styleUrl>#21476</styleUrl>
            <LineString id="21474">
                <coordinates>107.5947487,-6.8601046,0.0 107.5947415,-6.8601534,0.0 107.5947299,-6.8602278,0.0 107.5946876,-6.860499,0.0 107.5946834,-6.8605895,0.0 107.594682,-6.8607123,0.0 107.594691,-6.8607829,0.0 107.5947113,-6.8608802,0.0 107.5947543,-6.8609845,0.0 107.5947885,-6.8610543,0.0 107.5948338,-6.861136,0.0 107.5948731,-6.8611888,0.0 107.5949141,-6.8612418,0.0 107.595009,-6.861346,0.0 107.5950885,-6.8614258,0.0 107.5951733,-6.8614881,0.0 107.595248,-6.861538,0.0 107.5954158,-6.8616512,0.0 107.5955484,-6.8617416,0.0 107.5958307,-6.8619379,0.0 107.5959866,-6.8620463,0.0 107.5961672,-6.8621719,0.0 107.5961991,-6.8622073,0.0 107.5962242,-6.8622608,0.0 107.5962237,-6.8623248,0.0 107.5962141,-6.862385,0.0 107.5961999,-6.8624213,0.0 107.5960469,-6.8627747,0.0 107.5959257,-6.8629855,0.0 107.5958359,-6.8630694,0.0 107.5957803,-6.8631238,0.0 107.5957352,-6.8631536,0.0 107.5956823,-6.8631776,0.0 107.5955819,-6.8632153,0.0 107.594751,-6.8634425,0.0</coordinates>
            </LineString>
        </Placemark>
        <Placemark id="21479">
            <name>Jalan Astana Anyar</name>
            <styleUrl>#21480</styleUrl>
            <LineString id="21478">
                <coordinates>107.5986744,-6.9232626,0.0 107.598693,-6.9233336,0.0 107.5987003,-6.9233666,0.0 107.5987418,-6.9235419,0.0 107.5987785,-6.9236837,0.0 107.5988393,-6.9239196,0.0 107.5989872,-6.9243261,0.0 107.5990381,-6.9244659,0.0 107.5991575,-6.9247939,0.0 107.5992769,-6.9251219,0.0 107.5995204,-6.9258084,0.0 107.5995293,-6.9258336,0.0 107.5996933,-6.9262957,0.0 107.5997325,-6.9263959,0.0 107.599866,-6.9267377,0.0 107.5999192,-6.9268738,0.0</coordinates>
            </LineString>
        </Placemark>
        <Placemark id="21483">
            <name>Jalan Astana Anyar</name>
            <styleUrl>#21484</styleUrl>
            <LineString id="21482">
                <coordinates>107.5984717,-6.9214196,0.0 107.5984828,-6.9215649,0.0 107.5985679,-6.9225334,0.0 107.5985764,-6.9225957,0.0 107.598583,-6.9226401,0.0 107.5986598,-6.9231557,0.0 107.5986613,-6.9231659,0.0 107.5986744,-6.9232626,0.0</coordinates>
            </LineString>
        </Placemark>
        <Placemark id="21487">
            <name>Jalan Pajajaran</name>
            <styleUrl>#21488</styleUrl>
            <LineString id="21486">
                <coordinates>107.5978766,-6.9065641,0.0 107.5979786,-6.9065883,0.0 107.5982101,-6.9066424,0.0 107.5983334,-6.9066643,0.0 107.5987941,-6.906746,0.0</coordinates>
            </LineString>
        </Placemark>
        <Placemark id="21491">
            <name>Jalan Sukajadi</name>
            <styleUrl>#21492</styleUrl>
            <LineString id="21490">
                <coordinates>107.5967016,-6.8867916,0.0 107.5964324,-6.88604,0.0 107.5964113,-6.8859394,0.0 107.5963989,-6.8858417,0.0 107.5964138,-6.8856254,0.0 107.5964457,-6.8854301,0.0 107.5965693,-6.8848932,0.0</coordinates>
            </LineString>
        </Placemark>
        <Placemark id="21495">
            <name>Jalan Sukajadi</name>
            <styleUrl>#21496</styleUrl>
            <LineString id="21494">
                <coordinates>107.5965291,-6.8842065,0.0 107.5965234,-6.8840238,0.0</coordinates>
            </LineString>
        </Placemark>
        <Placemark id="21499">
            <name>Jalan HOS. Cokroaminoto</name>
            <styleUrl>#21500</styleUrl>
            <LineString id="21498">
                <coordinates>107.5976288,-6.9073749,0.0 107.5976476,-6.9072399,0.0 107.5976545,-6.9071624,0.0 107.5976396,-6.9068592,0.0 107.5976232,-6.9066483,0.0 107.5976301,-6.9066034,0.0 107.5976524,-6.9065823,0.0 107.5976833,-6.9065748,0.0 107.5977255,-6.9065767,0.0 107.597784,-6.9065777,0.0 107.5978766,-6.9065641,0.0</coordinates>
            </LineString>
        </Placemark>
        <Placemark id="21503">
            <name>Jalan Dokter Gunawan Mangunkusumo</name>
            <styleUrl>#21504</styleUrl>
            <LineString id="21502">
                <coordinates>107.601339,-6.9048875,0.0 107.6014033,-6.9046523,0.0</coordinates>
            </LineString>
        </Placemark>
        <Placemark id="21507">
            <name>Jalur Bus Kota Terminal Leuwipanjang</name>
            <styleUrl>#21508</styleUrl>
            <LineString id="21506">
                <coordinates>107.593264,-6.9458573,0.0 107.5931318,-6.9458342,0.0 107.5930863,-6.9458135,0.0 107.5930568,-6.9457799,0.0 107.593037,-6.9457202,0.0 107.5930171,-6.9456587,0.0 107.5929963,-6.9455941,0.0 107.5929662,-6.9454896,0.0 107.5929405,-6.9454085,0.0 107.592872,-6.945188,0.0 107.5928791,-6.9451113,0.0 107.5928976,-6.9450391,0.0</coordinates>
            </LineString>
        </Placemark>
        <Placemark id="21511">
            <name>Jalan Kyai Haji Wahid Hasyim</name>
            <styleUrl>#21512</styleUrl>
            <LineString id="21510">
                <coordinates>107.5920724,-6.9418438,0.0 107.5922389,-6.9415903,0.0 107.5924641,-6.9412448,0.0 107.5930896,-6.9402979,0.0 107.59314,-6.9402168,0.0 107.5932148,-6.9400962,0.0 107.5932356,-6.9400628,0.0 107.5933094,-6.939944,0.0 107.5934404,-6.9397331,0.0 107.5936005,-6.9394752,0.0 107.5937688,-6.9391642,0.0 107.5939092,-6.9389121,0.0 107.5939987,-6.938752,0.0 107.5940814,-6.9386042,0.0 107.5941015,-6.9385696,0.0 107.594148,-6.9384872,0.0 107.594204,-6.9383881,0.0 107.594524,-6.9378129,0.0 107.5945872,-6.9376992,0.0 107.5946221,-6.9376377,0.0 107.5946542,-6.9375847,0.0 107.5948299,-6.9373141,0.0</coordinates>
            </LineString>
        </Placemark>
        <Placemark id="21515">
            <name>Jalan Pasir Koja</name>
            <styleUrl>#21516</styleUrl>
            <LineString id="21514">
                <coordinates>107.5983304,-6.926733,0.0 107.598853,-6.9267805,0.0 107.5994238,-6.9268284,0.0 107.5995173,-6.9268375,0.0</coordinates>
            </LineString>
        </Placemark>
        <Placemark id="21519">
            <name>Jalan HOS. Cokroaminoto</name>
            <styleUrl>#21520</styleUrl>
            <LineString id="21518">
                <coordinates>107.5979313,-6.9116207,0.0 107.5979188,-6.9114098,0.0 107.5978086,-6.909947,0.0 107.5978015,-6.9098566,0.0 107.5977774,-6.9094546,0.0 107.5977427,-6.9089045,0.0 107.5976909,-6.9082042,0.0 107.5976849,-6.9081059,0.0 107.5976772,-6.9080121,0.0 107.5976288,-6.9073749,0.0</coordinates>
            </LineString>
        </Placemark>
        <Placemark id="21523">
            <name>Jalan HOS. Cokroaminoto</name>
            <styleUrl>#21524</styleUrl>
            <LineString id="21522">
                <coordinates>107.5979805,-6.912262,0.0 107.5979469,-6.9117824,0.0</coordinates>
            </LineString>
        </Placemark>
        <Placemark id="21527">
            <name>Jalan Doktor Louis Otten</name>
            <styleUrl>#21528</styleUrl>
            <LineString id="21526">
                <coordinates>107.5984038,-6.9012736,0.0 107.5983341,-6.9012523,0.0 107.5982872,-6.901223,0.0 107.5982577,-6.9011817,0.0 107.5982483,-6.9011405,0.0 107.5982442,-6.9010593,0.0 107.5982442,-6.9010192,0.0 107.5982442,-6.9003802,0.0</coordinates>
            </LineString>
        </Placemark>
        <Placemark id="21531">
            <name>Jalan Sukajadi</name>
            <styleUrl>#21532</styleUrl>
            <LineString id="21530">
                <coordinates>107.5972816,-6.8966817,0.0 107.5972787,-6.8966241,0.0 107.5972616,-6.8963456,0.0 107.5972601,-6.8962772,0.0 107.5972557,-6.8962319,0.0 107.597252,-6.8961231,0.0 107.5972487,-6.8960662,0.0 107.5972328,-6.8957942,0.0 107.5972172,-6.8955656,0.0 107.5971842,-6.8950939,0.0 107.5971773,-6.8950042,0.0 107.5971398,-6.8945401,0.0 107.5971049,-6.8940789,0.0 107.5970982,-6.8939774,0.0 107.5970769,-6.893622,0.0 107.5970644,-6.8934134,0.0 107.5970391,-6.8930157,0.0</coordinates>
            </LineString>
        </Placemark>
        <Placemark id="21535">
            <name>Jalan Sukajadi</name>
            <styleUrl>#21536</styleUrl>
            <LineString id="21534">
                <coordinates>107.5969097,-6.8902486,0.0 107.5969052,-6.8900717,0.0 107.5969028,-6.8899793,0.0 107.5969032,-6.8898955,0.0 107.596901,-6.8897159,0.0 107.5968858,-6.8894176,0.0 107.5968696,-6.889221,0.0 107.5968625,-6.8891028,0.0 107.5968398,-6.888674,0.0 107.5968348,-6.8885657,0.0 107.5968303,-6.8885035,0.0 107.5968078,-6.8882126,0.0 107.5967817,-6.8879179,0.0 107.5967633,-6.8877297,0.0 107.5967526,-6.887631,0.0</coordinates>
            </LineString>
        </Placemark>
        <Placemark id="21539">
            <name>Jalan Pasteur</name>
            <styleUrl>#21540</styleUrl>
            <LineString id="21538">
                <coordinates>107.5977317,-6.9002067,0.0 107.5979866,-6.900214,0.0</coordinates>
            </LineString>
        </Placemark>
        <Placemark id="21543">
            <name>Jalan Sukajadi</name>
            <styleUrl>#21544</styleUrl>
            <LineString id="21542">
                <coordinates>107.5965693,-6.8848932,0.0 107.5965291,-6.8842065,0.0</coordinates>
            </LineString>
        </Placemark>
        <Placemark id="21547">
            <name>Jalan Pasir Kaliki</name>
            <styleUrl>#21548</styleUrl>
            <LineString id="21546">
                <coordinates>107.5974384,-6.9002085,0.0 107.5974105,-6.8994594,0.0 107.5974058,-6.8993364,0.0 107.5973999,-6.8992445,0.0 107.5973806,-6.8991371,0.0 107.5973572,-6.8990747,0.0</coordinates>
            </LineString>
        </Placemark>
        <Placemark id="21551">
            <name>Jalan Keluar Terminal Leuwipanjang</name>
            <styleUrl>#21552</styleUrl>
            <LineString id="21550">
                <coordinates>107.5928874,-6.9447537,0.0 107.5928309,-6.944637,0.0 107.5927594,-6.9445111,0.0 107.5926774,-6.944414,0.0 107.5924868,-6.9442651,0.0 107.592084,-6.9440521,0.0</coordinates>
            </LineString>
        </Placemark>
        <Placemark id="21555">
            <name>Jalan Gardujati</name>
            <styleUrl>#21556</styleUrl>
            <LineString id="21554">
                <coordinates>107.598224,-6.9170874,0.0 107.5982101,-6.9164481,0.0 107.5982092,-6.9164103,0.0 107.5982102,-6.9163251,0.0</coordinates>
            </LineString>
        </Placemark>
        <Placemark id="21559">
            <name>Jalan Pasir Koja</name>
            <styleUrl>#21560</styleUrl>
            <LineString id="21558">
                <coordinates>107.5995173,-6.9268375,0.0 107.5995907,-6.9268449,0.0</coordinates>
            </LineString>
        </Placemark>
        <Placemark id="21563">
            <name>Jalan Pasir Koja</name>
            <styleUrl>#21564</styleUrl>
            <LineString id="21562">
                <coordinates>107.5995907,-6.9268449,0.0 107.5997798,-6.9268595,0.0 107.5999192,-6.9268738,0.0</coordinates>
            </LineString>
        </Placemark>
        <Placemark id="21567">
            <name>Jalan Keluar Terminal Leuwipanjang</name>
            <styleUrl>#21568</styleUrl>
            <LineString id="21566">
                <coordinates>107.5918309,-6.9439338,0.0 107.5916419,-6.9438523,0.0</coordinates>
            </LineString>
        </Placemark>
        <Placemark id="21571">
            <name>Jalan Keluar Terminal Leuwipanjang</name>
            <styleUrl>#21572</styleUrl>
            <LineString id="21570">
                <coordinates>107.592084,-6.9440521,0.0 107.5918309,-6.9439338,0.0</coordinates>
            </LineString>
        </Placemark>
        <Placemark id="21575">
            <name>Jalan Pasir Koja</name>
            <styleUrl>#21576</styleUrl>
            <LineString id="21574">
                <coordinates>107.5982512,-6.9267282,0.0 107.5983304,-6.926733,0.0</coordinates>
            </LineString>
        </Placemark>
        <Placemark id="21579">
            <name>Jalan Kyai Haji Wahid Hasyim</name>
            <styleUrl>#21580</styleUrl>
            <LineString id="21578">
                <coordinates>107.5948299,-6.9373141,0.0 107.5949436,-6.9371168,0.0 107.5949807,-6.9370518,0.0</coordinates>
            </LineString>
        </Placemark>
        <Placemark id="21583">
            <name>Jalan Sukajadi</name>
            <styleUrl>#21584</styleUrl>
            <LineString id="21582">
                <coordinates>107.5970391,-6.8930157,0.0 107.5970212,-6.8924855,0.0 107.596988,-6.8919756,0.0 107.5969852,-6.8919419,0.0 107.5969612,-6.8915359,0.0 107.5969542,-6.8914244,0.0 107.5969493,-6.8913097,0.0 107.5969393,-6.8910002,0.0 107.5969258,-6.8906657,0.0 107.5969183,-6.8904777,0.0 107.5969097,-6.8902486,0.0</coordinates>
            </LineString>
        </Placemark>
        <Placemark id="21587">
            <name>Jalan Dr. Setiabudi</name>
            <styleUrl>#21588</styleUrl>
            <LineString id="21586">
                <coordinates>107.5940961,-6.8651081,0.0 107.5940723,-6.8653071,0.0 107.5940489,-6.8655021,0.0 107.5940436,-6.8655555,0.0 107.5939941,-6.866016,0.0 107.59398,-6.8661473,0.0 107.5939484,-6.8664124,0.0 107.5939402,-6.8664718,0.0 107.5939135,-6.8666897,0.0 107.593824,-6.8674042,0.0 107.5937888,-6.8677009,0.0 107.5937561,-6.8679333,0.0 107.5937127,-6.8682235,0.0 107.5937093,-6.8682462,0.0 107.593703,-6.868294,0.0 107.5936933,-6.8683616,0.0 107.5936592,-6.8686283,0.0 107.5936527,-6.8686846,0.0 107.5936366,-6.868816,0.0 107.5936184,-6.8689604,0.0 107.5936057,-6.869061,0.0 107.5935721,-6.8693613,0.0 107.5935632,-6.8694388,0.0 107.5935337,-6.8696955,0.0 107.5935252,-6.8697698,0.0 107.5935167,-6.8698675,0.0 107.5935096,-6.8699573,0.0 107.593506,-6.8701005,0.0 107.5935249,-6.8704256,0.0</coordinates>
            </LineString>
        </Placemark>
        <Placemark id="21591">
            <name>Jalan HOS. Cokroaminoto</name>
            <styleUrl>#21592</styleUrl>
            <LineString id="21590">
                <coordinates>107.5980004,-6.9126452,0.0 107.5979867,-6.9123682,0.0 107.5979845,-6.9123202,0.0 107.5979805,-6.912262,0.0</coordinates>
            </LineString>
        </Placemark>
        <Placemark id="21595">
            <name>Jalan Sukajadi</name>
            <styleUrl>#21596</styleUrl>
            <LineString id="21594">
                <coordinates>107.5967526,-6.887631,0.0 107.5967323,-6.8873957,0.0</coordinates>
            </LineString>
        </Placemark>
        <Placemark id="21599">
            <name>Jalan HOS. Cokroaminoto</name>
            <styleUrl>#21600</styleUrl>
            <LineString id="21598">
                <coordinates>107.5981201,-6.9145111,0.0 107.5981205,-6.9145443,0.0</coordinates>
            </LineString>
        </Placemark>
        <Placemark id="21603">
            <name>Jalan Gardujati</name>
            <styleUrl>#21604</styleUrl>
            <LineString id="21602">
                <coordinates>107.5982595,-6.9181989,0.0 107.5982308,-6.9180616,0.0 107.5982278,-6.9178847,0.0 107.5982246,-6.9176091,0.0 107.598224,-6.9170874,0.0</coordinates>
            </LineString>
        </Placemark>
        <Placemark id="21607">
            <name>Jalan Kyai Haji Wahid Hasyim</name>
            <styleUrl>#21608</styleUrl>
            <LineString id="21606">
                <coordinates>107.5950424,-6.936952,0.0 107.5950892,-6.9368778,0.0 107.5951014,-6.9368585,0.0 107.5951535,-6.9367787,0.0</coordinates>
            </LineString>
        </Placemark>
        <Placemark id="21611">
            <name>Jalan HOS. Cokroaminoto</name>
            <styleUrl>#21612</styleUrl>
            <LineString id="21610">
                <coordinates>107.5980911,-6.9146113,0.0 107.5980937,-6.9145881,0.0 107.5981205,-6.9145443,0.0</coordinates>
            </LineString>
        </Placemark>
        <Placemark id="21615">
            <name>Jalan Dr. Setiabudi</name>
            <styleUrl>#21616</styleUrl>
            <LineString id="21614">
                <coordinates>107.594917,-6.8589109,0.0 107.5948727,-6.8591879,0.0 107.5948433,-6.8593552,0.0</coordinates>
            </LineString>
        </Placemark>
        <Placemark id="21619">
            <name>Jalan Dr. Setiabudi</name>
            <styleUrl>#21620</styleUrl>
            <LineString id="21618">
                <coordinates>107.594751,-6.8634425,0.0 107.5946342,-6.8634956,0.0</coordinates>
            </LineString>
        </Placemark>
        <Placemark id="21623">
            <name>Jalan Dr. Setiabudi</name>
            <styleUrl>#21624</styleUrl>
            <LineString id="21622">
                <coordinates>107.5941115,-6.864801,0.0 107.5941535,-6.8646065,0.0 107.5941832,-6.8644809,0.0 107.5942318,-6.8642799,0.0 107.5943139,-6.8639829,0.0 107.594348,-6.8639131,0.0 107.5943936,-6.8638479,0.0</coordinates>
            </LineString>
        </Placemark>
        <Placemark id="21627">
            <name>Route Segment</name>
            <styleUrl>#21628</styleUrl>
            <LineString id="21626">
                <coordinates>107.594917,-6.8589109,0.0 107.5952388,-6.8589685,0.0 107.5952442,-6.8589728,0.0 107.5952455,-6.8589782,0.0 107.5952302,-6.8591252,0.0 107.5951942,-6.85933,0.0</coordinates>
            </LineString>
        </Placemark>
        <Placemark id="21631">
            <name>Jalan Doktor Louis Otten</name>
            <styleUrl>#21632</styleUrl>
            <LineString id="21630">
                <coordinates>107.5985614,-6.9011751,0.0 107.5985393,-6.901217,0.0 107.5985051,-6.9012463,0.0 107.5984582,-6.9012676,0.0 107.5984038,-6.9012736,0.0</coordinates>
            </LineString>
        </Placemark>
        <Placemark id="21635">
            <name>Jalan Pasteur</name>
            <styleUrl>#21636</styleUrl>
            <LineString id="21634">
                <coordinates>107.5974384,-6.9002085,0.0 107.5977317,-6.9002067,0.0</coordinates>
            </LineString>
        </Placemark>
        <Placemark id="21639">
            <name>Jalan HOS. Cokroaminoto</name>
            <styleUrl>#21640</styleUrl>
            <LineString id="21638">
                <coordinates>107.5980758,-6.9134531,0.0 107.5981284,-6.913989,0.0 107.5981313,-6.9140657,0.0 107.5981313,-6.9141206,0.0</coordinates>
            </LineString>
        </Placemark>
        <Placemark id="21643">
            <name>Jalan HOS. Cokroaminoto</name>
            <styleUrl>#21644</styleUrl>
            <LineString id="21642">
                <coordinates>107.5980724,-6.9134153,0.0 107.5980758,-6.9134531,0.0</coordinates>
            </LineString>
        </Placemark>
        <Placemark id="21647">
            <name>Jalan HOS. Cokroaminoto</name>
            <styleUrl>#21648</styleUrl>
            <LineString id="21646">
                <coordinates>107.5980724,-6.9134153,0.0 107.5980457,-6.9133719,0.0 107.5980366,-6.9133217,0.0 107.598033,-6.9132616,0.0</coordinates>
            </LineString>
        </Placemark>
        <Placemark id="21651">
            <name>Jalan HOS. Cokroaminoto</name>
            <styleUrl>#21652</styleUrl>
            <LineString id="21650">
                <coordinates>107.598033,-6.9132616,0.0 107.5980296,-6.9131529,0.0</coordinates>
            </LineString>
        </Placemark>
        <Placemark id="21655">
            <name>Jalan Doktor Louis Otten</name>
            <styleUrl>#21656</styleUrl>
            <LineString id="21654">
                <coordinates>107.6009997,-6.9036058,0.0 107.6009396,-6.9034374,0.0</coordinates>
            </LineString>
        </Placemark>
        <Placemark id="21659">
            <name>Jalan Sukajadi</name>
            <styleUrl>#21660</styleUrl>
            <LineString id="21658">
                <coordinates>107.5963984,-6.8809341,0.0 107.5963847,-6.8806684,0.0 107.5963806,-6.8805716,0.0 107.596369,-6.8802996,0.0 107.5963356,-6.8796695,0.0 107.5963312,-6.8795732,0.0 107.5963111,-6.8792113,0.0 107.5962832,-6.8787501,0.0 107.5962548,-6.8783299,0.0</coordinates>
            </LineString>
        </Placemark>
        <Placemark id="21663">
            <name>Jalan Sukajadi</name>
            <styleUrl>#21664</styleUrl>
            <LineString id="21662">
                <coordinates>107.5962243,-6.8774107,0.0 107.5962202,-6.8773796,0.0 107.5962158,-6.8772881,0.0 107.5961957,-6.8768743,0.0</coordinates>
            </LineString>
        </Placemark>
        <Placemark id="21667">
            <name>Bundaran Rajiman</name>
            <styleUrl>#21668</styleUrl>
            <LineString id="21666">
                <coordinates>107.6013604,-6.9040126,0.0 107.6012393,-6.9040444,0.0 107.6012028,-6.9040455,0.0 107.6011664,-6.9040417,0.0 107.6011308,-6.9040332,0.0 107.6010968,-6.90402,0.0 107.6010648,-6.9040024,0.0 107.6010355,-6.9039806,0.0 107.6010094,-6.9039552,0.0 107.6009847,-6.9039233,0.0 107.600965,-6.9038881,0.0 107.6009509,-6.9038503,0.0</coordinates>
            </LineString>
        </Placemark>
        <Placemark id="21671">
            <name>Bundaran Rajiman</name>
            <styleUrl>#21672</styleUrl>
            <LineString id="21670">
                <coordinates>107.6009509,-6.9038503,0.0 107.6009421,-6.9038081,0.0 107.6009402,-6.903765,0.0 107.6009453,-6.9037222,0.0 107.6009571,-6.9036807,0.0 107.6009754,-6.9036416,0.0 107.6009997,-6.9036058,0.0</coordinates>
            </LineString>
        </Placemark>
        <Placemark id="21675">
            <name>Jalan Dr. Setiabudi</name>
            <styleUrl>#21676</styleUrl>
            <LineString id="21674">
                <coordinates>107.5936179,-6.8707823,0.0 107.5937463,-6.8711539,0.0 107.5937922,-6.8712782,0.0 107.593895,-6.8715029,0.0 107.5940693,-6.8717924,0.0 107.5944136,-6.8722322,0.0 107.5948065,-6.8727176,0.0 107.5949802,-6.8729249,0.0 107.5951113,-6.8730936,0.0 107.5955371,-6.8736221,0.0 107.5956623,-6.8737793,0.0 107.5956814,-6.8738055,0.0 107.5956912,-6.8738171,0.0 107.5957307,-6.8738828,0.0 107.5957592,-6.8739356,0.0 107.5957878,-6.8739884,0.0 107.5958267,-6.874066,0.0</coordinates>
            </LineString>
        </Placemark>
        <Placemark id="21679">
            <name>Jalan Pasteur</name>
            <styleUrl>#21680</styleUrl>
            <LineString id="21678">
                <coordinates>107.5982442,-6.9003802,0.0 107.5979866,-6.900214,0.0</coordinates>
            </LineString>
        </Placemark>
        <Placemark id="21683">
            <name>Jalan Pasir Kaliki</name>
            <styleUrl>#21684</styleUrl>
            <LineString id="21682">
                <coordinates>107.5972895,-6.8968371,0.0 107.5972816,-6.8966817,0.0</coordinates>
            </LineString>
        </Placemark>
        <Placemark id="21687">
            <name>Jalan Dr. Setiabudi</name>
            <styleUrl>#21688</styleUrl>
            <LineString id="21686">
                <coordinates>107.5935249,-6.8704256,0.0 107.5936179,-6.8707823,0.0</coordinates>
            </LineString>
        </Placemark>
        <Placemark id="21691">
            <name>Jalan Keluar Terminal Leuwipanjang</name>
            <styleUrl>#21692</styleUrl>
            <LineString id="21690">
                <coordinates>107.5916419,-6.9438523,0.0 107.5910845,-6.9435862,0.0 107.5910269,-6.9435481,0.0</coordinates>
            </LineString>
        </Placemark>
        <Placemark id="21695">
            <name>Jalan Dr. Setiabudi</name>
            <styleUrl>#21696</styleUrl>
            <LineString id="21694">
                <coordinates>107.5948433,-6.8593552,0.0 107.5948312,-6.8594241,0.0 107.5948088,-6.859551,0.0</coordinates>
            </LineString>
        </Placemark>
        <Placemark id="21699">
            <name>Jalan Dr. Setiabudi</name>
            <styleUrl>#21700</styleUrl>
            <LineString id="21698">
                <coordinates>107.5948052,-6.8595708,0.0 107.594757,-6.8600369,0.0 107.5947527,-6.8600724,0.0 107.5947487,-6.8601046,0.0</coordinates>
            </LineString>
        </Placemark>
        <Placemark id="21703">
            <name>Jalan Dr. Setiabudi</name>
            <styleUrl>#21704</styleUrl>
            <LineString id="21702">
                <coordinates>107.5948088,-6.859551,0.0 107.5948052,-6.8595708,0.0</coordinates>
            </LineString>
        </Placemark>
        <Placemark id="21707">
            <name>Jalan Astana Anyar</name>
            <styleUrl>#21708</styleUrl>
            <LineString id="21706">
                <coordinates>107.5983366,-6.920102,0.0 107.5983407,-6.92014,0.0 107.5983508,-6.9202439,0.0 107.5983525,-6.9202632,0.0 107.5984122,-6.9208607,0.0 107.5984181,-6.9209178,0.0 107.5984299,-6.9210083,0.0 107.5984615,-6.9213127,0.0 107.5984717,-6.9214196,0.0</coordinates>
            </LineString>
        </Placemark>
        <Placemark id="21711">
            <name>Jalan Gardujati</name>
            <styleUrl>#21712</styleUrl>
            <LineString id="21710">
                <coordinates>107.5982824,-6.9187314,0.0 107.5982807,-6.9186924,0.0 107.5982595,-6.9181989,0.0</coordinates>
            </LineString>
        </Placemark>
        <Placemark id="21715">
            <name>Jalan Dokter Gunawan Mangunkusumo</name>
            <styleUrl>#21716</styleUrl>
            <LineString id="21714">
                <coordinates>107.6014033,-6.9046523,0.0 107.6014361,-6.9042205,0.0</coordinates>
            </LineString>
        </Placemark>
        <Placemark id="21719">
            <name>Jalan Dokter Gunawan Mangunkusumo</name>
            <styleUrl>#21720</styleUrl>
            <LineString id="21718">
                <coordinates>107.6014361,-6.9042205,0.0 107.6013604,-6.9040126,0.0</coordinates>
            </LineString>
        </Placemark>
        <Placemark id="21723">
            <name>Jalan Pasir Kaliki</name>
            <styleUrl>#21724</styleUrl>
            <LineString id="21722">
                <coordinates>107.5973572,-6.8990747,0.0 107.5973543,-6.8990234,0.0</coordinates>
            </LineString>
        </Placemark>
        <Placemark id="21727">
            <name>Jalan Pasir Kaliki</name>
            <styleUrl>#21728</styleUrl>
            <LineString id="21726">
                <coordinates>107.5973543,-6.8990234,0.0 107.5973503,-6.8989275,0.0</coordinates>
            </LineString>
        </Placemark>
        <Placemark id="21731">
            <name>Jalan Dr. Setiabudi</name>
            <styleUrl>#21732</styleUrl>
            <LineString id="21730">
                <coordinates>107.5946342,-6.8634956,0.0 107.594575,-6.8635338,0.0 107.5945119,-6.8636016,0.0 107.594469,-6.8636686,0.0 107.5943936,-6.8638479,0.0</coordinates>
            </LineString>
        </Placemark>
        <Placemark id="21735">
            <name>Jalan Dr. Setiabudi</name>
            <styleUrl>#21736</styleUrl>
            <LineString id="21734">
                <coordinates>107.5940961,-6.8651081,0.0 107.5940725,-6.8650563,0.0 107.594078,-6.8649955,0.0 107.5941115,-6.864801,0.0</coordinates>
            </LineString>
        </Placemark>
        <Placemark id="21739">
            <name>Jalan Kyai Haji Wahid Hasyim</name>
            <styleUrl>#21740</styleUrl>
            <LineString id="21738">
                <coordinates>107.5910269,-6.9435481,0.0 107.5910603,-6.9434929,0.0 107.5910903,-6.9434463,0.0 107.5911028,-6.9434233,0.0 107.5911203,-6.9433931,0.0 107.5912147,-6.9432302,0.0 107.591257,-6.9431573,0.0 107.5913003,-6.9430856,0.0 107.5913435,-6.9430138,0.0 107.5914686,-6.9428144,0.0 107.5916513,-6.9425217,0.0 107.5918451,-6.942203,0.0 107.5918647,-6.9421708,0.0 107.59192,-6.9420837,0.0 107.5920724,-6.9418438,0.0</coordinates>
            </LineString>
        </Placemark>
        <Placemark id="21743">
            <name>Jalan Keluar Terminal Leuwipanjang</name>
            <styleUrl>#21744</styleUrl>
            <LineString id="21742">
                <coordinates>107.5928976,-6.9450391,0.0 107.5929024,-6.9449731,0.0 107.5929037,-6.9449075,0.0 107.5928874,-6.9447537,0.0</coordinates>
            </LineString>
        </Placemark>
    </Document>
</kml>
