<?xml version="1.0" encoding="UTF-8"?>
<kml xmlns="http://www.opengis.net/kml/2.2" xmlns:gx="http://www.google.com/kml/ext/2.2">
    <Document id="86012">
        <Style id="86018">
            <IconStyle id="86019">
                <colorMode>normal</colorMode>
                <scale>1</scale>
                <heading>0</heading>
                <Icon id="86020">
                    <href>http://maps.google.com/mapfiles/kml/pushpin/ylw-pushpin.png</href>
                </Icon>
            </IconStyle>
        </Style>
        <Style id="86023">
            <IconStyle id="86024">
                <colorMode>normal</colorMode>
                <scale>1</scale>
                <heading>0</heading>
                <Icon id="86025">
                    <href>http://maps.google.com/mapfiles/kml/pushpin/ylw-pushpin.png</href>
                </Icon>
            </IconStyle>
        </Style>
        <Style id="86028">
            <IconStyle id="86029">
                <colorMode>normal</colorMode>
                <scale>1</scale>
                <heading>0</heading>
                <Icon id="86030">
                    <href>http://maps.google.com/mapfiles/kml/pushpin/ylw-pushpin.png</href>
                </Icon>
            </IconStyle>
        </Style>
        <Style id="86033">
            <IconStyle id="86034">
                <colorMode>normal</colorMode>
                <scale>1</scale>
                <heading>0</heading>
                <Icon id="86035">
                    <href>http://maps.google.com/mapfiles/kml/pushpin/ylw-pushpin.png</href>
                </Icon>
            </IconStyle>
        </Style>
        <Style id="86038">
            <IconStyle id="86039">
                <colorMode>normal</colorMode>
                <scale>1</scale>
                <heading>0</heading>
                <Icon id="86040">
                    <href>http://maps.google.com/mapfiles/kml/pushpin/ylw-pushpin.png</href>
                </Icon>
            </IconStyle>
        </Style>
        <Style id="86043">
            <IconStyle id="86044">
                <colorMode>normal</colorMode>
                <scale>1</scale>
                <heading>0</heading>
                <Icon id="86045">
                    <href>http://maps.google.com/mapfiles/kml/pushpin/ylw-pushpin.png</href>
                </Icon>
            </IconStyle>
        </Style>
        <Style id="86048">
            <IconStyle id="86049">
                <colorMode>normal</colorMode>
                <scale>1</scale>
                <heading>0</heading>
                <Icon id="86050">
                    <href>http://maps.google.com/mapfiles/kml/pushpin/ylw-pushpin.png</href>
                </Icon>
            </IconStyle>
        </Style>
        <Style id="86053">
            <LineStyle id="86054">
                <color>ffa5492c</color>
                <colorMode>normal</colorMode>
                <width>4</width>
            </LineStyle>
        </Style>
        <Style id="86057">
            <LineStyle id="86058">
                <color>ffa5492c</color>
                <colorMode>normal</colorMode>
                <width>4</width>
            </LineStyle>
        </Style>
        <Style id="86061">
            <LineStyle id="86062">
                <color>ffa5492c</color>
                <colorMode>normal</colorMode>
                <width>4</width>
            </LineStyle>
        </Style>
        <Style id="86065">
            <LineStyle id="86066">
                <color>ffa5492c</color>
                <colorMode>normal</colorMode>
                <width>4</width>
            </LineStyle>
        </Style>
        <Style id="86069">
            <LineStyle id="86070">
                <color>ffa5492c</color>
                <colorMode>normal</colorMode>
                <width>4</width>
            </LineStyle>
        </Style>
        <Style id="86073">
            <LineStyle id="86074">
                <color>ffa5492c</color>
                <colorMode>normal</colorMode>
                <width>4</width>
            </LineStyle>
        </Style>
        <Style id="86077">
            <LineStyle id="86078">
                <color>ffa5492c</color>
                <colorMode>normal</colorMode>
                <width>4</width>
            </LineStyle>
        </Style>
        <Style id="86081">
            <LineStyle id="86082">
                <color>ffa5492c</color>
                <colorMode>normal</colorMode>
                <width>4</width>
            </LineStyle>
        </Style>
        <Style id="86085">
            <LineStyle id="86086">
                <color>ffa5492c</color>
                <colorMode>normal</colorMode>
                <width>4</width>
            </LineStyle>
        </Style>
        <Style id="86089">
            <LineStyle id="86090">
                <color>ffa5492c</color>
                <colorMode>normal</colorMode>
                <width>4</width>
            </LineStyle>
        </Style>
        <Style id="86093">
            <LineStyle id="86094">
                <color>ffa5492c</color>
                <colorMode>normal</colorMode>
                <width>4</width>
            </LineStyle>
        </Style>
        <Style id="86097">
            <LineStyle id="86098">
                <color>ffa5492c</color>
                <colorMode>normal</colorMode>
                <width>4</width>
            </LineStyle>
        </Style>
        <Style id="86101">
            <LineStyle id="86102">
                <color>ffa5492c</color>
                <colorMode>normal</colorMode>
                <width>4</width>
            </LineStyle>
        </Style>
        <Style id="86105">
            <LineStyle id="86106">
                <color>ffa5492c</color>
                <colorMode>normal</colorMode>
                <width>4</width>
            </LineStyle>
        </Style>
        <Style id="86109">
            <LineStyle id="86110">
                <color>ffa5492c</color>
                <colorMode>normal</colorMode>
                <width>4</width>
            </LineStyle>
        </Style>
        <Style id="86113">
            <LineStyle id="86114">
                <color>ffa5492c</color>
                <colorMode>normal</colorMode>
                <width>4</width>
            </LineStyle>
        </Style>
        <Style id="86117">
            <LineStyle id="86118">
                <color>ffa5492c</color>
                <colorMode>normal</colorMode>
                <width>4</width>
            </LineStyle>
        </Style>
        <Style id="86121">
            <LineStyle id="86122">
                <color>ffa5492c</color>
                <colorMode>normal</colorMode>
                <width>4</width>
            </LineStyle>
        </Style>
        <Style id="86125">
            <LineStyle id="86126">
                <color>ffa5492c</color>
                <colorMode>normal</colorMode>
                <width>4</width>
            </LineStyle>
        </Style>
        <Style id="86129">
            <LineStyle id="86130">
                <color>ffa5492c</color>
                <colorMode>normal</colorMode>
                <width>4</width>
            </LineStyle>
        </Style>
        <Style id="86133">
            <LineStyle id="86134">
                <color>ffa5492c</color>
                <colorMode>normal</colorMode>
                <width>4</width>
            </LineStyle>
        </Style>
        <Style id="86137">
            <LineStyle id="86138">
                <color>ffa5492c</color>
                <colorMode>normal</colorMode>
                <width>4</width>
            </LineStyle>
        </Style>
        <Style id="86141">
            <LineStyle id="86142">
                <color>ffa5492c</color>
                <colorMode>normal</colorMode>
                <width>4</width>
            </LineStyle>
        </Style>
        <Style id="86145">
            <LineStyle id="86146">
                <color>ffa5492c</color>
                <colorMode>normal</colorMode>
                <width>4</width>
            </LineStyle>
        </Style>
        <Style id="86149">
            <LineStyle id="86150">
                <color>ffa5492c</color>
                <colorMode>normal</colorMode>
                <width>4</width>
            </LineStyle>
        </Style>
        <Style id="86153">
            <LineStyle id="86154">
                <color>ffa5492c</color>
                <colorMode>normal</colorMode>
                <width>4</width>
            </LineStyle>
        </Style>
        <Style id="86157">
            <LineStyle id="86158">
                <color>ffa5492c</color>
                <colorMode>normal</colorMode>
                <width>4</width>
            </LineStyle>
        </Style>
        <Style id="86161">
            <LineStyle id="86162">
                <color>ffa5492c</color>
                <colorMode>normal</colorMode>
                <width>4</width>
            </LineStyle>
        </Style>
        <Style id="86165">
            <LineStyle id="86166">
                <color>ffa5492c</color>
                <colorMode>normal</colorMode>
                <width>4</width>
            </LineStyle>
        </Style>
        <Style id="86169">
            <LineStyle id="86170">
                <color>ffa5492c</color>
                <colorMode>normal</colorMode>
                <width>4</width>
            </LineStyle>
        </Style>
        <Style id="86173">
            <LineStyle id="86174">
                <color>ffa5492c</color>
                <colorMode>normal</colorMode>
                <width>4</width>
            </LineStyle>
        </Style>
        <Style id="86177">
            <LineStyle id="86178">
                <color>ffa5492c</color>
                <colorMode>normal</colorMode>
                <width>4</width>
            </LineStyle>
        </Style>
        <Style id="86181">
            <LineStyle id="86182">
                <color>ffa5492c</color>
                <colorMode>normal</colorMode>
                <width>4</width>
            </LineStyle>
        </Style>
        <Style id="86185">
            <LineStyle id="86186">
                <color>ffa5492c</color>
                <colorMode>normal</colorMode>
                <width>4</width>
            </LineStyle>
        </Style>
        <Style id="86189">
            <LineStyle id="86190">
                <color>ffa5492c</color>
                <colorMode>normal</colorMode>
                <width>4</width>
            </LineStyle>
        </Style>
        <Style id="86193">
            <LineStyle id="86194">
                <color>ffa5492c</color>
                <colorMode>normal</colorMode>
                <width>4</width>
            </LineStyle>
        </Style>
        <Style id="86197">
            <LineStyle id="86198">
                <color>ffa5492c</color>
                <colorMode>normal</colorMode>
                <width>4</width>
            </LineStyle>
        </Style>
        <Style id="86201">
            <LineStyle id="86202">
                <color>ffa5492c</color>
                <colorMode>normal</colorMode>
                <width>4</width>
            </LineStyle>
        </Style>
        <Style id="86205">
            <LineStyle id="86206">
                <color>ffa5492c</color>
                <colorMode>normal</colorMode>
                <width>4</width>
            </LineStyle>
        </Style>
        <Style id="86209">
            <LineStyle id="86210">
                <color>ffa5492c</color>
                <colorMode>normal</colorMode>
                <width>4</width>
            </LineStyle>
        </Style>
        <Style id="86213">
            <LineStyle id="86214">
                <color>ffa5492c</color>
                <colorMode>normal</colorMode>
                <width>4</width>
            </LineStyle>
        </Style>
        <Style id="86217">
            <LineStyle id="86218">
                <color>ffa5492c</color>
                <colorMode>normal</colorMode>
                <width>4</width>
            </LineStyle>
        </Style>
        <Style id="86221">
            <LineStyle id="86222">
                <color>ffa5492c</color>
                <colorMode>normal</colorMode>
                <width>4</width>
            </LineStyle>
        </Style>
        <Style id="86225">
            <LineStyle id="86226">
                <color>ffa5492c</color>
                <colorMode>normal</colorMode>
                <width>4</width>
            </LineStyle>
        </Style>
        <Style id="86229">
            <LineStyle id="86230">
                <color>ffa5492c</color>
                <colorMode>normal</colorMode>
                <width>4</width>
            </LineStyle>
        </Style>
        <Style id="86233">
            <LineStyle id="86234">
                <color>ffa5492c</color>
                <colorMode>normal</colorMode>
                <width>4</width>
            </LineStyle>
        </Style>
        <Style id="86237">
            <LineStyle id="86238">
                <color>ffa5492c</color>
                <colorMode>normal</colorMode>
                <width>4</width>
            </LineStyle>
        </Style>
        <Style id="86241">
            <LineStyle id="86242">
                <color>ffa5492c</color>
                <colorMode>normal</colorMode>
                <width>4</width>
            </LineStyle>
        </Style>
        <Style id="86245">
            <LineStyle id="86246">
                <color>ffa5492c</color>
                <colorMode>normal</colorMode>
                <width>4</width>
            </LineStyle>
        </Style>
        <Style id="86249">
            <LineStyle id="86250">
                <color>ffa5492c</color>
                <colorMode>normal</colorMode>
                <width>4</width>
            </LineStyle>
        </Style>
        <Style id="86253">
            <LineStyle id="86254">
                <color>ffa5492c</color>
                <colorMode>normal</colorMode>
                <width>4</width>
            </LineStyle>
        </Style>
        <Style id="86257">
            <LineStyle id="86258">
                <color>ffa5492c</color>
                <colorMode>normal</colorMode>
                <width>4</width>
            </LineStyle>
        </Style>
        <ExtendedData>
            <Data name="route-name">
                <value>KBP: Stasiun Padalarang → Bumi Hejo</value>
            </Data>
            <Data name="source">
                <value>Transport for Bandung</value>
            </Data>
        </ExtendedData>
        <Placemark id="86017">
            <name>Shuttle Stasiun Padalarang</name>
            <styleUrl>#86018</styleUrl>
            <Point id="86016">
                <coordinates>107.4965807,-6.8426422,0.0</coordinates>
            </Point>
        </Placemark>
        <Placemark id="86022">
            <name>Bumi Hejo</name>
            <styleUrl>#86023</styleUrl>
            <Point id="86021">
                <coordinates>107.4649146,-6.8667302,0.0</coordinates>
            </Point>
        </Placemark>
        <Placemark id="86027">
            <name>Tatar Pitaloka (Parahyangan Selatan)</name>
            <styleUrl>#86028</styleUrl>
            <Point id="86026">
                <coordinates>107.4738005,-6.8665457,0.0</coordinates>
            </Point>
        </Placemark>
        <Placemark id="86032">
            <name>Ratnasasih</name>
            <styleUrl>#86033</styleUrl>
            <Point id="86031">
                <coordinates>107.4688418,-6.8689266,0.0</coordinates>
            </Point>
        </Placemark>
        <Placemark id="86037">
            <name>BTD</name>
            <styleUrl>#86038</styleUrl>
            <Point id="86036">
                <coordinates>107.4678358,-6.8724813,0.0</coordinates>
            </Point>
        </Placemark>
        <Placemark id="86042">
            <name>Shuttle Stasiun Padalarang</name>
            <styleUrl>#86043</styleUrl>
            <Point id="86041">
                <coordinates>107.4965807,-6.8426422,0.0</coordinates>
            </Point>
        </Placemark>
        <Placemark id="86047">
            <name>Bumi Hejo</name>
            <styleUrl>#86048</styleUrl>
            <Point id="86046">
                <coordinates>107.4649146,-6.8667302,0.0</coordinates>
            </Point>
        </Placemark>
        <Placemark id="86052">
            <name>Jalan Raya Padalarang</name>
            <styleUrl>#86053</styleUrl>
            <LineString id="86051">
                <coordinates>107.4973395,-6.8515925,0.0 107.4973802,-6.8516677,0.0 107.4974241,-6.85176,0.0 107.4974862,-6.8519233,0.0 107.4975063,-6.8519776,0.0</coordinates>
            </LineString>
        </Placemark>
        <Placemark id="86056">
            <name>Jalan Panaris</name>
            <styleUrl>#86057</styleUrl>
            <LineString id="86055">
                <coordinates>107.4980377,-6.8447794,0.0 107.4980289,-6.8448354,0.0 107.4979763,-6.8452064,0.0 107.4979497,-6.8453886,0.0 107.4979184,-6.8456015,0.0 107.4978748,-6.8459643,0.0 107.4978228,-6.8463567,0.0 107.497797,-6.8465254,0.0 107.4977652,-6.846731,0.0 107.4977044,-6.8471374,0.0 107.4976247,-6.8477076,0.0 107.4975847,-6.8479924,0.0 107.4975239,-6.8484377,0.0 107.4975122,-6.8485235,0.0 107.4974616,-6.8488561,0.0 107.497384,-6.8493691,0.0 107.4973653,-6.8495065,0.0 107.4973504,-6.8496195,0.0 107.4972993,-6.8499522,0.0 107.4972836,-6.8500571,0.0 107.4972495,-6.8502835,0.0 107.4971882,-6.8507054,0.0 107.4971618,-6.8508663,0.0 107.4971058,-6.8512547,0.0 107.4971035,-6.8512732,0.0</coordinates>
            </LineString>
        </Placemark>
        <Placemark id="86060">
            <name>Jalan Parahyangan</name>
            <styleUrl>#86061</styleUrl>
            <LineString id="86059">
                <coordinates>107.4844613,-6.8592048,0.0 107.4843771,-6.8591886,0.0 107.4843181,-6.8591899,0.0 107.4842507,-6.8592074,0.0 107.4841467,-6.8592563,0.0 107.4839497,-6.8593834,0.0 107.4838114,-6.8594726,0.0 107.4834444,-6.8597299,0.0 107.4832184,-6.8598823,0.0 107.4829814,-6.8600506,0.0 107.4827868,-6.8602043,0.0 107.4827475,-6.8602353,0.0 107.4826451,-6.8603125,0.0 107.4823409,-6.860562,0.0 107.4819824,-6.860872,0.0 107.4818837,-6.8609628,0.0 107.4816193,-6.861206,0.0 107.4815775,-6.8612441,0.0 107.4815106,-6.861305,0.0 107.4813933,-6.8614119,0.0</coordinates>
            </LineString>
        </Placemark>
        <Placemark id="86064">
            <name>Jalan Parahyangan</name>
            <styleUrl>#86065</styleUrl>
            <LineString id="86063">
                <coordinates>107.4764906,-6.8660919,0.0 107.4764003,-6.8661102,0.0 107.4760503,-6.8661814,0.0 107.4758131,-6.8662008,0.0 107.4752685,-6.8662352,0.0 107.4750467,-6.8662477,0.0 107.4749505,-6.8662547,0.0 107.4747528,-6.8662824,0.0 107.4745355,-6.8663356,0.0 107.4743769,-6.8663823,0.0 107.4742297,-6.8664256,0.0 107.4741165,-6.8664584,0.0 107.4738005,-6.8665457,0.0 107.4733795,-6.866662,0.0 107.4732314,-6.8667011,0.0 107.4731329,-6.8667115,0.0 107.4728191,-6.8667448,0.0 107.4727802,-6.8667489,0.0 107.4727473,-6.8667463,0.0 107.472457,-6.8667231,0.0 107.4722222,-6.8666793,0.0 107.4714992,-6.8665354,0.0 107.4709936,-6.8664781,0.0 107.4705404,-6.8664688,0.0 107.4699717,-6.8664623,0.0 107.4698331,-6.8664607,0.0</coordinates>
            </LineString>
        </Placemark>
        <Placemark id="86068">
            <name>Jalan Parahyangan</name>
            <styleUrl>#86069</styleUrl>
            <LineString id="86067">
                <coordinates>107.4698331,-6.8664607,0.0 107.469214,-6.8664584,0.0</coordinates>
            </LineString>
        </Placemark>
        <Placemark id="86072">
            <name>Jalan Parahyangan</name>
            <styleUrl>#86073</styleUrl>
            <LineString id="86071">
                <coordinates>107.4770978,-6.8659503,0.0 107.4764906,-6.8660919,0.0</coordinates>
            </LineString>
        </Placemark>
        <Placemark id="86076">
            <name>Jalan Raya Padalarang</name>
            <styleUrl>#86077</styleUrl>
            <LineString id="86075">
                <coordinates>107.4971791,-6.8515469,0.0 107.4969746,-6.8514085,0.0 107.4968492,-6.8513115,0.0 107.4967542,-6.8512441,0.0 107.4966845,-6.8511983,0.0 107.4964572,-6.8510514,0.0 107.4964375,-6.8510397,0.0 107.4964198,-6.8510316,0.0 107.4964035,-6.8510262,0.0 107.4963876,-6.8510228,0.0 107.4963709,-6.8510211,0.0 107.4963507,-6.8510217,0.0</coordinates>
            </LineString>
        </Placemark>
        <Placemark id="86080">
            <name>Jalan Raya Padalarang</name>
            <styleUrl>#86081</styleUrl>
            <LineString id="86079">
                <coordinates>107.4971959,-6.8514713,0.0 107.4972695,-6.8515233,0.0 107.4973395,-6.8515925,0.0</coordinates>
            </LineString>
        </Placemark>
        <Placemark id="86084">
            <name>Jalan Raya Padalarang</name>
            <styleUrl>#86085</styleUrl>
            <LineString id="86083">
                <coordinates>107.4975473,-6.8521126,0.0 107.4975711,-6.8522828,0.0</coordinates>
            </LineString>
        </Placemark>
        <Placemark id="86088">
            <name>Jalan Gelap Nyawang</name>
            <styleUrl>#86089</styleUrl>
            <LineString id="86087">
                <coordinates>107.4688015,-6.8679657,0.0 107.4688041,-6.8680378,0.0 107.4688165,-6.8682772,0.0 107.4688418,-6.8689266,0.0 107.4688475,-6.869072,0.0 107.4688667,-6.8693437,0.0 107.4688901,-6.8695299,0.0 107.4689433,-6.8697239,0.0 107.4690063,-6.8699025,0.0 107.4690661,-6.87007,0.0 107.4692782,-6.8705199,0.0 107.4694,-6.8707198,0.0 107.4695696,-6.8709496,0.0 107.4697228,-6.8711371,0.0 107.4699347,-6.8713528,0.0 107.4702941,-6.8716614,0.0 107.4704103,-6.8717543,0.0 107.4704417,-6.8718028,0.0 107.470442,-6.871834,0.0 107.4704379,-6.8718671,0.0</coordinates>
            </LineString>
        </Placemark>
        <Placemark id="86092">
            <name>Jalan Guru Gantangan</name>
            <styleUrl>#86093</styleUrl>
            <LineString id="86091">
                <coordinates>107.4672411,-6.872249,0.0 107.46721,-6.8721651,0.0 107.4671039,-6.871909,0.0 107.4670794,-6.8718558,0.0 107.467055,-6.8718159,0.0 107.4670239,-6.8717845,0.0 107.4669878,-6.8717677,0.0 107.4669503,-6.8717565,0.0 107.4668402,-6.8717492,0.0 107.4667984,-6.8717498,0.0</coordinates>
            </LineString>
        </Placemark>
        <Placemark id="86096">
            <name>Jalan Layang Kota Baru Parahyangan</name>
            <styleUrl>#86097</styleUrl>
            <LineString id="86095">
                <coordinates>107.494909,-6.852067,0.0 107.4948639,-6.8521257,0.0 107.4948502,-6.8521421,0.0 107.4948346,-6.8521589,0.0 107.4948188,-6.8521743,0.0 107.4947997,-6.8521915,0.0 107.4947778,-6.852209,0.0 107.4947547,-6.8522251,0.0 107.4947307,-6.8522396,0.0 107.4947024,-6.8522548,0.0 107.494574,-6.8523146,0.0 107.4945559,-6.8523251,0.0 107.4945407,-6.8523358,0.0 107.4945258,-6.8523487,0.0 107.4945104,-6.8523648,0.0 107.494498,-6.8523805,0.0 107.4944862,-6.8523976,0.0 107.4944522,-6.8524499,0.0</coordinates>
            </LineString>
        </Placemark>
        <Placemark id="86100">
            <name>Jalan Raya Padalarang</name>
            <styleUrl>#86101</styleUrl>
            <LineString id="86099">
                <coordinates>107.4975063,-6.8519776,0.0 107.4975473,-6.8521126,0.0</coordinates>
            </LineString>
        </Placemark>
        <Placemark id="86104">
            <name>Jalan Raya Padalarang</name>
            <styleUrl>#86105</styleUrl>
            <LineString id="86103">
                <coordinates>107.4974224,-6.8519939,0.0 107.4973814,-6.8518888,0.0 107.4973343,-6.8517847,0.0 107.4972822,-6.8516803,0.0 107.4972419,-6.8516172,0.0 107.4972188,-6.8515916,0.0 107.4971791,-6.8515469,0.0</coordinates>
            </LineString>
        </Placemark>
        <Placemark id="86108">
            <name>Jalan Cihaliwung</name>
            <styleUrl>#86109</styleUrl>
            <LineString id="86107">
                <coordinates>107.496525,-6.8427291,0.0 107.4966418,-6.8428228,0.0 107.4969585,-6.8430995,0.0 107.4971931,-6.8433132,0.0 107.4973786,-6.8434878,0.0 107.4975781,-6.8436854,0.0 107.497982,-6.8440435,0.0 107.498048,-6.8441045,0.0 107.498056,-6.8441191,0.0 107.4980804,-6.8441637,0.0 107.4980972,-6.8442255,0.0 107.4981043,-6.8443239,0.0 107.498091,-6.8444891,0.0</coordinates>
            </LineString>
        </Placemark>
        <Placemark id="86112">
            <name>Route Segment</name>
            <styleUrl>#86113</styleUrl>
            <LineString id="86111">
                <coordinates>107.4652031,-6.86882,0.0 107.4652375,-6.868981,0.0 107.4652818,-6.8691115,0.0 107.4653757,-6.8693165,0.0 107.4655768,-6.8695895,0.0 107.4658008,-6.8697999,0.0 107.4661052,-6.8700435,0.0 107.4664056,-6.8703138,0.0 107.4664351,-6.8703548,0.0 107.4664579,-6.8704044,0.0 107.4667841,-6.8711906,0.0 107.4668487,-6.8713463,0.0</coordinates>
            </LineString>
        </Placemark>
        <Placemark id="86116">
            <name>Jalan Panyawangan</name>
            <styleUrl>#86117</styleUrl>
            <LineString id="86115">
                <coordinates>107.4871202,-6.8579424,0.0 107.4869151,-6.8580095,0.0 107.4864366,-6.8581776,0.0 107.4859686,-6.8583506,0.0 107.4856253,-6.8584978,0.0 107.4850543,-6.8587831,0.0 107.4850014,-6.8588138,0.0 107.4849632,-6.858843,0.0 107.4849145,-6.8589012,0.0</coordinates>
            </LineString>
        </Placemark>
        <Placemark id="86120">
            <name>Jalan Panyawangan</name>
            <styleUrl>#86121</styleUrl>
            <LineString id="86119">
                <coordinates>107.4874813,-6.8578222,0.0 107.4871202,-6.8579424,0.0</coordinates>
            </LineString>
        </Placemark>
        <Placemark id="86124">
            <name>Jalan Guru Gantangan</name>
            <styleUrl>#86125</styleUrl>
            <LineString id="86123">
                <coordinates>107.4704379,-6.8718671,0.0 107.4702358,-6.8721513,0.0 107.4699931,-6.8724162,0.0 107.469922,-6.8724575,0.0 107.4698429,-6.8724841,0.0 107.4693895,-6.8724926,0.0 107.4689789,-6.8724922,0.0 107.4687028,-6.8724956,0.0 107.4685734,-6.8724928,0.0 107.4684335,-6.8724906,0.0 107.4678358,-6.8724813,0.0 107.4677621,-6.8724803,0.0 107.4676155,-6.8724774,0.0 107.467515,-6.8724523,0.0 107.4674503,-6.8724309,0.0 107.4673945,-6.8723999,0.0 107.467319,-6.8723378,0.0 107.4672411,-6.872249,0.0</coordinates>
            </LineString>
        </Placemark>
        <Placemark id="86128">
            <name>Jalan Gelap Nyawang</name>
            <styleUrl>#86129</styleUrl>
            <LineString id="86127">
                <coordinates>107.4687696,-6.8664642,0.0 107.468775,-6.8667184,0.0 107.4688015,-6.8679657,0.0</coordinates>
            </LineString>
        </Placemark>
        <Placemark id="86132">
            <name>Jalan Raya Padalarang</name>
            <styleUrl>#86133</styleUrl>
            <LineString id="86131">
                <coordinates>107.4974571,-6.8521186,0.0 107.4974224,-6.8519939,0.0</coordinates>
            </LineString>
        </Placemark>
        <Placemark id="86136">
            <name>Jalan Kota Baru Parahyangan</name>
            <styleUrl>#86137</styleUrl>
            <LineString id="86135">
                <coordinates>107.4961444,-6.8512857,0.0 107.4960897,-6.8514097,0.0 107.4960736,-6.851442,0.0 107.4960591,-6.8514673,0.0 107.4960425,-6.8514915,0.0 107.4960261,-6.8515122,0.0 107.4960063,-6.8515313,0.0 107.4959822,-6.8515478,0.0 107.4959607,-6.8515595,0.0 107.4959397,-6.8515682,0.0 107.4959165,-6.8515759,0.0 107.4958879,-6.8515837,0.0 107.4958484,-6.8515932,0.0 107.4958073,-6.8516017,0.0 107.4957661,-6.8516091,0.0 107.49555,-6.8516434,0.0 107.4954972,-6.8516542,0.0 107.4954416,-6.8516674,0.0 107.4953935,-6.8516805,0.0 107.4953499,-6.8516958,0.0 107.4953074,-6.8517131,0.0 107.4952644,-6.8517336,0.0 107.4952276,-6.8517532,0.0 107.4951894,-6.8517762,0.0 107.4951386,-6.8518103,0.0 107.4951033,-6.8518359,0.0 107.4950728,-6.8518613,0.0 107.4950439,-6.8518894,0.0 107.495014,-6.8519245,0.0 107.494909,-6.852067,0.0</coordinates>
            </LineString>
        </Placemark>
        <Placemark id="86140">
            <name>Jalan Panaris</name>
            <styleUrl>#86141</styleUrl>
            <LineString id="86139">
                <coordinates>107.4971035,-6.8512732,0.0 107.4971168,-6.8513136,0.0 107.4971242,-6.8513308,0.0 107.4971315,-6.8513524,0.0 107.4971444,-6.8513892,0.0 107.49716,-6.8514191,0.0 107.4971959,-6.8514713,0.0</coordinates>
            </LineString>
        </Placemark>
        <Placemark id="86144">
            <name>Jalan Panyawangan</name>
            <styleUrl>#86145</styleUrl>
            <LineString id="86143">
                <coordinates>107.4919706,-6.8536414,0.0 107.4916948,-6.8538818,0.0 107.4915401,-6.8540351,0.0 107.4913677,-6.8542461,0.0 107.4912795,-6.8543914,0.0 107.4912098,-6.8545277,0.0 107.4911334,-6.8546994,0.0 107.491047,-6.8549156,0.0 107.4909758,-6.85515,0.0 107.490886,-6.8554368,0.0 107.4908085,-6.8556729,0.0 107.4907426,-6.8558506,0.0 107.4906969,-6.8559436,0.0 107.490634,-6.8560715,0.0 107.4905367,-6.8562288,0.0 107.4904172,-6.8563985,0.0 107.4903987,-6.8564256,0.0 107.4902688,-6.8565768,0.0 107.4902587,-6.8565886,0.0 107.4901266,-6.8567205,0.0 107.4899602,-6.8568684,0.0 107.48993,-6.8568898,0.0 107.4897922,-6.8569873,0.0 107.4896188,-6.8570961,0.0 107.4894408,-6.8571858,0.0 107.4893412,-6.8572253,0.0 107.4890471,-6.8573475,0.0 107.4886886,-6.8574623,0.0 107.4884777,-6.8575259,0.0 107.4882278,-6.8576062,0.0 107.4879598,-6.8576864,0.0 107.4874813,-6.8578222,0.0</coordinates>
            </LineString>
        </Placemark>
        <Placemark id="86148">
            <name>Jalan Parahyangan</name>
            <styleUrl>#86149</styleUrl>
            <LineString id="86147">
                <coordinates>107.469214,-6.8664584,0.0 107.4690056,-6.8664556,0.0 107.4689918,-6.8664562,0.0 107.4687696,-6.8664642,0.0</coordinates>
            </LineString>
        </Placemark>
        <Placemark id="86152">
            <name>Route Segment</name>
            <styleUrl>#86153</styleUrl>
            <LineString id="86151">
                <coordinates>107.4639341,-6.8680088,0.0 107.4639406,-6.8679526,0.0 107.463945,-6.8679354,0.0 107.4639653,-6.8679099,0.0 107.4639803,-6.8679021,0.0 107.4640472,-6.8679002,0.0 107.46416,-6.8678969,0.0</coordinates>
            </LineString>
        </Placemark>
        <Placemark id="86156">
            <name>Route Segment</name>
            <styleUrl>#86157</styleUrl>
            <LineString id="86155">
                <coordinates>107.46416,-6.8678969,0.0 107.4642218,-6.8678546,0.0 107.4642455,-6.8678427,0.0 107.4642766,-6.8678404,0.0 107.4649248,-6.8678406,0.0 107.4649741,-6.8678279,0.0 107.4650065,-6.867789,0.0 107.4650139,-6.8677476,0.0 107.4650111,-6.8672156,0.0</coordinates>
            </LineString>
        </Placemark>
        <Placemark id="86160">
            <name>Jalan Panaris</name>
            <styleUrl>#86161</styleUrl>
            <LineString id="86159">
                <coordinates>107.498091,-6.8444891,0.0 107.4980761,-6.8445837,0.0 107.4980377,-6.8447794,0.0</coordinates>
            </LineString>
        </Placemark>
        <Placemark id="86164">
            <name>Route Segment</name>
            <styleUrl>#86165</styleUrl>
            <LineString id="86163">
                <coordinates>107.4975711,-6.8522828,0.0 107.4974957,-6.8522961,0.0</coordinates>
            </LineString>
        </Placemark>
        <Placemark id="86168">
            <name>Jalan Kota Baru Parahyangan</name>
            <styleUrl>#86169</styleUrl>
            <LineString id="86167">
                <coordinates>107.4944522,-6.8524499,0.0 107.4944162,-6.8525103,0.0 107.4943818,-6.8525601,0.0 107.4943432,-6.8526068,0.0 107.4943051,-6.8526422,0.0 107.4942576,-6.8526775,0.0 107.4942009,-6.8527087,0.0 107.4941496,-6.8527293,0.0 107.4940916,-6.852747,0.0 107.4940257,-6.8527557,0.0 107.4939522,-6.8527551,0.0 107.4938894,-6.8527455,0.0 107.4938183,-6.8527241,0.0 107.4937587,-6.8526983,0.0 107.4936969,-6.8526597,0.0 107.4936415,-6.8526143,0.0</coordinates>
            </LineString>
        </Placemark>
        <Placemark id="86172">
            <name>Jalan Panyawangan</name>
            <styleUrl>#86173</styleUrl>
            <LineString id="86171">
                <coordinates>107.4936415,-6.8526143,0.0 107.493472,-6.8526301,0.0 107.4933779,-6.8526608,0.0 107.4932787,-6.8527061,0.0 107.493089,-6.8528142,0.0 107.4927386,-6.8530544,0.0 107.4924066,-6.8533123,0.0 107.4923235,-6.8533759,0.0 107.4919706,-6.8536414,0.0</coordinates>
            </LineString>
        </Placemark>
        <Placemark id="86176">
            <name>Jalan Kota Baru Parahyangan</name>
            <styleUrl>#86177</styleUrl>
            <LineString id="86175">
                <coordinates>107.4849145,-6.8589012,0.0 107.4849108,-6.8589962,0.0 107.4848778,-6.8590855,0.0 107.4848187,-6.8591604,0.0 107.4847393,-6.8592136,0.0 107.4846473,-6.85924,0.0 107.4845515,-6.8592369,0.0 107.4844613,-6.8592048,0.0</coordinates>
            </LineString>
        </Placemark>
        <Placemark id="86180">
            <name>Jalan Raya Padalarang</name>
            <styleUrl>#86181</styleUrl>
            <LineString id="86179">
                <coordinates>107.4974957,-6.8522961,0.0 107.4974571,-6.8521186,0.0</coordinates>
            </LineString>
        </Placemark>
        <Placemark id="86184">
            <name>Route Segment</name>
            <styleUrl>#86185</styleUrl>
            <LineString id="86183">
                <coordinates>107.4667984,-6.8717498,0.0 107.4668179,-6.8716824,0.0 107.4668354,-6.8716144,0.0 107.46684,-6.8715969,0.0 107.4668598,-6.8715273,0.0 107.4668622,-6.8714728,0.0 107.4668552,-6.8714311,0.0 107.4668479,-6.8714104,0.0 107.466846,-6.8713896,0.0 107.4668487,-6.8713463,0.0</coordinates>
            </LineString>
        </Placemark>
        <Placemark id="86188">
            <name>Route Segment</name>
            <styleUrl>#86189</styleUrl>
            <LineString id="86187">
                <coordinates>107.4649017,-6.8671823,0.0 107.4648992,-6.8670177,0.0 107.4648966,-6.8668494,0.0</coordinates>
            </LineString>
        </Placemark>
        <Placemark id="86192">
            <name>Route Segment</name>
            <styleUrl>#86193</styleUrl>
            <LineString id="86191">
                <coordinates>107.4648966,-6.8668494,0.0 107.4648979,-6.8668332,0.0 107.4649027,-6.866816,0.0 107.4649119,-6.8667817,0.0 107.4649141,-6.8667626,0.0 107.4649146,-6.8667302,0.0</coordinates>
            </LineString>
        </Placemark>
        <Placemark id="86196">
            <name>Route Segment</name>
            <styleUrl>#86197</styleUrl>
            <LineString id="86195">
                <coordinates>107.4650111,-6.8672156,0.0 107.4649434,-6.8672146,0.0 107.4649197,-6.8672083,0.0 107.4649055,-6.8671969,0.0 107.4649017,-6.8671823,0.0</coordinates>
            </LineString>
        </Placemark>
        <Placemark id="86200">
            <name>Jalan Kota Baru Parahyangan</name>
            <styleUrl>#86201</styleUrl>
            <LineString id="86199">
                <coordinates>107.4963507,-6.8510217,0.0 107.4963301,-6.8510254,0.0 107.4963132,-6.8510299,0.0 107.4962963,-6.8510362,0.0 107.4962787,-6.8510449,0.0 107.4962614,-6.8510578,0.0 107.4962484,-6.8510712,0.0 107.4962343,-6.85109,0.0 107.4962221,-6.8511106,0.0 107.4962098,-6.8511338,0.0 107.4961976,-6.8511597,0.0 107.4961619,-6.8512443,0.0 107.4961444,-6.8512857,0.0</coordinates>
            </LineString>
        </Placemark>
        <Placemark id="86204">
            <name>Route Segment</name>
            <styleUrl>#86205</styleUrl>
            <LineString id="86203">
                <coordinates>107.496525,-6.8427291,0.0 107.4965636,-6.8426821,0.0 107.4965685,-6.8426769,0.0 107.4965774,-6.8426618,0.0 107.4965807,-6.8426422,0.0</coordinates>
            </LineString>
        </Placemark>
        <Placemark id="86208">
            <name>Route Segment</name>
            <styleUrl>#86209</styleUrl>
            <LineString id="86207">
                <coordinates>107.4642078,-6.8680088,0.0 107.4649298,-6.868006,0.0 107.4651824,-6.8680042,0.0</coordinates>
            </LineString>
        </Placemark>
        <Placemark id="86212">
            <name>Route Segment</name>
            <styleUrl>#86213</styleUrl>
            <LineString id="86211">
                <coordinates>107.4639341,-6.8680088,0.0 107.4642078,-6.8680088,0.0</coordinates>
            </LineString>
        </Placemark>
        <Placemark id="86216">
            <name>Jalan Parahyangan</name>
            <styleUrl>#86217</styleUrl>
            <LineString id="86215">
                <coordinates>107.4813933,-6.8614119,0.0 107.4813249,-6.8614742,0.0</coordinates>
            </LineString>
        </Placemark>
        <Placemark id="86220">
            <name>Jalan Parahyangan</name>
            <styleUrl>#86221</styleUrl>
            <LineString id="86219">
                <coordinates>107.4813249,-6.8614742,0.0 107.4811969,-6.8615991,0.0 107.4810131,-6.8617692,0.0 107.4808213,-6.8619538,0.0 107.4806464,-6.8621116,0.0 107.4805321,-6.862234,0.0 107.4804538,-6.8623138,0.0</coordinates>
            </LineString>
        </Placemark>
        <Placemark id="86224">
            <name>Jalan Parahyangan</name>
            <styleUrl>#86225</styleUrl>
            <LineString id="86223">
                <coordinates>107.4804538,-6.8623138,0.0 107.4803884,-6.8623796,0.0</coordinates>
            </LineString>
        </Placemark>
        <Placemark id="86228">
            <name>Jalan Parahyangan</name>
            <styleUrl>#86229</styleUrl>
            <LineString id="86227">
                <coordinates>107.4803884,-6.8623796,0.0 107.4802647,-6.862522,0.0 107.4801983,-6.8626059,0.0 107.4801124,-6.8627206,0.0 107.4800417,-6.8628164,0.0 107.4798985,-6.8630117,0.0 107.4797441,-6.8632278,0.0 107.4795511,-6.8634814,0.0 107.4793841,-6.8637028,0.0</coordinates>
            </LineString>
        </Placemark>
        <Placemark id="86232">
            <name>Jalan Parahyangan</name>
            <styleUrl>#86233</styleUrl>
            <LineString id="86231">
                <coordinates>107.4793841,-6.8637028,0.0 107.4793117,-6.8637987,0.0</coordinates>
            </LineString>
        </Placemark>
        <Placemark id="86236">
            <name>Jalan Parahyangan</name>
            <styleUrl>#86237</styleUrl>
            <LineString id="86235">
                <coordinates>107.4793117,-6.8637987,0.0 107.479096,-6.8640963,0.0 107.4787391,-6.8645886,0.0</coordinates>
            </LineString>
        </Placemark>
        <Placemark id="86240">
            <name>Jalan Parahyangan</name>
            <styleUrl>#86241</styleUrl>
            <LineString id="86239">
                <coordinates>107.4787391,-6.8645886,0.0 107.4786469,-6.8647061,0.0 107.4783619,-6.8650692,0.0 107.4782844,-6.865168,0.0 107.4781795,-6.8652971,0.0 107.4780592,-6.8654451,0.0 107.4779735,-6.8655351,0.0</coordinates>
            </LineString>
        </Placemark>
        <Placemark id="86244">
            <name>Jalan Parahyangan</name>
            <styleUrl>#86245</styleUrl>
            <LineString id="86243">
                <coordinates>107.4779735,-6.8655351,0.0 107.4779258,-6.8655758,0.0</coordinates>
            </LineString>
        </Placemark>
        <Placemark id="86248">
            <name>Jalan Parahyangan</name>
            <styleUrl>#86249</styleUrl>
            <LineString id="86247">
                <coordinates>107.4779258,-6.8655758,0.0 107.4777507,-6.8656956,0.0 107.4775943,-6.8657819,0.0 107.4772526,-6.8659122,0.0 107.4770978,-6.8659503,0.0</coordinates>
            </LineString>
        </Placemark>
        <Placemark id="86252">
            <name>Route Segment</name>
            <styleUrl>#86253</styleUrl>
            <LineString id="86251">
                <coordinates>107.4651824,-6.8680042,0.0 107.4651845,-6.8682629,0.0</coordinates>
            </LineString>
        </Placemark>
        <Placemark id="86256">
            <name>Route Segment</name>
            <styleUrl>#86257</styleUrl>
            <LineString id="86255">
                <coordinates>107.4651845,-6.8682629,0.0 107.4651852,-6.8683459,0.0 107.4651854,-6.8686619,0.0 107.4652031,-6.86882,0.0</coordinates>
            </LineString>
        </Placemark>
    </Document>
</kml>
