<?xml version="1.0" encoding="UTF-8"?>
<kml xmlns="http://www.opengis.net/kml/2.2" xmlns:gx="http://www.google.com/kml/ext/2.2">
    <Document id="86260">
        <Style id="86266">
            <IconStyle id="86267">
                <colorMode>normal</colorMode>
                <scale>1</scale>
                <heading>0</heading>
                <Icon id="86268">
                    <href>http://maps.google.com/mapfiles/kml/pushpin/ylw-pushpin.png</href>
                </Icon>
            </IconStyle>
        </Style>
        <Style id="86271">
            <IconStyle id="86272">
                <colorMode>normal</colorMode>
                <scale>1</scale>
                <heading>0</heading>
                <Icon id="86273">
                    <href>http://maps.google.com/mapfiles/kml/pushpin/ylw-pushpin.png</href>
                </Icon>
            </IconStyle>
        </Style>
        <Style id="86276">
            <IconStyle id="86277">
                <colorMode>normal</colorMode>
                <scale>1</scale>
                <heading>0</heading>
                <Icon id="86278">
                    <href>http://maps.google.com/mapfiles/kml/pushpin/ylw-pushpin.png</href>
                </Icon>
            </IconStyle>
        </Style>
        <Style id="86281">
            <IconStyle id="86282">
                <colorMode>normal</colorMode>
                <scale>1</scale>
                <heading>0</heading>
                <Icon id="86283">
                    <href>http://maps.google.com/mapfiles/kml/pushpin/ylw-pushpin.png</href>
                </Icon>
            </IconStyle>
        </Style>
        <Style id="86286">
            <IconStyle id="86287">
                <colorMode>normal</colorMode>
                <scale>1</scale>
                <heading>0</heading>
                <Icon id="86288">
                    <href>http://maps.google.com/mapfiles/kml/pushpin/ylw-pushpin.png</href>
                </Icon>
            </IconStyle>
        </Style>
        <Style id="86291">
            <IconStyle id="86292">
                <colorMode>normal</colorMode>
                <scale>1</scale>
                <heading>0</heading>
                <Icon id="86293">
                    <href>http://maps.google.com/mapfiles/kml/pushpin/ylw-pushpin.png</href>
                </Icon>
            </IconStyle>
        </Style>
        <Style id="86296">
            <IconStyle id="86297">
                <colorMode>normal</colorMode>
                <scale>1</scale>
                <heading>0</heading>
                <Icon id="86298">
                    <href>http://maps.google.com/mapfiles/kml/pushpin/ylw-pushpin.png</href>
                </Icon>
            </IconStyle>
        </Style>
        <Style id="86301">
            <IconStyle id="86302">
                <colorMode>normal</colorMode>
                <scale>1</scale>
                <heading>0</heading>
                <Icon id="86303">
                    <href>http://maps.google.com/mapfiles/kml/pushpin/ylw-pushpin.png</href>
                </Icon>
            </IconStyle>
        </Style>
        <Style id="86306">
            <IconStyle id="86307">
                <colorMode>normal</colorMode>
                <scale>1</scale>
                <heading>0</heading>
                <Icon id="86308">
                    <href>http://maps.google.com/mapfiles/kml/pushpin/ylw-pushpin.png</href>
                </Icon>
            </IconStyle>
        </Style>
        <Style id="86311">
            <IconStyle id="86312">
                <colorMode>normal</colorMode>
                <scale>1</scale>
                <heading>0</heading>
                <Icon id="86313">
                    <href>http://maps.google.com/mapfiles/kml/pushpin/ylw-pushpin.png</href>
                </Icon>
            </IconStyle>
        </Style>
        <Style id="86316">
            <IconStyle id="86317">
                <colorMode>normal</colorMode>
                <scale>1</scale>
                <heading>0</heading>
                <Icon id="86318">
                    <href>http://maps.google.com/mapfiles/kml/pushpin/ylw-pushpin.png</href>
                </Icon>
            </IconStyle>
        </Style>
        <Style id="86321">
            <IconStyle id="86322">
                <colorMode>normal</colorMode>
                <scale>1</scale>
                <heading>0</heading>
                <Icon id="86323">
                    <href>http://maps.google.com/mapfiles/kml/pushpin/ylw-pushpin.png</href>
                </Icon>
            </IconStyle>
        </Style>
        <Style id="86326">
            <LineStyle id="86327">
                <color>ffa5492c</color>
                <colorMode>normal</colorMode>
                <width>4</width>
            </LineStyle>
        </Style>
        <Style id="86330">
            <LineStyle id="86331">
                <color>ffa5492c</color>
                <colorMode>normal</colorMode>
                <width>4</width>
            </LineStyle>
        </Style>
        <Style id="86334">
            <LineStyle id="86335">
                <color>ffa5492c</color>
                <colorMode>normal</colorMode>
                <width>4</width>
            </LineStyle>
        </Style>
        <Style id="86338">
            <LineStyle id="86339">
                <color>ffa5492c</color>
                <colorMode>normal</colorMode>
                <width>4</width>
            </LineStyle>
        </Style>
        <Style id="86342">
            <LineStyle id="86343">
                <color>ffa5492c</color>
                <colorMode>normal</colorMode>
                <width>4</width>
            </LineStyle>
        </Style>
        <Style id="86346">
            <LineStyle id="86347">
                <color>ffa5492c</color>
                <colorMode>normal</colorMode>
                <width>4</width>
            </LineStyle>
        </Style>
        <Style id="86350">
            <LineStyle id="86351">
                <color>ffa5492c</color>
                <colorMode>normal</colorMode>
                <width>4</width>
            </LineStyle>
        </Style>
        <Style id="86354">
            <LineStyle id="86355">
                <color>ffa5492c</color>
                <colorMode>normal</colorMode>
                <width>4</width>
            </LineStyle>
        </Style>
        <Style id="86358">
            <LineStyle id="86359">
                <color>ffa5492c</color>
                <colorMode>normal</colorMode>
                <width>4</width>
            </LineStyle>
        </Style>
        <Style id="86362">
            <LineStyle id="86363">
                <color>ffa5492c</color>
                <colorMode>normal</colorMode>
                <width>4</width>
            </LineStyle>
        </Style>
        <Style id="86366">
            <LineStyle id="86367">
                <color>ffa5492c</color>
                <colorMode>normal</colorMode>
                <width>4</width>
            </LineStyle>
        </Style>
        <Style id="86370">
            <LineStyle id="86371">
                <color>ffa5492c</color>
                <colorMode>normal</colorMode>
                <width>4</width>
            </LineStyle>
        </Style>
        <Style id="86374">
            <LineStyle id="86375">
                <color>ffa5492c</color>
                <colorMode>normal</colorMode>
                <width>4</width>
            </LineStyle>
        </Style>
        <Style id="86378">
            <LineStyle id="86379">
                <color>ffa5492c</color>
                <colorMode>normal</colorMode>
                <width>4</width>
            </LineStyle>
        </Style>
        <Style id="86382">
            <LineStyle id="86383">
                <color>ffa5492c</color>
                <colorMode>normal</colorMode>
                <width>4</width>
            </LineStyle>
        </Style>
        <Style id="86386">
            <LineStyle id="86387">
                <color>ffa5492c</color>
                <colorMode>normal</colorMode>
                <width>4</width>
            </LineStyle>
        </Style>
        <Style id="86390">
            <LineStyle id="86391">
                <color>ffa5492c</color>
                <colorMode>normal</colorMode>
                <width>4</width>
            </LineStyle>
        </Style>
        <Style id="86394">
            <LineStyle id="86395">
                <color>ffa5492c</color>
                <colorMode>normal</colorMode>
                <width>4</width>
            </LineStyle>
        </Style>
        <Style id="86398">
            <LineStyle id="86399">
                <color>ffa5492c</color>
                <colorMode>normal</colorMode>
                <width>4</width>
            </LineStyle>
        </Style>
        <Style id="86402">
            <LineStyle id="86403">
                <color>ffa5492c</color>
                <colorMode>normal</colorMode>
                <width>4</width>
            </LineStyle>
        </Style>
        <Style id="86406">
            <LineStyle id="86407">
                <color>ffa5492c</color>
                <colorMode>normal</colorMode>
                <width>4</width>
            </LineStyle>
        </Style>
        <Style id="86410">
            <LineStyle id="86411">
                <color>ffa5492c</color>
                <colorMode>normal</colorMode>
                <width>4</width>
            </LineStyle>
        </Style>
        <Style id="86414">
            <LineStyle id="86415">
                <color>ffa5492c</color>
                <colorMode>normal</colorMode>
                <width>4</width>
            </LineStyle>
        </Style>
        <Style id="86418">
            <LineStyle id="86419">
                <color>ffa5492c</color>
                <colorMode>normal</colorMode>
                <width>4</width>
            </LineStyle>
        </Style>
        <Style id="86422">
            <LineStyle id="86423">
                <color>ffa5492c</color>
                <colorMode>normal</colorMode>
                <width>4</width>
            </LineStyle>
        </Style>
        <Style id="86426">
            <LineStyle id="86427">
                <color>ffa5492c</color>
                <colorMode>normal</colorMode>
                <width>4</width>
            </LineStyle>
        </Style>
        <Style id="86430">
            <LineStyle id="86431">
                <color>ffa5492c</color>
                <colorMode>normal</colorMode>
                <width>4</width>
            </LineStyle>
        </Style>
        <Style id="86434">
            <LineStyle id="86435">
                <color>ffa5492c</color>
                <colorMode>normal</colorMode>
                <width>4</width>
            </LineStyle>
        </Style>
        <Style id="86438">
            <LineStyle id="86439">
                <color>ffa5492c</color>
                <colorMode>normal</colorMode>
                <width>4</width>
            </LineStyle>
        </Style>
        <Style id="86442">
            <LineStyle id="86443">
                <color>ffa5492c</color>
                <colorMode>normal</colorMode>
                <width>4</width>
            </LineStyle>
        </Style>
        <Style id="86446">
            <LineStyle id="86447">
                <color>ffa5492c</color>
                <colorMode>normal</colorMode>
                <width>4</width>
            </LineStyle>
        </Style>
        <Style id="86450">
            <LineStyle id="86451">
                <color>ffa5492c</color>
                <colorMode>normal</colorMode>
                <width>4</width>
            </LineStyle>
        </Style>
        <Style id="86454">
            <LineStyle id="86455">
                <color>ffa5492c</color>
                <colorMode>normal</colorMode>
                <width>4</width>
            </LineStyle>
        </Style>
        <Style id="86458">
            <LineStyle id="86459">
                <color>ffa5492c</color>
                <colorMode>normal</colorMode>
                <width>4</width>
            </LineStyle>
        </Style>
        <Style id="86462">
            <LineStyle id="86463">
                <color>ffa5492c</color>
                <colorMode>normal</colorMode>
                <width>4</width>
            </LineStyle>
        </Style>
        <Style id="86466">
            <LineStyle id="86467">
                <color>ffa5492c</color>
                <colorMode>normal</colorMode>
                <width>4</width>
            </LineStyle>
        </Style>
        <Style id="86470">
            <LineStyle id="86471">
                <color>ffa5492c</color>
                <colorMode>normal</colorMode>
                <width>4</width>
            </LineStyle>
        </Style>
        <Style id="86474">
            <LineStyle id="86475">
                <color>ffa5492c</color>
                <colorMode>normal</colorMode>
                <width>4</width>
            </LineStyle>
        </Style>
        <Style id="86478">
            <LineStyle id="86479">
                <color>ffa5492c</color>
                <colorMode>normal</colorMode>
                <width>4</width>
            </LineStyle>
        </Style>
        <Style id="86482">
            <LineStyle id="86483">
                <color>ffa5492c</color>
                <colorMode>normal</colorMode>
                <width>4</width>
            </LineStyle>
        </Style>
        <Style id="86486">
            <LineStyle id="86487">
                <color>ffa5492c</color>
                <colorMode>normal</colorMode>
                <width>4</width>
            </LineStyle>
        </Style>
        <Style id="86490">
            <LineStyle id="86491">
                <color>ffa5492c</color>
                <colorMode>normal</colorMode>
                <width>4</width>
            </LineStyle>
        </Style>
        <Style id="86494">
            <LineStyle id="86495">
                <color>ffa5492c</color>
                <colorMode>normal</colorMode>
                <width>4</width>
            </LineStyle>
        </Style>
        <Style id="86498">
            <LineStyle id="86499">
                <color>ffa5492c</color>
                <colorMode>normal</colorMode>
                <width>4</width>
            </LineStyle>
        </Style>
        <Style id="86502">
            <LineStyle id="86503">
                <color>ffa5492c</color>
                <colorMode>normal</colorMode>
                <width>4</width>
            </LineStyle>
        </Style>
        <Style id="86506">
            <LineStyle id="86507">
                <color>ffa5492c</color>
                <colorMode>normal</colorMode>
                <width>4</width>
            </LineStyle>
        </Style>
        <Style id="86510">
            <LineStyle id="86511">
                <color>ffa5492c</color>
                <colorMode>normal</colorMode>
                <width>4</width>
            </LineStyle>
        </Style>
        <Style id="86514">
            <LineStyle id="86515">
                <color>ffa5492c</color>
                <colorMode>normal</colorMode>
                <width>4</width>
            </LineStyle>
        </Style>
        <Style id="86518">
            <LineStyle id="86519">
                <color>ffa5492c</color>
                <colorMode>normal</colorMode>
                <width>4</width>
            </LineStyle>
        </Style>
        <Style id="86522">
            <LineStyle id="86523">
                <color>ffa5492c</color>
                <colorMode>normal</colorMode>
                <width>4</width>
            </LineStyle>
        </Style>
        <Style id="86526">
            <LineStyle id="86527">
                <color>ffa5492c</color>
                <colorMode>normal</colorMode>
                <width>4</width>
            </LineStyle>
        </Style>
        <Style id="86530">
            <LineStyle id="86531">
                <color>ffa5492c</color>
                <colorMode>normal</colorMode>
                <width>4</width>
            </LineStyle>
        </Style>
        <Style id="86534">
            <LineStyle id="86535">
                <color>ffa5492c</color>
                <colorMode>normal</colorMode>
                <width>4</width>
            </LineStyle>
        </Style>
        <Style id="86538">
            <LineStyle id="86539">
                <color>ffa5492c</color>
                <colorMode>normal</colorMode>
                <width>4</width>
            </LineStyle>
        </Style>
        <Style id="86542">
            <LineStyle id="86543">
                <color>ffa5492c</color>
                <colorMode>normal</colorMode>
                <width>4</width>
            </LineStyle>
        </Style>
        <Style id="86546">
            <LineStyle id="86547">
                <color>ffa5492c</color>
                <colorMode>normal</colorMode>
                <width>4</width>
            </LineStyle>
        </Style>
        <Style id="86550">
            <LineStyle id="86551">
                <color>ffa5492c</color>
                <colorMode>normal</colorMode>
                <width>4</width>
            </LineStyle>
        </Style>
        <Style id="86554">
            <LineStyle id="86555">
                <color>ffa5492c</color>
                <colorMode>normal</colorMode>
                <width>4</width>
            </LineStyle>
        </Style>
        <Style id="86558">
            <LineStyle id="86559">
                <color>ffa5492c</color>
                <colorMode>normal</colorMode>
                <width>4</width>
            </LineStyle>
        </Style>
        <Style id="86562">
            <LineStyle id="86563">
                <color>ffa5492c</color>
                <colorMode>normal</colorMode>
                <width>4</width>
            </LineStyle>
        </Style>
        <Style id="86566">
            <LineStyle id="86567">
                <color>ffa5492c</color>
                <colorMode>normal</colorMode>
                <width>4</width>
            </LineStyle>
        </Style>
        <Style id="86570">
            <LineStyle id="86571">
                <color>ffa5492c</color>
                <colorMode>normal</colorMode>
                <width>4</width>
            </LineStyle>
        </Style>
        <Style id="86574">
            <LineStyle id="86575">
                <color>ffa5492c</color>
                <colorMode>normal</colorMode>
                <width>4</width>
            </LineStyle>
        </Style>
        <Style id="86578">
            <LineStyle id="86579">
                <color>ffa5492c</color>
                <colorMode>normal</colorMode>
                <width>4</width>
            </LineStyle>
        </Style>
        <Style id="86582">
            <LineStyle id="86583">
                <color>ffa5492c</color>
                <colorMode>normal</colorMode>
                <width>4</width>
            </LineStyle>
        </Style>
        <Style id="86586">
            <LineStyle id="86587">
                <color>ffa5492c</color>
                <colorMode>normal</colorMode>
                <width>4</width>
            </LineStyle>
        </Style>
        <ExtendedData>
            <Data name="route-name">
                <value>KBP: EV</value>
            </Data>
            <Data name="source">
                <value>Transport for Bandung</value>
            </Data>
        </ExtendedData>
        <Placemark id="86265">
            <name>Bumi Hejo</name>
            <styleUrl>#86266</styleUrl>
            <Point id="86264">
                <coordinates>107.4649146,-6.8667302,0.0</coordinates>
            </Point>
        </Placemark>
        <Placemark id="86270">
            <name>Bumi Hejo</name>
            <styleUrl>#86271</styleUrl>
            <Point id="86269">
                <coordinates>107.4649146,-6.8667302,0.0</coordinates>
            </Point>
        </Placemark>
        <Placemark id="86275">
            <name>Parahyangan Timur</name>
            <styleUrl>#86276</styleUrl>
            <Point id="86274">
                <coordinates>107.4712124,-6.8663744,0.0</coordinates>
            </Point>
        </Placemark>
        <Placemark id="86280">
            <name>Tatar Pitaloka (Parahyangan Selatan)</name>
            <styleUrl>#86281</styleUrl>
            <Point id="86279">
                <coordinates>107.4738005,-6.8665457,0.0</coordinates>
            </Point>
        </Placemark>
        <Placemark id="86285">
            <name>Masjid Al Irsyad</name>
            <styleUrl>#86286</styleUrl>
            <Point id="86284">
                <coordinates>107.4783521,-6.8648529,0.0</coordinates>
            </Point>
        </Placemark>
        <Placemark id="86290">
            <name>Tatar Wangsakerta A</name>
            <styleUrl>#86291</styleUrl>
            <Point id="86289">
                <coordinates>107.4805786,-6.8619949,0.0</coordinates>
            </Point>
        </Placemark>
        <Placemark id="86295">
            <name>Wahoo Waterworld</name>
            <styleUrl>#86296</styleUrl>
            <Point id="86294">
                <coordinates>107.4654195,-6.8655811,0.0</coordinates>
            </Point>
        </Placemark>
        <Placemark id="86300">
            <name>Ratnasasih</name>
            <styleUrl>#86301</styleUrl>
            <Point id="86299">
                <coordinates>107.4688418,-6.8689266,0.0</coordinates>
            </Point>
        </Placemark>
        <Placemark id="86305">
            <name>BTD</name>
            <styleUrl>#86306</styleUrl>
            <Point id="86304">
                <coordinates>107.4678358,-6.8724813,0.0</coordinates>
            </Point>
        </Placemark>
        <Placemark id="86310">
            <name>Sasakirana</name>
            <styleUrl>#86311</styleUrl>
            <Point id="86309">
                <coordinates>107.4552151,-6.8672935,0.0</coordinates>
            </Point>
        </Placemark>
        <Placemark id="86315">
            <name>Bumi Hejo</name>
            <styleUrl>#86316</styleUrl>
            <Point id="86314">
                <coordinates>107.4649146,-6.8667302,0.0</coordinates>
            </Point>
        </Placemark>
        <Placemark id="86320">
            <name>Bumi Hejo</name>
            <styleUrl>#86321</styleUrl>
            <Point id="86319">
                <coordinates>107.4649146,-6.8667302,0.0</coordinates>
            </Point>
        </Placemark>
        <Placemark id="86325">
            <name>Jalan Parahyangan</name>
            <styleUrl>#86326</styleUrl>
            <LineString id="86324">
                <coordinates>107.4698236,-6.8663608,0.0 107.4709548,-6.8663543,0.0 107.4710013,-6.8663564,0.0 107.4712124,-6.8663744,0.0 107.4715875,-6.8664065,0.0 107.4724782,-6.8666043,0.0 107.4727666,-6.8666285,0.0 107.4730216,-6.8666102,0.0 107.4732532,-6.8665769,0.0 107.4734039,-6.8665328,0.0 107.473782,-6.8664222,0.0 107.4743417,-6.8662699,0.0 107.4746263,-6.8661924,0.0 107.4748755,-6.8661558,0.0 107.4750387,-6.866138,0.0 107.4751899,-6.8661306,0.0 107.4752676,-6.8661302,0.0 107.4760018,-6.8660868,0.0 107.4764356,-6.866007,0.0</coordinates>
            </LineString>
        </Placemark>
        <Placemark id="86329">
            <name>Jalan Parahyangan</name>
            <styleUrl>#86330</styleUrl>
            <LineString id="86328">
                <coordinates>107.4764906,-6.8660919,0.0 107.4764003,-6.8661102,0.0 107.4760503,-6.8661814,0.0 107.4758131,-6.8662008,0.0 107.4752685,-6.8662352,0.0 107.4750467,-6.8662477,0.0 107.4749505,-6.8662547,0.0 107.4747528,-6.8662824,0.0 107.4745355,-6.8663356,0.0 107.4743769,-6.8663823,0.0 107.4742297,-6.8664256,0.0 107.4741165,-6.8664584,0.0 107.4738005,-6.8665457,0.0 107.4733795,-6.866662,0.0 107.4732314,-6.8667011,0.0 107.4731329,-6.8667115,0.0 107.4728191,-6.8667448,0.0 107.4727802,-6.8667489,0.0 107.4727473,-6.8667463,0.0 107.472457,-6.8667231,0.0 107.4722222,-6.8666793,0.0 107.4714992,-6.8665354,0.0 107.4709936,-6.8664781,0.0 107.4705404,-6.8664688,0.0 107.4699717,-6.8664623,0.0 107.4698331,-6.8664607,0.0</coordinates>
            </LineString>
        </Placemark>
        <Placemark id="86333">
            <name>Jalan Parahyangan</name>
            <styleUrl>#86334</styleUrl>
            <LineString id="86332">
                <coordinates>107.4698331,-6.8664607,0.0 107.469214,-6.8664584,0.0</coordinates>
            </LineString>
        </Placemark>
        <Placemark id="86337">
            <name>Jalan Parahyangan</name>
            <styleUrl>#86338</styleUrl>
            <LineString id="86336">
                <coordinates>107.4764356,-6.866007,0.0 107.4770717,-6.8658522,0.0</coordinates>
            </LineString>
        </Placemark>
        <Placemark id="86341">
            <name>Jalan Parahyangan</name>
            <styleUrl>#86342</styleUrl>
            <LineString id="86340">
                <coordinates>107.4770978,-6.8659503,0.0 107.4764906,-6.8660919,0.0</coordinates>
            </LineString>
        </Placemark>
        <Placemark id="86345">
            <name>Jalan Parahyangan</name>
            <styleUrl>#86346</styleUrl>
            <LineString id="86344">
                <coordinates>107.4692162,-6.8663547,0.0 107.4698236,-6.8663608,0.0</coordinates>
            </LineString>
        </Placemark>
        <Placemark id="86349">
            <name>Jalan Parahyangan</name>
            <styleUrl>#86350</styleUrl>
            <LineString id="86348">
                <coordinates>107.4770717,-6.8658522,0.0 107.4771828,-6.865811,0.0 107.4774403,-6.8657151,0.0 107.4776325,-6.8656175,0.0 107.477789,-6.8655128,0.0 107.4778845,-6.8654372,0.0</coordinates>
            </LineString>
        </Placemark>
        <Placemark id="86353">
            <name>Jalan Gelap Nyawang</name>
            <styleUrl>#86354</styleUrl>
            <LineString id="86352">
                <coordinates>107.4688015,-6.8679657,0.0 107.4688041,-6.8680378,0.0 107.4688165,-6.8682772,0.0 107.4688418,-6.8689266,0.0 107.4688475,-6.869072,0.0 107.4688667,-6.8693437,0.0 107.4688901,-6.8695299,0.0 107.4689433,-6.8697239,0.0 107.4690063,-6.8699025,0.0 107.4690661,-6.87007,0.0 107.4692782,-6.8705199,0.0 107.4694,-6.8707198,0.0 107.4695696,-6.8709496,0.0 107.4697228,-6.8711371,0.0 107.4699347,-6.8713528,0.0 107.4702941,-6.8716614,0.0 107.4704103,-6.8717543,0.0 107.4704417,-6.8718028,0.0 107.470442,-6.871834,0.0 107.4704379,-6.8718671,0.0</coordinates>
            </LineString>
        </Placemark>
        <Placemark id="86357">
            <name>Jalan Guru Gantangan</name>
            <styleUrl>#86358</styleUrl>
            <LineString id="86356">
                <coordinates>107.4672411,-6.872249,0.0 107.46721,-6.8721651,0.0 107.4671039,-6.871909,0.0 107.4670794,-6.8718558,0.0 107.467055,-6.8718159,0.0 107.4670239,-6.8717845,0.0 107.4669878,-6.8717677,0.0 107.4669503,-6.8717565,0.0 107.4668402,-6.8717492,0.0 107.4667984,-6.8717498,0.0</coordinates>
            </LineString>
        </Placemark>
        <Placemark id="86361">
            <name>Route Segment</name>
            <styleUrl>#86362</styleUrl>
            <LineString id="86360">
                <coordinates>107.4652031,-6.86882,0.0 107.4652375,-6.868981,0.0 107.4652818,-6.8691115,0.0 107.4653757,-6.8693165,0.0 107.4655768,-6.8695895,0.0 107.4658008,-6.8697999,0.0 107.4661052,-6.8700435,0.0 107.4664056,-6.8703138,0.0 107.4664351,-6.8703548,0.0 107.4664579,-6.8704044,0.0 107.4667841,-6.8711906,0.0 107.4668487,-6.8713463,0.0</coordinates>
            </LineString>
        </Placemark>
        <Placemark id="86365">
            <name>Jalan Parahyangan</name>
            <styleUrl>#86366</styleUrl>
            <LineString id="86364">
                <coordinates>107.4579953,-6.8652266,0.0 107.4603027,-6.8647413,0.0</coordinates>
            </LineString>
        </Placemark>
        <Placemark id="86369">
            <name>Jalan Parahyangan</name>
            <styleUrl>#86370</styleUrl>
            <LineString id="86368">
                <coordinates>107.4547777,-6.8675238,0.0 107.4551943,-6.8671799,0.0 107.4554544,-6.8669651,0.0 107.4558462,-6.866646,0.0 107.4566384,-6.8659985,0.0 107.4569475,-6.8657482,0.0 107.4570762,-6.8656464,0.0 107.4572285,-6.8655425,0.0 107.4574135,-6.865428,0.0 107.4574967,-6.8653793,0.0 107.4576053,-6.8653434,0.0 107.457721,-6.8653011,0.0 107.4578266,-6.8652689,0.0 107.4579114,-6.8652446,0.0 107.4579953,-6.8652266,0.0</coordinates>
            </LineString>
        </Placemark>
        <Placemark id="86373">
            <name>Jalan Parahyangan</name>
            <styleUrl>#86374</styleUrl>
            <LineString id="86372">
                <coordinates>107.4603308,-6.8648237,0.0 107.4580169,-6.8653102,0.0</coordinates>
            </LineString>
        </Placemark>
        <Placemark id="86377">
            <name>Jalan Parahyangan</name>
            <styleUrl>#86378</styleUrl>
            <LineString id="86376">
                <coordinates>107.4580169,-6.8653102,0.0 107.4578675,-6.8653461,0.0 107.4576938,-6.86541,0.0 107.4575664,-6.8654613,0.0 107.4574464,-6.8655205,0.0 107.4572962,-6.8656104,0.0 107.4571198,-6.8657362,0.0 107.4566987,-6.8660691,0.0 107.4562273,-6.8664605,0.0 107.456039,-6.8666216,0.0 107.4559089,-6.8667283,0.0 107.4558572,-6.8667712,0.0 107.4557841,-6.8668311,0.0 107.4556229,-6.8669568,0.0 107.4555429,-6.8670231,0.0 107.4553267,-6.8672014,0.0 107.4552151,-6.8672935,0.0 107.4550057,-6.8674663,0.0 107.4548416,-6.8676017,0.0</coordinates>
            </LineString>
        </Placemark>
        <Placemark id="86381">
            <name>Route Segment</name>
            <styleUrl>#86382</styleUrl>
            <LineString id="86380">
                <coordinates>107.4633398,-6.864904,0.0 107.4632585,-6.8650059,0.0 107.4631703,-6.8650632,0.0 107.463069,-6.8650921,0.0 107.4629637,-6.8650901,0.0 107.4628636,-6.8650574,0.0</coordinates>
            </LineString>
        </Placemark>
        <Placemark id="86385">
            <name>Jalan Guru Gantangan</name>
            <styleUrl>#86386</styleUrl>
            <LineString id="86384">
                <coordinates>107.4704379,-6.8718671,0.0 107.4702358,-6.8721513,0.0 107.4699931,-6.8724162,0.0 107.469922,-6.8724575,0.0 107.4698429,-6.8724841,0.0 107.4693895,-6.8724926,0.0 107.4689789,-6.8724922,0.0 107.4687028,-6.8724956,0.0 107.4685734,-6.8724928,0.0 107.4684335,-6.8724906,0.0 107.4678358,-6.8724813,0.0 107.4677621,-6.8724803,0.0 107.4676155,-6.8724774,0.0 107.467515,-6.8724523,0.0 107.4674503,-6.8724309,0.0 107.4673945,-6.8723999,0.0 107.467319,-6.8723378,0.0 107.4672411,-6.872249,0.0</coordinates>
            </LineString>
        </Placemark>
        <Placemark id="86389">
            <name>Jalan Gelap Nyawang</name>
            <styleUrl>#86390</styleUrl>
            <LineString id="86388">
                <coordinates>107.4687696,-6.8664642,0.0 107.468775,-6.8667184,0.0 107.4688015,-6.8679657,0.0</coordinates>
            </LineString>
        </Placemark>
        <Placemark id="86393">
            <name>Route Segment</name>
            <styleUrl>#86394</styleUrl>
            <LineString id="86392">
                <coordinates>107.454866,-6.8676535,0.0 107.4548806,-6.8677087,0.0 107.4548852,-6.8677657,0.0 107.4548795,-6.8678226,0.0 107.4548638,-6.8678776,0.0 107.4548384,-6.8679289,0.0 107.4548043,-6.8679749,0.0 107.4547624,-6.8680142,0.0</coordinates>
            </LineString>
        </Placemark>
        <Placemark id="86397">
            <name>Jalan Parahyangan</name>
            <styleUrl>#86398</styleUrl>
            <LineString id="86396">
                <coordinates>107.4633741,-6.8648197,0.0 107.4634031,-6.864828,0.0 107.4634779,-6.8648561,0.0 107.4640054,-6.8650609,0.0 107.4644707,-6.8652401,0.0 107.4652002,-6.8654997,0.0 107.4654195,-6.8655811,0.0 107.4655745,-6.8656434,0.0 107.4658465,-6.8657528,0.0 107.4662287,-6.8658962,0.0</coordinates>
            </LineString>
        </Placemark>
        <Placemark id="86401">
            <name>Jalan Parahyangan</name>
            <styleUrl>#86402</styleUrl>
            <LineString id="86400">
                <coordinates>107.4603027,-6.8647413,0.0 107.4608548,-6.8646004,0.0 107.4612142,-6.8645459,0.0 107.4615079,-6.8645259,0.0 107.4621872,-6.8645432,0.0 107.4624111,-6.8645685,0.0 107.4625406,-6.8645997,0.0 107.462684,-6.8646423,0.0</coordinates>
            </LineString>
        </Placemark>
        <Placemark id="86405">
            <name>Jalan Parahyangan</name>
            <styleUrl>#86406</styleUrl>
            <LineString id="86404">
                <coordinates>107.462669,-6.8647455,0.0 107.4625226,-6.8647032,0.0 107.4622697,-6.8646444,0.0 107.4622096,-6.864641,0.0 107.4620962,-6.8646307,0.0 107.4618928,-6.8646331,0.0 107.4615173,-6.8646424,0.0 107.4612451,-6.864663,0.0 107.4610499,-6.864687,0.0 107.4603308,-6.8648237,0.0</coordinates>
            </LineString>
        </Placemark>
        <Placemark id="86409">
            <name>Jalan Parahyangan</name>
            <styleUrl>#86410</styleUrl>
            <LineString id="86408">
                <coordinates>107.4687633,-6.8663594,0.0 107.468989,-6.8663525,0.0 107.4692162,-6.8663547,0.0</coordinates>
            </LineString>
        </Placemark>
        <Placemark id="86413">
            <name>Route Segment</name>
            <styleUrl>#86414</styleUrl>
            <LineString id="86412">
                <coordinates>107.462684,-6.8646423,0.0 107.4627379,-6.8645388,0.0 107.4628188,-6.8644565,0.0 107.4629242,-6.8644061,0.0 107.4630403,-6.8643926,0.0 107.4631545,-6.8644173,0.0 107.4632637,-6.864486,0.0 107.4633409,-6.864589,0.0 107.4633756,-6.8647126,0.0 107.4633741,-6.8648197,0.0</coordinates>
            </LineString>
        </Placemark>
        <Placemark id="86417">
            <name>Jalan Parahyangan</name>
            <styleUrl>#86418</styleUrl>
            <LineString id="86416">
                <coordinates>107.469214,-6.8664584,0.0 107.4690056,-6.8664556,0.0 107.4689918,-6.8664562,0.0 107.4687696,-6.8664642,0.0</coordinates>
            </LineString>
        </Placemark>
        <Placemark id="86421">
            <name>Route Segment</name>
            <styleUrl>#86422</styleUrl>
            <LineString id="86420">
                <coordinates>107.4650085,-6.8666681,0.0 107.4650977,-6.8666666,0.0 107.4651877,-6.8666654,0.0</coordinates>
            </LineString>
        </Placemark>
        <Placemark id="86425">
            <name>Jalan Parahyangan</name>
            <styleUrl>#86426</styleUrl>
            <LineString id="86424">
                <coordinates>107.4652055,-6.8656256,0.0 107.4646954,-6.8654179,0.0 107.4640445,-6.8651709,0.0 107.4635435,-6.8649769,0.0 107.4634518,-6.86494,0.0 107.4633398,-6.864904,0.0</coordinates>
            </LineString>
        </Placemark>
        <Placemark id="86429">
            <name>Jalan Parahyangan</name>
            <styleUrl>#86430</styleUrl>
            <LineString id="86428">
                <coordinates>107.4662287,-6.8658962,0.0 107.4671162,-6.8661259,0.0 107.4678673,-6.8662864,0.0 107.4684174,-6.8663596,0.0 107.4685065,-6.8663602,0.0 107.4685804,-6.8663605,0.0 107.46866,-6.8663613,0.0</coordinates>
            </LineString>
        </Placemark>
        <Placemark id="86433">
            <name>Jalan Parahyangan</name>
            <styleUrl>#86434</styleUrl>
            <LineString id="86432">
                <coordinates>107.46866,-6.8663613,0.0 107.4687633,-6.8663594,0.0</coordinates>
            </LineString>
        </Placemark>
        <Placemark id="86437">
            <name>Route Segment</name>
            <styleUrl>#86438</styleUrl>
            <LineString id="86436">
                <coordinates>107.4651865,-6.8667329,0.0 107.4650979,-6.8667335,0.0 107.465008,-6.8667331,0.0</coordinates>
            </LineString>
        </Placemark>
        <Placemark id="86441">
            <name>Route Segment</name>
            <styleUrl>#86442</styleUrl>
            <LineString id="86440">
                <coordinates>107.4667984,-6.8717498,0.0 107.4668179,-6.8716824,0.0 107.4668354,-6.8716144,0.0 107.46684,-6.8715969,0.0 107.4668598,-6.8715273,0.0 107.4668622,-6.8714728,0.0 107.4668552,-6.8714311,0.0 107.4668479,-6.8714104,0.0 107.466846,-6.8713896,0.0 107.4668487,-6.8713463,0.0</coordinates>
            </LineString>
        </Placemark>
        <Placemark id="86445">
            <name>Route Segment</name>
            <styleUrl>#86446</styleUrl>
            <LineString id="86444">
                <coordinates>107.4649017,-6.8671823,0.0 107.4648992,-6.8670177,0.0 107.4648966,-6.8668494,0.0</coordinates>
            </LineString>
        </Placemark>
        <Placemark id="86449">
            <name>Route Segment</name>
            <styleUrl>#86450</styleUrl>
            <LineString id="86448">
                <coordinates>107.4648966,-6.8668494,0.0 107.4648979,-6.8668332,0.0 107.4649027,-6.866816,0.0 107.4649119,-6.8667817,0.0 107.4649141,-6.8667626,0.0 107.4649146,-6.8667302,0.0</coordinates>
            </LineString>
        </Placemark>
        <Placemark id="86453">
            <name>Route Segment</name>
            <styleUrl>#86454</styleUrl>
            <LineString id="86452">
                <coordinates>107.4650111,-6.8672156,0.0 107.4649434,-6.8672146,0.0 107.4649197,-6.8672083,0.0 107.4649055,-6.8671969,0.0 107.4649017,-6.8671823,0.0</coordinates>
            </LineString>
        </Placemark>
        <Placemark id="86457">
            <name>Route Segment</name>
            <styleUrl>#86458</styleUrl>
            <LineString id="86456">
                <coordinates>107.4649146,-6.8667302,0.0 107.4648659,-6.8666802,0.0 107.4648606,-6.8666679,0.0</coordinates>
            </LineString>
        </Placemark>
        <Placemark id="86461">
            <name>Route Segment</name>
            <styleUrl>#86462</styleUrl>
            <LineString id="86460">
                <coordinates>107.4648606,-6.8666679,0.0 107.4650085,-6.8666681,0.0</coordinates>
            </LineString>
        </Placemark>
        <Placemark id="86465">
            <name>Route Segment</name>
            <styleUrl>#86466</styleUrl>
            <LineString id="86464">
                <coordinates>107.4652055,-6.8656256,0.0 107.4651998,-6.8660037,0.0 107.4651899,-6.8665505,0.0 107.4651877,-6.8666654,0.0</coordinates>
            </LineString>
        </Placemark>
        <Placemark id="86469">
            <name>Route Segment</name>
            <styleUrl>#86470</styleUrl>
            <LineString id="86468">
                <coordinates>107.4650111,-6.8672156,0.0 107.465008,-6.8667331,0.0</coordinates>
            </LineString>
        </Placemark>
        <Placemark id="86473">
            <name>Route Segment</name>
            <styleUrl>#86474</styleUrl>
            <LineString id="86472">
                <coordinates>107.4628636,-6.8650574,0.0 107.462761,-6.8649799,0.0 107.4626867,-6.8648702,0.0 107.462669,-6.8647455,0.0</coordinates>
            </LineString>
        </Placemark>
        <Placemark id="86477">
            <name>Route Segment</name>
            <styleUrl>#86478</styleUrl>
            <LineString id="86476">
                <coordinates>107.4548416,-6.8676017,0.0 107.454866,-6.8676535,0.0</coordinates>
            </LineString>
        </Placemark>
        <Placemark id="86481">
            <name>Route Segment</name>
            <styleUrl>#86482</styleUrl>
            <LineString id="86480">
                <coordinates>107.4547624,-6.8680142,0.0 107.4547115,-6.8680468,0.0 107.4546554,-6.8680695,0.0 107.454596,-6.8680813,0.0 107.4545354,-6.8680819,0.0 107.4544757,-6.8680713,0.0 107.4544191,-6.8680497,0.0 107.4543676,-6.8680181,0.0 107.4543229,-6.8679774,0.0 107.4542867,-6.8679292,0.0</coordinates>
            </LineString>
        </Placemark>
        <Placemark id="86485">
            <name>Route Segment</name>
            <styleUrl>#86486</styleUrl>
            <LineString id="86484">
                <coordinates>107.4542867,-6.8679292,0.0 107.4542578,-6.8678685,0.0 107.4542422,-6.8678031,0.0</coordinates>
            </LineString>
        </Placemark>
        <Placemark id="86489">
            <name>Route Segment</name>
            <styleUrl>#86490</styleUrl>
            <LineString id="86488">
                <coordinates>107.4542422,-6.8678031,0.0 107.4542398,-6.8677735,0.0</coordinates>
            </LineString>
        </Placemark>
        <Placemark id="86493">
            <name>Route Segment</name>
            <styleUrl>#86494</styleUrl>
            <LineString id="86492">
                <coordinates>107.4542398,-6.8677735,0.0 107.4542404,-6.8677411,0.0 107.4542442,-6.867709,0.0 107.4542513,-6.8676774,0.0 107.4542615,-6.8676467,0.0</coordinates>
            </LineString>
        </Placemark>
        <Placemark id="86497">
            <name>Route Segment</name>
            <styleUrl>#86498</styleUrl>
            <LineString id="86496">
                <coordinates>107.4542615,-6.8676467,0.0 107.4542741,-6.8676185,0.0 107.4542895,-6.8675916,0.0 107.4543073,-6.8675663,0.0 107.4543275,-6.8675428,0.0 107.45435,-6.8675213,0.0</coordinates>
            </LineString>
        </Placemark>
        <Placemark id="86501">
            <name>Route Segment</name>
            <styleUrl>#86502</styleUrl>
            <LineString id="86500">
                <coordinates>107.45435,-6.8675213,0.0 107.4543984,-6.8674866,0.0 107.4544525,-6.8674613,0.0 107.4545104,-6.8674463,0.0 107.45457,-6.8674422,0.0 107.4546294,-6.8674491,0.0 107.4546865,-6.8674667,0.0</coordinates>
            </LineString>
        </Placemark>
        <Placemark id="86505">
            <name>Route Segment</name>
            <styleUrl>#86506</styleUrl>
            <LineString id="86504">
                <coordinates>107.4546865,-6.8674667,0.0 107.4547345,-6.8674915,0.0 107.4547777,-6.8675238,0.0</coordinates>
            </LineString>
        </Placemark>
        <Placemark id="86509">
            <name>Jalan Parahyangan</name>
            <styleUrl>#86510</styleUrl>
            <LineString id="86508">
                <coordinates>107.4813933,-6.8614119,0.0 107.4813249,-6.8614742,0.0</coordinates>
            </LineString>
        </Placemark>
        <Placemark id="86513">
            <name>Jalan Parahyangan</name>
            <styleUrl>#86514</styleUrl>
            <LineString id="86512">
                <coordinates>107.4813249,-6.8614742,0.0 107.4811969,-6.8615991,0.0 107.4810131,-6.8617692,0.0 107.4808213,-6.8619538,0.0 107.4806464,-6.8621116,0.0 107.4805321,-6.862234,0.0 107.4804538,-6.8623138,0.0</coordinates>
            </LineString>
        </Placemark>
        <Placemark id="86517">
            <name>Jalan Parahyangan</name>
            <styleUrl>#86518</styleUrl>
            <LineString id="86516">
                <coordinates>107.4804538,-6.8623138,0.0 107.4803884,-6.8623796,0.0</coordinates>
            </LineString>
        </Placemark>
        <Placemark id="86521">
            <name>Jalan Parahyangan</name>
            <styleUrl>#86522</styleUrl>
            <LineString id="86520">
                <coordinates>107.4803884,-6.8623796,0.0 107.4802647,-6.862522,0.0 107.4801983,-6.8626059,0.0 107.4801124,-6.8627206,0.0 107.4800417,-6.8628164,0.0 107.4798985,-6.8630117,0.0 107.4797441,-6.8632278,0.0 107.4795511,-6.8634814,0.0 107.4793841,-6.8637028,0.0</coordinates>
            </LineString>
        </Placemark>
        <Placemark id="86525">
            <name>Jalan Parahyangan</name>
            <styleUrl>#86526</styleUrl>
            <LineString id="86524">
                <coordinates>107.4793841,-6.8637028,0.0 107.4793117,-6.8637987,0.0</coordinates>
            </LineString>
        </Placemark>
        <Placemark id="86529">
            <name>Jalan Parahyangan</name>
            <styleUrl>#86530</styleUrl>
            <LineString id="86528">
                <coordinates>107.4793117,-6.8637987,0.0 107.479096,-6.8640963,0.0 107.4787391,-6.8645886,0.0</coordinates>
            </LineString>
        </Placemark>
        <Placemark id="86533">
            <name>Jalan Parahyangan</name>
            <styleUrl>#86534</styleUrl>
            <LineString id="86532">
                <coordinates>107.4787391,-6.8645886,0.0 107.4786469,-6.8647061,0.0 107.4783619,-6.8650692,0.0 107.4782844,-6.865168,0.0 107.4781795,-6.8652971,0.0 107.4780592,-6.8654451,0.0 107.4779735,-6.8655351,0.0</coordinates>
            </LineString>
        </Placemark>
        <Placemark id="86537">
            <name>Jalan Parahyangan</name>
            <styleUrl>#86538</styleUrl>
            <LineString id="86536">
                <coordinates>107.4779735,-6.8655351,0.0 107.4779258,-6.8655758,0.0</coordinates>
            </LineString>
        </Placemark>
        <Placemark id="86541">
            <name>Jalan Parahyangan</name>
            <styleUrl>#86542</styleUrl>
            <LineString id="86540">
                <coordinates>107.4779258,-6.8655758,0.0 107.4777507,-6.8656956,0.0 107.4775943,-6.8657819,0.0 107.4772526,-6.8659122,0.0 107.4770978,-6.8659503,0.0</coordinates>
            </LineString>
        </Placemark>
        <Placemark id="86545">
            <name>Jalan Parahyangan</name>
            <styleUrl>#86546</styleUrl>
            <LineString id="86544">
                <coordinates>107.4778845,-6.8654372,0.0 107.4779539,-6.8653639,0.0</coordinates>
            </LineString>
        </Placemark>
        <Placemark id="86549">
            <name>Jalan Parahyangan</name>
            <styleUrl>#86550</styleUrl>
            <LineString id="86548">
                <coordinates>107.4779539,-6.8653639,0.0 107.4780103,-6.8652956,0.0 107.4782493,-6.8649836,0.0 107.4783521,-6.8648529,0.0 107.478623,-6.8644852,0.0</coordinates>
            </LineString>
        </Placemark>
        <Placemark id="86553">
            <name>Jalan Parahyangan</name>
            <styleUrl>#86554</styleUrl>
            <LineString id="86552">
                <coordinates>107.478623,-6.8644852,0.0 107.4787665,-6.8642969,0.0</coordinates>
            </LineString>
        </Placemark>
        <Placemark id="86557">
            <name>Jalan Parahyangan</name>
            <styleUrl>#86558</styleUrl>
            <LineString id="86556">
                <coordinates>107.4787665,-6.8642969,0.0 107.4793221,-6.8635501,0.0</coordinates>
            </LineString>
        </Placemark>
        <Placemark id="86561">
            <name>Jalan Parahyangan</name>
            <styleUrl>#86562</styleUrl>
            <LineString id="86560">
                <coordinates>107.4793221,-6.8635501,0.0 107.4794588,-6.8633663,0.0 107.4796486,-6.863124,0.0 107.4798236,-6.8628897,0.0 107.4799998,-6.862669,0.0 107.4800828,-6.862553,0.0</coordinates>
            </LineString>
        </Placemark>
        <Placemark id="86565">
            <name>Jalan Parahyangan</name>
            <styleUrl>#86566</styleUrl>
            <LineString id="86564">
                <coordinates>107.4800828,-6.862553,0.0 107.4801029,-6.862525,0.0 107.4802167,-6.862388,0.0 107.4803343,-6.8622504,0.0 107.4804332,-6.8621429,0.0 107.4805167,-6.862052,0.0 107.4805786,-6.8619949,0.0 107.4805918,-6.8619827,0.0 107.4807916,-6.8617955,0.0 107.4810311,-6.8615717,0.0 107.4812216,-6.8613836,0.0</coordinates>
            </LineString>
        </Placemark>
        <Placemark id="86569">
            <name>Jalan Parahyangan</name>
            <styleUrl>#86570</styleUrl>
            <LineString id="86568">
                <coordinates>107.4812216,-6.8613836,0.0 107.4812976,-6.8613194,0.0</coordinates>
            </LineString>
        </Placemark>
        <Placemark id="86573">
            <name>Route Segment</name>
            <styleUrl>#86574</styleUrl>
            <LineString id="86572">
                <coordinates>107.4812976,-6.8613194,0.0 107.4813933,-6.8614119,0.0</coordinates>
            </LineString>
        </Placemark>
        <Placemark id="86577">
            <name>Route Segment</name>
            <styleUrl>#86578</styleUrl>
            <LineString id="86576">
                <coordinates>107.4651865,-6.8667329,0.0 107.4651827,-6.8673566,0.0 107.4651837,-6.867474,0.0 107.465183,-6.8677427,0.0 107.4651824,-6.8680042,0.0</coordinates>
            </LineString>
        </Placemark>
        <Placemark id="86581">
            <name>Route Segment</name>
            <styleUrl>#86582</styleUrl>
            <LineString id="86580">
                <coordinates>107.4651824,-6.8680042,0.0 107.4651845,-6.8682629,0.0</coordinates>
            </LineString>
        </Placemark>
        <Placemark id="86585">
            <name>Route Segment</name>
            <styleUrl>#86586</styleUrl>
            <LineString id="86584">
                <coordinates>107.4651845,-6.8682629,0.0 107.4651852,-6.8683459,0.0 107.4651854,-6.8686619,0.0 107.4652031,-6.86882,0.0</coordinates>
            </LineString>
        </Placemark>
    </Document>
</kml>
