<?xml version="1.0" encoding="UTF-8"?>
<kml xmlns="http://www.opengis.net/kml/2.2" xmlns:gx="http://www.google.com/kml/ext/2.2">
    <Document id="17432">
        <Style id="17438">
            <IconStyle id="17439">
                <colorMode>normal</colorMode>
                <scale>1</scale>
                <heading>0</heading>
                <Icon id="17440">
                    <href>http://maps.google.com/mapfiles/kml/pushpin/ylw-pushpin.png</href>
                </Icon>
            </IconStyle>
        </Style>
        <Style id="17443">
            <IconStyle id="17444">
                <colorMode>normal</colorMode>
                <scale>1</scale>
                <heading>0</heading>
                <Icon id="17445">
                    <href>http://maps.google.com/mapfiles/kml/pushpin/ylw-pushpin.png</href>
                </Icon>
            </IconStyle>
        </Style>
        <Style id="17448">
            <LineStyle id="17449">
                <color>ff92312E</color>
                <colorMode>normal</colorMode>
                <width>4</width>
            </LineStyle>
        </Style>
        <Style id="17452">
            <LineStyle id="17453">
                <color>ff92312E</color>
                <colorMode>normal</colorMode>
                <width>4</width>
            </LineStyle>
        </Style>
        <Style id="17456">
            <LineStyle id="17457">
                <color>ff92312E</color>
                <colorMode>normal</colorMode>
                <width>4</width>
            </LineStyle>
        </Style>
        <Style id="17460">
            <LineStyle id="17461">
                <color>ff92312E</color>
                <colorMode>normal</colorMode>
                <width>4</width>
            </LineStyle>
        </Style>
        <Style id="17464">
            <LineStyle id="17465">
                <color>ff92312E</color>
                <colorMode>normal</colorMode>
                <width>4</width>
            </LineStyle>
        </Style>
        <Style id="17468">
            <LineStyle id="17469">
                <color>ff92312E</color>
                <colorMode>normal</colorMode>
                <width>4</width>
            </LineStyle>
        </Style>
        <Style id="17472">
            <LineStyle id="17473">
                <color>ff92312E</color>
                <colorMode>normal</colorMode>
                <width>4</width>
            </LineStyle>
        </Style>
        <Style id="17476">
            <LineStyle id="17477">
                <color>ff92312E</color>
                <colorMode>normal</colorMode>
                <width>4</width>
            </LineStyle>
        </Style>
        <Style id="17480">
            <LineStyle id="17481">
                <color>ff92312E</color>
                <colorMode>normal</colorMode>
                <width>4</width>
            </LineStyle>
        </Style>
        <Style id="17484">
            <LineStyle id="17485">
                <color>ff92312E</color>
                <colorMode>normal</colorMode>
                <width>4</width>
            </LineStyle>
        </Style>
        <Style id="17488">
            <LineStyle id="17489">
                <color>ff92312E</color>
                <colorMode>normal</colorMode>
                <width>4</width>
            </LineStyle>
        </Style>
        <Style id="17492">
            <LineStyle id="17493">
                <color>ff92312E</color>
                <colorMode>normal</colorMode>
                <width>4</width>
            </LineStyle>
        </Style>
        <Style id="17496">
            <LineStyle id="17497">
                <color>ff92312E</color>
                <colorMode>normal</colorMode>
                <width>4</width>
            </LineStyle>
        </Style>
        <Style id="17500">
            <LineStyle id="17501">
                <color>ff92312E</color>
                <colorMode>normal</colorMode>
                <width>4</width>
            </LineStyle>
        </Style>
        <Style id="17504">
            <LineStyle id="17505">
                <color>ff92312E</color>
                <colorMode>normal</colorMode>
                <width>4</width>
            </LineStyle>
        </Style>
        <Style id="17508">
            <LineStyle id="17509">
                <color>ff92312E</color>
                <colorMode>normal</colorMode>
                <width>4</width>
            </LineStyle>
        </Style>
        <Style id="17512">
            <LineStyle id="17513">
                <color>ff92312E</color>
                <colorMode>normal</colorMode>
                <width>4</width>
            </LineStyle>
        </Style>
        <Style id="17516">
            <LineStyle id="17517">
                <color>ff92312E</color>
                <colorMode>normal</colorMode>
                <width>4</width>
            </LineStyle>
        </Style>
        <Style id="17520">
            <LineStyle id="17521">
                <color>ff92312E</color>
                <colorMode>normal</colorMode>
                <width>4</width>
            </LineStyle>
        </Style>
        <Style id="17524">
            <LineStyle id="17525">
                <color>ff92312E</color>
                <colorMode>normal</colorMode>
                <width>4</width>
            </LineStyle>
        </Style>
        <Style id="17528">
            <LineStyle id="17529">
                <color>ff92312E</color>
                <colorMode>normal</colorMode>
                <width>4</width>
            </LineStyle>
        </Style>
        <Style id="17532">
            <LineStyle id="17533">
                <color>ff92312E</color>
                <colorMode>normal</colorMode>
                <width>4</width>
            </LineStyle>
        </Style>
        <Style id="17536">
            <LineStyle id="17537">
                <color>ff92312E</color>
                <colorMode>normal</colorMode>
                <width>4</width>
            </LineStyle>
        </Style>
        <Style id="17540">
            <LineStyle id="17541">
                <color>ff92312E</color>
                <colorMode>normal</colorMode>
                <width>4</width>
            </LineStyle>
        </Style>
        <Style id="17544">
            <LineStyle id="17545">
                <color>ff92312E</color>
                <colorMode>normal</colorMode>
                <width>4</width>
            </LineStyle>
        </Style>
        <Style id="17548">
            <LineStyle id="17549">
                <color>ff92312E</color>
                <colorMode>normal</colorMode>
                <width>4</width>
            </LineStyle>
        </Style>
        <Style id="17552">
            <LineStyle id="17553">
                <color>ff92312E</color>
                <colorMode>normal</colorMode>
                <width>4</width>
            </LineStyle>
        </Style>
        <Style id="17556">
            <LineStyle id="17557">
                <color>ff92312E</color>
                <colorMode>normal</colorMode>
                <width>4</width>
            </LineStyle>
        </Style>
        <Style id="17560">
            <LineStyle id="17561">
                <color>ff92312E</color>
                <colorMode>normal</colorMode>
                <width>4</width>
            </LineStyle>
        </Style>
        <Style id="17564">
            <LineStyle id="17565">
                <color>ff92312E</color>
                <colorMode>normal</colorMode>
                <width>4</width>
            </LineStyle>
        </Style>
        <Style id="17568">
            <LineStyle id="17569">
                <color>ff92312E</color>
                <colorMode>normal</colorMode>
                <width>4</width>
            </LineStyle>
        </Style>
        <Style id="17572">
            <LineStyle id="17573">
                <color>ff92312E</color>
                <colorMode>normal</colorMode>
                <width>4</width>
            </LineStyle>
        </Style>
        <Style id="17576">
            <LineStyle id="17577">
                <color>ff92312E</color>
                <colorMode>normal</colorMode>
                <width>4</width>
            </LineStyle>
        </Style>
        <Style id="17580">
            <LineStyle id="17581">
                <color>ff92312E</color>
                <colorMode>normal</colorMode>
                <width>4</width>
            </LineStyle>
        </Style>
        <Style id="17584">
            <LineStyle id="17585">
                <color>ff92312E</color>
                <colorMode>normal</colorMode>
                <width>4</width>
            </LineStyle>
        </Style>
        <Style id="17588">
            <LineStyle id="17589">
                <color>ff92312E</color>
                <colorMode>normal</colorMode>
                <width>4</width>
            </LineStyle>
        </Style>
        <Style id="17592">
            <LineStyle id="17593">
                <color>ff92312E</color>
                <colorMode>normal</colorMode>
                <width>4</width>
            </LineStyle>
        </Style>
        <Style id="17596">
            <LineStyle id="17597">
                <color>ff92312E</color>
                <colorMode>normal</colorMode>
                <width>4</width>
            </LineStyle>
        </Style>
        <Style id="17600">
            <LineStyle id="17601">
                <color>ff92312E</color>
                <colorMode>normal</colorMode>
                <width>4</width>
            </LineStyle>
        </Style>
        <Style id="17604">
            <LineStyle id="17605">
                <color>ff92312E</color>
                <colorMode>normal</colorMode>
                <width>4</width>
            </LineStyle>
        </Style>
        <Style id="17608">
            <LineStyle id="17609">
                <color>ff92312E</color>
                <colorMode>normal</colorMode>
                <width>4</width>
            </LineStyle>
        </Style>
        <Style id="17612">
            <LineStyle id="17613">
                <color>ff92312E</color>
                <colorMode>normal</colorMode>
                <width>4</width>
            </LineStyle>
        </Style>
        <Style id="17616">
            <LineStyle id="17617">
                <color>ff92312E</color>
                <colorMode>normal</colorMode>
                <width>4</width>
            </LineStyle>
        </Style>
        <Style id="17620">
            <LineStyle id="17621">
                <color>ff92312E</color>
                <colorMode>normal</colorMode>
                <width>4</width>
            </LineStyle>
        </Style>
        <Style id="17624">
            <LineStyle id="17625">
                <color>ff92312E</color>
                <colorMode>normal</colorMode>
                <width>4</width>
            </LineStyle>
        </Style>
        <Style id="17628">
            <LineStyle id="17629">
                <color>ff92312E</color>
                <colorMode>normal</colorMode>
                <width>4</width>
            </LineStyle>
        </Style>
        <Style id="17632">
            <LineStyle id="17633">
                <color>ff92312E</color>
                <colorMode>normal</colorMode>
                <width>4</width>
            </LineStyle>
        </Style>
        <Style id="17636">
            <LineStyle id="17637">
                <color>ff92312E</color>
                <colorMode>normal</colorMode>
                <width>4</width>
            </LineStyle>
        </Style>
        <Style id="17640">
            <LineStyle id="17641">
                <color>ff92312E</color>
                <colorMode>normal</colorMode>
                <width>4</width>
            </LineStyle>
        </Style>
        <Style id="17644">
            <LineStyle id="17645">
                <color>ff92312E</color>
                <colorMode>normal</colorMode>
                <width>4</width>
            </LineStyle>
        </Style>
        <Style id="17648">
            <LineStyle id="17649">
                <color>ff92312E</color>
                <colorMode>normal</colorMode>
                <width>4</width>
            </LineStyle>
        </Style>
        <Style id="17652">
            <LineStyle id="17653">
                <color>ff92312E</color>
                <colorMode>normal</colorMode>
                <width>4</width>
            </LineStyle>
        </Style>
        <Style id="17656">
            <LineStyle id="17657">
                <color>ff92312E</color>
                <colorMode>normal</colorMode>
                <width>4</width>
            </LineStyle>
        </Style>
        <Style id="17660">
            <LineStyle id="17661">
                <color>ff92312E</color>
                <colorMode>normal</colorMode>
                <width>4</width>
            </LineStyle>
        </Style>
        <Style id="17664">
            <LineStyle id="17665">
                <color>ff92312E</color>
                <colorMode>normal</colorMode>
                <width>4</width>
            </LineStyle>
        </Style>
        <Style id="17668">
            <LineStyle id="17669">
                <color>ff92312E</color>
                <colorMode>normal</colorMode>
                <width>4</width>
            </LineStyle>
        </Style>
        <Style id="17672">
            <LineStyle id="17673">
                <color>ff92312E</color>
                <colorMode>normal</colorMode>
                <width>4</width>
            </LineStyle>
        </Style>
        <Style id="17676">
            <LineStyle id="17677">
                <color>ff92312E</color>
                <colorMode>normal</colorMode>
                <width>4</width>
            </LineStyle>
        </Style>
        <Style id="17680">
            <LineStyle id="17681">
                <color>ff92312E</color>
                <colorMode>normal</colorMode>
                <width>4</width>
            </LineStyle>
        </Style>
        <Style id="17684">
            <LineStyle id="17685">
                <color>ff92312E</color>
                <colorMode>normal</colorMode>
                <width>4</width>
            </LineStyle>
        </Style>
        <Style id="17688">
            <LineStyle id="17689">
                <color>ff92312E</color>
                <colorMode>normal</colorMode>
                <width>4</width>
            </LineStyle>
        </Style>
        <Style id="17692">
            <LineStyle id="17693">
                <color>ff92312E</color>
                <colorMode>normal</colorMode>
                <width>4</width>
            </LineStyle>
        </Style>
        <Style id="17696">
            <LineStyle id="17697">
                <color>ff92312E</color>
                <colorMode>normal</colorMode>
                <width>4</width>
            </LineStyle>
        </Style>
        <Style id="17700">
            <LineStyle id="17701">
                <color>ff92312E</color>
                <colorMode>normal</colorMode>
                <width>4</width>
            </LineStyle>
        </Style>
        <Style id="17704">
            <LineStyle id="17705">
                <color>ff92312E</color>
                <colorMode>normal</colorMode>
                <width>4</width>
            </LineStyle>
        </Style>
        <Style id="17708">
            <LineStyle id="17709">
                <color>ff92312E</color>
                <colorMode>normal</colorMode>
                <width>4</width>
            </LineStyle>
        </Style>
        <Style id="17712">
            <LineStyle id="17713">
                <color>ff92312E</color>
                <colorMode>normal</colorMode>
                <width>4</width>
            </LineStyle>
        </Style>
        <Style id="17716">
            <LineStyle id="17717">
                <color>ff92312E</color>
                <colorMode>normal</colorMode>
                <width>4</width>
            </LineStyle>
        </Style>
        <Style id="17720">
            <LineStyle id="17721">
                <color>ff92312E</color>
                <colorMode>normal</colorMode>
                <width>4</width>
            </LineStyle>
        </Style>
        <Style id="17724">
            <LineStyle id="17725">
                <color>ff92312E</color>
                <colorMode>normal</colorMode>
                <width>4</width>
            </LineStyle>
        </Style>
        <Style id="17728">
            <LineStyle id="17729">
                <color>ff92312E</color>
                <colorMode>normal</colorMode>
                <width>4</width>
            </LineStyle>
        </Style>
        <Style id="17732">
            <LineStyle id="17733">
                <color>ff92312E</color>
                <colorMode>normal</colorMode>
                <width>4</width>
            </LineStyle>
        </Style>
        <Style id="17736">
            <LineStyle id="17737">
                <color>ff92312E</color>
                <colorMode>normal</colorMode>
                <width>4</width>
            </LineStyle>
        </Style>
        <Style id="17740">
            <LineStyle id="17741">
                <color>ff92312E</color>
                <colorMode>normal</colorMode>
                <width>4</width>
            </LineStyle>
        </Style>
        <Style id="17744">
            <LineStyle id="17745">
                <color>ff92312E</color>
                <colorMode>normal</colorMode>
                <width>4</width>
            </LineStyle>
        </Style>
        <Style id="17748">
            <LineStyle id="17749">
                <color>ff92312E</color>
                <colorMode>normal</colorMode>
                <width>4</width>
            </LineStyle>
        </Style>
        <Style id="17752">
            <LineStyle id="17753">
                <color>ff92312E</color>
                <colorMode>normal</colorMode>
                <width>4</width>
            </LineStyle>
        </Style>
        <Style id="17756">
            <LineStyle id="17757">
                <color>ff92312E</color>
                <colorMode>normal</colorMode>
                <width>4</width>
            </LineStyle>
        </Style>
        <Style id="17760">
            <LineStyle id="17761">
                <color>ff92312E</color>
                <colorMode>normal</colorMode>
                <width>4</width>
            </LineStyle>
        </Style>
        <Style id="17764">
            <LineStyle id="17765">
                <color>ff92312E</color>
                <colorMode>normal</colorMode>
                <width>4</width>
            </LineStyle>
        </Style>
        <Style id="17768">
            <LineStyle id="17769">
                <color>ff92312E</color>
                <colorMode>normal</colorMode>
                <width>4</width>
            </LineStyle>
        </Style>
        <ExtendedData>
            <Data name="route-name">
                <value>Koridor 2: Cibeureum → Cicaheum</value>
            </Data>
            <Data name="source">
                <value>Transport for Bandung</value>
            </Data>
        </ExtendedData>
        <Placemark id="17437">
            <name>Terminal Elang</name>
            <styleUrl>#17438</styleUrl>
            <Point id="17436">
                <coordinates>107.575723,-6.9133498,0.0</coordinates>
            </Point>
        </Placemark>
        <Placemark id="17442">
            <name>Terminal Cicaheum</name>
            <styleUrl>#17443</styleUrl>
            <Point id="17441">
                <coordinates>107.6565637,-6.902329,0.0</coordinates>
            </Point>
        </Placemark>
        <Placemark id="17447">
            <name>Jalan Lembong</name>
            <styleUrl>#17448</styleUrl>
            <LineString id="17446">
                <coordinates>107.6092086,-6.9161842,0.0 107.6092295,-6.9161907,0.0 107.6094526,-6.9162909,0.0 107.6097121,-6.9164037,0.0 107.609811,-6.916445,0.0 107.6099117,-6.9164912,0.0 107.610072,-6.9165602,0.0</coordinates>
            </LineString>
        </Placemark>
        <Placemark id="17451">
            <name>Jalan Kebon Jati</name>
            <styleUrl>#17452</styleUrl>
            <LineString id="17450">
                <coordinates>107.5984551,-6.9163007,0.0 107.5986452,-6.9162913,0.0 107.5986682,-6.9162902,0.0 107.5987499,-6.9162865,0.0 107.5988546,-6.916282,0.0 107.5991941,-6.9162673,0.0 107.5995626,-6.9162453,0.0 107.599627,-6.9162422,0.0 107.6002509,-6.9162121,0.0 107.600424,-6.9162116,0.0 107.6005777,-6.9162099,0.0 107.6007548,-6.9162056,0.0 107.6010558,-6.9162013,0.0 107.6016262,-6.916191,0.0 107.6019595,-6.9161867,0.0 107.6022008,-6.9161702,0.0</coordinates>
            </LineString>
        </Placemark>
        <Placemark id="17455">
            <name>Jalan Kebon Jati</name>
            <styleUrl>#17456</styleUrl>
            <LineString id="17454">
                <coordinates>107.5933422,-6.9165053,0.0 107.5934217,-6.9165008,0.0 107.5936045,-6.9164926,0.0 107.5936788,-6.9164782,0.0 107.5937549,-6.9164536,0.0 107.5942465,-6.9164387,0.0 107.5945745,-6.91643,0.0 107.5946101,-6.9164366,0.0 107.5946649,-6.9164464,0.0 107.5955033,-6.9164154,0.0 107.5955265,-6.9164153,0.0 107.5955809,-6.9164123,0.0 107.5958357,-6.9164043,0.0 107.5958592,-6.9164025,0.0</coordinates>
            </LineString>
        </Placemark>
        <Placemark id="17459">
            <name>Jalan Rajawali Timur</name>
            <styleUrl>#17460</styleUrl>
            <LineString id="17458">
                <coordinates>107.5761151,-6.9132715,0.0 107.5762053,-6.9133088,0.0 107.5762519,-6.9133265,0.0 107.5765322,-6.9134206,0.0 107.5766744,-6.9134545,0.0 107.5768473,-6.9134956,0.0 107.5771173,-6.9135481,0.0 107.5772702,-6.9135797,0.0 107.5775341,-6.9136343,0.0 107.5776073,-6.9136496,0.0</coordinates>
            </LineString>
        </Placemark>
        <Placemark id="17463">
            <name>Jalan Braga</name>
            <styleUrl>#17464</styleUrl>
            <LineString id="17462">
                <coordinates>107.6090254,-6.9139243,0.0 107.6090188,-6.9140707,0.0 107.6090157,-6.9141626,0.0 107.6090099,-6.9144741,0.0 107.6090078,-6.9145319,0.0 107.609003,-6.9147575,0.0 107.6090004,-6.9148441,0.0 107.609,-6.9150767,0.0 107.6090001,-6.9151162,0.0 107.6089998,-6.9151478,0.0 107.6089988,-6.9152244,0.0</coordinates>
            </LineString>
        </Placemark>
        <Placemark id="17467">
            <name>Jalan Perintis Kemerdekaan</name>
            <styleUrl>#17468</styleUrl>
            <LineString id="17466">
                <coordinates>107.6071931,-6.9145156,0.0 107.6072105,-6.9144549,0.0 107.6072378,-6.9143977,0.0 107.6072741,-6.9143458,0.0 107.6073185,-6.9143005,0.0</coordinates>
            </LineString>
        </Placemark>
        <Placemark id="17471">
            <name>Jalan Perintis Kemerdekaan</name>
            <styleUrl>#17472</styleUrl>
            <LineString id="17470">
                <coordinates>107.6075641,-6.9142136,0.0 107.6078626,-6.9140606,0.0 107.607935,-6.9140241,0.0 107.6079799,-6.9140014,0.0 107.6081711,-6.9139136,0.0 107.6082715,-6.9138902,0.0 107.6087543,-6.9138526,0.0 107.6088925,-6.9138457,0.0 107.6089516,-6.913844,0.0</coordinates>
            </LineString>
        </Placemark>
        <Placemark id="17475">
            <name>Jalan Stasiun Timur</name>
            <styleUrl>#17476</styleUrl>
            <LineString id="17474">
                <coordinates>107.6045889,-6.9148224,0.0 107.6045944,-6.9147921,0.0 107.6046031,-6.9147807,0.0 107.6046151,-6.914765,0.0 107.6046317,-6.9147543,0.0 107.6046427,-6.9147472,0.0 107.6046716,-6.9147379,0.0 107.6047205,-6.914736,0.0 107.6053917,-6.9148138,0.0 107.6063544,-6.9149336,0.0 107.6064066,-6.9149399,0.0</coordinates>
            </LineString>
        </Placemark>
        <Placemark id="17479">
            <name>Jalan Otto Iskandardinata</name>
            <styleUrl>#17480</styleUrl>
            <LineString id="17478">
                <coordinates>107.604546,-6.9153572,0.0 107.6045814,-6.9149387,0.0 107.6045889,-6.9148224,0.0</coordinates>
            </LineString>
        </Placemark>
        <Placemark id="17483">
            <name>Jalan Jenderal Ahmad Yani</name>
            <styleUrl>#17484</styleUrl>
            <LineString id="17482">
                <coordinates>107.6299627,-6.9157488,0.0 107.6300393,-6.9157014,0.0</coordinates>
            </LineString>
        </Placemark>
        <Placemark id="17487">
            <name>Jalan Jenderal Ahmad Yani</name>
            <styleUrl>#17488</styleUrl>
            <LineString id="17486">
                <coordinates>107.6546526,-6.9025812,0.0 107.654741,-6.9024931,0.0 107.6550496,-6.9021051,0.0</coordinates>
            </LineString>
        </Placemark>
        <Placemark id="17491">
            <name>Jalan Veteran</name>
            <styleUrl>#17492</styleUrl>
            <LineString id="17490">
                <coordinates>107.6157093,-6.9194533,0.0 107.6166001,-6.9198441,0.0 107.6173178,-6.9201846,0.0 107.6178524,-6.9204334,0.0</coordinates>
            </LineString>
        </Placemark>
        <Placemark id="17495">
            <name>Jalan Lembong</name>
            <styleUrl>#17496</styleUrl>
            <LineString id="17494">
                <coordinates>107.611899,-6.9174826,0.0 107.6119832,-6.9175013,0.0 107.6121079,-6.9175693,0.0 107.6122484,-6.917647,0.0 107.6123629,-6.91771,0.0 107.6126035,-6.9178478,0.0 107.6127815,-6.9179662,0.0</coordinates>
            </LineString>
        </Placemark>
        <Placemark id="17499">
            <name>Jalan Jenderal Ahmad Yani</name>
            <styleUrl>#17500</styleUrl>
            <LineString id="17498">
                <coordinates>107.6343755,-6.9133841,0.0 107.6344369,-6.9133475,0.0 107.6344903,-6.913351,0.0 107.6345359,-6.9133508,0.0 107.6346004,-6.9133622,0.0</coordinates>
            </LineString>
        </Placemark>
        <Placemark id="17503">
            <name>Jalan Jenderal Ahmad Yani</name>
            <styleUrl>#17504</styleUrl>
            <LineString id="17502">
                <coordinates>107.6445308,-6.9080265,0.0 107.6447525,-6.9079094,0.0 107.6449366,-6.9078121,0.0 107.64542,-6.9075568,0.0 107.6456577,-6.907431,0.0 107.645715,-6.9074007,0.0 107.6457789,-6.9073672,0.0 107.6458575,-6.9073247,0.0 107.6459395,-6.9072816,0.0 107.6462819,-6.9071016,0.0 107.6465653,-6.9069518,0.0 107.6469168,-6.9067662,0.0 107.6469532,-6.906747,0.0 107.6470598,-6.9066907,0.0 107.6473416,-6.906544,0.0 107.6473541,-6.9065376,0.0</coordinates>
            </LineString>
        </Placemark>
        <Placemark id="17507">
            <name>Jalan Jenderal Ahmad Yani</name>
            <styleUrl>#17508</styleUrl>
            <LineString id="17506">
                <coordinates>107.6296368,-6.9159071,0.0 107.6298809,-6.9157977,0.0 107.6299627,-6.9157488,0.0</coordinates>
            </LineString>
        </Placemark>
        <Placemark id="17511">
            <name>Jalan Lembong</name>
            <styleUrl>#17512</styleUrl>
            <LineString id="17510">
                <coordinates>107.6109278,-6.9169939,0.0 107.6111029,-6.9170839,0.0 107.6113003,-6.9171832,0.0 107.6113378,-6.917202,0.0</coordinates>
            </LineString>
        </Placemark>
        <Placemark id="17515">
            <name>Jalan Jenderal Ahmad Yani</name>
            <styleUrl>#17516</styleUrl>
            <LineString id="17514">
                <coordinates>107.6342542,-6.9134469,0.0 107.6342922,-6.9134291,0.0 107.6343755,-6.9133841,0.0</coordinates>
            </LineString>
        </Placemark>
        <Placemark id="17519">
            <name>Jalan Suniaraja</name>
            <styleUrl>#17520</styleUrl>
            <LineString id="17518">
                <coordinates>107.6027081,-6.91612,0.0 107.6031079,-6.9160834,0.0</coordinates>
            </LineString>
        </Placemark>
        <Placemark id="17523">
            <name>Jalan Suniaraja</name>
            <styleUrl>#17524</styleUrl>
            <LineString id="17522">
                <coordinates>107.6024325,-6.9161432,0.0 107.6025481,-6.9161309,0.0 107.6027081,-6.91612,0.0</coordinates>
            </LineString>
        </Placemark>
        <Placemark id="17527">
            <name>Jalan Rajawali Timur</name>
            <styleUrl>#17528</styleUrl>
            <LineString id="17526">
                <coordinates>107.5776073,-6.9136496,0.0 107.5777772,-6.9136868,0.0 107.5779128,-6.9137286,0.0 107.5781891,-6.9137955,0.0 107.5783539,-6.9138332,0.0 107.5783874,-6.9138419,0.0 107.5785622,-6.9138805,0.0 107.5787762,-6.9139254,0.0 107.5797055,-6.9141348,0.0 107.579747,-6.9141453,0.0 107.5799521,-6.9141897,0.0 107.5802819,-6.9142612,0.0 107.5811363,-6.9144571,0.0 107.5811751,-6.9144647,0.0 107.5812252,-6.914476,0.0 107.5813465,-6.9145043,0.0 107.581465,-6.9145319,0.0 107.5817067,-6.9145944,0.0 107.5817861,-6.9146158,0.0 107.5822849,-6.9147532,0.0 107.5823112,-6.9147609,0.0 107.5824997,-6.9148158,0.0</coordinates>
            </LineString>
        </Placemark>
        <Placemark id="17531">
            <name>Jalan Jenderal Ahmad Yani</name>
            <styleUrl>#17532</styleUrl>
            <LineString id="17530">
                <coordinates>107.6374263,-6.9118346,0.0 107.6376746,-6.9117059,0.0 107.6380463,-6.9115125,0.0 107.6381052,-6.9114812,0.0 107.6384087,-6.9113142,0.0 107.6385292,-6.9112521,0.0 107.6386772,-6.911175,0.0 107.6388085,-6.9111044,0.0 107.6393511,-6.9108148,0.0 107.6394945,-6.9107372,0.0 107.6395509,-6.9107061,0.0 107.6397159,-6.9106143,0.0 107.6397829,-6.9105782,0.0 107.6399162,-6.9105033,0.0 107.6402409,-6.9103278,0.0 107.64053,-6.9101769,0.0 107.6407412,-6.9100688,0.0 107.641164,-6.9098457,0.0 107.641445,-6.9096983,0.0 107.6415409,-6.9096449,0.0 107.6416706,-6.9095775,0.0 107.6417659,-6.9095225,0.0 107.6418156,-6.9094919,0.0 107.641865,-6.9094557,0.0</coordinates>
            </LineString>
        </Placemark>
        <Placemark id="17535">
            <name>Jalan Perintis Kemerdekaan</name>
            <styleUrl>#17536</styleUrl>
            <LineString id="17534">
                <coordinates>107.6070945,-6.9151362,0.0 107.6071194,-6.9149776,0.0 107.6071865,-6.9145473,0.0 107.6071931,-6.9145156,0.0</coordinates>
            </LineString>
        </Placemark>
        <Placemark id="17539">
            <name>Jalan Rajawali Timur</name>
            <styleUrl>#17540</styleUrl>
            <LineString id="17538">
                <coordinates>107.5833358,-6.915074,0.0 107.5835594,-6.9151467,0.0 107.5840232,-6.9153004,0.0 107.5842925,-6.915391,0.0 107.5852149,-6.9157051,0.0</coordinates>
            </LineString>
        </Placemark>
        <Placemark id="17543">
            <name>Jalan Rajawali Timur</name>
            <styleUrl>#17544</styleUrl>
            <LineString id="17542">
                <coordinates>107.5858278,-6.9159293,0.0 107.586207,-6.9160255,0.0 107.5867681,-6.9161031,0.0 107.5869736,-6.9161257,0.0 107.5871337,-6.9161429,0.0 107.5875979,-6.916198,0.0 107.5884061,-6.9162871,0.0 107.5887476,-6.9163221,0.0 107.5891041,-6.9163648,0.0 107.5895676,-6.9164212,0.0 107.5900717,-6.9164757,0.0 107.5904668,-6.9165055,0.0</coordinates>
            </LineString>
        </Placemark>
        <Placemark id="17547">
            <name>Jalan Rajawali Timur</name>
            <styleUrl>#17548</styleUrl>
            <LineString id="17546">
                <coordinates>107.5852149,-6.9157051,0.0 107.5853724,-6.9157654,0.0 107.5855994,-6.9158493,0.0 107.5858278,-6.9159293,0.0</coordinates>
            </LineString>
        </Placemark>
        <Placemark id="17551">
            <name>Jalan Jenderal Ahmad Yani</name>
            <styleUrl>#17552</styleUrl>
            <LineString id="17550">
                <coordinates>107.6228594,-6.9195533,0.0 107.6224719,-6.9197548,0.0 107.6221779,-6.9199012,0.0 107.6221549,-6.9199123,0.0 107.6220264,-6.9199819,0.0 107.6218618,-6.9200705,0.0 107.621673,-6.9201723,0.0 107.6215708,-6.9202248,0.0 107.6213148,-6.9203613,0.0 107.6211338,-6.9204577,0.0 107.6206442,-6.9207187,0.0 107.6201383,-6.9209883,0.0 107.619912,-6.921109,0.0 107.619848,-6.921143,0.0 107.619832,-6.9211515,0.0 107.6194592,-6.9213499,0.0</coordinates>
            </LineString>
        </Placemark>
        <Placemark id="17555">
            <name>Jalan Jenderal Ahmad Yani</name>
            <styleUrl>#17556</styleUrl>
            <LineString id="17554">
                <coordinates>107.6311335,-6.9151604,0.0 107.6313219,-6.9150573,0.0 107.631392,-6.915019,0.0 107.6314854,-6.9149679,0.0 107.6316428,-6.9148818,0.0 107.6320747,-6.9146547,0.0 107.6322869,-6.9145432,0.0 107.6325601,-6.9143996,0.0 107.6327618,-6.9142935,0.0 107.6327884,-6.9142791,0.0 107.6328365,-6.9142566,0.0 107.6329881,-6.9141745,0.0 107.6332108,-6.9140574,0.0 107.6333413,-6.9139888,0.0</coordinates>
            </LineString>
        </Placemark>
        <Placemark id="17559">
            <name>Jalan Jenderal Ahmad Yani</name>
            <styleUrl>#17560</styleUrl>
            <LineString id="17558">
                <coordinates>107.6290208,-6.9162728,0.0 107.6289251,-6.9163216,0.0 107.6287077,-6.9164366,0.0 107.6286077,-6.9164897,0.0 107.6284319,-6.9165831,0.0 107.6281138,-6.9167518,0.0 107.6274434,-6.9171135,0.0</coordinates>
            </LineString>
        </Placemark>
        <Placemark id="17563">
            <name>Jalan Jenderal Ahmad Yani</name>
            <styleUrl>#17564</styleUrl>
            <LineString id="17562">
                <coordinates>107.6241356,-6.9188768,0.0 107.6242022,-6.918806,0.0 107.6243348,-6.9187318,0.0 107.6245097,-6.9186418,0.0 107.6246432,-6.9185627,0.0 107.6247022,-6.9185273,0.0 107.6247766,-6.918483,0.0 107.6248227,-6.9184581,0.0 107.6248665,-6.9184366,0.0 107.6250922,-6.9183165,0.0 107.625131,-6.9182931,0.0 107.6254127,-6.918147,0.0 107.6258544,-6.9179121,0.0 107.6261654,-6.9177493,0.0 107.6265702,-6.9175423,0.0 107.6268312,-6.9174021,0.0 107.6273307,-6.9171455,0.0</coordinates>
            </LineString>
        </Placemark>
        <Placemark id="17567">
            <name>Jalan Kebon Jati</name>
            <styleUrl>#17568</styleUrl>
            <LineString id="17566">
                <coordinates>107.5982102,-6.9163251,0.0 107.5982729,-6.9163191,0.0</coordinates>
            </LineString>
        </Placemark>
        <Placemark id="17571">
            <name>Jalan Kebon Jati</name>
            <styleUrl>#17572</styleUrl>
            <LineString id="17570">
                <coordinates>107.5910563,-6.9165402,0.0 107.5914598,-6.9165542,0.0 107.5917139,-6.916555,0.0 107.5918426,-6.9165549,0.0 107.5919002,-6.9165529,0.0 107.5922519,-6.9165451,0.0 107.5925365,-6.9165451,0.0 107.592779,-6.9165372,0.0 107.5933422,-6.9165053,0.0</coordinates>
            </LineString>
        </Placemark>
        <Placemark id="17575">
            <name>Jalan Jenderal Ahmad Yani</name>
            <styleUrl>#17576</styleUrl>
            <LineString id="17574">
                <coordinates>107.6504237,-6.9049308,0.0 107.6505268,-6.9048727,0.0</coordinates>
            </LineString>
        </Placemark>
        <Placemark id="17579">
            <name>Jalan Jenderal Ahmad Yani</name>
            <styleUrl>#17580</styleUrl>
            <LineString id="17578">
                <coordinates>107.6505268,-6.9048727,0.0 107.6509613,-6.904644,0.0 107.6510558,-6.9045991,0.0 107.6511156,-6.9045663,0.0 107.6512752,-6.9044817,0.0 107.6522601,-6.9039596,0.0 107.6523019,-6.9039374,0.0 107.6532521,-6.903436,0.0 107.6533029,-6.9034069,0.0 107.6537144,-6.9031904,0.0 107.6538132,-6.9031384,0.0 107.65401,-6.9030256,0.0</coordinates>
            </LineString>
        </Placemark>
        <Placemark id="17583">
            <name>Jalan Kebon Jati</name>
            <styleUrl>#17584</styleUrl>
            <LineString id="17582">
                <coordinates>107.5958592,-6.9164025,0.0 107.5959332,-6.916401,0.0</coordinates>
            </LineString>
        </Placemark>
        <Placemark id="17587">
            <name>Jalan Kebon Jati</name>
            <styleUrl>#17588</styleUrl>
            <LineString id="17586">
                <coordinates>107.5959332,-6.916401,0.0 107.5962286,-6.9163962,0.0 107.596307,-6.9163928,0.0 107.5963978,-6.9163903,0.0 107.596604,-6.9163856,0.0 107.5967032,-6.9163833,0.0 107.5971285,-6.9163682,0.0 107.597181,-6.9163642,0.0 107.59731,-6.9163601,0.0 107.5973651,-6.9163555,0.0 107.5974058,-6.9163469,0.0 107.5974798,-6.9163369,0.0 107.5980505,-6.9163289,0.0 107.5980926,-6.9163279,0.0 107.5982102,-6.9163251,0.0</coordinates>
            </LineString>
        </Placemark>
        <Placemark id="17591">
            <name>Jalan Jenderal Ahmad Yani</name>
            <styleUrl>#17592</styleUrl>
            <LineString id="17590">
                <coordinates>107.65401,-6.9030256,0.0 107.654124,-6.9028979,0.0 107.6546526,-6.9025812,0.0</coordinates>
            </LineString>
        </Placemark>
        <Placemark id="17595">
            <name>Jalan Jenderal Ahmad Yani</name>
            <styleUrl>#17596</styleUrl>
            <LineString id="17594">
                <coordinates>107.6561365,-6.9020684,0.0 107.6561617,-6.9020693,0.0 107.6564574,-6.9021108,0.0 107.6566343,-6.9021236,0.0 107.6567969,-6.9021302,0.0</coordinates>
            </LineString>
        </Placemark>
        <Placemark id="17599">
            <name>Jalan Jenderal Ahmad Yani</name>
            <styleUrl>#17600</styleUrl>
            <LineString id="17598">
                <coordinates>107.6567969,-6.9021302,0.0 107.6571681,-6.9021368,0.0</coordinates>
            </LineString>
        </Placemark>
        <Placemark id="17603">
            <name>Jalan Jenderal Ahmad Yani</name>
            <styleUrl>#17604</styleUrl>
            <LineString id="17602">
                <coordinates>107.6303085,-6.9155587,0.0 107.6310417,-6.9151604,0.0 107.6311335,-6.9151604,0.0</coordinates>
            </LineString>
        </Placemark>
        <Placemark id="17607">
            <name>Jalan Jenderal Ahmad Yani</name>
            <styleUrl>#17608</styleUrl>
            <LineString id="17606">
                <coordinates>107.6290208,-6.9162728,0.0 107.6290835,-6.9162058,0.0 107.6296368,-6.9159071,0.0</coordinates>
            </LineString>
        </Placemark>
        <Placemark id="17611">
            <name>Jalan Jenderal Ahmad Yani</name>
            <styleUrl>#17612</styleUrl>
            <LineString id="17610">
                <coordinates>107.6273307,-6.9171455,0.0 107.6273756,-6.9171259,0.0 107.6274434,-6.9171135,0.0</coordinates>
            </LineString>
        </Placemark>
        <Placemark id="17615">
            <name>Jalan Jenderal Ahmad Yani</name>
            <styleUrl>#17616</styleUrl>
            <LineString id="17614">
                <coordinates>107.6473937,-6.9065187,0.0 107.6474379,-6.9064956,0.0 107.6474992,-6.9064635,0.0 107.6475815,-6.9064204,0.0 107.6478731,-6.9062675,0.0 107.6481705,-6.9061111,0.0 107.6482371,-6.9060767,0.0 107.6483165,-6.9060351,0.0 107.6483897,-6.9059946,0.0 107.6484809,-6.905949,0.0 107.6485698,-6.9059024,0.0 107.6487588,-6.9058034,0.0 107.6488255,-6.9057684,0.0 107.6489439,-6.9057063,0.0 107.6492779,-6.9055313,0.0 107.6494311,-6.9054486,0.0 107.6495236,-6.9054025,0.0 107.6496473,-6.9053377,0.0 107.6496626,-6.9053297,0.0 107.6498165,-6.9052493,0.0 107.6498843,-6.9052135,0.0 107.650154,-6.9050722,0.0 107.650173,-6.9050622,0.0 107.6504237,-6.9049308,0.0</coordinates>
            </LineString>
        </Placemark>
        <Placemark id="17619">
            <name>Jalan Jenderal Ahmad Yani</name>
            <styleUrl>#17620</styleUrl>
            <LineString id="17618">
                <coordinates>107.6473541,-6.9065376,0.0 107.6473937,-6.9065187,0.0</coordinates>
            </LineString>
        </Placemark>
        <Placemark id="17623">
            <name>Jalan Jenderal Ahmad Yani</name>
            <styleUrl>#17624</styleUrl>
            <LineString id="17622">
                <coordinates>107.641865,-6.9094557,0.0 107.6418691,-6.9094448,0.0 107.6418928,-6.9094131,0.0 107.6419984,-6.9093371,0.0 107.6425852,-6.9090236,0.0 107.6431094,-6.9087407,0.0 107.6431809,-6.9087021,0.0 107.6437801,-6.9083798,0.0</coordinates>
            </LineString>
        </Placemark>
        <Placemark id="17627">
            <name>Jalan Jenderal Ahmad Yani</name>
            <styleUrl>#17628</styleUrl>
            <LineString id="17626">
                <coordinates>107.6337931,-6.9136907,0.0 107.6341252,-6.9135115,0.0 107.6341698,-6.91349,0.0 107.6342542,-6.9134469,0.0</coordinates>
            </LineString>
        </Placemark>
        <Placemark id="17631">
            <name>Jalan Stasiun Timur</name>
            <styleUrl>#17632</styleUrl>
            <LineString id="17630">
                <coordinates>107.606909,-6.9153005,0.0 107.6070035,-6.9152646,0.0 107.6070659,-6.9152151,0.0 107.6070945,-6.9151362,0.0</coordinates>
            </LineString>
        </Placemark>
        <Placemark id="17635">
            <name>Jalan Jenderal Ahmad Yani</name>
            <styleUrl>#17636</styleUrl>
            <LineString id="17634">
                <coordinates>107.6437801,-6.9083798,0.0 107.6444024,-6.9080623,0.0 107.6445308,-6.9080265,0.0</coordinates>
            </LineString>
        </Placemark>
        <Placemark id="17639">
            <name>Jalan Jenderal Ahmad Yani</name>
            <styleUrl>#17640</styleUrl>
            <LineString id="17638">
                <coordinates>107.6551205,-6.9020246,0.0 107.6551401,-6.9020243,0.0 107.6552301,-6.9020294,0.0 107.6553398,-6.9020357,0.0</coordinates>
            </LineString>
        </Placemark>
        <Placemark id="17643">
            <name>Route Segment</name>
            <styleUrl>#17644</styleUrl>
            <LineString id="17642">
                <coordinates>107.6571681,-6.9021368,0.0 107.6571633,-6.9022188,0.0</coordinates>
            </LineString>
        </Placemark>
        <Placemark id="17647">
            <name>Jalan Perintis Kemerdekaan</name>
            <styleUrl>#17648</styleUrl>
            <LineString id="17646">
                <coordinates>107.6089516,-6.913844,0.0 107.6089515,-6.9138647,0.0 107.6089575,-6.9138845,0.0 107.6089691,-6.9139001,0.0 107.6089853,-6.9139148,0.0 107.6090046,-6.9139225,0.0 107.6090254,-6.9139243,0.0</coordinates>
            </LineString>
        </Placemark>
        <Placemark id="17651">
            <name>Jalan Suniaraja</name>
            <styleUrl>#17652</styleUrl>
            <LineString id="17650">
                <coordinates>107.6031079,-6.9160834,0.0 107.60326,-6.9160638,0.0 107.6040403,-6.915928,0.0 107.6043695,-6.9158689,0.0 107.6045054,-6.9158364,0.0</coordinates>
            </LineString>
        </Placemark>
        <Placemark id="17655">
            <name>Jalan Otto Iskandardinata</name>
            <styleUrl>#17656</styleUrl>
            <LineString id="17654">
                <coordinates>107.6045054,-6.9158364,0.0 107.6045124,-6.9157548,0.0 107.6045273,-6.915589,0.0 107.604546,-6.9153572,0.0</coordinates>
            </LineString>
        </Placemark>
        <Placemark id="17659">
            <name>Jalan Lembong</name>
            <styleUrl>#17660</styleUrl>
            <LineString id="17658">
                <coordinates>107.610072,-6.9165602,0.0 107.6101313,-6.9165901,0.0 107.6106113,-6.9168303,0.0 107.6108249,-6.916942,0.0 107.6109278,-6.9169939,0.0</coordinates>
            </LineString>
        </Placemark>
        <Placemark id="17663">
            <name>Jalan Jenderal Ahmad Yani</name>
            <styleUrl>#17664</styleUrl>
            <LineString id="17662">
                <coordinates>107.6333413,-6.9139888,0.0 107.6333677,-6.9139334,0.0 107.6333958,-6.9139024,0.0 107.6334392,-6.9138763,0.0 107.6337931,-6.9136907,0.0</coordinates>
            </LineString>
        </Placemark>
        <Placemark id="17667">
            <name>Jalan Lembong</name>
            <styleUrl>#17668</styleUrl>
            <LineString id="17666">
                <coordinates>107.6089865,-6.9159412,0.0 107.6090126,-6.9160368,0.0 107.6090539,-6.9160779,0.0 107.6090668,-6.9160857,0.0 107.6091109,-6.9161236,0.0 107.6092086,-6.9161842,0.0</coordinates>
            </LineString>
        </Placemark>
        <Placemark id="17671">
            <name>Route Segment</name>
            <styleUrl>#17672</styleUrl>
            <LineString id="17670">
                <coordinates>107.6571633,-6.9022188,0.0 107.6571624,-6.902364,0.0</coordinates>
            </LineString>
        </Placemark>
        <Placemark id="17675">
            <name>Jalan Rajawali Timur</name>
            <styleUrl>#17676</styleUrl>
            <LineString id="17674">
                <coordinates>107.5824997,-6.9148158,0.0 107.5825485,-6.9148303,0.0 107.5828858,-6.9149273,0.0 107.5830554,-6.9149788,0.0 107.5833358,-6.915074,0.0</coordinates>
            </LineString>
        </Placemark>
        <Placemark id="17679">
            <name>Jalan Stasiun Timur</name>
            <styleUrl>#17680</styleUrl>
            <LineString id="17678">
                <coordinates>107.6064066,-6.9149399,0.0 107.6065239,-6.9149519,0.0 107.6066003,-6.9149924,0.0 107.6066521,-6.9150384,0.0 107.6067855,-6.9152656,0.0 107.6068306,-6.9152963,0.0 107.606909,-6.9153005,0.0</coordinates>
            </LineString>
        </Placemark>
        <Placemark id="17683">
            <name>Route Segment</name>
            <styleUrl>#17684</styleUrl>
            <LineString id="17682">
                <coordinates>107.6569974,-6.9026679,0.0 107.6569937,-6.9025585,0.0 107.6569923,-6.9025177,0.0 107.656991,-6.9024786,0.0 107.65699,-6.9024476,0.0 107.6569888,-6.9024145,0.0 107.6569876,-6.9023784,0.0 107.6569863,-6.90234,0.0 107.6569854,-6.9023139,0.0</coordinates>
            </LineString>
        </Placemark>
        <Placemark id="17687">
            <name>Jalan Jenderal Ahmad Yani</name>
            <styleUrl>#17688</styleUrl>
            <LineString id="17686">
                <coordinates>107.6300393,-6.9157014,0.0 107.630088,-6.9156756,0.0 107.6303085,-6.9155587,0.0</coordinates>
            </LineString>
        </Placemark>
        <Placemark id="17691">
            <name>Route Segment</name>
            <styleUrl>#17692</styleUrl>
            <LineString id="17690">
                <coordinates>107.6569854,-6.9023139,0.0 107.6565637,-6.902329,0.0</coordinates>
            </LineString>
        </Placemark>
        <Placemark id="17695">
            <name>Jalan Jenderal Ahmad Yani</name>
            <styleUrl>#17696</styleUrl>
            <LineString id="17694">
                <coordinates>107.6557405,-6.9020533,0.0 107.6561365,-6.9020684,0.0</coordinates>
            </LineString>
        </Placemark>
        <Placemark id="17699">
            <name>Jalan Braga</name>
            <styleUrl>#17700</styleUrl>
            <LineString id="17698">
                <coordinates>107.6089988,-6.9152244,0.0 107.6089979,-6.9152703,0.0 107.6089865,-6.9159412,0.0</coordinates>
            </LineString>
        </Placemark>
        <Placemark id="17703">
            <name>Jalan Suniaraja</name>
            <styleUrl>#17704</styleUrl>
            <LineString id="17702">
                <coordinates>107.6022008,-6.9161702,0.0 107.6023308,-6.916154,0.0 107.6024325,-6.9161432,0.0</coordinates>
            </LineString>
        </Placemark>
        <Placemark id="17707">
            <name>Jalan Veteran</name>
            <styleUrl>#17708</styleUrl>
            <LineString id="17706">
                <coordinates>107.6178524,-6.9204334,0.0 107.6185363,-6.9207327,0.0 107.6189214,-6.9208992,0.0 107.6190743,-6.9209818,0.0 107.6192209,-6.9210809,0.0 107.6192956,-6.9211535,0.0 107.619335,-6.9212014,0.0 107.6193754,-6.9212507,0.0 107.6194227,-6.9213067,0.0 107.6194592,-6.9213499,0.0</coordinates>
            </LineString>
        </Placemark>
        <Placemark id="17711">
            <name>Jalan Kebon Jati</name>
            <styleUrl>#17712</styleUrl>
            <LineString id="17710">
                <coordinates>107.5904668,-6.9165055,0.0 107.5910563,-6.9165402,0.0</coordinates>
            </LineString>
        </Placemark>
        <Placemark id="17715">
            <name>Jalan Jenderal Ahmad Yani</name>
            <styleUrl>#17716</styleUrl>
            <LineString id="17714">
                <coordinates>107.6550496,-6.9021051,0.0 107.6551205,-6.9020246,0.0</coordinates>
            </LineString>
        </Placemark>
        <Placemark id="17719">
            <name>Jalan Jenderal Ahmad Yani</name>
            <styleUrl>#17720</styleUrl>
            <LineString id="17718">
                <coordinates>107.6241356,-6.9188768,0.0 107.6239481,-6.9189771,0.0 107.6236923,-6.9191175,0.0 107.6236089,-6.9191602,0.0 107.6235031,-6.9192144,0.0 107.6229041,-6.9195297,0.0 107.6228594,-6.9195533,0.0</coordinates>
            </LineString>
        </Placemark>
        <Placemark id="17723">
            <name>Jalan Veteran</name>
            <styleUrl>#17724</styleUrl>
            <LineString id="17722">
                <coordinates>107.6127815,-6.9179662,0.0 107.6132908,-6.9182518,0.0 107.6138001,-6.9185374,0.0 107.6143302,-6.918812,0.0 107.6157093,-6.9194533,0.0</coordinates>
            </LineString>
        </Placemark>
        <Placemark id="17727">
            <name>Jalan Perintis Kemerdekaan</name>
            <styleUrl>#17728</styleUrl>
            <LineString id="17726">
                <coordinates>107.6073185,-6.9143005,0.0 107.6073396,-6.9142915,0.0 107.6073918,-6.9142744,0.0 107.607494,-6.9142383,0.0 107.6075641,-6.9142136,0.0</coordinates>
            </LineString>
        </Placemark>
        <Placemark id="17731">
            <name>Jalan Elang</name>
            <styleUrl>#17732</styleUrl>
            <LineString id="17730">
                <coordinates>107.575723,-6.9133498,0.0 107.5758021,-6.913142,0.0</coordinates>
            </LineString>
        </Placemark>
        <Placemark id="17735">
            <name>Route Segment</name>
            <styleUrl>#17736</styleUrl>
            <LineString id="17734">
                <coordinates>107.6571624,-6.902364,0.0 107.6571697,-6.9025471,0.0 107.6570986,-6.9026609,0.0 107.6569974,-6.9026679,0.0</coordinates>
            </LineString>
        </Placemark>
        <Placemark id="17739">
            <name>Jalan Kebon Jati</name>
            <styleUrl>#17740</styleUrl>
            <LineString id="17738">
                <coordinates>107.5982729,-6.9163191,0.0 107.5984551,-6.9163007,0.0</coordinates>
            </LineString>
        </Placemark>
        <Placemark id="17743">
            <name>Jalan Jenderal Ahmad Yani</name>
            <styleUrl>#17744</styleUrl>
            <LineString id="17742">
                <coordinates>107.6553398,-6.9020357,0.0 107.6555577,-6.9020453,0.0 107.6557405,-6.9020533,0.0</coordinates>
            </LineString>
        </Placemark>
        <Placemark id="17747">
            <name>Jalan Lembong</name>
            <styleUrl>#17748</styleUrl>
            <LineString id="17746">
                <coordinates>107.6113378,-6.917202,0.0 107.6114765,-6.9172727,0.0</coordinates>
            </LineString>
        </Placemark>
        <Placemark id="17751">
            <name>Jalan Lembong</name>
            <styleUrl>#17752</styleUrl>
            <LineString id="17750">
                <coordinates>107.6114765,-6.9172727,0.0 107.6115788,-6.9173248,0.0</coordinates>
            </LineString>
        </Placemark>
        <Placemark id="17755">
            <name>Jalan Lembong</name>
            <styleUrl>#17756</styleUrl>
            <LineString id="17754">
                <coordinates>107.6115788,-6.9173248,0.0 107.6118099,-6.9174381,0.0 107.611899,-6.9174826,0.0</coordinates>
            </LineString>
        </Placemark>
        <Placemark id="17759">
            <name>Jalan Rajawali Timur</name>
            <styleUrl>#17760</styleUrl>
            <LineString id="17758">
                <coordinates>107.5758021,-6.913142,0.0 107.5761151,-6.9132715,0.0</coordinates>
            </LineString>
        </Placemark>
        <Placemark id="17763">
            <name>Jalan Jenderal Ahmad Yani</name>
            <styleUrl>#17764</styleUrl>
            <LineString id="17762">
                <coordinates>107.6373187,-6.9118909,0.0 107.6374263,-6.9118346,0.0</coordinates>
            </LineString>
        </Placemark>
        <Placemark id="17767">
            <name>Jalan Jenderal Ahmad Yani</name>
            <styleUrl>#17768</styleUrl>
            <LineString id="17766">
                <coordinates>107.6346004,-6.9133622,0.0 107.6348701,-6.9132101,0.0 107.6350944,-6.9130848,0.0 107.6360221,-6.9125878,0.0 107.6362555,-6.9124665,0.0 107.6363636,-6.912405,0.0 107.6365694,-6.9123013,0.0 107.6367997,-6.9121741,0.0 107.6368611,-6.91214,0.0 107.6370716,-6.9120251,0.0 107.6372585,-6.9119218,0.0 107.6373187,-6.9118909,0.0</coordinates>
            </LineString>
        </Placemark>
    </Document>
</kml>
