<?xml version="1.0" encoding="UTF-8"?>
<kml xmlns="http://www.opengis.net/kml/2.2" xmlns:gx="http://www.google.com/kml/ext/2.2">
    <Document id="18017">
        <Style id="18023">
            <IconStyle id="18024">
                <colorMode>normal</colorMode>
                <scale>1</scale>
                <heading>0</heading>
                <Icon id="18025">
                    <href>http://maps.google.com/mapfiles/kml/pushpin/ylw-pushpin.png</href>
                </Icon>
            </IconStyle>
        </Style>
        <Style id="18028">
            <IconStyle id="18029">
                <colorMode>normal</colorMode>
                <scale>1</scale>
                <heading>0</heading>
                <Icon id="18030">
                    <href>http://maps.google.com/mapfiles/kml/pushpin/ylw-pushpin.png</href>
                </Icon>
            </IconStyle>
        </Style>
        <Style id="18033">
            <IconStyle id="18034">
                <colorMode>normal</colorMode>
                <scale>1</scale>
                <heading>0</heading>
                <Icon id="18035">
                    <href>http://maps.google.com/mapfiles/kml/pushpin/ylw-pushpin.png</href>
                </Icon>
            </IconStyle>
        </Style>
        <Style id="18038">
            <IconStyle id="18039">
                <colorMode>normal</colorMode>
                <scale>1</scale>
                <heading>0</heading>
                <Icon id="18040">
                    <href>http://maps.google.com/mapfiles/kml/pushpin/ylw-pushpin.png</href>
                </Icon>
            </IconStyle>
        </Style>
        <Style id="18043">
            <IconStyle id="18044">
                <colorMode>normal</colorMode>
                <scale>1</scale>
                <heading>0</heading>
                <Icon id="18045">
                    <href>http://maps.google.com/mapfiles/kml/pushpin/ylw-pushpin.png</href>
                </Icon>
            </IconStyle>
        </Style>
        <Style id="18048">
            <IconStyle id="18049">
                <colorMode>normal</colorMode>
                <scale>1</scale>
                <heading>0</heading>
                <Icon id="18050">
                    <href>http://maps.google.com/mapfiles/kml/pushpin/ylw-pushpin.png</href>
                </Icon>
            </IconStyle>
        </Style>
        <Style id="18053">
            <IconStyle id="18054">
                <colorMode>normal</colorMode>
                <scale>1</scale>
                <heading>0</heading>
                <Icon id="18055">
                    <href>http://maps.google.com/mapfiles/kml/pushpin/ylw-pushpin.png</href>
                </Icon>
            </IconStyle>
        </Style>
        <Style id="18058">
            <IconStyle id="18059">
                <colorMode>normal</colorMode>
                <scale>1</scale>
                <heading>0</heading>
                <Icon id="18060">
                    <href>http://maps.google.com/mapfiles/kml/pushpin/ylw-pushpin.png</href>
                </Icon>
            </IconStyle>
        </Style>
        <Style id="18063">
            <IconStyle id="18064">
                <colorMode>normal</colorMode>
                <scale>1</scale>
                <heading>0</heading>
                <Icon id="18065">
                    <href>http://maps.google.com/mapfiles/kml/pushpin/ylw-pushpin.png</href>
                </Icon>
            </IconStyle>
        </Style>
        <Style id="18068">
            <IconStyle id="18069">
                <colorMode>normal</colorMode>
                <scale>1</scale>
                <heading>0</heading>
                <Icon id="18070">
                    <href>http://maps.google.com/mapfiles/kml/pushpin/ylw-pushpin.png</href>
                </Icon>
            </IconStyle>
        </Style>
        <Style id="18073">
            <IconStyle id="18074">
                <colorMode>normal</colorMode>
                <scale>1</scale>
                <heading>0</heading>
                <Icon id="18075">
                    <href>http://maps.google.com/mapfiles/kml/pushpin/ylw-pushpin.png</href>
                </Icon>
            </IconStyle>
        </Style>
        <Style id="18078">
            <IconStyle id="18079">
                <colorMode>normal</colorMode>
                <scale>1</scale>
                <heading>0</heading>
                <Icon id="18080">
                    <href>http://maps.google.com/mapfiles/kml/pushpin/ylw-pushpin.png</href>
                </Icon>
            </IconStyle>
        </Style>
        <Style id="18083">
            <IconStyle id="18084">
                <colorMode>normal</colorMode>
                <scale>1</scale>
                <heading>0</heading>
                <Icon id="18085">
                    <href>http://maps.google.com/mapfiles/kml/pushpin/ylw-pushpin.png</href>
                </Icon>
            </IconStyle>
        </Style>
        <Style id="18088">
            <IconStyle id="18089">
                <colorMode>normal</colorMode>
                <scale>1</scale>
                <heading>0</heading>
                <Icon id="18090">
                    <href>http://maps.google.com/mapfiles/kml/pushpin/ylw-pushpin.png</href>
                </Icon>
            </IconStyle>
        </Style>
        <Style id="18093">
            <IconStyle id="18094">
                <colorMode>normal</colorMode>
                <scale>1</scale>
                <heading>0</heading>
                <Icon id="18095">
                    <href>http://maps.google.com/mapfiles/kml/pushpin/ylw-pushpin.png</href>
                </Icon>
            </IconStyle>
        </Style>
        <Style id="18098">
            <IconStyle id="18099">
                <colorMode>normal</colorMode>
                <scale>1</scale>
                <heading>0</heading>
                <Icon id="18100">
                    <href>http://maps.google.com/mapfiles/kml/pushpin/ylw-pushpin.png</href>
                </Icon>
            </IconStyle>
        </Style>
        <Style id="18103">
            <IconStyle id="18104">
                <colorMode>normal</colorMode>
                <scale>1</scale>
                <heading>0</heading>
                <Icon id="18105">
                    <href>http://maps.google.com/mapfiles/kml/pushpin/ylw-pushpin.png</href>
                </Icon>
            </IconStyle>
        </Style>
        <Style id="18108">
            <LineStyle id="18109">
                <color>ff294D73</color>
                <colorMode>normal</colorMode>
                <width>4</width>
            </LineStyle>
        </Style>
        <Style id="18112">
            <LineStyle id="18113">
                <color>ff294D73</color>
                <colorMode>normal</colorMode>
                <width>4</width>
            </LineStyle>
        </Style>
        <Style id="18116">
            <LineStyle id="18117">
                <color>ff294D73</color>
                <colorMode>normal</colorMode>
                <width>4</width>
            </LineStyle>
        </Style>
        <Style id="18120">
            <LineStyle id="18121">
                <color>ff294D73</color>
                <colorMode>normal</colorMode>
                <width>4</width>
            </LineStyle>
        </Style>
        <Style id="18124">
            <LineStyle id="18125">
                <color>ff294D73</color>
                <colorMode>normal</colorMode>
                <width>4</width>
            </LineStyle>
        </Style>
        <Style id="18128">
            <LineStyle id="18129">
                <color>ff294D73</color>
                <colorMode>normal</colorMode>
                <width>4</width>
            </LineStyle>
        </Style>
        <Style id="18132">
            <LineStyle id="18133">
                <color>ff294D73</color>
                <colorMode>normal</colorMode>
                <width>4</width>
            </LineStyle>
        </Style>
        <Style id="18136">
            <LineStyle id="18137">
                <color>ff294D73</color>
                <colorMode>normal</colorMode>
                <width>4</width>
            </LineStyle>
        </Style>
        <Style id="18140">
            <LineStyle id="18141">
                <color>ff294D73</color>
                <colorMode>normal</colorMode>
                <width>4</width>
            </LineStyle>
        </Style>
        <Style id="18144">
            <LineStyle id="18145">
                <color>ff294D73</color>
                <colorMode>normal</colorMode>
                <width>4</width>
            </LineStyle>
        </Style>
        <Style id="18148">
            <LineStyle id="18149">
                <color>ff294D73</color>
                <colorMode>normal</colorMode>
                <width>4</width>
            </LineStyle>
        </Style>
        <Style id="18152">
            <LineStyle id="18153">
                <color>ff294D73</color>
                <colorMode>normal</colorMode>
                <width>4</width>
            </LineStyle>
        </Style>
        <Style id="18156">
            <LineStyle id="18157">
                <color>ff294D73</color>
                <colorMode>normal</colorMode>
                <width>4</width>
            </LineStyle>
        </Style>
        <Style id="18160">
            <LineStyle id="18161">
                <color>ff294D73</color>
                <colorMode>normal</colorMode>
                <width>4</width>
            </LineStyle>
        </Style>
        <Style id="18164">
            <LineStyle id="18165">
                <color>ff294D73</color>
                <colorMode>normal</colorMode>
                <width>4</width>
            </LineStyle>
        </Style>
        <Style id="18168">
            <LineStyle id="18169">
                <color>ff294D73</color>
                <colorMode>normal</colorMode>
                <width>4</width>
            </LineStyle>
        </Style>
        <Style id="18172">
            <LineStyle id="18173">
                <color>ff294D73</color>
                <colorMode>normal</colorMode>
                <width>4</width>
            </LineStyle>
        </Style>
        <Style id="18176">
            <LineStyle id="18177">
                <color>ff294D73</color>
                <colorMode>normal</colorMode>
                <width>4</width>
            </LineStyle>
        </Style>
        <Style id="18180">
            <LineStyle id="18181">
                <color>ff294D73</color>
                <colorMode>normal</colorMode>
                <width>4</width>
            </LineStyle>
        </Style>
        <Style id="18184">
            <LineStyle id="18185">
                <color>ff294D73</color>
                <colorMode>normal</colorMode>
                <width>4</width>
            </LineStyle>
        </Style>
        <Style id="18188">
            <LineStyle id="18189">
                <color>ff294D73</color>
                <colorMode>normal</colorMode>
                <width>4</width>
            </LineStyle>
        </Style>
        <Style id="18192">
            <LineStyle id="18193">
                <color>ff294D73</color>
                <colorMode>normal</colorMode>
                <width>4</width>
            </LineStyle>
        </Style>
        <Style id="18196">
            <LineStyle id="18197">
                <color>ff294D73</color>
                <colorMode>normal</colorMode>
                <width>4</width>
            </LineStyle>
        </Style>
        <Style id="18200">
            <LineStyle id="18201">
                <color>ff294D73</color>
                <colorMode>normal</colorMode>
                <width>4</width>
            </LineStyle>
        </Style>
        <Style id="18204">
            <LineStyle id="18205">
                <color>ff294D73</color>
                <colorMode>normal</colorMode>
                <width>4</width>
            </LineStyle>
        </Style>
        <Style id="18208">
            <LineStyle id="18209">
                <color>ff294D73</color>
                <colorMode>normal</colorMode>
                <width>4</width>
            </LineStyle>
        </Style>
        <Style id="18212">
            <LineStyle id="18213">
                <color>ff294D73</color>
                <colorMode>normal</colorMode>
                <width>4</width>
            </LineStyle>
        </Style>
        <Style id="18216">
            <LineStyle id="18217">
                <color>ff294D73</color>
                <colorMode>normal</colorMode>
                <width>4</width>
            </LineStyle>
        </Style>
        <Style id="18220">
            <LineStyle id="18221">
                <color>ff294D73</color>
                <colorMode>normal</colorMode>
                <width>4</width>
            </LineStyle>
        </Style>
        <Style id="18224">
            <LineStyle id="18225">
                <color>ff294D73</color>
                <colorMode>normal</colorMode>
                <width>4</width>
            </LineStyle>
        </Style>
        <Style id="18228">
            <LineStyle id="18229">
                <color>ff294D73</color>
                <colorMode>normal</colorMode>
                <width>4</width>
            </LineStyle>
        </Style>
        <Style id="18232">
            <LineStyle id="18233">
                <color>ff294D73</color>
                <colorMode>normal</colorMode>
                <width>4</width>
            </LineStyle>
        </Style>
        <Style id="18236">
            <LineStyle id="18237">
                <color>ff294D73</color>
                <colorMode>normal</colorMode>
                <width>4</width>
            </LineStyle>
        </Style>
        <Style id="18240">
            <LineStyle id="18241">
                <color>ff294D73</color>
                <colorMode>normal</colorMode>
                <width>4</width>
            </LineStyle>
        </Style>
        <Style id="18244">
            <LineStyle id="18245">
                <color>ff294D73</color>
                <colorMode>normal</colorMode>
                <width>4</width>
            </LineStyle>
        </Style>
        <Style id="18248">
            <LineStyle id="18249">
                <color>ff294D73</color>
                <colorMode>normal</colorMode>
                <width>4</width>
            </LineStyle>
        </Style>
        <Style id="18252">
            <LineStyle id="18253">
                <color>ff294D73</color>
                <colorMode>normal</colorMode>
                <width>4</width>
            </LineStyle>
        </Style>
        <Style id="18256">
            <LineStyle id="18257">
                <color>ff294D73</color>
                <colorMode>normal</colorMode>
                <width>4</width>
            </LineStyle>
        </Style>
        <Style id="18260">
            <LineStyle id="18261">
                <color>ff294D73</color>
                <colorMode>normal</colorMode>
                <width>4</width>
            </LineStyle>
        </Style>
        <Style id="18264">
            <LineStyle id="18265">
                <color>ff294D73</color>
                <colorMode>normal</colorMode>
                <width>4</width>
            </LineStyle>
        </Style>
        <Style id="18268">
            <LineStyle id="18269">
                <color>ff294D73</color>
                <colorMode>normal</colorMode>
                <width>4</width>
            </LineStyle>
        </Style>
        <Style id="18272">
            <LineStyle id="18273">
                <color>ff294D73</color>
                <colorMode>normal</colorMode>
                <width>4</width>
            </LineStyle>
        </Style>
        <Style id="18276">
            <LineStyle id="18277">
                <color>ff294D73</color>
                <colorMode>normal</colorMode>
                <width>4</width>
            </LineStyle>
        </Style>
        <Style id="18280">
            <LineStyle id="18281">
                <color>ff294D73</color>
                <colorMode>normal</colorMode>
                <width>4</width>
            </LineStyle>
        </Style>
        <Style id="18284">
            <LineStyle id="18285">
                <color>ff294D73</color>
                <colorMode>normal</colorMode>
                <width>4</width>
            </LineStyle>
        </Style>
        <Style id="18288">
            <LineStyle id="18289">
                <color>ff294D73</color>
                <colorMode>normal</colorMode>
                <width>4</width>
            </LineStyle>
        </Style>
        <Style id="18292">
            <LineStyle id="18293">
                <color>ff294D73</color>
                <colorMode>normal</colorMode>
                <width>4</width>
            </LineStyle>
        </Style>
        <Style id="18296">
            <LineStyle id="18297">
                <color>ff294D73</color>
                <colorMode>normal</colorMode>
                <width>4</width>
            </LineStyle>
        </Style>
        <Style id="18300">
            <LineStyle id="18301">
                <color>ff294D73</color>
                <colorMode>normal</colorMode>
                <width>4</width>
            </LineStyle>
        </Style>
        <Style id="18304">
            <LineStyle id="18305">
                <color>ff294D73</color>
                <colorMode>normal</colorMode>
                <width>4</width>
            </LineStyle>
        </Style>
        <Style id="18308">
            <LineStyle id="18309">
                <color>ff294D73</color>
                <colorMode>normal</colorMode>
                <width>4</width>
            </LineStyle>
        </Style>
        <Style id="18312">
            <LineStyle id="18313">
                <color>ff294D73</color>
                <colorMode>normal</colorMode>
                <width>4</width>
            </LineStyle>
        </Style>
        <Style id="18316">
            <LineStyle id="18317">
                <color>ff294D73</color>
                <colorMode>normal</colorMode>
                <width>4</width>
            </LineStyle>
        </Style>
        <Style id="18320">
            <LineStyle id="18321">
                <color>ff294D73</color>
                <colorMode>normal</colorMode>
                <width>4</width>
            </LineStyle>
        </Style>
        <Style id="18324">
            <LineStyle id="18325">
                <color>ff294D73</color>
                <colorMode>normal</colorMode>
                <width>4</width>
            </LineStyle>
        </Style>
        <Style id="18328">
            <LineStyle id="18329">
                <color>ff294D73</color>
                <colorMode>normal</colorMode>
                <width>4</width>
            </LineStyle>
        </Style>
        <Style id="18332">
            <LineStyle id="18333">
                <color>ff294D73</color>
                <colorMode>normal</colorMode>
                <width>4</width>
            </LineStyle>
        </Style>
        <Style id="18336">
            <LineStyle id="18337">
                <color>ff294D73</color>
                <colorMode>normal</colorMode>
                <width>4</width>
            </LineStyle>
        </Style>
        <Style id="18340">
            <LineStyle id="18341">
                <color>ff294D73</color>
                <colorMode>normal</colorMode>
                <width>4</width>
            </LineStyle>
        </Style>
        <Style id="18344">
            <LineStyle id="18345">
                <color>ff294D73</color>
                <colorMode>normal</colorMode>
                <width>4</width>
            </LineStyle>
        </Style>
        <Style id="18348">
            <LineStyle id="18349">
                <color>ff294D73</color>
                <colorMode>normal</colorMode>
                <width>4</width>
            </LineStyle>
        </Style>
        <Style id="18352">
            <LineStyle id="18353">
                <color>ff294D73</color>
                <colorMode>normal</colorMode>
                <width>4</width>
            </LineStyle>
        </Style>
        <ExtendedData>
            <Data name="route-name">
                <value>Koridor 3: Sarijadi → Cicaheum</value>
            </Data>
            <Data name="source">
                <value>Transport for Bandung</value>
            </Data>
        </ExtendedData>
        <Placemark id="18022">
            <name>Gasibu</name>
            <styleUrl>#18023</styleUrl>
            <Point id="18021">
                <coordinates>107.6179645,-6.899261,0.0</coordinates>
            </Point>
        </Placemark>
        <Placemark id="18027">
            <name>Cikapayang Dago 2</name>
            <styleUrl>#18028</styleUrl>
            <Point id="18026">
                <coordinates>107.6135004,-6.898852,0.0</coordinates>
            </Point>
        </Placemark>
        <Placemark id="18032">
            <name>Sukasenang Raya 2</name>
            <styleUrl>#18033</styleUrl>
            <Point id="18031">
                <coordinates>107.6370818,-6.8984481,0.0</coordinates>
            </Point>
        </Placemark>
        <Placemark id="18037">
            <name>Sukapada</name>
            <styleUrl>#18038</styleUrl>
            <Point id="18036">
                <coordinates>107.6439328,-6.9000256,0.0</coordinates>
            </Point>
        </Placemark>
        <Placemark id="18042">
            <name>Seberang Terminal Cicaheum</name>
            <styleUrl>#18043</styleUrl>
            <Point id="18041">
                <coordinates>107.6567969,-6.9021302,0.0</coordinates>
            </Point>
        </Placemark>
        <Placemark id="18047">
            <name>ITENAS</name>
            <styleUrl>#18048</styleUrl>
            <Point id="18046">
                <coordinates>107.6362093,-6.8982483,0.0</coordinates>
            </Point>
        </Placemark>
        <Placemark id="18052">
            <name>Mall d'Botanica</name>
            <styleUrl>#18053</styleUrl>
            <Point id="18051">
                <coordinates>107.5849478,-6.8925604,0.0</coordinates>
            </Point>
        </Placemark>
        <Placemark id="18057">
            <name>Setrasari</name>
            <styleUrl>#18058</styleUrl>
            <Point id="18056">
                <coordinates>107.5815346,-6.8821971,0.0</coordinates>
            </Point>
        </Placemark>
        <Placemark id="18062">
            <name>Griya Pasteur 2</name>
            <styleUrl>#18063</styleUrl>
            <Point id="18061">
                <coordinates>107.5883918,-6.8948914,0.0</coordinates>
            </Point>
        </Placemark>
        <Placemark id="18067">
            <name>Tamansari Cikapayang</name>
            <styleUrl>#18068</styleUrl>
            <Point id="18066">
                <coordinates>107.610121,-6.8982089,0.0</coordinates>
            </Point>
        </Placemark>
        <Placemark id="18072">
            <name>Distan Jabar</name>
            <styleUrl>#18073</styleUrl>
            <Point id="18071">
                <coordinates>107.6225131,-6.8992349,0.0</coordinates>
            </Point>
        </Placemark>
        <Placemark id="18077">
            <name>Dapen Telkom</name>
            <styleUrl>#18078</styleUrl>
            <Point id="18076">
                <coordinates>107.6285873,-6.8998503,0.0</coordinates>
            </Point>
        </Placemark>
        <Placemark id="18082">
            <name>Jalaprang</name>
            <styleUrl>#18083</styleUrl>
            <Point id="18081">
                <coordinates>107.6321413,-6.8983546,0.0</coordinates>
            </Point>
        </Placemark>
        <Placemark id="18087">
            <name>Sekolah Pribadi</name>
            <styleUrl>#18088</styleUrl>
            <Point id="18086">
                <coordinates>107.6404383,-6.8992417,0.0</coordinates>
            </Point>
        </Placemark>
        <Placemark id="18092">
            <name>Surapati Core</name>
            <styleUrl>#18093</styleUrl>
            <Point id="18091">
                <coordinates>107.6525276,-6.9018908,0.0</coordinates>
            </Point>
        </Placemark>
        <Placemark id="18097">
            <name>Sarijadi</name>
            <styleUrl>#18098</styleUrl>
            <Point id="18096">
                <coordinates>107.5784297,-6.881656,0.0</coordinates>
            </Point>
        </Placemark>
        <Placemark id="18102">
            <name>Terminal Cicaheum</name>
            <styleUrl>#18103</styleUrl>
            <Point id="18101">
                <coordinates>107.6565637,-6.902329,0.0</coordinates>
            </Point>
        </Placemark>
        <Placemark id="18107">
            <name>Jalan Terusan Prof. Dr. Ir. Sutami</name>
            <styleUrl>#18108</styleUrl>
            <LineString id="18106">
                <coordinates>107.5786717,-6.8807526,0.0 107.5787548,-6.8807282,0.0 107.5789373,-6.8806779,0.0 107.5791917,-6.8805967,0.0 107.5796287,-6.8804593,0.0 107.5800531,-6.8803113,0.0 107.5801347,-6.8802847,0.0 107.5807442,-6.8800859,0.0 107.5808203,-6.8800649,0.0 107.5808999,-6.8800589,0.0 107.5809455,-6.8800755,0.0 107.5809742,-6.8801098,0.0 107.5810228,-6.8802184,0.0 107.5811445,-6.8805697,0.0 107.5812061,-6.8807613,0.0 107.5812538,-6.8809245,0.0</coordinates>
            </LineString>
        </Placemark>
        <Placemark id="18111">
            <name>Jalan PH. H. Mustofa</name>
            <styleUrl>#18112</styleUrl>
            <LineString id="18110">
                <coordinates>107.6370818,-6.8984481,0.0 107.637183,-6.8984713,0.0 107.6373036,-6.8984993,0.0 107.63734,-6.8985077,0.0 107.6374067,-6.8985235,0.0 107.6375247,-6.8985515,0.0 107.6376569,-6.8985829,0.0 107.6378565,-6.8986302,0.0 107.6379062,-6.898642,0.0 107.6379805,-6.8986596,0.0 107.6380614,-6.8986788,0.0 107.6382004,-6.8987117,0.0 107.6383016,-6.8987357,0.0 107.6385967,-6.8988043,0.0 107.6389496,-6.8988893,0.0 107.6392578,-6.8989624,0.0 107.6394338,-6.8990042,0.0 107.639528,-6.8990264,0.0 107.639689,-6.8990635,0.0 107.6397992,-6.8990899,0.0 107.6398962,-6.8991138,0.0 107.6399762,-6.8991322,0.0 107.640051,-6.8991472,0.0 107.6404383,-6.8992417,0.0 107.6405323,-6.8992646,0.0 107.6407134,-6.8993075,0.0 107.6407662,-6.89932,0.0 107.6408435,-6.8993384,0.0 107.6412764,-6.899441,0.0 107.641347,-6.8994578,0.0 107.6415516,-6.8995076,0.0 107.6416085,-6.8995205,0.0 107.6416794,-6.8995366,0.0 107.6416949,-6.8995403,0.0 107.6417385,-6.8995506,0.0 107.6417839,-6.8995613,0.0</coordinates>
            </LineString>
        </Placemark>
        <Placemark id="18115">
            <name>Jalan Surapati</name>
            <styleUrl>#18116</styleUrl>
            <LineString id="18114">
                <coordinates>107.6132841,-6.8988423,0.0 107.6135004,-6.898852,0.0 107.6140011,-6.8988575,0.0 107.6147331,-6.8988511,0.0 107.615213,-6.8988527,0.0 107.6156959,-6.8989008,0.0 107.6158827,-6.8989216,0.0 107.6160286,-6.8989397,0.0</coordinates>
            </LineString>
        </Placemark>
        <Placemark id="18119">
            <name>Jalan Layang Professor Mochtar Kusumaatmadja</name>
            <styleUrl>#18120</styleUrl>
            <LineString id="18118">
                <coordinates>107.5940507,-6.8987546,0.0 107.5946581,-6.8993591,0.0 107.5949531,-6.8996147,0.0 107.5950732,-6.8997086,0.0 107.5952924,-6.8998503,0.0 107.5954387,-6.8999455,0.0 107.5955674,-6.9000194,0.0 107.5956516,-6.9000554,0.0 107.5957357,-6.9000906,0.0 107.5958551,-6.9001273,0.0 107.5960315,-6.9001752,0.0 107.5961655,-6.9002151,0.0 107.5962829,-6.9002324,0.0 107.5964136,-6.9002431,0.0 107.5965799,-6.9002538,0.0 107.5968689,-6.9002638,0.0 107.5971854,-6.9002737,0.0 107.6013381,-6.9002484,0.0 107.6015694,-6.9002493,0.0 107.6023104,-6.9002547,0.0 107.6036808,-6.9002685,0.0 107.6039614,-6.9002731,0.0 107.604298,-6.9002223,0.0 107.604564,-6.9001324,0.0 107.6047649,-6.9000477,0.0 107.6049515,-6.8999657,0.0 107.605481,-6.8996828,0.0 107.6061125,-6.8993484,0.0</coordinates>
            </LineString>
        </Placemark>
        <Placemark id="18123">
            <name>Jalan Layang Professor Mochtar Kusumaatmadja</name>
            <styleUrl>#18124</styleUrl>
            <LineString id="18122">
                <coordinates>107.5936018,-6.898303,0.0 107.5940507,-6.8987546,0.0</coordinates>
            </LineString>
        </Placemark>
        <Placemark id="18127">
            <name>Jalan Cikapayang</name>
            <styleUrl>#18128</styleUrl>
            <LineString id="18126">
                <coordinates>107.6096733,-6.898062,0.0 107.609686,-6.8980649,0.0 107.6098477,-6.8981018,0.0 107.610121,-6.8982089,0.0 107.6102355,-6.8982538,0.0 107.6106335,-6.8984212,0.0 107.6107567,-6.8984695,0.0 107.6111644,-6.8986221,0.0 107.6115705,-6.8987489,0.0 107.6116278,-6.8987668,0.0</coordinates>
            </LineString>
        </Placemark>
        <Placemark id="18131">
            <name>Jalan PH. H. Mustofa</name>
            <styleUrl>#18132</styleUrl>
            <LineString id="18130">
                <coordinates>107.643667,-6.8999883,0.0 107.6437562,-6.9000026,0.0</coordinates>
            </LineString>
        </Placemark>
        <Placemark id="18135">
            <name>Jalan PH. H. Mustofa</name>
            <styleUrl>#18136</styleUrl>
            <LineString id="18134">
                <coordinates>107.6437562,-6.9000026,0.0 107.6437845,-6.9000071,0.0 107.6438196,-6.9000127,0.0</coordinates>
            </LineString>
        </Placemark>
        <Placemark id="18139">
            <name>Jalan Prof. Dr. Surya Soemantri</name>
            <styleUrl>#18140</styleUrl>
            <LineString id="18138">
                <coordinates>107.5815555,-6.8825799,0.0 107.5815192,-6.8833929,0.0 107.5815074,-6.883939,0.0 107.5814773,-6.8847133,0.0 107.5814554,-6.8853118,0.0 107.5814526,-6.8853758,0.0 107.5814421,-6.8855849,0.0 107.581436,-6.8858995,0.0 107.5814324,-6.8860396,0.0 107.5814287,-6.8861826,0.0 107.5814195,-6.8867349,0.0 107.5813877,-6.8877089,0.0 107.5813871,-6.8879137,0.0 107.5813864,-6.8880142,0.0 107.5814131,-6.888356,0.0 107.5814626,-6.8888717,0.0 107.5814693,-6.8889606,0.0 107.5814838,-6.8891282,0.0 107.5814967,-6.8892663,0.0 107.581506,-6.8893611,0.0 107.5815111,-6.8894079,0.0 107.5815613,-6.8898687,0.0 107.5815567,-6.8901532,0.0 107.5815553,-6.8902314,0.0 107.5815517,-6.8902902,0.0 107.5814766,-6.8910699,0.0</coordinates>
            </LineString>
        </Placemark>
        <Placemark id="18143">
            <name>Jalan Prof. Dr. Surya Soemantri</name>
            <styleUrl>#18144</styleUrl>
            <LineString id="18142">
                <coordinates>107.581406,-6.8915163,0.0 107.581437,-6.8917391,0.0 107.581475,-6.8919045,0.0 107.5815218,-6.8920151,0.0 107.5815618,-6.8920666,0.0 107.5817292,-6.8921838,0.0 107.5819472,-6.8922747,0.0</coordinates>
            </LineString>
        </Placemark>
        <Placemark id="18147">
            <name>Route Segment</name>
            <styleUrl>#18148</styleUrl>
            <LineString id="18146">
                <coordinates>107.6077607,-6.8983299,0.0 107.6079907,-6.8982001,0.0 107.6083106,-6.89809,0.0</coordinates>
            </LineString>
        </Placemark>
        <Placemark id="18151">
            <name>Route Segment</name>
            <styleUrl>#18152</styleUrl>
            <LineString id="18150">
                <coordinates>107.6091092,-6.8979755,0.0 107.6092633,-6.8979925,0.0</coordinates>
            </LineString>
        </Placemark>
        <Placemark id="18155">
            <name>Route Segment</name>
            <styleUrl>#18156</styleUrl>
            <LineString id="18154">
                <coordinates>107.6083106,-6.89809,0.0 107.6085059,-6.8980375,0.0 107.6087059,-6.8979988,0.0 107.6089056,-6.8979807,0.0 107.6091092,-6.8979755,0.0</coordinates>
            </LineString>
        </Placemark>
        <Placemark id="18159">
            <name>Jalan Surapati</name>
            <styleUrl>#18160</styleUrl>
            <LineString id="18158">
                <coordinates>107.6272181,-6.8994982,0.0 107.6276128,-6.8995937,0.0 107.6279771,-6.8996818,0.0 107.62811,-6.8997221,0.0 107.6284084,-6.8998071,0.0 107.6284753,-6.8998262,0.0 107.6285873,-6.8998503,0.0 107.6287094,-6.8998644,0.0 107.6289085,-6.8998766,0.0 107.6292369,-6.8998595,0.0 107.6293496,-6.8998537,0.0 107.6294234,-6.8998417,0.0 107.6294905,-6.8998265,0.0 107.629705,-6.8997733,0.0 107.6298923,-6.8997215,0.0 107.6301923,-6.8996062,0.0 107.6303142,-6.8995517,0.0 107.6305872,-6.8993785,0.0 107.6307582,-6.8992701,0.0</coordinates>
            </LineString>
        </Placemark>
        <Placemark id="18163">
            <name>Jalan Surapati</name>
            <styleUrl>#18164</styleUrl>
            <LineString id="18162">
                <coordinates>107.6164572,-6.8990452,0.0 107.6177545,-6.8992474,0.0 107.6179645,-6.899261,0.0 107.6181289,-6.8992635,0.0 107.6184335,-6.8992562,0.0</coordinates>
            </LineString>
        </Placemark>
        <Placemark id="18167">
            <name>Jalan Surapati</name>
            <styleUrl>#18168</styleUrl>
            <LineString id="18166">
                <coordinates>107.6271231,-6.8994764,0.0 107.6270152,-6.8994551,0.0</coordinates>
            </LineString>
        </Placemark>
        <Placemark id="18171">
            <name>Jalan Surapati</name>
            <styleUrl>#18172</styleUrl>
            <LineString id="18170">
                <coordinates>107.6160286,-6.8989397,0.0 107.6160918,-6.8989527,0.0 107.6161796,-6.8989698,0.0 107.6163593,-6.8990187,0.0 107.6164572,-6.8990452,0.0</coordinates>
            </LineString>
        </Placemark>
        <Placemark id="18175">
            <name>Jalan Surapati</name>
            <styleUrl>#18176</styleUrl>
            <LineString id="18174">
                <coordinates>107.6193443,-6.89924,0.0 107.619731,-6.8992344,0.0 107.6198113,-6.89924,0.0</coordinates>
            </LineString>
        </Placemark>
        <Placemark id="18179">
            <name>Jalan Cikapayang</name>
            <styleUrl>#18180</styleUrl>
            <LineString id="18178">
                <coordinates>107.6127424,-6.8988496,0.0 107.6128334,-6.8988469,0.0</coordinates>
            </LineString>
        </Placemark>
        <Placemark id="18183">
            <name>Jalan Surapati</name>
            <styleUrl>#18184</styleUrl>
            <LineString id="18182">
                <coordinates>107.6198113,-6.89924,0.0 107.6199187,-6.8992847,0.0</coordinates>
            </LineString>
        </Placemark>
        <Placemark id="18187">
            <name>Jalan Surapati</name>
            <styleUrl>#18188</styleUrl>
            <LineString id="18186">
                <coordinates>107.6184335,-6.8992562,0.0 107.6189635,-6.8992333,0.0 107.6190223,-6.899231,0.0 107.6190829,-6.8992313,0.0 107.6192777,-6.8992377,0.0 107.6193443,-6.89924,0.0</coordinates>
            </LineString>
        </Placemark>
        <Placemark id="18191">
            <name>Jalan PH. H. Mustofa</name>
            <styleUrl>#18192</styleUrl>
            <LineString id="18190">
                <coordinates>107.6434139,-6.8999482,0.0 107.6435297,-6.8999663,0.0 107.6436124,-6.8999796,0.0 107.643667,-6.8999883,0.0</coordinates>
            </LineString>
        </Placemark>
        <Placemark id="18195">
            <name>Jalan Dr. Djunjunan</name>
            <styleUrl>#18196</styleUrl>
            <LineString id="18194">
                <coordinates>107.5819472,-6.8922747,0.0 107.582151,-6.8922778,0.0 107.5824915,-6.8922676,0.0 107.5829072,-6.8922539,0.0 107.5830115,-6.8922505,0.0 107.5831666,-6.89225,0.0 107.5835209,-6.8922577,0.0 107.5836678,-6.892264,0.0 107.5837576,-6.892272,0.0 107.5839104,-6.8922944,0.0 107.58417,-6.8923379,0.0 107.5844712,-6.8924032,0.0 107.5845652,-6.8924203,0.0 107.5845966,-6.8924318,0.0 107.5849478,-6.8925604,0.0 107.5851106,-6.8926214,0.0 107.5851944,-6.8926652,0.0 107.5852992,-6.8927221,0.0 107.5853945,-6.8927739,0.0 107.5854858,-6.8928249,0.0 107.5855165,-6.8928413,0.0 107.585756,-6.8929666,0.0 107.5858569,-6.8930235,0.0 107.5869911,-6.8938819,0.0 107.5871385,-6.8939896,0.0</coordinates>
            </LineString>
        </Placemark>
        <Placemark id="18199">
            <name>Jalan PH. H. Mustofa</name>
            <styleUrl>#18200</styleUrl>
            <LineString id="18198">
                <coordinates>107.6438196,-6.9000127,0.0 107.6439328,-6.9000256,0.0 107.643984,-6.9000314,0.0 107.6442214,-6.9000581,0.0 107.6446479,-6.9001485,0.0 107.6446782,-6.9001599,0.0 107.6448952,-6.9002413,0.0 107.6449808,-6.9002743,0.0 107.6452068,-6.9003719,0.0 107.6452442,-6.900388,0.0 107.6452841,-6.9004052,0.0 107.6453987,-6.9004547,0.0 107.6455117,-6.9005103,0.0 107.6455998,-6.9005537,0.0 107.6457674,-6.9006362,0.0 107.6458421,-6.900673,0.0 107.6461092,-6.9008033,0.0 107.6461914,-6.9008434,0.0 107.6463329,-6.9009168,0.0 107.6464296,-6.900967,0.0 107.6469046,-6.9012136,0.0 107.6469293,-6.9012264,0.0 107.6474504,-6.9014584,0.0 107.6477192,-6.901552,0.0 107.6478569,-6.9015852,0.0 107.6480152,-6.9016027,0.0 107.6481316,-6.9016115,0.0 107.6484583,-6.9016362,0.0 107.6485627,-6.9016441,0.0 107.6490533,-6.9016812,0.0 107.6491826,-6.901691,0.0 107.6497732,-6.9017359,0.0 107.6500375,-6.9017541,0.0 107.650317,-6.9017942,0.0 107.6505985,-6.9018158,0.0 107.65075,-6.9018006,0.0</coordinates>
            </LineString>
        </Placemark>
        <Placemark id="18203">
            <name>Jalan Surapati</name>
            <styleUrl>#18204</styleUrl>
            <LineString id="18202">
                <coordinates>107.6317478,-6.89851,0.0 107.6317973,-6.8984824,0.0 107.6318468,-6.8984548,0.0 107.6318874,-6.8984409,0.0 107.6321413,-6.8983546,0.0 107.6322627,-6.8983133,0.0 107.6323113,-6.8982992,0.0 107.6323546,-6.8982866,0.0 107.6324173,-6.8982682,0.0 107.6324886,-6.8982473,0.0 107.6326134,-6.8982107,0.0 107.632649,-6.8982011,0.0 107.6328162,-6.8981559,0.0 107.6328451,-6.8981481,0.0 107.6329499,-6.8981174,0.0 107.6330521,-6.8980875,0.0 107.6332834,-6.8980179,0.0 107.6336231,-6.897911,0.0 107.6336669,-6.8978975,0.0 107.633968,-6.8978245,0.0 107.6341816,-6.8977908,0.0</coordinates>
            </LineString>
        </Placemark>
        <Placemark id="18207">
            <name>Jalan Surapati</name>
            <styleUrl>#18208</styleUrl>
            <LineString id="18206">
                <coordinates>107.6271231,-6.8994764,0.0 107.6271702,-6.8994872,0.0</coordinates>
            </LineString>
        </Placemark>
        <Placemark id="18211">
            <name>Jalan Lemah Neundeut</name>
            <styleUrl>#18212</styleUrl>
            <LineString id="18210">
                <coordinates>107.5787736,-6.8815564,0.0 107.5787465,-6.8814907,0.0 107.5787415,-6.8814757,0.0 107.5787398,-6.8814604,0.0 107.5787258,-6.8813034,0.0 107.5787235,-6.8810086,0.0 107.5787084,-6.880859,0.0 107.5786717,-6.8807526,0.0</coordinates>
            </LineString>
        </Placemark>
        <Placemark id="18215">
            <name>Jalan PH. H. Mustofa</name>
            <styleUrl>#18216</styleUrl>
            <LineString id="18214">
                <coordinates>107.6508611,-6.9018087,0.0 107.6511076,-6.9018211,0.0 107.6512496,-6.9018282,0.0 107.6514575,-6.9018387,0.0 107.6521919,-6.901873,0.0 107.6522785,-6.9018762,0.0 107.6525276,-6.9018908,0.0 107.6526167,-6.9018971,0.0 107.6528084,-6.9019067,0.0</coordinates>
            </LineString>
        </Placemark>
        <Placemark id="18219">
            <name>Jalan Layang Professor Mochtar Kusumaatmadja</name>
            <styleUrl>#18220</styleUrl>
            <LineString id="18218">
                <coordinates>107.6061125,-6.8993484,0.0 107.6067294,-6.8990103,0.0 107.607545,-6.8985118,0.0</coordinates>
            </LineString>
        </Placemark>
        <Placemark id="18223">
            <name>Jalan Dr. Djunjunan</name>
            <styleUrl>#18224</styleUrl>
            <LineString id="18222">
                <coordinates>107.5871385,-6.8939896,0.0 107.5878578,-6.8945044,0.0 107.5880764,-6.894663,0.0 107.5882514,-6.89479,0.0 107.5883596,-6.8948674,0.0 107.5883918,-6.8948914,0.0 107.5887732,-6.8951757,0.0 107.5888526,-6.8952324,0.0 107.5889151,-6.8952824,0.0 107.5889641,-6.8953196,0.0 107.5890741,-6.8954031,0.0 107.5891588,-6.8954636,0.0 107.5894242,-6.8956585,0.0 107.5895178,-6.8957186,0.0 107.5897248,-6.8958301,0.0 107.589913,-6.8959339,0.0 107.5901962,-6.8960883,0.0 107.5904656,-6.8962229,0.0 107.5905302,-6.8962586,0.0 107.5907946,-6.8964009,0.0 107.591108,-6.8965587,0.0 107.5912792,-6.8966614,0.0 107.5916942,-6.8968726,0.0 107.5919664,-6.8970436,0.0 107.5921671,-6.8971698,0.0 107.5922221,-6.8972027,0.0 107.5924064,-6.8973127,0.0 107.5926529,-6.8974821,0.0 107.5929713,-6.8977117,0.0 107.5930174,-6.8977454,0.0 107.5932178,-6.8979319,0.0 107.5935309,-6.8982345,0.0 107.5936018,-6.898303,0.0</coordinates>
            </LineString>
        </Placemark>
        <Placemark id="18227">
            <name>Jalan Surapati</name>
            <styleUrl>#18228</styleUrl>
            <LineString id="18226">
                <coordinates>107.6307582,-6.8992701,0.0 107.6308381,-6.8992037,0.0</coordinates>
            </LineString>
        </Placemark>
        <Placemark id="18231">
            <name>Jalan Surapati</name>
            <styleUrl>#18232</styleUrl>
            <LineString id="18230">
                <coordinates>107.6308381,-6.8992037,0.0 107.6311531,-6.8989603,0.0 107.6312287,-6.8989035,0.0 107.6312754,-6.8988684,0.0 107.6313109,-6.8988418,0.0 107.6313558,-6.8988028,0.0 107.631476,-6.8987124,0.0 107.6317478,-6.89851,0.0</coordinates>
            </LineString>
        </Placemark>
        <Placemark id="18235">
            <name>Jalan Jenderal Ahmad Yani</name>
            <styleUrl>#18236</styleUrl>
            <LineString id="18234">
                <coordinates>107.6561365,-6.9020684,0.0 107.6561617,-6.9020693,0.0 107.6564574,-6.9021108,0.0 107.6566343,-6.9021236,0.0 107.6567969,-6.9021302,0.0</coordinates>
            </LineString>
        </Placemark>
        <Placemark id="18239">
            <name>Jalan Jenderal Ahmad Yani</name>
            <styleUrl>#18240</styleUrl>
            <LineString id="18238">
                <coordinates>107.6567969,-6.9021302,0.0 107.6571681,-6.9021368,0.0</coordinates>
            </LineString>
        </Placemark>
        <Placemark id="18243">
            <name>Jalan PH. H. Mustofa</name>
            <styleUrl>#18244</styleUrl>
            <LineString id="18242">
                <coordinates>107.6528084,-6.9019067,0.0 107.6529821,-6.9018754,0.0 107.6534283,-6.9019038,0.0 107.6535715,-6.9019129,0.0 107.6536634,-6.9019188,0.0 107.6540692,-6.901949,0.0 107.6545235,-6.9019873,0.0 107.6548916,-6.9020103,0.0 107.6551205,-6.9020246,0.0</coordinates>
            </LineString>
        </Placemark>
        <Placemark id="18247">
            <name>Jalan Jenderal Ahmad Yani</name>
            <styleUrl>#18248</styleUrl>
            <LineString id="18246">
                <coordinates>107.6551205,-6.9020246,0.0 107.6551401,-6.9020243,0.0 107.6552301,-6.9020294,0.0 107.6553398,-6.9020357,0.0</coordinates>
            </LineString>
        </Placemark>
        <Placemark id="18251">
            <name>Jalan Surapati</name>
            <styleUrl>#18252</styleUrl>
            <LineString id="18250">
                <coordinates>107.6271702,-6.8994872,0.0 107.6272181,-6.8994982,0.0</coordinates>
            </LineString>
        </Placemark>
        <Placemark id="18255">
            <name>Route Segment</name>
            <styleUrl>#18256</styleUrl>
            <LineString id="18254">
                <coordinates>107.6571681,-6.9021368,0.0 107.6571633,-6.9022188,0.0</coordinates>
            </LineString>
        </Placemark>
        <Placemark id="18259">
            <name>Route Segment</name>
            <styleUrl>#18260</styleUrl>
            <LineString id="18258">
                <coordinates>107.6092633,-6.8979925,0.0 107.6094693,-6.8980191,0.0 107.6094928,-6.8980237,0.0 107.6095612,-6.898037,0.0</coordinates>
            </LineString>
        </Placemark>
        <Placemark id="18263">
            <name>Jalan Surapati</name>
            <styleUrl>#18264</styleUrl>
            <LineString id="18262">
                <coordinates>107.6203167,-6.899282,0.0 107.6200546,-6.8992858,0.0 107.6199728,-6.8992862,0.0 107.6199187,-6.8992847,0.0</coordinates>
            </LineString>
        </Placemark>
        <Placemark id="18267">
            <name>Jalan Cikapayang</name>
            <styleUrl>#18268</styleUrl>
            <LineString id="18266">
                <coordinates>107.6122413,-6.8988516,0.0 107.6124765,-6.8988513,0.0 107.6125697,-6.8988512,0.0 107.6125995,-6.8988514,0.0 107.6127424,-6.8988496,0.0</coordinates>
            </LineString>
        </Placemark>
        <Placemark id="18271">
            <name>Jalan Cikapayang</name>
            <styleUrl>#18272</styleUrl>
            <LineString id="18270">
                <coordinates>107.612079,-6.8988384,0.0 107.6122413,-6.8988516,0.0</coordinates>
            </LineString>
        </Placemark>
        <Placemark id="18275">
            <name>Jalan Surapati</name>
            <styleUrl>#18276</styleUrl>
            <LineString id="18274">
                <coordinates>107.6128334,-6.8988469,0.0 107.6130623,-6.8988431,0.0 107.6131081,-6.8988419,0.0 107.6132841,-6.8988423,0.0</coordinates>
            </LineString>
        </Placemark>
        <Placemark id="18279">
            <name>Route Segment</name>
            <styleUrl>#18280</styleUrl>
            <LineString id="18278">
                <coordinates>107.607545,-6.8985118,0.0 107.6076397,-6.8984225,0.0 107.60769,-6.8983811,0.0</coordinates>
            </LineString>
        </Placemark>
        <Placemark id="18283">
            <name>Route Segment</name>
            <styleUrl>#18284</styleUrl>
            <LineString id="18282">
                <coordinates>107.60769,-6.8983811,0.0 107.6077607,-6.8983299,0.0</coordinates>
            </LineString>
        </Placemark>
        <Placemark id="18287">
            <name>Route Segment</name>
            <styleUrl>#18288</styleUrl>
            <LineString id="18286">
                <coordinates>107.6571633,-6.9022188,0.0 107.6571624,-6.902364,0.0</coordinates>
            </LineString>
        </Placemark>
        <Placemark id="18291">
            <name>Jalan Prof. Dr. Surya Soemantri</name>
            <styleUrl>#18292</styleUrl>
            <LineString id="18290">
                <coordinates>107.5815311,-6.8823681,0.0 107.5815555,-6.8825799,0.0</coordinates>
            </LineString>
        </Placemark>
        <Placemark id="18295">
            <name>Jalan Cikapayang</name>
            <styleUrl>#18296</styleUrl>
            <LineString id="18294">
                <coordinates>107.6116278,-6.8987668,0.0 107.6117839,-6.898802,0.0 107.6120472,-6.8988327,0.0 107.612079,-6.8988384,0.0</coordinates>
            </LineString>
        </Placemark>
        <Placemark id="18299">
            <name>Route Segment</name>
            <styleUrl>#18300</styleUrl>
            <LineString id="18298">
                <coordinates>107.6569974,-6.9026679,0.0 107.6569937,-6.9025585,0.0 107.6569923,-6.9025177,0.0 107.656991,-6.9024786,0.0 107.65699,-6.9024476,0.0 107.6569888,-6.9024145,0.0 107.6569876,-6.9023784,0.0 107.6569863,-6.90234,0.0 107.6569854,-6.9023139,0.0</coordinates>
            </LineString>
        </Placemark>
        <Placemark id="18303">
            <name>Route Segment</name>
            <styleUrl>#18304</styleUrl>
            <LineString id="18302">
                <coordinates>107.6569854,-6.9023139,0.0 107.6565637,-6.902329,0.0</coordinates>
            </LineString>
        </Placemark>
        <Placemark id="18307">
            <name>Jalan Jenderal Ahmad Yani</name>
            <styleUrl>#18308</styleUrl>
            <LineString id="18306">
                <coordinates>107.6557405,-6.9020533,0.0 107.6561365,-6.9020684,0.0</coordinates>
            </LineString>
        </Placemark>
        <Placemark id="18311">
            <name>Jalan PH. H. Mustofa</name>
            <styleUrl>#18312</styleUrl>
            <LineString id="18310">
                <coordinates>107.6341816,-6.8977908,0.0 107.6343318,-6.8978054,0.0 107.6344445,-6.8978256,0.0 107.6345958,-6.8978604,0.0 107.6349905,-6.8979512,0.0 107.6353023,-6.8980235,0.0 107.6357319,-6.8981263,0.0 107.6358307,-6.8981511,0.0 107.6360412,-6.8982085,0.0 107.6360827,-6.8982198,0.0 107.6361323,-6.8982307,0.0 107.6362093,-6.8982483,0.0 107.6363508,-6.8982807,0.0 107.6365297,-6.8983213,0.0 107.6367332,-6.8983675,0.0 107.6369176,-6.8984093,0.0 107.6369418,-6.8984148,0.0 107.6369918,-6.8984267,0.0 107.6370818,-6.8984481,0.0</coordinates>
            </LineString>
        </Placemark>
        <Placemark id="18315">
            <name>Jalan Cikapayang</name>
            <styleUrl>#18316</styleUrl>
            <LineString id="18314">
                <coordinates>107.6095612,-6.898037,0.0 107.6096209,-6.8980501,0.0 107.6096733,-6.898062,0.0</coordinates>
            </LineString>
        </Placemark>
        <Placemark id="18319">
            <name>Jalan Surapati</name>
            <styleUrl>#18320</styleUrl>
            <LineString id="18318">
                <coordinates>107.6223481,-6.8992387,0.0 107.6222912,-6.89924,0.0 107.6219809,-6.8992472,0.0 107.621918,-6.8992487,0.0 107.6217223,-6.8992532,0.0 107.6214704,-6.899259,0.0 107.6211738,-6.8992659,0.0 107.6211439,-6.8992666,0.0 107.6209968,-6.89927,0.0 107.6208185,-6.8992742,0.0 107.6207835,-6.8992747,0.0 107.6206166,-6.8992773,0.0 107.6204436,-6.89928,0.0 107.6203701,-6.8992825,0.0 107.6203167,-6.899282,0.0</coordinates>
            </LineString>
        </Placemark>
        <Placemark id="18323">
            <name>Jalan PH. H. Mustofa</name>
            <styleUrl>#18324</styleUrl>
            <LineString id="18322">
                <coordinates>107.65075,-6.9018006,0.0 107.6508611,-6.9018087,0.0</coordinates>
            </LineString>
        </Placemark>
        <Placemark id="18327">
            <name>Jalan PH. H. Mustofa</name>
            <styleUrl>#18328</styleUrl>
            <LineString id="18326">
                <coordinates>107.6417839,-6.8995613,0.0 107.6420026,-6.8996132,0.0 107.6420884,-6.8996335,0.0 107.6421976,-6.8996594,0.0 107.6422944,-6.8996824,0.0 107.6424647,-6.8997229,0.0 107.6426735,-6.8997726,0.0 107.64279,-6.8998003,0.0 107.642932,-6.8998339,0.0 107.6429728,-6.8998436,0.0 107.6431044,-6.8998716,0.0 107.6434139,-6.8999482,0.0</coordinates>
            </LineString>
        </Placemark>
        <Placemark id="18331">
            <name>Route Segment</name>
            <styleUrl>#18332</styleUrl>
            <LineString id="18330">
                <coordinates>107.6571624,-6.902364,0.0 107.6571697,-6.9025471,0.0 107.6570986,-6.9026609,0.0 107.6569974,-6.9026679,0.0</coordinates>
            </LineString>
        </Placemark>
        <Placemark id="18335">
            <name>Jalan Sariwangi</name>
            <styleUrl>#18336</styleUrl>
            <LineString id="18334">
                <coordinates>107.5787736,-6.8815564,0.0 107.5784297,-6.881656,0.0</coordinates>
            </LineString>
        </Placemark>
        <Placemark id="18339">
            <name>Jalan Surapati</name>
            <styleUrl>#18340</styleUrl>
            <LineString id="18338">
                <coordinates>107.6270152,-6.8994551,0.0 107.6266471,-6.8993704,0.0 107.6263009,-6.8992772,0.0 107.6261407,-6.8992562,0.0 107.6259835,-6.8992435,0.0 107.6249087,-6.8992398,0.0 107.6247134,-6.899237,0.0 107.6246032,-6.8992359,0.0 107.6245252,-6.8992351,0.0 107.6244668,-6.8992345,0.0 107.6240029,-6.8992263,0.0 107.6238928,-6.8992271,0.0 107.623733,-6.8992253,0.0 107.623673,-6.8992256,0.0 107.6236214,-6.8992259,0.0 107.6234921,-6.8992266,0.0 107.6232693,-6.8992279,0.0 107.6232237,-6.8992281,0.0 107.6228751,-6.89923,0.0 107.6227599,-6.8992307,0.0 107.6226727,-6.8992312,0.0 107.6225131,-6.8992349,0.0 107.6224238,-6.899237,0.0 107.6223481,-6.8992387,0.0</coordinates>
            </LineString>
        </Placemark>
        <Placemark id="18343">
            <name>Jalan Jenderal Ahmad Yani</name>
            <styleUrl>#18344</styleUrl>
            <LineString id="18342">
                <coordinates>107.6553398,-6.9020357,0.0 107.6555577,-6.9020453,0.0 107.6557405,-6.9020533,0.0</coordinates>
            </LineString>
        </Placemark>
        <Placemark id="18347">
            <name>Jalan Prof. Dr. Surya Soemantri</name>
            <styleUrl>#18348</styleUrl>
            <LineString id="18346">
                <coordinates>107.5812538,-6.8809245,0.0 107.58139,-6.8813815,0.0 107.5815076,-6.881745,0.0 107.5815277,-6.881876,0.0 107.5815373,-6.8819894,0.0 107.5815346,-6.8821971,0.0 107.5815338,-6.8822838,0.0 107.5815311,-6.8823681,0.0</coordinates>
            </LineString>
        </Placemark>
        <Placemark id="18351">
            <name>Jalan Prof. Dr. Surya Soemantri</name>
            <styleUrl>#18352</styleUrl>
            <LineString id="18350">
                <coordinates>107.5814766,-6.8910699,0.0 107.581447,-6.8912883,0.0 107.581406,-6.8915163,0.0</coordinates>
            </LineString>
        </Placemark>
    </Document>
</kml>
