<?xml version="1.0" encoding="UTF-8"?>
<kml xmlns="http://www.opengis.net/kml/2.2" xmlns:gx="http://www.google.com/kml/ext/2.2">
    <Document id="19401">
        <Style id="19407">
            <IconStyle id="19408">
                <colorMode>normal</colorMode>
                <scale>1</scale>
                <heading>0</heading>
                <Icon id="19409">
                    <href>http://maps.google.com/mapfiles/kml/pushpin/ylw-pushpin.png</href>
                </Icon>
            </IconStyle>
        </Style>
        <Style id="19412">
            <IconStyle id="19413">
                <colorMode>normal</colorMode>
                <scale>1</scale>
                <heading>0</heading>
                <Icon id="19414">
                    <href>http://maps.google.com/mapfiles/kml/pushpin/ylw-pushpin.png</href>
                </Icon>
            </IconStyle>
        </Style>
        <Style id="19417">
            <LineStyle id="19418">
                <color>ff4BA100</color>
                <colorMode>normal</colorMode>
                <width>4</width>
            </LineStyle>
        </Style>
        <Style id="19421">
            <LineStyle id="19422">
                <color>ff4BA100</color>
                <colorMode>normal</colorMode>
                <width>4</width>
            </LineStyle>
        </Style>
        <Style id="19425">
            <LineStyle id="19426">
                <color>ff4BA100</color>
                <colorMode>normal</colorMode>
                <width>4</width>
            </LineStyle>
        </Style>
        <Style id="19429">
            <LineStyle id="19430">
                <color>ff4BA100</color>
                <colorMode>normal</colorMode>
                <width>4</width>
            </LineStyle>
        </Style>
        <Style id="19433">
            <LineStyle id="19434">
                <color>ff4BA100</color>
                <colorMode>normal</colorMode>
                <width>4</width>
            </LineStyle>
        </Style>
        <Style id="19437">
            <LineStyle id="19438">
                <color>ff4BA100</color>
                <colorMode>normal</colorMode>
                <width>4</width>
            </LineStyle>
        </Style>
        <Style id="19441">
            <LineStyle id="19442">
                <color>ff4BA100</color>
                <colorMode>normal</colorMode>
                <width>4</width>
            </LineStyle>
        </Style>
        <Style id="19445">
            <LineStyle id="19446">
                <color>ff4BA100</color>
                <colorMode>normal</colorMode>
                <width>4</width>
            </LineStyle>
        </Style>
        <Style id="19449">
            <LineStyle id="19450">
                <color>ff4BA100</color>
                <colorMode>normal</colorMode>
                <width>4</width>
            </LineStyle>
        </Style>
        <Style id="19453">
            <LineStyle id="19454">
                <color>ff4BA100</color>
                <colorMode>normal</colorMode>
                <width>4</width>
            </LineStyle>
        </Style>
        <Style id="19457">
            <LineStyle id="19458">
                <color>ff4BA100</color>
                <colorMode>normal</colorMode>
                <width>4</width>
            </LineStyle>
        </Style>
        <Style id="19461">
            <LineStyle id="19462">
                <color>ff4BA100</color>
                <colorMode>normal</colorMode>
                <width>4</width>
            </LineStyle>
        </Style>
        <Style id="19465">
            <LineStyle id="19466">
                <color>ff4BA100</color>
                <colorMode>normal</colorMode>
                <width>4</width>
            </LineStyle>
        </Style>
        <Style id="19469">
            <LineStyle id="19470">
                <color>ff4BA100</color>
                <colorMode>normal</colorMode>
                <width>4</width>
            </LineStyle>
        </Style>
        <Style id="19473">
            <LineStyle id="19474">
                <color>ff4BA100</color>
                <colorMode>normal</colorMode>
                <width>4</width>
            </LineStyle>
        </Style>
        <Style id="19477">
            <LineStyle id="19478">
                <color>ff4BA100</color>
                <colorMode>normal</colorMode>
                <width>4</width>
            </LineStyle>
        </Style>
        <Style id="19481">
            <LineStyle id="19482">
                <color>ff4BA100</color>
                <colorMode>normal</colorMode>
                <width>4</width>
            </LineStyle>
        </Style>
        <Style id="19485">
            <LineStyle id="19486">
                <color>ff4BA100</color>
                <colorMode>normal</colorMode>
                <width>4</width>
            </LineStyle>
        </Style>
        <Style id="19489">
            <LineStyle id="19490">
                <color>ff4BA100</color>
                <colorMode>normal</colorMode>
                <width>4</width>
            </LineStyle>
        </Style>
        <Style id="19493">
            <LineStyle id="19494">
                <color>ff4BA100</color>
                <colorMode>normal</colorMode>
                <width>4</width>
            </LineStyle>
        </Style>
        <Style id="19497">
            <LineStyle id="19498">
                <color>ff4BA100</color>
                <colorMode>normal</colorMode>
                <width>4</width>
            </LineStyle>
        </Style>
        <Style id="19501">
            <LineStyle id="19502">
                <color>ff4BA100</color>
                <colorMode>normal</colorMode>
                <width>4</width>
            </LineStyle>
        </Style>
        <Style id="19505">
            <LineStyle id="19506">
                <color>ff4BA100</color>
                <colorMode>normal</colorMode>
                <width>4</width>
            </LineStyle>
        </Style>
        <Style id="19509">
            <LineStyle id="19510">
                <color>ff4BA100</color>
                <colorMode>normal</colorMode>
                <width>4</width>
            </LineStyle>
        </Style>
        <Style id="19513">
            <LineStyle id="19514">
                <color>ff4BA100</color>
                <colorMode>normal</colorMode>
                <width>4</width>
            </LineStyle>
        </Style>
        <Style id="19517">
            <LineStyle id="19518">
                <color>ff4BA100</color>
                <colorMode>normal</colorMode>
                <width>4</width>
            </LineStyle>
        </Style>
        <Style id="19521">
            <LineStyle id="19522">
                <color>ff4BA100</color>
                <colorMode>normal</colorMode>
                <width>4</width>
            </LineStyle>
        </Style>
        <Style id="19525">
            <LineStyle id="19526">
                <color>ff4BA100</color>
                <colorMode>normal</colorMode>
                <width>4</width>
            </LineStyle>
        </Style>
        <Style id="19529">
            <LineStyle id="19530">
                <color>ff4BA100</color>
                <colorMode>normal</colorMode>
                <width>4</width>
            </LineStyle>
        </Style>
        <Style id="19533">
            <LineStyle id="19534">
                <color>ff4BA100</color>
                <colorMode>normal</colorMode>
                <width>4</width>
            </LineStyle>
        </Style>
        <Style id="19537">
            <LineStyle id="19538">
                <color>ff4BA100</color>
                <colorMode>normal</colorMode>
                <width>4</width>
            </LineStyle>
        </Style>
        <Style id="19541">
            <LineStyle id="19542">
                <color>ff4BA100</color>
                <colorMode>normal</colorMode>
                <width>4</width>
            </LineStyle>
        </Style>
        <Style id="19545">
            <LineStyle id="19546">
                <color>ff4BA100</color>
                <colorMode>normal</colorMode>
                <width>4</width>
            </LineStyle>
        </Style>
        <Style id="19549">
            <LineStyle id="19550">
                <color>ff4BA100</color>
                <colorMode>normal</colorMode>
                <width>4</width>
            </LineStyle>
        </Style>
        <Style id="19553">
            <LineStyle id="19554">
                <color>ff4BA100</color>
                <colorMode>normal</colorMode>
                <width>4</width>
            </LineStyle>
        </Style>
        <Style id="19557">
            <LineStyle id="19558">
                <color>ff4BA100</color>
                <colorMode>normal</colorMode>
                <width>4</width>
            </LineStyle>
        </Style>
        <Style id="19561">
            <LineStyle id="19562">
                <color>ff4BA100</color>
                <colorMode>normal</colorMode>
                <width>4</width>
            </LineStyle>
        </Style>
        <Style id="19565">
            <LineStyle id="19566">
                <color>ff4BA100</color>
                <colorMode>normal</colorMode>
                <width>4</width>
            </LineStyle>
        </Style>
        <Style id="19569">
            <LineStyle id="19570">
                <color>ff4BA100</color>
                <colorMode>normal</colorMode>
                <width>4</width>
            </LineStyle>
        </Style>
        <Style id="19573">
            <LineStyle id="19574">
                <color>ff4BA100</color>
                <colorMode>normal</colorMode>
                <width>4</width>
            </LineStyle>
        </Style>
        <Style id="19577">
            <LineStyle id="19578">
                <color>ff4BA100</color>
                <colorMode>normal</colorMode>
                <width>4</width>
            </LineStyle>
        </Style>
        <Style id="19581">
            <LineStyle id="19582">
                <color>ff4BA100</color>
                <colorMode>normal</colorMode>
                <width>4</width>
            </LineStyle>
        </Style>
        <Style id="19585">
            <LineStyle id="19586">
                <color>ff4BA100</color>
                <colorMode>normal</colorMode>
                <width>4</width>
            </LineStyle>
        </Style>
        <Style id="19589">
            <LineStyle id="19590">
                <color>ff4BA100</color>
                <colorMode>normal</colorMode>
                <width>4</width>
            </LineStyle>
        </Style>
        <Style id="19593">
            <LineStyle id="19594">
                <color>ff4BA100</color>
                <colorMode>normal</colorMode>
                <width>4</width>
            </LineStyle>
        </Style>
        <Style id="19597">
            <LineStyle id="19598">
                <color>ff4BA100</color>
                <colorMode>normal</colorMode>
                <width>4</width>
            </LineStyle>
        </Style>
        <Style id="19601">
            <LineStyle id="19602">
                <color>ff4BA100</color>
                <colorMode>normal</colorMode>
                <width>4</width>
            </LineStyle>
        </Style>
        <Style id="19605">
            <LineStyle id="19606">
                <color>ff4BA100</color>
                <colorMode>normal</colorMode>
                <width>4</width>
            </LineStyle>
        </Style>
        <Style id="19609">
            <LineStyle id="19610">
                <color>ff4BA100</color>
                <colorMode>normal</colorMode>
                <width>4</width>
            </LineStyle>
        </Style>
        <Style id="19613">
            <LineStyle id="19614">
                <color>ff4BA100</color>
                <colorMode>normal</colorMode>
                <width>4</width>
            </LineStyle>
        </Style>
        <Style id="19617">
            <LineStyle id="19618">
                <color>ff4BA100</color>
                <colorMode>normal</colorMode>
                <width>4</width>
            </LineStyle>
        </Style>
        <Style id="19621">
            <LineStyle id="19622">
                <color>ff4BA100</color>
                <colorMode>normal</colorMode>
                <width>4</width>
            </LineStyle>
        </Style>
        <Style id="19625">
            <LineStyle id="19626">
                <color>ff4BA100</color>
                <colorMode>normal</colorMode>
                <width>4</width>
            </LineStyle>
        </Style>
        <Style id="19629">
            <LineStyle id="19630">
                <color>ff4BA100</color>
                <colorMode>normal</colorMode>
                <width>4</width>
            </LineStyle>
        </Style>
        <Style id="19633">
            <LineStyle id="19634">
                <color>ff4BA100</color>
                <colorMode>normal</colorMode>
                <width>4</width>
            </LineStyle>
        </Style>
        <Style id="19637">
            <LineStyle id="19638">
                <color>ff4BA100</color>
                <colorMode>normal</colorMode>
                <width>4</width>
            </LineStyle>
        </Style>
        <Style id="19641">
            <LineStyle id="19642">
                <color>ff4BA100</color>
                <colorMode>normal</colorMode>
                <width>4</width>
            </LineStyle>
        </Style>
        <Style id="19645">
            <LineStyle id="19646">
                <color>ff4BA100</color>
                <colorMode>normal</colorMode>
                <width>4</width>
            </LineStyle>
        </Style>
        <Style id="19649">
            <LineStyle id="19650">
                <color>ff4BA100</color>
                <colorMode>normal</colorMode>
                <width>4</width>
            </LineStyle>
        </Style>
        <Style id="19653">
            <LineStyle id="19654">
                <color>ff4BA100</color>
                <colorMode>normal</colorMode>
                <width>4</width>
            </LineStyle>
        </Style>
        <Style id="19657">
            <LineStyle id="19658">
                <color>ff4BA100</color>
                <colorMode>normal</colorMode>
                <width>4</width>
            </LineStyle>
        </Style>
        <Style id="19661">
            <LineStyle id="19662">
                <color>ff4BA100</color>
                <colorMode>normal</colorMode>
                <width>4</width>
            </LineStyle>
        </Style>
        <Style id="19665">
            <LineStyle id="19666">
                <color>ff4BA100</color>
                <colorMode>normal</colorMode>
                <width>4</width>
            </LineStyle>
        </Style>
        <Style id="19669">
            <LineStyle id="19670">
                <color>ff4BA100</color>
                <colorMode>normal</colorMode>
                <width>4</width>
            </LineStyle>
        </Style>
        <Style id="19673">
            <LineStyle id="19674">
                <color>ff4BA100</color>
                <colorMode>normal</colorMode>
                <width>4</width>
            </LineStyle>
        </Style>
        <Style id="19677">
            <LineStyle id="19678">
                <color>ff4BA100</color>
                <colorMode>normal</colorMode>
                <width>4</width>
            </LineStyle>
        </Style>
        <Style id="19681">
            <LineStyle id="19682">
                <color>ff4BA100</color>
                <colorMode>normal</colorMode>
                <width>4</width>
            </LineStyle>
        </Style>
        <Style id="19685">
            <LineStyle id="19686">
                <color>ff4BA100</color>
                <colorMode>normal</colorMode>
                <width>4</width>
            </LineStyle>
        </Style>
        <Style id="19689">
            <LineStyle id="19690">
                <color>ff4BA100</color>
                <colorMode>normal</colorMode>
                <width>4</width>
            </LineStyle>
        </Style>
        <Style id="19693">
            <LineStyle id="19694">
                <color>ff4BA100</color>
                <colorMode>normal</colorMode>
                <width>4</width>
            </LineStyle>
        </Style>
        <Style id="19697">
            <LineStyle id="19698">
                <color>ff4BA100</color>
                <colorMode>normal</colorMode>
                <width>4</width>
            </LineStyle>
        </Style>
        <Style id="19701">
            <LineStyle id="19702">
                <color>ff4BA100</color>
                <colorMode>normal</colorMode>
                <width>4</width>
            </LineStyle>
        </Style>
        <Style id="19705">
            <LineStyle id="19706">
                <color>ff4BA100</color>
                <colorMode>normal</colorMode>
                <width>4</width>
            </LineStyle>
        </Style>
        <Style id="19709">
            <LineStyle id="19710">
                <color>ff4BA100</color>
                <colorMode>normal</colorMode>
                <width>4</width>
            </LineStyle>
        </Style>
        <Style id="19713">
            <LineStyle id="19714">
                <color>ff4BA100</color>
                <colorMode>normal</colorMode>
                <width>4</width>
            </LineStyle>
        </Style>
        <Style id="19717">
            <LineStyle id="19718">
                <color>ff4BA100</color>
                <colorMode>normal</colorMode>
                <width>4</width>
            </LineStyle>
        </Style>
        <Style id="19721">
            <LineStyle id="19722">
                <color>ff4BA100</color>
                <colorMode>normal</colorMode>
                <width>4</width>
            </LineStyle>
        </Style>
        <Style id="19725">
            <LineStyle id="19726">
                <color>ff4BA100</color>
                <colorMode>normal</colorMode>
                <width>4</width>
            </LineStyle>
        </Style>
        <Style id="19729">
            <LineStyle id="19730">
                <color>ff4BA100</color>
                <colorMode>normal</colorMode>
                <width>4</width>
            </LineStyle>
        </Style>
        <Style id="19733">
            <LineStyle id="19734">
                <color>ff4BA100</color>
                <colorMode>normal</colorMode>
                <width>4</width>
            </LineStyle>
        </Style>
        <Style id="19737">
            <LineStyle id="19738">
                <color>ff4BA100</color>
                <colorMode>normal</colorMode>
                <width>4</width>
            </LineStyle>
        </Style>
        <Style id="19741">
            <LineStyle id="19742">
                <color>ff4BA100</color>
                <colorMode>normal</colorMode>
                <width>4</width>
            </LineStyle>
        </Style>
        <Style id="19745">
            <LineStyle id="19746">
                <color>ff4BA100</color>
                <colorMode>normal</colorMode>
                <width>4</width>
            </LineStyle>
        </Style>
        <Style id="19749">
            <LineStyle id="19750">
                <color>ff4BA100</color>
                <colorMode>normal</colorMode>
                <width>4</width>
            </LineStyle>
        </Style>
        <Style id="19753">
            <LineStyle id="19754">
                <color>ff4BA100</color>
                <colorMode>normal</colorMode>
                <width>4</width>
            </LineStyle>
        </Style>
        <Style id="19757">
            <LineStyle id="19758">
                <color>ff4BA100</color>
                <colorMode>normal</colorMode>
                <width>4</width>
            </LineStyle>
        </Style>
        <Style id="19761">
            <LineStyle id="19762">
                <color>ff4BA100</color>
                <colorMode>normal</colorMode>
                <width>4</width>
            </LineStyle>
        </Style>
        <Style id="19765">
            <LineStyle id="19766">
                <color>ff4BA100</color>
                <colorMode>normal</colorMode>
                <width>4</width>
            </LineStyle>
        </Style>
        <Style id="19769">
            <LineStyle id="19770">
                <color>ff4BA100</color>
                <colorMode>normal</colorMode>
                <width>4</width>
            </LineStyle>
        </Style>
        <Style id="19773">
            <LineStyle id="19774">
                <color>ff4BA100</color>
                <colorMode>normal</colorMode>
                <width>4</width>
            </LineStyle>
        </Style>
        <ExtendedData>
            <Data name="route-name">
                <value>Koridor 5: Antapani → Stasiun Hall</value>
            </Data>
            <Data name="source">
                <value>Transport for Bandung</value>
            </Data>
        </ExtendedData>
        <Placemark id="19406">
            <name>Seberang Borma Antapani</name>
            <styleUrl>#19407</styleUrl>
            <Point id="19405">
                <coordinates>107.6492727,-6.9130091,0.0</coordinates>
            </Point>
        </Placemark>
        <Placemark id="19411">
            <name>Stasiun Hall</name>
            <styleUrl>#19412</styleUrl>
            <Point id="19410">
                <coordinates>107.6024325,-6.9161432,0.0</coordinates>
            </Point>
        </Placemark>
        <Placemark id="19416">
            <name>Jalan Merdeka</name>
            <styleUrl>#19417</styleUrl>
            <LineString id="19415">
                <coordinates>107.6106377,-6.9069919,0.0 107.6106352,-6.9070989,0.0 107.6106494,-6.9075604,0.0 107.610662,-6.908124,0.0 107.610666,-6.9084915,0.0 107.6106694,-6.9088197,0.0 107.6106685,-6.9088817,0.0 107.6106745,-6.9090787,0.0 107.6106708,-6.9093054,0.0 107.6106596,-6.9096428,0.0 107.6106582,-6.909665,0.0 107.610654,-6.909795,0.0</coordinates>
            </LineString>
        </Placemark>
        <Placemark id="19420">
            <name>Jalan L.L. RE. Martadinata</name>
            <styleUrl>#19421</styleUrl>
            <LineString id="19419">
                <coordinates>107.629839,-6.9154679,0.0 107.629593,-6.9148704,0.0</coordinates>
            </LineString>
        </Placemark>
        <Placemark id="19424">
            <name>Jalan Kebon Jati</name>
            <styleUrl>#19425</styleUrl>
            <LineString id="19423">
                <coordinates>107.5984551,-6.9163007,0.0 107.5986452,-6.9162913,0.0 107.5986682,-6.9162902,0.0 107.5987499,-6.9162865,0.0 107.5988546,-6.916282,0.0 107.5991941,-6.9162673,0.0 107.5995626,-6.9162453,0.0 107.599627,-6.9162422,0.0 107.6002509,-6.9162121,0.0 107.600424,-6.9162116,0.0 107.6005777,-6.9162099,0.0 107.6007548,-6.9162056,0.0 107.6010558,-6.9162013,0.0 107.6016262,-6.916191,0.0 107.6019595,-6.9161867,0.0 107.6022008,-6.9161702,0.0</coordinates>
            </LineString>
        </Placemark>
        <Placemark id="19428">
            <name>Jalan Jendral Sudirman</name>
            <styleUrl>#19429</styleUrl>
            <LineString id="19427">
                <coordinates>107.6041077,-6.920785,0.0 107.6038284,-6.9207532,0.0 107.6034762,-6.9207089,0.0 107.603136,-6.9206667,0.0 107.6022266,-6.9205616,0.0 107.6021366,-6.9205489,0.0</coordinates>
            </LineString>
        </Placemark>
        <Placemark id="19432">
            <name>Jalan Gardujati</name>
            <styleUrl>#19433</styleUrl>
            <LineString id="19431">
                <coordinates>107.5982824,-6.9187314,0.0 107.5983085,-6.9194279,0.0 107.5983096,-6.9194582,0.0 107.5983293,-6.919971,0.0 107.5983308,-6.92001,0.0 107.5983366,-6.920102,0.0</coordinates>
            </LineString>
        </Placemark>
        <Placemark id="19436">
            <name>Jalan Tamblong</name>
            <styleUrl>#19437</styleUrl>
            <LineString id="19435">
                <coordinates>107.6122092,-6.9201091,0.0 107.6121953,-6.9202135,0.0 107.612155,-6.9205282,0.0 107.6121207,-6.9208351,0.0 107.6120718,-6.9213137,0.0 107.6120281,-6.9216096,0.0 107.6120154,-6.9217245,0.0</coordinates>
            </LineString>
        </Placemark>
        <Placemark id="19440">
            <name>Jalan Sukabumi</name>
            <styleUrl>#19441</styleUrl>
            <LineString id="19439">
                <coordinates>107.6348552,-6.9143329,0.0 107.6348313,-6.9143399,0.0 107.6347873,-6.9143636,0.0 107.6347627,-6.9143996,0.0 107.6347483,-6.9144516,0.0 107.6347173,-6.914512,0.0</coordinates>
            </LineString>
        </Placemark>
        <Placemark id="19444">
            <name>Jalan L.L. RE. Martadinata</name>
            <styleUrl>#19445</styleUrl>
            <LineString id="19443">
                <coordinates>107.6295758,-6.9147576,0.0 107.6294559,-6.914423,0.0 107.6292504,-6.9137992,0.0 107.6291718,-6.9135678,0.0 107.6291409,-6.913501,0.0 107.6291311,-6.9134798,0.0 107.6291076,-6.9134288,0.0 107.6290892,-6.913389,0.0 107.6290686,-6.9133503,0.0 107.6289845,-6.913192,0.0 107.6288644,-6.9130163,0.0 107.628731,-6.9128285,0.0 107.6286968,-6.9127848,0.0 107.6286154,-6.9126809,0.0</coordinates>
            </LineString>
        </Placemark>
        <Placemark id="19448">
            <name>Jalan L.L. RE. Martadinata</name>
            <styleUrl>#19449</styleUrl>
            <LineString id="19447">
                <coordinates>107.629593,-6.9148704,0.0 107.6295758,-6.9147576,0.0</coordinates>
            </LineString>
        </Placemark>
        <Placemark id="19452">
            <name>Jalan Lembong</name>
            <styleUrl>#19453</styleUrl>
            <LineString id="19451">
                <coordinates>107.6109278,-6.9169939,0.0 107.6111029,-6.9170839,0.0 107.6113003,-6.9171832,0.0 107.6113378,-6.917202,0.0</coordinates>
            </LineString>
        </Placemark>
        <Placemark id="19456">
            <name>Jalan Sukabumi</name>
            <styleUrl>#19457</styleUrl>
            <LineString id="19455">
                <coordinates>107.634419,-6.9161223,0.0 107.6344004,-6.9162388,0.0 107.6343511,-6.9164827,0.0 107.6342682,-6.916856,0.0 107.634252,-6.9169288,0.0 107.6342422,-6.9169744,0.0 107.6342207,-6.9170356,0.0 107.6341961,-6.9170831,0.0</coordinates>
            </LineString>
        </Placemark>
        <Placemark id="19460">
            <name>Jalan Merdeka</name>
            <styleUrl>#19461</styleUrl>
            <LineString id="19459">
                <coordinates>107.6106164,-6.9099691,0.0 107.6106159,-6.9099991,0.0 107.6106153,-6.9100253,0.0 107.6106014,-6.9104158,0.0 107.6105812,-6.9108691,0.0 107.6105492,-6.9114267,0.0 107.6105236,-6.9118509,0.0 107.610489,-6.9122567,0.0 107.6104606,-6.9125904,0.0 107.6104461,-6.9127255,0.0 107.6104424,-6.9127679,0.0 107.6103525,-6.9136021,0.0</coordinates>
            </LineString>
        </Placemark>
        <Placemark id="19464">
            <name>Route Segment</name>
            <styleUrl>#19465</styleUrl>
            <LineString id="19463">
                <coordinates>107.611899,-6.9174826,0.0 107.6119638,-6.9175519,0.0 107.6120629,-6.9176091,0.0 107.6121927,-6.9176855,0.0 107.6122735,-6.9177431,0.0 107.612341,-6.9177922,0.0 107.6123749,-6.9178256,0.0 107.6124026,-6.9178815,0.0 107.6124151,-6.9179473,0.0 107.6124086,-6.91811,0.0 107.6124036,-6.9181433,0.0 107.6123969,-6.9182059,0.0 107.6123918,-6.9182691,0.0</coordinates>
            </LineString>
        </Placemark>
        <Placemark id="19468">
            <name>Jalan L.L. RE. Martadinata</name>
            <styleUrl>#19469</styleUrl>
            <LineString id="19467">
                <coordinates>107.6128139,-6.9070149,0.0 107.6126957,-6.9070364,0.0</coordinates>
            </LineString>
        </Placemark>
        <Placemark id="19472">
            <name>Jalan L.L. RE. Martadinata</name>
            <styleUrl>#19473</styleUrl>
            <LineString id="19471">
                <coordinates>107.6286154,-6.9126809,0.0 107.628535,-6.9125792,0.0 107.6283442,-6.9123228,0.0 107.6282645,-6.9122224,0.0 107.6281542,-6.9121048,0.0 107.6278567,-6.9118039,0.0 107.6278298,-6.9117777,0.0 107.6278029,-6.9117514,0.0 107.6276535,-6.9116065,0.0 107.6271705,-6.9111433,0.0 107.627074,-6.9110498,0.0</coordinates>
            </LineString>
        </Placemark>
        <Placemark id="19476">
            <name>Jalan Laswi</name>
            <styleUrl>#19477</styleUrl>
            <LineString id="19475">
                <coordinates>107.6313458,-6.9186198,0.0 107.6312891,-6.9184991,0.0 107.6312618,-6.9184409,0.0 107.6312506,-6.9184177,0.0 107.6307984,-6.9174779,0.0 107.6307188,-6.9173125,0.0</coordinates>
            </LineString>
        </Placemark>
        <Placemark id="19480">
            <name>Jalan Jendral Sudirman</name>
            <styleUrl>#19481</styleUrl>
            <LineString id="19479">
                <coordinates>107.6021366,-6.9205489,0.0 107.6020691,-6.9205405,0.0 107.601895,-6.920521,0.0 107.6018084,-6.9205114,0.0 107.6012359,-6.9204443,0.0 107.6009589,-6.9204087,0.0 107.6006504,-6.9203693,0.0 107.6005045,-6.9203533,0.0 107.5998017,-6.9202729,0.0 107.5997457,-6.9202665,0.0 107.5985234,-6.9201237,0.0 107.5984985,-6.9201204,0.0 107.5983366,-6.920102,0.0</coordinates>
            </LineString>
        </Placemark>
        <Placemark id="19484">
            <name>Jalan L.L. RE. Martadinata</name>
            <styleUrl>#19485</styleUrl>
            <LineString id="19483">
                <coordinates>107.6167588,-6.9062016,0.0 107.6165829,-6.9062207,0.0 107.6165573,-6.9062249,0.0 107.6159699,-6.9063138,0.0 107.6153253,-6.9064176,0.0 107.6152682,-6.9064248,0.0 107.6150996,-6.906438,0.0 107.6149759,-6.9064471,0.0 107.6144094,-6.9064746,0.0 107.6140249,-6.9064932,0.0 107.6139043,-6.9065046,0.0 107.6138076,-6.9065285,0.0 107.6136926,-6.9065743,0.0 107.6135325,-6.9066553,0.0 107.6133145,-6.906779,0.0 107.6130652,-6.9069206,0.0 107.6129902,-6.9069606,0.0 107.6129322,-6.9069907,0.0 107.6128139,-6.9070149,0.0</coordinates>
            </LineString>
        </Placemark>
        <Placemark id="19488">
            <name>Jalan L.L. RE. Martadinata</name>
            <styleUrl>#19489</styleUrl>
            <LineString id="19487">
                <coordinates>107.6203632,-6.9058522,0.0 107.6202779,-6.905853,0.0 107.6201683,-6.9058543,0.0 107.6199589,-6.9058757,0.0 107.6196754,-6.9059048,0.0 107.6196006,-6.9059116,0.0 107.6195329,-6.9059207,0.0 107.6193893,-6.9059526,0.0 107.6190569,-6.9060207,0.0 107.6189729,-6.9060333,0.0 107.6188902,-6.9060457,0.0 107.6187202,-6.9060666,0.0 107.6187042,-6.90607,0.0 107.6185277,-6.9060885,0.0 107.6184625,-6.9060947,0.0 107.6183784,-6.9060981,0.0 107.6174531,-6.906135,0.0 107.6174067,-6.9061389,0.0 107.6173359,-6.9061429,0.0 107.6172211,-6.9061507,0.0 107.6170218,-6.9061694,0.0 107.6169819,-6.9061731,0.0 107.6167588,-6.9062016,0.0</coordinates>
            </LineString>
        </Placemark>
        <Placemark id="19492">
            <name>Jalan L.L. RE. Martadinata</name>
            <styleUrl>#19493</styleUrl>
            <LineString id="19491">
                <coordinates>107.627074,-6.9110498,0.0 107.6269793,-6.9109538,0.0 107.6266345,-6.9106181,0.0 107.6265806,-6.9105638,0.0 107.6265596,-6.9105422,0.0 107.6265002,-6.9104819,0.0 107.6263409,-6.9103274,0.0 107.6262232,-6.9102114,0.0 107.6261674,-6.9101544,0.0 107.6260827,-6.9100761,0.0</coordinates>
            </LineString>
        </Placemark>
        <Placemark id="19496">
            <name>Jalan Asia Afrika</name>
            <styleUrl>#19497</styleUrl>
            <LineString id="19495">
                <coordinates>107.6064585,-6.9210512,0.0 107.6064357,-6.9210487,0.0 107.6059322,-6.9209936,0.0 107.605075,-6.9208966,0.0 107.6042658,-6.9208061,0.0 107.6042276,-6.9208008,0.0 107.6041077,-6.920785,0.0</coordinates>
            </LineString>
        </Placemark>
        <Placemark id="19500">
            <name>Jalan Asia Afrika</name>
            <styleUrl>#19501</styleUrl>
            <LineString id="19499">
                <coordinates>107.607195,-6.9211421,0.0 107.6071709,-6.9211388,0.0 107.6071309,-6.9211347,0.0</coordinates>
            </LineString>
        </Placemark>
        <Placemark id="19504">
            <name>Jalan Terusan Jakarta</name>
            <styleUrl>#19505</styleUrl>
            <LineString id="19503">
                <coordinates>107.6453416,-6.9135173,0.0 107.6453033,-6.9135399,0.0</coordinates>
            </LineString>
        </Placemark>
        <Placemark id="19508">
            <name>Jalan Terusan Jakarta</name>
            <styleUrl>#19509</styleUrl>
            <LineString id="19507">
                <coordinates>107.6474297,-6.913244,0.0 107.6474111,-6.9132465,0.0 107.6471064,-6.9132911,0.0 107.6457985,-6.9134589,0.0 107.6453416,-6.9135173,0.0</coordinates>
            </LineString>
        </Placemark>
        <Placemark id="19512">
            <name>Jalan Terusan Jakarta</name>
            <styleUrl>#19513</styleUrl>
            <LineString id="19511">
                <coordinates>107.6512126,-6.9127667,0.0 107.6503632,-6.912873,0.0 107.6497949,-6.912944,0.0 107.6494126,-6.9129917,0.0 107.6492727,-6.9130091,0.0 107.6491215,-6.9130283,0.0 107.6488638,-6.9130605,0.0 107.6477309,-6.9132022,0.0 107.6476418,-6.9132133,0.0 107.6475828,-6.9132227,0.0</coordinates>
            </LineString>
        </Placemark>
        <Placemark id="19516">
            <name>Jalan Terusan Jakarta</name>
            <styleUrl>#19517</styleUrl>
            <LineString id="19515">
                <coordinates>107.6439222,-6.9137511,0.0 107.6438747,-6.9137574,0.0</coordinates>
            </LineString>
        </Placemark>
        <Placemark id="19520">
            <name>Jalan Terusan Jakarta</name>
            <styleUrl>#19521</styleUrl>
            <LineString id="19519">
                <coordinates>107.6551627,-6.912521,0.0 107.6541857,-6.9124638,0.0 107.6541033,-6.9124625,0.0 107.653817,-6.9124678,0.0 107.6535357,-6.9124879,0.0 107.6535199,-6.9124899,0.0 107.6529787,-6.9125497,0.0 107.6520929,-6.9126555,0.0 107.6520306,-6.9126628,0.0</coordinates>
            </LineString>
        </Placemark>
        <Placemark id="19524">
            <name>Jalan Terusan Jakarta</name>
            <styleUrl>#19525</styleUrl>
            <LineString id="19523">
                <coordinates>107.6656787,-6.9149413,0.0 107.6649608,-6.914776,0.0 107.6642603,-6.914626,0.0 107.6635891,-6.9144817,0.0 107.6633853,-6.9144379,0.0 107.6631344,-6.914384,0.0 107.6631113,-6.9143791,0.0 107.6630911,-6.9143747,0.0 107.6622846,-6.9142014,0.0 107.6618058,-6.9140985,0.0 107.6612536,-6.9139799,0.0</coordinates>
            </LineString>
        </Placemark>
        <Placemark id="19528">
            <name>Jalan Terusan Jakarta</name>
            <styleUrl>#19529</styleUrl>
            <LineString id="19527">
                <coordinates>107.6612536,-6.9139799,0.0 107.661091,-6.9139479,0.0</coordinates>
            </LineString>
        </Placemark>
        <Placemark id="19532">
            <name>Jalan Terusan Jakarta</name>
            <styleUrl>#19533</styleUrl>
            <LineString id="19531">
                <coordinates>107.661091,-6.9139479,0.0 107.6603652,-6.9137955,0.0 107.6602346,-6.9137679,0.0 107.6594384,-6.9135997,0.0 107.6593873,-6.9135891,0.0 107.6590885,-6.9135229,0.0 107.6588603,-6.913449,0.0 107.6585818,-6.9133377,0.0 107.6584872,-6.9132948,0.0 107.6581372,-6.9131362,0.0 107.6574006,-6.9128022,0.0 107.6570526,-6.912687,0.0 107.6568042,-6.9126276,0.0 107.6567023,-6.9126122,0.0 107.6566681,-6.9126089,0.0 107.6563952,-6.9125829,0.0 107.6561445,-6.912573,0.0 107.6555081,-6.912543,0.0 107.6551627,-6.912521,0.0</coordinates>
            </LineString>
        </Placemark>
        <Placemark id="19536">
            <name>Jalan Jakarta</name>
            <styleUrl>#19537</styleUrl>
            <LineString id="19535">
                <coordinates>107.6374221,-6.9145133,0.0 107.6374071,-6.9145151,0.0 107.6373588,-6.9145209,0.0</coordinates>
            </LineString>
        </Placemark>
        <Placemark id="19540">
            <name>Jalan Jakarta</name>
            <styleUrl>#19541</styleUrl>
            <LineString id="19539">
                <coordinates>107.6375505,-6.9144979,0.0 107.6374221,-6.9145133,0.0</coordinates>
            </LineString>
        </Placemark>
        <Placemark id="19544">
            <name>Jalan Jakarta</name>
            <styleUrl>#19545</styleUrl>
            <LineString id="19543">
                <coordinates>107.6417884,-6.9139622,0.0 107.641697,-6.9139738,0.0 107.6414919,-6.9139937,0.0 107.641334,-6.9140119,0.0 107.6412274,-6.9140241,0.0 107.6410877,-6.9140393,0.0 107.6409956,-6.9140515,0.0 107.6405312,-6.9141105,0.0 107.6404431,-6.9141209,0.0 107.6403048,-6.9141385,0.0 107.6402144,-6.914148,0.0 107.6399554,-6.914178,0.0 107.6398939,-6.914186,0.0 107.6397497,-6.9142026,0.0 107.6394855,-6.9142369,0.0 107.6393217,-6.9142593,0.0 107.6391686,-6.914281,0.0 107.6390956,-6.9142912,0.0 107.6389363,-6.9143117,0.0 107.6388474,-6.9143228,0.0 107.6386441,-6.9143525,0.0 107.6385822,-6.9143614,0.0 107.6385215,-6.9143724,0.0 107.6384678,-6.9143807,0.0 107.6381956,-6.9144188,0.0 107.6379503,-6.9144499,0.0 107.6378321,-6.9144641,0.0 107.6377113,-6.9144786,0.0 107.6376149,-6.9144902,0.0 107.6375655,-6.9144961,0.0 107.6375505,-6.9144979,0.0</coordinates>
            </LineString>
        </Placemark>
        <Placemark id="19548">
            <name>Jalan Jakarta</name>
            <styleUrl>#19549</styleUrl>
            <LineString id="19547">
                <coordinates>107.6373588,-6.9145209,0.0 107.6371438,-6.9145467,0.0 107.6369043,-6.9145755,0.0 107.6368147,-6.9145887,0.0 107.636513,-6.914633,0.0 107.6362469,-6.9146627,0.0 107.6362076,-6.9146671,0.0 107.6361335,-6.9146647,0.0 107.6360082,-6.9146453,0.0 107.6357903,-6.914575,0.0</coordinates>
            </LineString>
        </Placemark>
        <Placemark id="19552">
            <name>Jalan Laswi</name>
            <styleUrl>#19553</styleUrl>
            <LineString id="19551">
                <coordinates>107.6300893,-6.9160089,0.0 107.6300294,-6.9158899,0.0 107.6299922,-6.9158161,0.0</coordinates>
            </LineString>
        </Placemark>
        <Placemark id="19556">
            <name>Jalan L.L. RE. Martadinata</name>
            <styleUrl>#19557</styleUrl>
            <LineString id="19555">
                <coordinates>107.6213811,-6.9060399,0.0 107.621213,-6.9059876,0.0</coordinates>
            </LineString>
        </Placemark>
        <Placemark id="19560">
            <name>Jalan L.L. RE. Martadinata</name>
            <styleUrl>#19561</styleUrl>
            <LineString id="19559">
                <coordinates>107.6260827,-6.9100761,0.0 107.6259817,-6.9099872,0.0 107.6259487,-6.9099584,0.0 107.6259228,-6.9099338,0.0 107.6258394,-6.9098536,0.0 107.6257448,-6.9097632,0.0 107.6253641,-6.9093848,0.0 107.6253092,-6.9093323,0.0 107.6252606,-6.9092859,0.0 107.625168,-6.9091975,0.0 107.6251205,-6.9091522,0.0 107.6250665,-6.909101,0.0 107.6250037,-6.9090443,0.0 107.6249642,-6.9090084,0.0 107.6247925,-6.9088693,0.0 107.6246431,-6.9087403,0.0 107.624592,-6.9086974,0.0 107.624424,-6.908556,0.0 107.6243689,-6.9085138,0.0 107.6242946,-6.9084569,0.0 107.6242211,-6.9084007,0.0 107.6241725,-6.9083672,0.0 107.6240359,-6.9082553,0.0 107.6239406,-6.9081795,0.0 107.623898,-6.9081445,0.0 107.6237961,-6.9080605,0.0 107.6236954,-6.9079639,0.0 107.6236448,-6.9079144,0.0 107.6235783,-6.9078372,0.0 107.6234169,-6.907648,0.0 107.6233782,-6.9076007,0.0 107.6233239,-6.9075344,0.0 107.6233077,-6.9075143,0.0 107.6232802,-6.9074803,0.0 107.6232385,-6.907429,0.0 107.6232063,-6.9073895,0.0 107.6231474,-6.9073112,0.0 107.6230407,-6.9071734,0.0 107.6230069,-6.9071302,0.0 107.6229227,-6.9070232,0.0 107.6228683,-6.9069596,0.0 107.6228138,-6.906896,0.0 107.622767,-6.9068426,0.0 107.6227125,-6.9067946,0.0 107.622637,-6.9067316,0.0 107.6225154,-6.9066302,0.0 107.6224543,-6.9065793,0.0 107.6222395,-6.9064426,0.0 107.6221784,-6.9064038,0.0 107.6221309,-6.9063741,0.0 107.622066,-6.9063335,0.0 107.6220332,-6.9063102,0.0 107.6220004,-6.9062923,0.0 107.6218623,-6.9062167,0.0 107.6216984,-6.9061395,0.0 107.6215291,-6.9060859,0.0 107.6214607,-6.9060648,0.0 107.6213811,-6.9060399,0.0</coordinates>
            </LineString>
        </Placemark>
        <Placemark id="19564">
            <name>Jalan Terusan Jakarta</name>
            <styleUrl>#19565</styleUrl>
            <LineString id="19563">
                <coordinates>107.6437464,-6.9137765,0.0 107.6436788,-6.9137868,0.0</coordinates>
            </LineString>
        </Placemark>
        <Placemark id="19568">
            <name>Jalan Kebon Jati</name>
            <styleUrl>#19569</styleUrl>
            <LineString id="19567">
                <coordinates>107.5982102,-6.9163251,0.0 107.5982729,-6.9163191,0.0</coordinates>
            </LineString>
        </Placemark>
        <Placemark id="19572">
            <name>Jalan Terusan Jakarta</name>
            <styleUrl>#19573</styleUrl>
            <LineString id="19571">
                <coordinates>107.6520306,-6.9126628,0.0 107.6518998,-6.9126808,0.0</coordinates>
            </LineString>
        </Placemark>
        <Placemark id="19576">
            <name>Jalan Gardujati</name>
            <styleUrl>#19577</styleUrl>
            <LineString id="19575">
                <coordinates>107.598224,-6.9170874,0.0 107.5982101,-6.9164481,0.0 107.5982092,-6.9164103,0.0 107.5982102,-6.9163251,0.0</coordinates>
            </LineString>
        </Placemark>
        <Placemark id="19580">
            <name>Jalan Asia Afrika</name>
            <styleUrl>#19581</styleUrl>
            <LineString id="19579">
                <coordinates>107.6120154,-6.9217245,0.0 107.6118219,-6.9217006,0.0</coordinates>
            </LineString>
        </Placemark>
        <Placemark id="19584">
            <name>Jalan Asia Afrika</name>
            <styleUrl>#19585</styleUrl>
            <LineString id="19583">
                <coordinates>107.6077961,-6.9212245,0.0 107.6076762,-6.9212089,0.0 107.6075753,-6.921193,0.0 107.6072432,-6.9211493,0.0 107.607195,-6.9211421,0.0</coordinates>
            </LineString>
        </Placemark>
        <Placemark id="19588">
            <name>Jalan Terusan Jakarta</name>
            <styleUrl>#19589</styleUrl>
            <LineString id="19587">
                <coordinates>107.6451943,-6.9135557,0.0 107.6451485,-6.9135638,0.0 107.6439222,-6.9137511,0.0</coordinates>
            </LineString>
        </Placemark>
        <Placemark id="19592">
            <name>Jalan Jakarta</name>
            <styleUrl>#19593</styleUrl>
            <LineString id="19591">
                <coordinates>107.6422876,-6.9139498,0.0 107.6421252,-6.9139589,0.0 107.6417884,-6.9139622,0.0</coordinates>
            </LineString>
        </Placemark>
        <Placemark id="19596">
            <name>Jalan Tamblong</name>
            <styleUrl>#19597</styleUrl>
            <LineString id="19595">
                <coordinates>107.61235,-6.918793,0.0 107.6123364,-6.9189576,0.0 107.6122952,-6.9194549,0.0 107.6122402,-6.9198677,0.0 107.6122212,-6.9200158,0.0 107.6122183,-6.920038,0.0 107.6122118,-6.9200856,0.0 107.6122092,-6.9201091,0.0</coordinates>
            </LineString>
        </Placemark>
        <Placemark id="19600">
            <name>Jalan Merdeka</name>
            <styleUrl>#19601</styleUrl>
            <LineString id="19599">
                <coordinates>107.6101984,-6.9153866,0.0 107.6101877,-6.9155247,0.0 107.610182,-6.915607,0.0 107.6101321,-6.9161683,0.0 107.6101178,-6.91631,0.0 107.6101057,-6.916398,0.0 107.6100886,-6.9165108,0.0 107.610072,-6.9165602,0.0</coordinates>
            </LineString>
        </Placemark>
        <Placemark id="19604">
            <name>Jalan Terusan Jakarta</name>
            <styleUrl>#19605</styleUrl>
            <LineString id="19603">
                <coordinates>107.6475828,-6.9132227,0.0 107.6474297,-6.913244,0.0</coordinates>
            </LineString>
        </Placemark>
        <Placemark id="19608">
            <name>Jalan Terusan Jakarta</name>
            <styleUrl>#19609</styleUrl>
            <LineString id="19607">
                <coordinates>107.6453033,-6.9135399,0.0 107.6451943,-6.9135557,0.0</coordinates>
            </LineString>
        </Placemark>
        <Placemark id="19612">
            <name>Jalan Gardujati</name>
            <styleUrl>#19613</styleUrl>
            <LineString id="19611">
                <coordinates>107.5982595,-6.9181989,0.0 107.5982308,-6.9180616,0.0 107.5982278,-6.9178847,0.0 107.5982246,-6.9176091,0.0 107.598224,-6.9170874,0.0</coordinates>
            </LineString>
        </Placemark>
        <Placemark id="19616">
            <name>Jalan Jakarta</name>
            <styleUrl>#19617</styleUrl>
            <LineString id="19615">
                <coordinates>107.6429791,-6.9138756,0.0 107.6422876,-6.9139498,0.0</coordinates>
            </LineString>
        </Placemark>
        <Placemark id="19620">
            <name>Jalan Jakarta</name>
            <styleUrl>#19621</styleUrl>
            <LineString id="19619">
                <coordinates>107.6436788,-6.9137868,0.0 107.643606,-6.9137967,0.0 107.6435259,-6.9138067,0.0 107.6434317,-6.9138202,0.0</coordinates>
            </LineString>
        </Placemark>
        <Placemark id="19624">
            <name>Jalan Terusan Jakarta</name>
            <styleUrl>#19625</styleUrl>
            <LineString id="19623">
                <coordinates>107.6438747,-6.9137574,0.0 107.6437931,-6.9137693,0.0 107.6437464,-6.9137765,0.0</coordinates>
            </LineString>
        </Placemark>
        <Placemark id="19628">
            <name>Jalan Laswi</name>
            <styleUrl>#19629</styleUrl>
            <LineString id="19627">
                <coordinates>107.6307188,-6.9173125,0.0 107.6306282,-6.9171247,0.0 107.6301434,-6.916119,0.0 107.6300893,-6.9160089,0.0</coordinates>
            </LineString>
        </Placemark>
        <Placemark id="19632">
            <name>Jalan Jakarta</name>
            <styleUrl>#19633</styleUrl>
            <LineString id="19631">
                <coordinates>107.6357903,-6.914575,0.0 107.6357337,-6.9145811,0.0 107.6356898,-6.9145768,0.0 107.6356137,-6.9145582,0.0 107.6354322,-6.914512,0.0 107.6352266,-6.9144508,0.0 107.6348552,-6.9143329,0.0</coordinates>
            </LineString>
        </Placemark>
        <Placemark id="19636">
            <name>Jalan Asia Afrika</name>
            <styleUrl>#19637</styleUrl>
            <LineString id="19635">
                <coordinates>107.6094601,-6.9214117,0.0 107.6092801,-6.921392,0.0 107.6090723,-6.9213678,0.0 107.6088911,-6.921347,0.0 107.6087921,-6.9213346,0.0 107.6082723,-6.9212776,0.0 107.6080497,-6.9212529,0.0 107.6077961,-6.9212245,0.0</coordinates>
            </LineString>
        </Placemark>
        <Placemark id="19640">
            <name>Jalan Sukabumi</name>
            <styleUrl>#19641</styleUrl>
            <LineString id="19639">
                <coordinates>107.6347173,-6.914512,0.0 107.634483,-6.9157469,0.0 107.6344729,-6.9158077,0.0 107.634447,-6.9159625,0.0</coordinates>
            </LineString>
        </Placemark>
        <Placemark id="19644">
            <name>Jalan Sukabumi</name>
            <styleUrl>#19645</styleUrl>
            <LineString id="19643">
                <coordinates>107.6339445,-6.9173179,0.0 107.6337948,-6.9174252,0.0</coordinates>
            </LineString>
        </Placemark>
        <Placemark id="19648">
            <name>Jalan Sukabumi</name>
            <styleUrl>#19649</styleUrl>
            <LineString id="19647">
                <coordinates>107.634447,-6.9159625,0.0 107.634419,-6.9161223,0.0</coordinates>
            </LineString>
        </Placemark>
        <Placemark id="19652">
            <name>Jalan Merdeka</name>
            <styleUrl>#19653</styleUrl>
            <LineString id="19651">
                <coordinates>107.610654,-6.909795,0.0 107.6106452,-6.9098761,0.0 107.6106164,-6.9099691,0.0</coordinates>
            </LineString>
        </Placemark>
        <Placemark id="19656">
            <name>Jalan Lembong</name>
            <styleUrl>#19657</styleUrl>
            <LineString id="19655">
                <coordinates>107.610072,-6.9165602,0.0 107.6101313,-6.9165901,0.0 107.6106113,-6.9168303,0.0 107.6108249,-6.916942,0.0 107.6109278,-6.9169939,0.0</coordinates>
            </LineString>
        </Placemark>
        <Placemark id="19660">
            <name>Jalan Sukabumi</name>
            <styleUrl>#19661</styleUrl>
            <LineString id="19659">
                <coordinates>107.6341961,-6.9170831,0.0 107.6340932,-6.917204,0.0 107.6339445,-6.9173179,0.0</coordinates>
            </LineString>
        </Placemark>
        <Placemark id="19664">
            <name>Jalan Asia Afrika</name>
            <styleUrl>#19665</styleUrl>
            <LineString id="19663">
                <coordinates>107.6069008,-6.9211076,0.0 107.6066769,-6.9210774,0.0 107.6064585,-6.9210512,0.0</coordinates>
            </LineString>
        </Placemark>
        <Placemark id="19668">
            <name>Jalan Laswi</name>
            <styleUrl>#19669</styleUrl>
            <LineString id="19667">
                <coordinates>107.6299922,-6.9158161,0.0 107.6299627,-6.9157488,0.0</coordinates>
            </LineString>
        </Placemark>
        <Placemark id="19672">
            <name>Jalan Merdeka</name>
            <styleUrl>#19673</styleUrl>
            <LineString id="19671">
                <coordinates>107.6103525,-6.9136021,0.0 107.610315,-6.9139642,0.0 107.6102982,-6.9141706,0.0</coordinates>
            </LineString>
        </Placemark>
        <Placemark id="19676">
            <name>Jalan Suniaraja</name>
            <styleUrl>#19677</styleUrl>
            <LineString id="19675">
                <coordinates>107.6022008,-6.9161702,0.0 107.6023308,-6.916154,0.0 107.6024325,-6.9161432,0.0</coordinates>
            </LineString>
        </Placemark>
        <Placemark id="19680">
            <name>Jalan Laswi</name>
            <styleUrl>#19681</styleUrl>
            <LineString id="19679">
                <coordinates>107.6313572,-6.9186866,0.0 107.6313458,-6.9186198,0.0</coordinates>
            </LineString>
        </Placemark>
        <Placemark id="19684">
            <name>Jalan Sukabumi</name>
            <styleUrl>#19685</styleUrl>
            <LineString id="19683">
                <coordinates>107.6314582,-6.9186505,0.0 107.6313572,-6.9186866,0.0</coordinates>
            </LineString>
        </Placemark>
        <Placemark id="19688">
            <name>Jalan Sukabumi</name>
            <styleUrl>#19689</styleUrl>
            <LineString id="19687">
                <coordinates>107.6320827,-6.9183023,0.0 107.6320334,-6.9183683,0.0 107.6315787,-6.9185925,0.0 107.6314582,-6.9186505,0.0</coordinates>
            </LineString>
        </Placemark>
        <Placemark id="19692">
            <name>Jalan Sukabumi</name>
            <styleUrl>#19693</styleUrl>
            <LineString id="19691">
                <coordinates>107.6337948,-6.9174252,0.0 107.6337656,-6.9174454,0.0 107.6330451,-6.9178143,0.0 107.6324739,-6.9181019,0.0</coordinates>
            </LineString>
        </Placemark>
        <Placemark id="19696">
            <name>Jalan L.L. RE. Martadinata</name>
            <styleUrl>#19697</styleUrl>
            <LineString id="19695">
                <coordinates>107.621213,-6.9059876,0.0 107.6210778,-6.9059449,0.0 107.6209399,-6.9059153,0.0 107.6207244,-6.9058792,0.0 107.6207064,-6.9058762,0.0 107.6205649,-6.905862,0.0 107.6203632,-6.9058522,0.0</coordinates>
            </LineString>
        </Placemark>
        <Placemark id="19700">
            <name>Jalan Merdeka</name>
            <styleUrl>#19701</styleUrl>
            <LineString id="19699">
                <coordinates>107.6102982,-6.9141706,0.0 107.6102674,-6.9146071,0.0</coordinates>
            </LineString>
        </Placemark>
        <Placemark id="19704">
            <name>Jalan Asia Afrika</name>
            <styleUrl>#19705</styleUrl>
            <LineString id="19703">
                <coordinates>107.6071309,-6.9211347,0.0 107.6069871,-6.9211172,0.0 107.6069008,-6.9211076,0.0</coordinates>
            </LineString>
        </Placemark>
        <Placemark id="19708">
            <name>Jalan Terusan Jakarta</name>
            <styleUrl>#19709</styleUrl>
            <LineString id="19707">
                <coordinates>107.6658787,-6.9149864,0.0 107.6656787,-6.9149413,0.0</coordinates>
            </LineString>
        </Placemark>
        <Placemark id="19712">
            <name>Jalan Jakarta</name>
            <styleUrl>#19713</styleUrl>
            <LineString id="19711">
                <coordinates>107.6434317,-6.9138202,0.0 107.6429791,-6.9138756,0.0</coordinates>
            </LineString>
        </Placemark>
        <Placemark id="19716">
            <name>Jalan Gardujati</name>
            <styleUrl>#19717</styleUrl>
            <LineString id="19715">
                <coordinates>107.5982824,-6.9187314,0.0 107.5982807,-6.9186924,0.0 107.5982595,-6.9181989,0.0</coordinates>
            </LineString>
        </Placemark>
        <Placemark id="19720">
            <name>Jalan Tamblong</name>
            <styleUrl>#19721</styleUrl>
            <LineString id="19719">
                <coordinates>107.6123918,-6.9182691,0.0 107.6123449,-6.9186433,0.0 107.6123419,-6.9187305,0.0 107.61235,-6.918793,0.0</coordinates>
            </LineString>
        </Placemark>
        <Placemark id="19724">
            <name>Jalan Kebon Jati</name>
            <styleUrl>#19725</styleUrl>
            <LineString id="19723">
                <coordinates>107.5982729,-6.9163191,0.0 107.5984551,-6.9163007,0.0</coordinates>
            </LineString>
        </Placemark>
        <Placemark id="19728">
            <name>Jalan Merdeka</name>
            <styleUrl>#19729</styleUrl>
            <LineString id="19727">
                <coordinates>107.610206,-6.915247,0.0 107.6102046,-6.9152669,0.0 107.6102025,-6.9152943,0.0 107.6101984,-6.9153866,0.0</coordinates>
            </LineString>
        </Placemark>
        <Placemark id="19732">
            <name>Jalan L.L. RE. Martadinata</name>
            <styleUrl>#19733</styleUrl>
            <LineString id="19731">
                <coordinates>107.6126957,-6.9070364,0.0 107.6124781,-6.907055,0.0 107.6124238,-6.9070587,0.0 107.6120609,-6.907071,0.0 107.6119393,-6.9070669,0.0 107.6117292,-6.9070622,0.0</coordinates>
            </LineString>
        </Placemark>
        <Placemark id="19736">
            <name>Jalan L.L. RE. Martadinata</name>
            <styleUrl>#19737</styleUrl>
            <LineString id="19735">
                <coordinates>107.6117292,-6.9070622,0.0 107.6116695,-6.9070609,0.0 107.6116341,-6.9070599,0.0 107.6113975,-6.9070401,0.0 107.6113747,-6.9070385,0.0 107.6111706,-6.9070246,0.0 107.6109647,-6.9070064,0.0 107.6107468,-6.9069963,0.0 107.6106377,-6.9069919,0.0</coordinates>
            </LineString>
        </Placemark>
        <Placemark id="19740">
            <name>Jalan Lembong</name>
            <styleUrl>#19741</styleUrl>
            <LineString id="19739">
                <coordinates>107.6113378,-6.917202,0.0 107.6114765,-6.9172727,0.0</coordinates>
            </LineString>
        </Placemark>
        <Placemark id="19744">
            <name>Jalan Lembong</name>
            <styleUrl>#19745</styleUrl>
            <LineString id="19743">
                <coordinates>107.6114765,-6.9172727,0.0 107.6115788,-6.9173248,0.0</coordinates>
            </LineString>
        </Placemark>
        <Placemark id="19748">
            <name>Jalan Lembong</name>
            <styleUrl>#19749</styleUrl>
            <LineString id="19747">
                <coordinates>107.6115788,-6.9173248,0.0 107.6118099,-6.9174381,0.0 107.611899,-6.9174826,0.0</coordinates>
            </LineString>
        </Placemark>
        <Placemark id="19752">
            <name>Jalan Merdeka</name>
            <styleUrl>#19753</styleUrl>
            <LineString id="19751">
                <coordinates>107.6102674,-6.9146071,0.0 107.610206,-6.915247,0.0</coordinates>
            </LineString>
        </Placemark>
        <Placemark id="19756">
            <name>Jalan Asia Afrika</name>
            <styleUrl>#19757</styleUrl>
            <LineString id="19755">
                <coordinates>107.6098267,-6.921461,0.0 107.6097986,-6.9214572,0.0 107.6094601,-6.9214117,0.0</coordinates>
            </LineString>
        </Placemark>
        <Placemark id="19760">
            <name>Jalan Asia Afrika</name>
            <styleUrl>#19761</styleUrl>
            <LineString id="19759">
                <coordinates>107.6118219,-6.9217006,0.0 107.6115001,-6.9216626,0.0 107.6114214,-6.9216524,0.0 107.6112374,-6.9216318,0.0 107.6110246,-6.9216047,0.0 107.6108437,-6.9215848,0.0 107.6106307,-6.9215569,0.0 107.6104259,-6.9215335,0.0 107.610212,-6.9215095,0.0 107.6101463,-6.9215025,0.0 107.6099829,-6.9214819,0.0 107.6099373,-6.9214762,0.0 107.6098267,-6.921461,0.0</coordinates>
            </LineString>
        </Placemark>
        <Placemark id="19764">
            <name>Jalan Terusan Jakarta</name>
            <styleUrl>#19765</styleUrl>
            <LineString id="19763">
                <coordinates>107.6518998,-6.9126808,0.0 107.6518089,-6.9126922,0.0 107.6516097,-6.9127171,0.0 107.6512126,-6.9127667,0.0</coordinates>
            </LineString>
        </Placemark>
        <Placemark id="19768">
            <name>Jalan L.L. RE. Martadinata</name>
            <styleUrl>#19769</styleUrl>
            <LineString id="19767">
                <coordinates>107.6299627,-6.9157488,0.0 107.629917,-6.9156449,0.0 107.629839,-6.9154679,0.0</coordinates>
            </LineString>
        </Placemark>
        <Placemark id="19772">
            <name>Jalan Sukabumi</name>
            <styleUrl>#19773</styleUrl>
            <LineString id="19771">
                <coordinates>107.6324739,-6.9181019,0.0 107.6322059,-6.9182368,0.0 107.6321219,-6.9182791,0.0 107.6320827,-6.9183023,0.0</coordinates>
            </LineString>
        </Placemark>
    </Document>
</kml>
