<?xml version="1.0" encoding="UTF-8"?>
<kml xmlns="http://www.opengis.net/kml/2.2" xmlns:gx="http://www.google.com/kml/ext/2.2">
    <Document id="18420">
        <Style id="18426">
            <IconStyle id="18427">
                <colorMode>normal</colorMode>
                <scale>1</scale>
                <heading>0</heading>
                <Icon id="18428">
                    <href>http://maps.google.com/mapfiles/kml/pushpin/ylw-pushpin.png</href>
                </Icon>
            </IconStyle>
        </Style>
        <Style id="18431">
            <IconStyle id="18432">
                <colorMode>normal</colorMode>
                <scale>1</scale>
                <heading>0</heading>
                <Icon id="18433">
                    <href>http://maps.google.com/mapfiles/kml/pushpin/ylw-pushpin.png</href>
                </Icon>
            </IconStyle>
        </Style>
        <Style id="18436">
            <LineStyle id="18437">
                <color>ff1D94F7</color>
                <colorMode>normal</colorMode>
                <width>4</width>
            </LineStyle>
        </Style>
        <Style id="18440">
            <LineStyle id="18441">
                <color>ff1D94F7</color>
                <colorMode>normal</colorMode>
                <width>4</width>
            </LineStyle>
        </Style>
        <Style id="18444">
            <LineStyle id="18445">
                <color>ff1D94F7</color>
                <colorMode>normal</colorMode>
                <width>4</width>
            </LineStyle>
        </Style>
        <Style id="18448">
            <LineStyle id="18449">
                <color>ff1D94F7</color>
                <colorMode>normal</colorMode>
                <width>4</width>
            </LineStyle>
        </Style>
        <Style id="18452">
            <LineStyle id="18453">
                <color>ff1D94F7</color>
                <colorMode>normal</colorMode>
                <width>4</width>
            </LineStyle>
        </Style>
        <Style id="18456">
            <LineStyle id="18457">
                <color>ff1D94F7</color>
                <colorMode>normal</colorMode>
                <width>4</width>
            </LineStyle>
        </Style>
        <Style id="18460">
            <LineStyle id="18461">
                <color>ff1D94F7</color>
                <colorMode>normal</colorMode>
                <width>4</width>
            </LineStyle>
        </Style>
        <Style id="18464">
            <LineStyle id="18465">
                <color>ff1D94F7</color>
                <colorMode>normal</colorMode>
                <width>4</width>
            </LineStyle>
        </Style>
        <Style id="18468">
            <LineStyle id="18469">
                <color>ff1D94F7</color>
                <colorMode>normal</colorMode>
                <width>4</width>
            </LineStyle>
        </Style>
        <Style id="18472">
            <LineStyle id="18473">
                <color>ff1D94F7</color>
                <colorMode>normal</colorMode>
                <width>4</width>
            </LineStyle>
        </Style>
        <Style id="18476">
            <LineStyle id="18477">
                <color>ff1D94F7</color>
                <colorMode>normal</colorMode>
                <width>4</width>
            </LineStyle>
        </Style>
        <Style id="18480">
            <LineStyle id="18481">
                <color>ff1D94F7</color>
                <colorMode>normal</colorMode>
                <width>4</width>
            </LineStyle>
        </Style>
        <Style id="18484">
            <LineStyle id="18485">
                <color>ff1D94F7</color>
                <colorMode>normal</colorMode>
                <width>4</width>
            </LineStyle>
        </Style>
        <Style id="18488">
            <LineStyle id="18489">
                <color>ff1D94F7</color>
                <colorMode>normal</colorMode>
                <width>4</width>
            </LineStyle>
        </Style>
        <Style id="18492">
            <LineStyle id="18493">
                <color>ff1D94F7</color>
                <colorMode>normal</colorMode>
                <width>4</width>
            </LineStyle>
        </Style>
        <Style id="18496">
            <LineStyle id="18497">
                <color>ff1D94F7</color>
                <colorMode>normal</colorMode>
                <width>4</width>
            </LineStyle>
        </Style>
        <Style id="18500">
            <LineStyle id="18501">
                <color>ff1D94F7</color>
                <colorMode>normal</colorMode>
                <width>4</width>
            </LineStyle>
        </Style>
        <Style id="18504">
            <LineStyle id="18505">
                <color>ff1D94F7</color>
                <colorMode>normal</colorMode>
                <width>4</width>
            </LineStyle>
        </Style>
        <Style id="18508">
            <LineStyle id="18509">
                <color>ff1D94F7</color>
                <colorMode>normal</colorMode>
                <width>4</width>
            </LineStyle>
        </Style>
        <Style id="18512">
            <LineStyle id="18513">
                <color>ff1D94F7</color>
                <colorMode>normal</colorMode>
                <width>4</width>
            </LineStyle>
        </Style>
        <Style id="18516">
            <LineStyle id="18517">
                <color>ff1D94F7</color>
                <colorMode>normal</colorMode>
                <width>4</width>
            </LineStyle>
        </Style>
        <Style id="18520">
            <LineStyle id="18521">
                <color>ff1D94F7</color>
                <colorMode>normal</colorMode>
                <width>4</width>
            </LineStyle>
        </Style>
        <Style id="18524">
            <LineStyle id="18525">
                <color>ff1D94F7</color>
                <colorMode>normal</colorMode>
                <width>4</width>
            </LineStyle>
        </Style>
        <Style id="18528">
            <LineStyle id="18529">
                <color>ff1D94F7</color>
                <colorMode>normal</colorMode>
                <width>4</width>
            </LineStyle>
        </Style>
        <Style id="18532">
            <LineStyle id="18533">
                <color>ff1D94F7</color>
                <colorMode>normal</colorMode>
                <width>4</width>
            </LineStyle>
        </Style>
        <Style id="18536">
            <LineStyle id="18537">
                <color>ff1D94F7</color>
                <colorMode>normal</colorMode>
                <width>4</width>
            </LineStyle>
        </Style>
        <Style id="18540">
            <LineStyle id="18541">
                <color>ff1D94F7</color>
                <colorMode>normal</colorMode>
                <width>4</width>
            </LineStyle>
        </Style>
        <Style id="18544">
            <LineStyle id="18545">
                <color>ff1D94F7</color>
                <colorMode>normal</colorMode>
                <width>4</width>
            </LineStyle>
        </Style>
        <Style id="18548">
            <LineStyle id="18549">
                <color>ff1D94F7</color>
                <colorMode>normal</colorMode>
                <width>4</width>
            </LineStyle>
        </Style>
        <Style id="18552">
            <LineStyle id="18553">
                <color>ff1D94F7</color>
                <colorMode>normal</colorMode>
                <width>4</width>
            </LineStyle>
        </Style>
        <Style id="18556">
            <LineStyle id="18557">
                <color>ff1D94F7</color>
                <colorMode>normal</colorMode>
                <width>4</width>
            </LineStyle>
        </Style>
        <Style id="18560">
            <LineStyle id="18561">
                <color>ff1D94F7</color>
                <colorMode>normal</colorMode>
                <width>4</width>
            </LineStyle>
        </Style>
        <Style id="18564">
            <LineStyle id="18565">
                <color>ff1D94F7</color>
                <colorMode>normal</colorMode>
                <width>4</width>
            </LineStyle>
        </Style>
        <Style id="18568">
            <LineStyle id="18569">
                <color>ff1D94F7</color>
                <colorMode>normal</colorMode>
                <width>4</width>
            </LineStyle>
        </Style>
        <Style id="18572">
            <LineStyle id="18573">
                <color>ff1D94F7</color>
                <colorMode>normal</colorMode>
                <width>4</width>
            </LineStyle>
        </Style>
        <Style id="18576">
            <LineStyle id="18577">
                <color>ff1D94F7</color>
                <colorMode>normal</colorMode>
                <width>4</width>
            </LineStyle>
        </Style>
        <Style id="18580">
            <LineStyle id="18581">
                <color>ff1D94F7</color>
                <colorMode>normal</colorMode>
                <width>4</width>
            </LineStyle>
        </Style>
        <Style id="18584">
            <LineStyle id="18585">
                <color>ff1D94F7</color>
                <colorMode>normal</colorMode>
                <width>4</width>
            </LineStyle>
        </Style>
        <Style id="18588">
            <LineStyle id="18589">
                <color>ff1D94F7</color>
                <colorMode>normal</colorMode>
                <width>4</width>
            </LineStyle>
        </Style>
        <Style id="18592">
            <LineStyle id="18593">
                <color>ff1D94F7</color>
                <colorMode>normal</colorMode>
                <width>4</width>
            </LineStyle>
        </Style>
        <Style id="18596">
            <LineStyle id="18597">
                <color>ff1D94F7</color>
                <colorMode>normal</colorMode>
                <width>4</width>
            </LineStyle>
        </Style>
        <Style id="18600">
            <LineStyle id="18601">
                <color>ff1D94F7</color>
                <colorMode>normal</colorMode>
                <width>4</width>
            </LineStyle>
        </Style>
        <Style id="18604">
            <LineStyle id="18605">
                <color>ff1D94F7</color>
                <colorMode>normal</colorMode>
                <width>4</width>
            </LineStyle>
        </Style>
        <Style id="18608">
            <LineStyle id="18609">
                <color>ff1D94F7</color>
                <colorMode>normal</colorMode>
                <width>4</width>
            </LineStyle>
        </Style>
        <Style id="18612">
            <LineStyle id="18613">
                <color>ff1D94F7</color>
                <colorMode>normal</colorMode>
                <width>4</width>
            </LineStyle>
        </Style>
        <Style id="18616">
            <LineStyle id="18617">
                <color>ff1D94F7</color>
                <colorMode>normal</colorMode>
                <width>4</width>
            </LineStyle>
        </Style>
        <Style id="18620">
            <LineStyle id="18621">
                <color>ff1D94F7</color>
                <colorMode>normal</colorMode>
                <width>4</width>
            </LineStyle>
        </Style>
        <Style id="18624">
            <LineStyle id="18625">
                <color>ff1D94F7</color>
                <colorMode>normal</colorMode>
                <width>4</width>
            </LineStyle>
        </Style>
        <Style id="18628">
            <LineStyle id="18629">
                <color>ff1D94F7</color>
                <colorMode>normal</colorMode>
                <width>4</width>
            </LineStyle>
        </Style>
        <Style id="18632">
            <LineStyle id="18633">
                <color>ff1D94F7</color>
                <colorMode>normal</colorMode>
                <width>4</width>
            </LineStyle>
        </Style>
        <Style id="18636">
            <LineStyle id="18637">
                <color>ff1D94F7</color>
                <colorMode>normal</colorMode>
                <width>4</width>
            </LineStyle>
        </Style>
        <Style id="18640">
            <LineStyle id="18641">
                <color>ff1D94F7</color>
                <colorMode>normal</colorMode>
                <width>4</width>
            </LineStyle>
        </Style>
        <Style id="18644">
            <LineStyle id="18645">
                <color>ff1D94F7</color>
                <colorMode>normal</colorMode>
                <width>4</width>
            </LineStyle>
        </Style>
        <Style id="18648">
            <LineStyle id="18649">
                <color>ff1D94F7</color>
                <colorMode>normal</colorMode>
                <width>4</width>
            </LineStyle>
        </Style>
        <Style id="18652">
            <LineStyle id="18653">
                <color>ff1D94F7</color>
                <colorMode>normal</colorMode>
                <width>4</width>
            </LineStyle>
        </Style>
        <Style id="18656">
            <LineStyle id="18657">
                <color>ff1D94F7</color>
                <colorMode>normal</colorMode>
                <width>4</width>
            </LineStyle>
        </Style>
        <Style id="18660">
            <LineStyle id="18661">
                <color>ff1D94F7</color>
                <colorMode>normal</colorMode>
                <width>4</width>
            </LineStyle>
        </Style>
        <Style id="18664">
            <LineStyle id="18665">
                <color>ff1D94F7</color>
                <colorMode>normal</colorMode>
                <width>4</width>
            </LineStyle>
        </Style>
        <Style id="18668">
            <LineStyle id="18669">
                <color>ff1D94F7</color>
                <colorMode>normal</colorMode>
                <width>4</width>
            </LineStyle>
        </Style>
        <Style id="18672">
            <LineStyle id="18673">
                <color>ff1D94F7</color>
                <colorMode>normal</colorMode>
                <width>4</width>
            </LineStyle>
        </Style>
        <Style id="18676">
            <LineStyle id="18677">
                <color>ff1D94F7</color>
                <colorMode>normal</colorMode>
                <width>4</width>
            </LineStyle>
        </Style>
        <Style id="18680">
            <LineStyle id="18681">
                <color>ff1D94F7</color>
                <colorMode>normal</colorMode>
                <width>4</width>
            </LineStyle>
        </Style>
        <Style id="18684">
            <LineStyle id="18685">
                <color>ff1D94F7</color>
                <colorMode>normal</colorMode>
                <width>4</width>
            </LineStyle>
        </Style>
        <Style id="18688">
            <LineStyle id="18689">
                <color>ff1D94F7</color>
                <colorMode>normal</colorMode>
                <width>4</width>
            </LineStyle>
        </Style>
        <Style id="18692">
            <LineStyle id="18693">
                <color>ff1D94F7</color>
                <colorMode>normal</colorMode>
                <width>4</width>
            </LineStyle>
        </Style>
        <Style id="18696">
            <LineStyle id="18697">
                <color>ff1D94F7</color>
                <colorMode>normal</colorMode>
                <width>4</width>
            </LineStyle>
        </Style>
        <Style id="18700">
            <LineStyle id="18701">
                <color>ff1D94F7</color>
                <colorMode>normal</colorMode>
                <width>4</width>
            </LineStyle>
        </Style>
        <Style id="18704">
            <LineStyle id="18705">
                <color>ff1D94F7</color>
                <colorMode>normal</colorMode>
                <width>4</width>
            </LineStyle>
        </Style>
        <Style id="18708">
            <LineStyle id="18709">
                <color>ff1D94F7</color>
                <colorMode>normal</colorMode>
                <width>4</width>
            </LineStyle>
        </Style>
        <Style id="18712">
            <LineStyle id="18713">
                <color>ff1D94F7</color>
                <colorMode>normal</colorMode>
                <width>4</width>
            </LineStyle>
        </Style>
        <Style id="18716">
            <LineStyle id="18717">
                <color>ff1D94F7</color>
                <colorMode>normal</colorMode>
                <width>4</width>
            </LineStyle>
        </Style>
        <Style id="18720">
            <LineStyle id="18721">
                <color>ff1D94F7</color>
                <colorMode>normal</colorMode>
                <width>4</width>
            </LineStyle>
        </Style>
        <Style id="18724">
            <LineStyle id="18725">
                <color>ff1D94F7</color>
                <colorMode>normal</colorMode>
                <width>4</width>
            </LineStyle>
        </Style>
        <Style id="18728">
            <LineStyle id="18729">
                <color>ff1D94F7</color>
                <colorMode>normal</colorMode>
                <width>4</width>
            </LineStyle>
        </Style>
        <Style id="18732">
            <LineStyle id="18733">
                <color>ff1D94F7</color>
                <colorMode>normal</colorMode>
                <width>4</width>
            </LineStyle>
        </Style>
        <Style id="18736">
            <LineStyle id="18737">
                <color>ff1D94F7</color>
                <colorMode>normal</colorMode>
                <width>4</width>
            </LineStyle>
        </Style>
        <Style id="18740">
            <LineStyle id="18741">
                <color>ff1D94F7</color>
                <colorMode>normal</colorMode>
                <width>4</width>
            </LineStyle>
        </Style>
        <Style id="18744">
            <LineStyle id="18745">
                <color>ff1D94F7</color>
                <colorMode>normal</colorMode>
                <width>4</width>
            </LineStyle>
        </Style>
        <Style id="18748">
            <LineStyle id="18749">
                <color>ff1D94F7</color>
                <colorMode>normal</colorMode>
                <width>4</width>
            </LineStyle>
        </Style>
        <Style id="18752">
            <LineStyle id="18753">
                <color>ff1D94F7</color>
                <colorMode>normal</colorMode>
                <width>4</width>
            </LineStyle>
        </Style>
        <Style id="18756">
            <LineStyle id="18757">
                <color>ff1D94F7</color>
                <colorMode>normal</colorMode>
                <width>4</width>
            </LineStyle>
        </Style>
        <Style id="18760">
            <LineStyle id="18761">
                <color>ff1D94F7</color>
                <colorMode>normal</colorMode>
                <width>4</width>
            </LineStyle>
        </Style>
        <ExtendedData>
            <Data name="route-name">
                <value>Koridor 4: Leuwipanjang → Flyover Antapani</value>
            </Data>
            <Data name="source">
                <value>Transport for Bandung</value>
            </Data>
        </ExtendedData>
        <Placemark id="18425">
            <name>Seberang Terminal Leuwipanjang</name>
            <styleUrl>#18426</styleUrl>
            <Point id="18424">
                <coordinates>107.592997,-6.9469193,0.0</coordinates>
            </Point>
        </Placemark>
        <Placemark id="18430">
            <name>Flyover Antapani</name>
            <styleUrl>#18431</styleUrl>
            <Point id="18429">
                <coordinates>107.6429791,-6.9138756,0.0</coordinates>
            </Point>
        </Placemark>
        <Placemark id="18435">
            <name>Jalan H. Ibrahim Adjie</name>
            <styleUrl>#18436</styleUrl>
            <LineString id="18434">
                <coordinates>107.6430381,-6.9088519,0.0 107.6430734,-6.9088371,0.0 107.6430931,-6.9088341,0.0 107.6431223,-6.9088325,0.0 107.6431581,-6.9088428,0.0 107.6431794,-6.9088613,0.0 107.6431982,-6.9088983,0.0 107.6432051,-6.9089444,0.0 107.6432227,-6.9090441,0.0 107.6432642,-6.9093078,0.0 107.6432776,-6.9093765,0.0 107.6433224,-6.9094595,0.0</coordinates>
            </LineString>
        </Placemark>
        <Placemark id="18439">
            <name>Jalan Kyai Haji Wahid Hasyim</name>
            <styleUrl>#18440</styleUrl>
            <LineString id="18438">
                <coordinates>107.5895751,-6.9456911,0.0 107.5897088,-6.945521,0.0</coordinates>
            </LineString>
        </Placemark>
        <Placemark id="18443">
            <name>Jalan Kyai Haji Wahid Hasyim</name>
            <styleUrl>#18444</styleUrl>
            <LineString id="18442">
                <coordinates>107.5899199,-6.9452949,0.0 107.5899683,-6.9452286,0.0 107.5900352,-6.9451237,0.0 107.5901553,-6.9449353,0.0 107.5903058,-6.9446993,0.0 107.5904884,-6.944413,0.0 107.5905391,-6.9443334,0.0 107.5905904,-6.944253,0.0 107.590768,-6.9439758,0.0 107.5908061,-6.9439147,0.0 107.5908631,-6.9438253,0.0 107.5910269,-6.9435481,0.0</coordinates>
            </LineString>
        </Placemark>
        <Placemark id="18447">
            <name>Jalan Pelajar Pejuang 45</name>
            <styleUrl>#18448</styleUrl>
            <LineString id="18446">
                <coordinates>107.6227233,-6.9368982,0.0 107.622754,-6.9368771,0.0 107.6229268,-6.9367508,0.0 107.6231489,-6.9365488,0.0 107.623331,-6.9363673,0.0 107.6235951,-6.9361186,0.0</coordinates>
            </LineString>
        </Placemark>
        <Placemark id="18451">
            <name>Jalan Jenderal Ahmad Yani</name>
            <styleUrl>#18452</styleUrl>
            <LineString id="18450">
                <coordinates>107.6299627,-6.9157488,0.0 107.6300393,-6.9157014,0.0</coordinates>
            </LineString>
        </Placemark>
        <Placemark id="18455">
            <name>Jalan Jenderal Ahmad Yani</name>
            <styleUrl>#18456</styleUrl>
            <LineString id="18454">
                <coordinates>107.6343755,-6.9133841,0.0 107.6344369,-6.9133475,0.0 107.6344903,-6.913351,0.0 107.6345359,-6.9133508,0.0 107.6346004,-6.9133622,0.0</coordinates>
            </LineString>
        </Placemark>
        <Placemark id="18459">
            <name>Jalan Jenderal Ahmad Yani</name>
            <styleUrl>#18460</styleUrl>
            <LineString id="18458">
                <coordinates>107.6342542,-6.9134469,0.0 107.6342922,-6.9134291,0.0 107.6343755,-6.9133841,0.0</coordinates>
            </LineString>
        </Placemark>
        <Placemark id="18463">
            <name>Jalan Kyai Haji Wahid Hasyim</name>
            <styleUrl>#18464</styleUrl>
            <LineString id="18462">
                <coordinates>107.5949807,-6.9370518,0.0 107.5950123,-6.9370007,0.0 107.5950424,-6.936952,0.0</coordinates>
            </LineString>
        </Placemark>
        <Placemark id="18467">
            <name>Jalan Laswi</name>
            <styleUrl>#18468</styleUrl>
            <LineString id="18466">
                <coordinates>107.6313458,-6.9186198,0.0 107.6312891,-6.9184991,0.0 107.6312618,-6.9184409,0.0 107.6312506,-6.9184177,0.0 107.6307984,-6.9174779,0.0 107.6307188,-6.9173125,0.0</coordinates>
            </LineString>
        </Placemark>
        <Placemark id="18471">
            <name>Jalan Jenderal Ahmad Yani</name>
            <styleUrl>#18472</styleUrl>
            <LineString id="18470">
                <coordinates>107.6374263,-6.9118346,0.0 107.6376746,-6.9117059,0.0 107.6380463,-6.9115125,0.0 107.6381052,-6.9114812,0.0 107.6384087,-6.9113142,0.0 107.6385292,-6.9112521,0.0 107.6386772,-6.911175,0.0 107.6388085,-6.9111044,0.0 107.6393511,-6.9108148,0.0 107.6394945,-6.9107372,0.0 107.6395509,-6.9107061,0.0 107.6397159,-6.9106143,0.0 107.6397829,-6.9105782,0.0 107.6399162,-6.9105033,0.0 107.6402409,-6.9103278,0.0 107.64053,-6.9101769,0.0 107.6407412,-6.9100688,0.0 107.641164,-6.9098457,0.0 107.641445,-6.9096983,0.0 107.6415409,-6.9096449,0.0 107.6416706,-6.9095775,0.0 107.6417659,-6.9095225,0.0 107.6418156,-6.9094919,0.0 107.641865,-6.9094557,0.0</coordinates>
            </LineString>
        </Placemark>
        <Placemark id="18475">
            <name>Jalan H. Ibrahim Adjie</name>
            <styleUrl>#18476</styleUrl>
            <LineString id="18474">
                <coordinates>107.6435055,-6.9113592,0.0 107.6435255,-6.9115834,0.0 107.6435572,-6.9119253,0.0 107.6435846,-6.9122429,0.0 107.6436146,-6.9125869,0.0 107.6436356,-6.9128822,0.0 107.6436422,-6.9130175,0.0</coordinates>
            </LineString>
        </Placemark>
        <Placemark id="18479">
            <name>Jalan Jenderal Ahmad Yani</name>
            <styleUrl>#18480</styleUrl>
            <LineString id="18478">
                <coordinates>107.641865,-6.9094557,0.0 107.641886,-6.9094523,0.0 107.6419246,-6.9094416,0.0 107.6420289,-6.9093976,0.0 107.6421602,-6.9093246,0.0 107.6427522,-6.9090058,0.0 107.6430381,-6.9088519,0.0</coordinates>
            </LineString>
        </Placemark>
        <Placemark id="18483">
            <name>Jalan Peta</name>
            <styleUrl>#18484</styleUrl>
            <LineString id="18482">
                <coordinates>107.5950424,-6.936952,0.0 107.595108,-6.9369797,0.0 107.5952913,-6.937055,0.0</coordinates>
            </LineString>
        </Placemark>
        <Placemark id="18487">
            <name>Jalan BKR</name>
            <styleUrl>#18488</styleUrl>
            <LineString id="18486">
                <coordinates>107.6127959,-6.9377381,0.0 107.6128099,-6.9377383,0.0 107.6141135,-6.9377842,0.0 107.6162137,-6.9379,0.0 107.6176675,-6.9379879,0.0 107.6179579,-6.9380065,0.0 107.6180652,-6.9380134,0.0 107.6187551,-6.9380576,0.0 107.6192607,-6.9380784,0.0 107.6196527,-6.9380817,0.0 107.6199071,-6.9380597,0.0 107.620207,-6.9380111,0.0</coordinates>
            </LineString>
        </Placemark>
        <Placemark id="18491">
            <name>Jalan BKR</name>
            <styleUrl>#18492</styleUrl>
            <LineString id="18490">
                <coordinates>107.6096639,-6.9376389,0.0 107.610179,-6.937657,0.0 107.6104253,-6.9376656,0.0 107.6110405,-6.9376854,0.0 107.6113683,-6.9376957,0.0</coordinates>
            </LineString>
        </Placemark>
        <Placemark id="18495">
            <name>Jalan Pelajar Pejuang 45</name>
            <styleUrl>#18496</styleUrl>
            <LineString id="18494">
                <coordinates>107.6264291,-6.9295004,0.0 107.6264391,-6.9294553,0.0 107.6264613,-6.9293556,0.0 107.6265855,-6.9288571,0.0 107.6266426,-6.9286258,0.0 107.6267919,-6.9280215,0.0 107.6269788,-6.9273388,0.0</coordinates>
            </LineString>
        </Placemark>
        <Placemark id="18499">
            <name>Jalan Pelajar Pejuang 45</name>
            <styleUrl>#18500</styleUrl>
            <LineString id="18498">
                <coordinates>107.6257279,-6.9322848,0.0 107.6257914,-6.9320326,0.0 107.6258532,-6.9317868,0.0 107.6260656,-6.9309431,0.0 107.6260901,-6.9308456,0.0 107.6261208,-6.9307238,0.0 107.6263851,-6.9296738,0.0</coordinates>
            </LineString>
        </Placemark>
        <Placemark id="18503">
            <name>Jalan BKR</name>
            <styleUrl>#18504</styleUrl>
            <LineString id="18502">
                <coordinates>107.620207,-6.9380111,0.0 107.6204439,-6.9379553,0.0</coordinates>
            </LineString>
        </Placemark>
        <Placemark id="18507">
            <name>Jalan BKR</name>
            <styleUrl>#18508</styleUrl>
            <LineString id="18506">
                <coordinates>107.621238,-6.9376849,0.0 107.6213731,-6.9376336,0.0 107.6222214,-6.9372434,0.0 107.6224276,-6.9371006,0.0</coordinates>
            </LineString>
        </Placemark>
        <Placemark id="18511">
            <name>Jalan Kyai Haji Wahid Hasyim</name>
            <styleUrl>#18512</styleUrl>
            <LineString id="18510">
                <coordinates>107.5920724,-6.9418438,0.0 107.5922389,-6.9415903,0.0 107.5924641,-6.9412448,0.0 107.5930896,-6.9402979,0.0 107.59314,-6.9402168,0.0 107.5932148,-6.9400962,0.0 107.5932356,-6.9400628,0.0 107.5933094,-6.939944,0.0 107.5934404,-6.9397331,0.0 107.5936005,-6.9394752,0.0 107.5937688,-6.9391642,0.0 107.5939092,-6.9389121,0.0 107.5939987,-6.938752,0.0 107.5940814,-6.9386042,0.0 107.5941015,-6.9385696,0.0 107.594148,-6.9384872,0.0 107.594204,-6.9383881,0.0 107.594524,-6.9378129,0.0 107.5945872,-6.9376992,0.0 107.5946221,-6.9376377,0.0 107.5946542,-6.9375847,0.0 107.5948299,-6.9373141,0.0</coordinates>
            </LineString>
        </Placemark>
        <Placemark id="18515">
            <name>Jalan Jenderal Ahmad Yani</name>
            <styleUrl>#18516</styleUrl>
            <LineString id="18514">
                <coordinates>107.6311335,-6.9151604,0.0 107.6313219,-6.9150573,0.0 107.631392,-6.915019,0.0 107.6314854,-6.9149679,0.0 107.6316428,-6.9148818,0.0 107.6320747,-6.9146547,0.0 107.6322869,-6.9145432,0.0 107.6325601,-6.9143996,0.0 107.6327618,-6.9142935,0.0 107.6327884,-6.9142791,0.0 107.6328365,-6.9142566,0.0 107.6329881,-6.9141745,0.0 107.6332108,-6.9140574,0.0 107.6333413,-6.9139888,0.0</coordinates>
            </LineString>
        </Placemark>
        <Placemark id="18519">
            <name>Jalan Laswi</name>
            <styleUrl>#18520</styleUrl>
            <LineString id="18518">
                <coordinates>107.6300893,-6.9160089,0.0 107.6300294,-6.9158899,0.0 107.6299922,-6.9158161,0.0</coordinates>
            </LineString>
        </Placemark>
        <Placemark id="18523">
            <name>Jalan H. Ibrahim Adjie</name>
            <styleUrl>#18524</styleUrl>
            <LineString id="18522">
                <coordinates>107.6433703,-6.9099716,0.0 107.6434142,-6.9104391,0.0 107.6434287,-6.9105814,0.0 107.6434818,-6.9111241,0.0 107.6434906,-6.9112086,0.0 107.6435055,-6.9113592,0.0</coordinates>
            </LineString>
        </Placemark>
        <Placemark id="18527">
            <name>Jalan Soekarno-Hatta</name>
            <styleUrl>#18528</styleUrl>
            <LineString id="18526">
                <coordinates>107.589865,-6.9458161,0.0 107.5897183,-6.9457513,0.0 107.5896397,-6.9457186,0.0</coordinates>
            </LineString>
        </Placemark>
        <Placemark id="18531">
            <name>Jalan Soekarno-Hatta</name>
            <styleUrl>#18532</styleUrl>
            <LineString id="18530">
                <coordinates>107.592997,-6.9469193,0.0 107.5924922,-6.9467783,0.0 107.5921516,-6.9466864,0.0 107.5920068,-6.9466455,0.0 107.5918917,-6.946617,0.0 107.5916708,-6.9465388,0.0 107.5913956,-6.9464414,0.0 107.5913385,-6.9464212,0.0 107.5911782,-6.9463589,0.0 107.5909136,-6.9462527,0.0 107.5906079,-6.9461252,0.0 107.5904505,-6.9460588,0.0</coordinates>
            </LineString>
        </Placemark>
        <Placemark id="18535">
            <name>Jalan BKR</name>
            <styleUrl>#18536</styleUrl>
            <LineString id="18534">
                <coordinates>107.606583,-6.9375409,0.0 107.6066558,-6.9375429,0.0 107.6067624,-6.9375463,0.0 107.6075417,-6.9375714,0.0 107.6083051,-6.9375959,0.0 107.608358,-6.9375976,0.0 107.6084176,-6.9375995,0.0</coordinates>
            </LineString>
        </Placemark>
        <Placemark id="18539">
            <name>Jalan Peta</name>
            <styleUrl>#18540</styleUrl>
            <LineString id="18538">
                <coordinates>107.6058679,-6.9374947,0.0 107.6060689,-6.9375172,0.0 107.6061267,-6.9375223,0.0 107.6061748,-6.9375256,0.0</coordinates>
            </LineString>
        </Placemark>
        <Placemark id="18543">
            <name>Jalan Pelajar Pejuang 45</name>
            <styleUrl>#18544</styleUrl>
            <LineString id="18542">
                <coordinates>107.6254318,-6.9335047,0.0 107.6256261,-6.9326844,0.0 107.625634,-6.9326543,0.0</coordinates>
            </LineString>
        </Placemark>
        <Placemark id="18547">
            <name>Jalan BKR</name>
            <styleUrl>#18548</styleUrl>
            <LineString id="18546">
                <coordinates>107.6224276,-6.9371006,0.0 107.6226063,-6.9369795,0.0 107.6226363,-6.9369591,0.0 107.6226877,-6.9369246,0.0</coordinates>
            </LineString>
        </Placemark>
        <Placemark id="18551">
            <name>Jalan Peta</name>
            <styleUrl>#18552</styleUrl>
            <LineString id="18550">
                <coordinates>107.599356,-6.9374873,0.0 107.5994448,-6.9374721,0.0</coordinates>
            </LineString>
        </Placemark>
        <Placemark id="18555">
            <name>Jalan Peta</name>
            <styleUrl>#18556</styleUrl>
            <LineString id="18554">
                <coordinates>107.5994448,-6.9374721,0.0 107.5994636,-6.9374701,0.0 107.6001982,-6.9373255,0.0 107.6005128,-6.9372644,0.0 107.6009668,-6.9371867,0.0 107.6012443,-6.9371571,0.0 107.6015131,-6.9371424,0.0 107.601986,-6.9371494,0.0 107.6020331,-6.9371534,0.0 107.6023057,-6.9371766,0.0 107.6025122,-6.9371945,0.0</coordinates>
            </LineString>
        </Placemark>
        <Placemark id="18559">
            <name>Jalan Jenderal Ahmad Yani</name>
            <styleUrl>#18560</styleUrl>
            <LineString id="18558">
                <coordinates>107.6303085,-6.9155587,0.0 107.6310417,-6.9151604,0.0 107.6311335,-6.9151604,0.0</coordinates>
            </LineString>
        </Placemark>
        <Placemark id="18563">
            <name>Jalan Laswi</name>
            <styleUrl>#18564</styleUrl>
            <LineString id="18562">
                <coordinates>107.6305572,-6.921776,0.0 107.6306587,-6.9213913,0.0 107.6306826,-6.9212967,0.0 107.6307838,-6.9208916,0.0 107.6308352,-6.9206729,0.0 107.6309208,-6.920344,0.0 107.6309798,-6.9201332,0.0 107.6310123,-6.9200044,0.0 107.6310227,-6.9199664,0.0</coordinates>
            </LineString>
        </Placemark>
        <Placemark id="18567">
            <name>Jalan Laswi</name>
            <styleUrl>#18568</styleUrl>
            <LineString id="18566">
                <coordinates>107.630505,-6.9219065,0.0 107.6305572,-6.921776,0.0</coordinates>
            </LineString>
        </Placemark>
        <Placemark id="18571">
            <name>Jalan Jenderal Ahmad Yani</name>
            <styleUrl>#18572</styleUrl>
            <LineString id="18570">
                <coordinates>107.6337931,-6.9136907,0.0 107.6341252,-6.9135115,0.0 107.6341698,-6.91349,0.0 107.6342542,-6.9134469,0.0</coordinates>
            </LineString>
        </Placemark>
        <Placemark id="18575">
            <name>Jalan Kyai Haji Wahid Hasyim</name>
            <styleUrl>#18576</styleUrl>
            <LineString id="18574">
                <coordinates>107.5948299,-6.9373141,0.0 107.5949436,-6.9371168,0.0 107.5949807,-6.9370518,0.0</coordinates>
            </LineString>
        </Placemark>
        <Placemark id="18579">
            <name>Jalan Pelajar Pejuang 45</name>
            <styleUrl>#18580</styleUrl>
            <LineString id="18578">
                <coordinates>107.6235951,-6.9361186,0.0 107.6238655,-6.9358391,0.0 107.624189,-6.935517,0.0 107.6247775,-6.9349311,0.0</coordinates>
            </LineString>
        </Placemark>
        <Placemark id="18583">
            <name>Route Segment</name>
            <styleUrl>#18584</styleUrl>
            <LineString id="18582">
                <coordinates>107.6435161,-6.9136526,0.0 107.643488,-6.9136797,0.0 107.6434706,-6.9136988,0.0 107.6434637,-6.9137166,0.0 107.6434595,-6.9137474,0.0 107.6434586,-6.9137687,0.0 107.6434476,-6.9137912,0.0 107.6434317,-6.9138202,0.0</coordinates>
            </LineString>
        </Placemark>
        <Placemark id="18587">
            <name>Jalan H. Ibrahim Adjie</name>
            <styleUrl>#18588</styleUrl>
            <LineString id="18586">
                <coordinates>107.6436422,-6.9130175,0.0 107.6436086,-6.913104,0.0 107.6436418,-6.9133935,0.0</coordinates>
            </LineString>
        </Placemark>
        <Placemark id="18591">
            <name>Route Segment</name>
            <styleUrl>#18592</styleUrl>
            <LineString id="18590">
                <coordinates>107.6436418,-6.9133935,0.0 107.6436179,-6.9134822,0.0 107.64361,-6.9135135,0.0 107.6435938,-6.9135535,0.0 107.643568,-6.9135924,0.0 107.6435352,-6.9136306,0.0 107.6435161,-6.9136526,0.0</coordinates>
            </LineString>
        </Placemark>
        <Placemark id="18595">
            <name>Jalan Laswi</name>
            <styleUrl>#18596</styleUrl>
            <LineString id="18594">
                <coordinates>107.6307188,-6.9173125,0.0 107.6306282,-6.9171247,0.0 107.6301434,-6.916119,0.0 107.6300893,-6.9160089,0.0</coordinates>
            </LineString>
        </Placemark>
        <Placemark id="18599">
            <name>Jalan BKR</name>
            <styleUrl>#18600</styleUrl>
            <LineString id="18598">
                <coordinates>107.6127538,-6.9377388,0.0 107.6127959,-6.9377381,0.0</coordinates>
            </LineString>
        </Placemark>
        <Placemark id="18603">
            <name>Jalan BKR</name>
            <styleUrl>#18604</styleUrl>
            <LineString id="18602">
                <coordinates>107.6090705,-6.9376195,0.0 107.6091826,-6.9376215,0.0 107.6092886,-6.9376285,0.0 107.6096639,-6.9376389,0.0</coordinates>
            </LineString>
        </Placemark>
        <Placemark id="18607">
            <name>Jalan Peta</name>
            <styleUrl>#18608</styleUrl>
            <LineString id="18606">
                <coordinates>107.5952913,-6.937055,0.0 107.5955701,-6.9371851,0.0 107.5956524,-6.9372267,0.0 107.5957833,-6.9372929,0.0 107.5960045,-6.937408,0.0 107.596358,-6.9375437,0.0 107.5965807,-6.9376054,0.0 107.5967717,-6.9376364,0.0 107.5970266,-6.9376757,0.0 107.5970826,-6.9376843,0.0 107.597167,-6.937696,0.0 107.597571,-6.9377203,0.0 107.5980158,-6.9377065,0.0 107.5984843,-6.937651,0.0 107.5993404,-6.9374905,0.0 107.599356,-6.9374873,0.0</coordinates>
            </LineString>
        </Placemark>
        <Placemark id="18611">
            <name>Jalan Layang Laswi - Pelajar Pejuang 45</name>
            <styleUrl>#18612</styleUrl>
            <LineString id="18610">
                <coordinates>107.6271642,-6.9265982,0.0 107.6273607,-6.9260252,0.0</coordinates>
            </LineString>
        </Placemark>
        <Placemark id="18615">
            <name>Jalan Peta</name>
            <styleUrl>#18616</styleUrl>
            <LineString id="18614">
                <coordinates>107.6030015,-6.937215,0.0 107.603088,-6.9372221,0.0</coordinates>
            </LineString>
        </Placemark>
        <Placemark id="18619">
            <name>Jalan Peta</name>
            <styleUrl>#18620</styleUrl>
            <LineString id="18618">
                <coordinates>107.603088,-6.9372221,0.0 107.6031857,-6.9372292,0.0 107.6033103,-6.9372436,0.0</coordinates>
            </LineString>
        </Placemark>
        <Placemark id="18623">
            <name>Jalan BKR</name>
            <styleUrl>#18624</styleUrl>
            <LineString id="18622">
                <coordinates>107.6061748,-6.9375256,0.0 107.6062545,-6.937531,0.0</coordinates>
            </LineString>
        </Placemark>
        <Placemark id="18627">
            <name>Jalan BKR</name>
            <styleUrl>#18628</styleUrl>
            <LineString id="18626">
                <coordinates>107.6062545,-6.937531,0.0 107.606315,-6.9375353,0.0 107.606583,-6.9375409,0.0</coordinates>
            </LineString>
        </Placemark>
        <Placemark id="18631">
            <name>Jalan Peta</name>
            <styleUrl>#18632</styleUrl>
            <LineString id="18630">
                <coordinates>107.6047707,-6.9373901,0.0 107.6053694,-6.9374494,0.0 107.6058679,-6.9374947,0.0</coordinates>
            </LineString>
        </Placemark>
        <Placemark id="18635">
            <name>Jalan Peta</name>
            <styleUrl>#18636</styleUrl>
            <LineString id="18634">
                <coordinates>107.6033103,-6.9372436,0.0 107.6035072,-6.9372599,0.0 107.6039376,-6.9372954,0.0 107.6044053,-6.9373359,0.0 107.6044997,-6.9373449,0.0 107.6045611,-6.9373516,0.0 107.6046277,-6.9373634,0.0 107.6046918,-6.937377,0.0 107.6047707,-6.9373901,0.0</coordinates>
            </LineString>
        </Placemark>
        <Placemark id="18639">
            <name>Jalan Jenderal Ahmad Yani</name>
            <styleUrl>#18640</styleUrl>
            <LineString id="18638">
                <coordinates>107.6333413,-6.9139888,0.0 107.6333677,-6.9139334,0.0 107.6333958,-6.9139024,0.0 107.6334392,-6.9138763,0.0 107.6337931,-6.9136907,0.0</coordinates>
            </LineString>
        </Placemark>
        <Placemark id="18643">
            <name>Jalan Peta</name>
            <styleUrl>#18644</styleUrl>
            <LineString id="18642">
                <coordinates>107.6025122,-6.9371945,0.0 107.6028574,-6.9372066,0.0 107.602893,-6.9372085,0.0 107.6030015,-6.937215,0.0</coordinates>
            </LineString>
        </Placemark>
        <Placemark id="18647">
            <name>Jalan H. Ibrahim Adjie</name>
            <styleUrl>#18648</styleUrl>
            <LineString id="18646">
                <coordinates>107.6433224,-6.9094595,0.0 107.6433364,-6.9096111,0.0 107.6433703,-6.9099716,0.0</coordinates>
            </LineString>
        </Placemark>
        <Placemark id="18651">
            <name>Jalan Layang Laswi - Pelajar Pejuang 45</name>
            <styleUrl>#18652</styleUrl>
            <LineString id="18650">
                <coordinates>107.6285299,-6.9231566,0.0 107.6288204,-6.9229136,0.0</coordinates>
            </LineString>
        </Placemark>
        <Placemark id="18655">
            <name>Jalan Laswi</name>
            <styleUrl>#18656</styleUrl>
            <LineString id="18654">
                <coordinates>107.6288204,-6.9229136,0.0 107.6289665,-6.9228357,0.0 107.6291932,-6.9227271,0.0</coordinates>
            </LineString>
        </Placemark>
        <Placemark id="18659">
            <name>Jalan Laswi</name>
            <styleUrl>#18660</styleUrl>
            <LineString id="18658">
                <coordinates>107.6291932,-6.9227271,0.0 107.6294774,-6.9225864,0.0 107.6301417,-6.9222589,0.0 107.630297,-6.9221614,0.0 107.6303896,-6.9220755,0.0 107.6304543,-6.9219897,0.0 107.630505,-6.9219065,0.0</coordinates>
            </LineString>
        </Placemark>
        <Placemark id="18663">
            <name>Jalan Pelajar Pejuang 45</name>
            <styleUrl>#18664</styleUrl>
            <LineString id="18662">
                <coordinates>107.6269788,-6.9273388,0.0 107.6271642,-6.9265982,0.0</coordinates>
            </LineString>
        </Placemark>
        <Placemark id="18667">
            <name>Jalan Pelajar Pejuang 45</name>
            <styleUrl>#18668</styleUrl>
            <LineString id="18666">
                <coordinates>107.6247775,-6.9349311,0.0 107.6249855,-6.9346776,0.0 107.6250422,-6.9346084,0.0 107.6251837,-6.9343381,0.0 107.6251981,-6.9343038,0.0 107.6252675,-6.9340965,0.0 107.6254318,-6.9335047,0.0</coordinates>
            </LineString>
        </Placemark>
        <Placemark id="18671">
            <name>Jalan BKR</name>
            <styleUrl>#18672</styleUrl>
            <LineString id="18670">
                <coordinates>107.6204439,-6.9379553,0.0 107.6207808,-6.9378586,0.0 107.621238,-6.9376849,0.0</coordinates>
            </LineString>
        </Placemark>
        <Placemark id="18675">
            <name>Jalan Jenderal Ahmad Yani</name>
            <styleUrl>#18676</styleUrl>
            <LineString id="18674">
                <coordinates>107.6300393,-6.9157014,0.0 107.630088,-6.9156756,0.0 107.6303085,-6.9155587,0.0</coordinates>
            </LineString>
        </Placemark>
        <Placemark id="18679">
            <name>Jalan Laswi</name>
            <styleUrl>#18680</styleUrl>
            <LineString id="18678">
                <coordinates>107.6299922,-6.9158161,0.0 107.6299627,-6.9157488,0.0</coordinates>
            </LineString>
        </Placemark>
        <Placemark id="18683">
            <name>Jalan Pelajar Pejuang 45</name>
            <styleUrl>#18684</styleUrl>
            <LineString id="18682">
                <coordinates>107.6256715,-6.9325087,0.0 107.6256947,-6.9324168,0.0</coordinates>
            </LineString>
        </Placemark>
        <Placemark id="18687">
            <name>Jalan Soekarno-Hatta</name>
            <styleUrl>#18688</styleUrl>
            <LineString id="18686">
                <coordinates>107.5904505,-6.9460588,0.0 107.5903535,-6.9460161,0.0 107.5901033,-6.9459059,0.0 107.589865,-6.9458161,0.0</coordinates>
            </LineString>
        </Placemark>
        <Placemark id="18691">
            <name>Jalan Layang Laswi - Pelajar Pejuang 45</name>
            <styleUrl>#18692</styleUrl>
            <LineString id="18690">
                <coordinates>107.6273607,-6.9260252,0.0 107.6276211,-6.9249504,0.0 107.6276616,-6.9247914,0.0</coordinates>
            </LineString>
        </Placemark>
        <Placemark id="18695">
            <name>Jalan Pelajar Pejuang 45</name>
            <styleUrl>#18696</styleUrl>
            <LineString id="18694">
                <coordinates>107.6226877,-6.9369246,0.0 107.6227233,-6.9368982,0.0</coordinates>
            </LineString>
        </Placemark>
        <Placemark id="18699">
            <name>Jalan Laswi</name>
            <styleUrl>#18700</styleUrl>
            <LineString id="18698">
                <coordinates>107.6310227,-6.9199664,0.0 107.631071,-6.9197854,0.0 107.6313572,-6.9186866,0.0</coordinates>
            </LineString>
        </Placemark>
        <Placemark id="18703">
            <name>Jalan BKR</name>
            <styleUrl>#18704</styleUrl>
            <LineString id="18702">
                <coordinates>107.6084176,-6.9375995,0.0 107.6084753,-6.9376013,0.0 107.6087624,-6.9376105,0.0 107.6089484,-6.9376165,0.0 107.6089838,-6.9376176,0.0 107.6090705,-6.9376195,0.0</coordinates>
            </LineString>
        </Placemark>
        <Placemark id="18707">
            <name>Jalan BKR</name>
            <styleUrl>#18708</styleUrl>
            <LineString id="18706">
                <coordinates>107.6113683,-6.9376957,0.0 107.612618,-6.9377348,0.0 107.6126817,-6.9377368,0.0 107.6127538,-6.9377388,0.0</coordinates>
            </LineString>
        </Placemark>
        <Placemark id="18711">
            <name>Jalan Pelajar Pejuang 45</name>
            <styleUrl>#18712</styleUrl>
            <LineString id="18710">
                <coordinates>107.6263851,-6.9296738,0.0 107.626402,-6.9296074,0.0 107.6264104,-6.9295742,0.0 107.6264188,-6.929541,0.0 107.6264291,-6.9295004,0.0</coordinates>
            </LineString>
        </Placemark>
        <Placemark id="18715">
            <name>Jalan Laswi</name>
            <styleUrl>#18716</styleUrl>
            <LineString id="18714">
                <coordinates>107.6313572,-6.9186866,0.0 107.6313458,-6.9186198,0.0</coordinates>
            </LineString>
        </Placemark>
        <Placemark id="18719">
            <name>Jalan Kyai Haji Wahid Hasyim</name>
            <styleUrl>#18720</styleUrl>
            <LineString id="18718">
                <coordinates>107.5897088,-6.945521,0.0 107.5897357,-6.9454843,0.0 107.5898634,-6.9453375,0.0</coordinates>
            </LineString>
        </Placemark>
        <Placemark id="18723">
            <name>Jalan Soekarno-Hatta</name>
            <styleUrl>#18724</styleUrl>
            <LineString id="18722">
                <coordinates>107.5896397,-6.9457186,0.0 107.5895751,-6.9456911,0.0</coordinates>
            </LineString>
        </Placemark>
        <Placemark id="18727">
            <name>Jalan Jakarta</name>
            <styleUrl>#18728</styleUrl>
            <LineString id="18726">
                <coordinates>107.6434317,-6.9138202,0.0 107.6429791,-6.9138756,0.0</coordinates>
            </LineString>
        </Placemark>
        <Placemark id="18731">
            <name>Jalan Kyai Haji Wahid Hasyim</name>
            <styleUrl>#18732</styleUrl>
            <LineString id="18730">
                <coordinates>107.5898634,-6.9453375,0.0 107.5899199,-6.9452949,0.0</coordinates>
            </LineString>
        </Placemark>
        <Placemark id="18735">
            <name>Jalan Pelajar Pejuang 45</name>
            <styleUrl>#18736</styleUrl>
            <LineString id="18734">
                <coordinates>107.625634,-6.9326543,0.0 107.6256715,-6.9325087,0.0</coordinates>
            </LineString>
        </Placemark>
        <Placemark id="18739">
            <name>Jalan Pelajar Pejuang 45</name>
            <styleUrl>#18740</styleUrl>
            <LineString id="18738">
                <coordinates>107.6256947,-6.9324168,0.0 107.6257279,-6.9322848,0.0</coordinates>
            </LineString>
        </Placemark>
        <Placemark id="18743">
            <name>Jalan Kyai Haji Wahid Hasyim</name>
            <styleUrl>#18744</styleUrl>
            <LineString id="18742">
                <coordinates>107.5910269,-6.9435481,0.0 107.5910603,-6.9434929,0.0 107.5910903,-6.9434463,0.0 107.5911028,-6.9434233,0.0 107.5911203,-6.9433931,0.0 107.5912147,-6.9432302,0.0 107.591257,-6.9431573,0.0 107.5913003,-6.9430856,0.0 107.5913435,-6.9430138,0.0 107.5914686,-6.9428144,0.0 107.5916513,-6.9425217,0.0 107.5918451,-6.942203,0.0 107.5918647,-6.9421708,0.0 107.59192,-6.9420837,0.0 107.5920724,-6.9418438,0.0</coordinates>
            </LineString>
        </Placemark>
        <Placemark id="18747">
            <name>Jalan Layang Laswi - Pelajar Pejuang 45</name>
            <styleUrl>#18748</styleUrl>
            <LineString id="18746">
                <coordinates>107.6278076,-6.9242181,0.0 107.6278825,-6.9239774,0.0 107.6279805,-6.9237628,0.0 107.6280744,-6.9236111,0.0 107.6281851,-6.9234637,0.0 107.62831,-6.9233456,0.0 107.6284342,-6.9232324,0.0 107.6285299,-6.9231566,0.0</coordinates>
            </LineString>
        </Placemark>
        <Placemark id="18751">
            <name>Jalan Layang Laswi - Pelajar Pejuang 45</name>
            <styleUrl>#18752</styleUrl>
            <LineString id="18750">
                <coordinates>107.6276616,-6.9247914,0.0 107.6278076,-6.9242181,0.0</coordinates>
            </LineString>
        </Placemark>
        <Placemark id="18755">
            <name>Jalan Jenderal Ahmad Yani</name>
            <styleUrl>#18756</styleUrl>
            <LineString id="18754">
                <coordinates>107.6373187,-6.9118909,0.0 107.6374263,-6.9118346,0.0</coordinates>
            </LineString>
        </Placemark>
        <Placemark id="18759">
            <name>Jalan Jenderal Ahmad Yani</name>
            <styleUrl>#18760</styleUrl>
            <LineString id="18758">
                <coordinates>107.6346004,-6.9133622,0.0 107.6348701,-6.9132101,0.0 107.6350944,-6.9130848,0.0 107.6360221,-6.9125878,0.0 107.6362555,-6.9124665,0.0 107.6363636,-6.912405,0.0 107.6365694,-6.9123013,0.0 107.6367997,-6.9121741,0.0 107.6368611,-6.91214,0.0 107.6370716,-6.9120251,0.0 107.6372585,-6.9119218,0.0 107.6373187,-6.9118909,0.0</coordinates>
            </LineString>
        </Placemark>
    </Document>
</kml>
