<?xml version="1.0" encoding="UTF-8"?>
<kml xmlns="http://www.opengis.net/kml/2.2" xmlns:gx="http://www.google.com/kml/ext/2.2">
    <Document id="16993">
        <Style id="16999">
            <IconStyle id="17000">
                <colorMode>normal</colorMode>
                <scale>1</scale>
                <heading>0</heading>
                <Icon id="17001">
                    <href>http://maps.google.com/mapfiles/kml/pushpin/ylw-pushpin.png</href>
                </Icon>
            </IconStyle>
        </Style>
        <Style id="17004">
            <IconStyle id="17005">
                <colorMode>normal</colorMode>
                <scale>1</scale>
                <heading>0</heading>
                <Icon id="17006">
                    <href>http://maps.google.com/mapfiles/kml/pushpin/ylw-pushpin.png</href>
                </Icon>
            </IconStyle>
        </Style>
        <Style id="17009">
            <LineStyle id="17010">
                <color>ff92312E</color>
                <colorMode>normal</colorMode>
                <width>4</width>
            </LineStyle>
        </Style>
        <Style id="17013">
            <LineStyle id="17014">
                <color>ff92312E</color>
                <colorMode>normal</colorMode>
                <width>4</width>
            </LineStyle>
        </Style>
        <Style id="17017">
            <LineStyle id="17018">
                <color>ff92312E</color>
                <colorMode>normal</colorMode>
                <width>4</width>
            </LineStyle>
        </Style>
        <Style id="17021">
            <LineStyle id="17022">
                <color>ff92312E</color>
                <colorMode>normal</colorMode>
                <width>4</width>
            </LineStyle>
        </Style>
        <Style id="17025">
            <LineStyle id="17026">
                <color>ff92312E</color>
                <colorMode>normal</colorMode>
                <width>4</width>
            </LineStyle>
        </Style>
        <Style id="17029">
            <LineStyle id="17030">
                <color>ff92312E</color>
                <colorMode>normal</colorMode>
                <width>4</width>
            </LineStyle>
        </Style>
        <Style id="17033">
            <LineStyle id="17034">
                <color>ff92312E</color>
                <colorMode>normal</colorMode>
                <width>4</width>
            </LineStyle>
        </Style>
        <Style id="17037">
            <LineStyle id="17038">
                <color>ff92312E</color>
                <colorMode>normal</colorMode>
                <width>4</width>
            </LineStyle>
        </Style>
        <Style id="17041">
            <LineStyle id="17042">
                <color>ff92312E</color>
                <colorMode>normal</colorMode>
                <width>4</width>
            </LineStyle>
        </Style>
        <Style id="17045">
            <LineStyle id="17046">
                <color>ff92312E</color>
                <colorMode>normal</colorMode>
                <width>4</width>
            </LineStyle>
        </Style>
        <Style id="17049">
            <LineStyle id="17050">
                <color>ff92312E</color>
                <colorMode>normal</colorMode>
                <width>4</width>
            </LineStyle>
        </Style>
        <Style id="17053">
            <LineStyle id="17054">
                <color>ff92312E</color>
                <colorMode>normal</colorMode>
                <width>4</width>
            </LineStyle>
        </Style>
        <Style id="17057">
            <LineStyle id="17058">
                <color>ff92312E</color>
                <colorMode>normal</colorMode>
                <width>4</width>
            </LineStyle>
        </Style>
        <Style id="17061">
            <LineStyle id="17062">
                <color>ff92312E</color>
                <colorMode>normal</colorMode>
                <width>4</width>
            </LineStyle>
        </Style>
        <Style id="17065">
            <LineStyle id="17066">
                <color>ff92312E</color>
                <colorMode>normal</colorMode>
                <width>4</width>
            </LineStyle>
        </Style>
        <Style id="17069">
            <LineStyle id="17070">
                <color>ff92312E</color>
                <colorMode>normal</colorMode>
                <width>4</width>
            </LineStyle>
        </Style>
        <Style id="17073">
            <LineStyle id="17074">
                <color>ff92312E</color>
                <colorMode>normal</colorMode>
                <width>4</width>
            </LineStyle>
        </Style>
        <Style id="17077">
            <LineStyle id="17078">
                <color>ff92312E</color>
                <colorMode>normal</colorMode>
                <width>4</width>
            </LineStyle>
        </Style>
        <Style id="17081">
            <LineStyle id="17082">
                <color>ff92312E</color>
                <colorMode>normal</colorMode>
                <width>4</width>
            </LineStyle>
        </Style>
        <Style id="17085">
            <LineStyle id="17086">
                <color>ff92312E</color>
                <colorMode>normal</colorMode>
                <width>4</width>
            </LineStyle>
        </Style>
        <Style id="17089">
            <LineStyle id="17090">
                <color>ff92312E</color>
                <colorMode>normal</colorMode>
                <width>4</width>
            </LineStyle>
        </Style>
        <Style id="17093">
            <LineStyle id="17094">
                <color>ff92312E</color>
                <colorMode>normal</colorMode>
                <width>4</width>
            </LineStyle>
        </Style>
        <Style id="17097">
            <LineStyle id="17098">
                <color>ff92312E</color>
                <colorMode>normal</colorMode>
                <width>4</width>
            </LineStyle>
        </Style>
        <Style id="17101">
            <LineStyle id="17102">
                <color>ff92312E</color>
                <colorMode>normal</colorMode>
                <width>4</width>
            </LineStyle>
        </Style>
        <Style id="17105">
            <LineStyle id="17106">
                <color>ff92312E</color>
                <colorMode>normal</colorMode>
                <width>4</width>
            </LineStyle>
        </Style>
        <Style id="17109">
            <LineStyle id="17110">
                <color>ff92312E</color>
                <colorMode>normal</colorMode>
                <width>4</width>
            </LineStyle>
        </Style>
        <Style id="17113">
            <LineStyle id="17114">
                <color>ff92312E</color>
                <colorMode>normal</colorMode>
                <width>4</width>
            </LineStyle>
        </Style>
        <Style id="17117">
            <LineStyle id="17118">
                <color>ff92312E</color>
                <colorMode>normal</colorMode>
                <width>4</width>
            </LineStyle>
        </Style>
        <Style id="17121">
            <LineStyle id="17122">
                <color>ff92312E</color>
                <colorMode>normal</colorMode>
                <width>4</width>
            </LineStyle>
        </Style>
        <Style id="17125">
            <LineStyle id="17126">
                <color>ff92312E</color>
                <colorMode>normal</colorMode>
                <width>4</width>
            </LineStyle>
        </Style>
        <Style id="17129">
            <LineStyle id="17130">
                <color>ff92312E</color>
                <colorMode>normal</colorMode>
                <width>4</width>
            </LineStyle>
        </Style>
        <Style id="17133">
            <LineStyle id="17134">
                <color>ff92312E</color>
                <colorMode>normal</colorMode>
                <width>4</width>
            </LineStyle>
        </Style>
        <Style id="17137">
            <LineStyle id="17138">
                <color>ff92312E</color>
                <colorMode>normal</colorMode>
                <width>4</width>
            </LineStyle>
        </Style>
        <Style id="17141">
            <LineStyle id="17142">
                <color>ff92312E</color>
                <colorMode>normal</colorMode>
                <width>4</width>
            </LineStyle>
        </Style>
        <Style id="17145">
            <LineStyle id="17146">
                <color>ff92312E</color>
                <colorMode>normal</colorMode>
                <width>4</width>
            </LineStyle>
        </Style>
        <Style id="17149">
            <LineStyle id="17150">
                <color>ff92312E</color>
                <colorMode>normal</colorMode>
                <width>4</width>
            </LineStyle>
        </Style>
        <Style id="17153">
            <LineStyle id="17154">
                <color>ff92312E</color>
                <colorMode>normal</colorMode>
                <width>4</width>
            </LineStyle>
        </Style>
        <Style id="17157">
            <LineStyle id="17158">
                <color>ff92312E</color>
                <colorMode>normal</colorMode>
                <width>4</width>
            </LineStyle>
        </Style>
        <Style id="17161">
            <LineStyle id="17162">
                <color>ff92312E</color>
                <colorMode>normal</colorMode>
                <width>4</width>
            </LineStyle>
        </Style>
        <Style id="17165">
            <LineStyle id="17166">
                <color>ff92312E</color>
                <colorMode>normal</colorMode>
                <width>4</width>
            </LineStyle>
        </Style>
        <Style id="17169">
            <LineStyle id="17170">
                <color>ff92312E</color>
                <colorMode>normal</colorMode>
                <width>4</width>
            </LineStyle>
        </Style>
        <Style id="17173">
            <LineStyle id="17174">
                <color>ff92312E</color>
                <colorMode>normal</colorMode>
                <width>4</width>
            </LineStyle>
        </Style>
        <Style id="17177">
            <LineStyle id="17178">
                <color>ff92312E</color>
                <colorMode>normal</colorMode>
                <width>4</width>
            </LineStyle>
        </Style>
        <Style id="17181">
            <LineStyle id="17182">
                <color>ff92312E</color>
                <colorMode>normal</colorMode>
                <width>4</width>
            </LineStyle>
        </Style>
        <Style id="17185">
            <LineStyle id="17186">
                <color>ff92312E</color>
                <colorMode>normal</colorMode>
                <width>4</width>
            </LineStyle>
        </Style>
        <Style id="17189">
            <LineStyle id="17190">
                <color>ff92312E</color>
                <colorMode>normal</colorMode>
                <width>4</width>
            </LineStyle>
        </Style>
        <Style id="17193">
            <LineStyle id="17194">
                <color>ff92312E</color>
                <colorMode>normal</colorMode>
                <width>4</width>
            </LineStyle>
        </Style>
        <Style id="17197">
            <LineStyle id="17198">
                <color>ff92312E</color>
                <colorMode>normal</colorMode>
                <width>4</width>
            </LineStyle>
        </Style>
        <Style id="17201">
            <LineStyle id="17202">
                <color>ff92312E</color>
                <colorMode>normal</colorMode>
                <width>4</width>
            </LineStyle>
        </Style>
        <Style id="17205">
            <LineStyle id="17206">
                <color>ff92312E</color>
                <colorMode>normal</colorMode>
                <width>4</width>
            </LineStyle>
        </Style>
        <Style id="17209">
            <LineStyle id="17210">
                <color>ff92312E</color>
                <colorMode>normal</colorMode>
                <width>4</width>
            </LineStyle>
        </Style>
        <Style id="17213">
            <LineStyle id="17214">
                <color>ff92312E</color>
                <colorMode>normal</colorMode>
                <width>4</width>
            </LineStyle>
        </Style>
        <Style id="17217">
            <LineStyle id="17218">
                <color>ff92312E</color>
                <colorMode>normal</colorMode>
                <width>4</width>
            </LineStyle>
        </Style>
        <Style id="17221">
            <LineStyle id="17222">
                <color>ff92312E</color>
                <colorMode>normal</colorMode>
                <width>4</width>
            </LineStyle>
        </Style>
        <Style id="17225">
            <LineStyle id="17226">
                <color>ff92312E</color>
                <colorMode>normal</colorMode>
                <width>4</width>
            </LineStyle>
        </Style>
        <Style id="17229">
            <LineStyle id="17230">
                <color>ff92312E</color>
                <colorMode>normal</colorMode>
                <width>4</width>
            </LineStyle>
        </Style>
        <Style id="17233">
            <LineStyle id="17234">
                <color>ff92312E</color>
                <colorMode>normal</colorMode>
                <width>4</width>
            </LineStyle>
        </Style>
        <Style id="17237">
            <LineStyle id="17238">
                <color>ff92312E</color>
                <colorMode>normal</colorMode>
                <width>4</width>
            </LineStyle>
        </Style>
        <Style id="17241">
            <LineStyle id="17242">
                <color>ff92312E</color>
                <colorMode>normal</colorMode>
                <width>4</width>
            </LineStyle>
        </Style>
        <Style id="17245">
            <LineStyle id="17246">
                <color>ff92312E</color>
                <colorMode>normal</colorMode>
                <width>4</width>
            </LineStyle>
        </Style>
        <Style id="17249">
            <LineStyle id="17250">
                <color>ff92312E</color>
                <colorMode>normal</colorMode>
                <width>4</width>
            </LineStyle>
        </Style>
        <Style id="17253">
            <LineStyle id="17254">
                <color>ff92312E</color>
                <colorMode>normal</colorMode>
                <width>4</width>
            </LineStyle>
        </Style>
        <Style id="17257">
            <LineStyle id="17258">
                <color>ff92312E</color>
                <colorMode>normal</colorMode>
                <width>4</width>
            </LineStyle>
        </Style>
        <Style id="17261">
            <LineStyle id="17262">
                <color>ff92312E</color>
                <colorMode>normal</colorMode>
                <width>4</width>
            </LineStyle>
        </Style>
        <Style id="17265">
            <LineStyle id="17266">
                <color>ff92312E</color>
                <colorMode>normal</colorMode>
                <width>4</width>
            </LineStyle>
        </Style>
        <Style id="17269">
            <LineStyle id="17270">
                <color>ff92312E</color>
                <colorMode>normal</colorMode>
                <width>4</width>
            </LineStyle>
        </Style>
        <Style id="17273">
            <LineStyle id="17274">
                <color>ff92312E</color>
                <colorMode>normal</colorMode>
                <width>4</width>
            </LineStyle>
        </Style>
        <Style id="17277">
            <LineStyle id="17278">
                <color>ff92312E</color>
                <colorMode>normal</colorMode>
                <width>4</width>
            </LineStyle>
        </Style>
        <Style id="17281">
            <LineStyle id="17282">
                <color>ff92312E</color>
                <colorMode>normal</colorMode>
                <width>4</width>
            </LineStyle>
        </Style>
        <Style id="17285">
            <LineStyle id="17286">
                <color>ff92312E</color>
                <colorMode>normal</colorMode>
                <width>4</width>
            </LineStyle>
        </Style>
        <Style id="17289">
            <LineStyle id="17290">
                <color>ff92312E</color>
                <colorMode>normal</colorMode>
                <width>4</width>
            </LineStyle>
        </Style>
        <Style id="17293">
            <LineStyle id="17294">
                <color>ff92312E</color>
                <colorMode>normal</colorMode>
                <width>4</width>
            </LineStyle>
        </Style>
        <Style id="17297">
            <LineStyle id="17298">
                <color>ff92312E</color>
                <colorMode>normal</colorMode>
                <width>4</width>
            </LineStyle>
        </Style>
        <Style id="17301">
            <LineStyle id="17302">
                <color>ff92312E</color>
                <colorMode>normal</colorMode>
                <width>4</width>
            </LineStyle>
        </Style>
        <Style id="17305">
            <LineStyle id="17306">
                <color>ff92312E</color>
                <colorMode>normal</colorMode>
                <width>4</width>
            </LineStyle>
        </Style>
        <Style id="17309">
            <LineStyle id="17310">
                <color>ff92312E</color>
                <colorMode>normal</colorMode>
                <width>4</width>
            </LineStyle>
        </Style>
        <Style id="17313">
            <LineStyle id="17314">
                <color>ff92312E</color>
                <colorMode>normal</colorMode>
                <width>4</width>
            </LineStyle>
        </Style>
        <Style id="17317">
            <LineStyle id="17318">
                <color>ff92312E</color>
                <colorMode>normal</colorMode>
                <width>4</width>
            </LineStyle>
        </Style>
        <Style id="17321">
            <LineStyle id="17322">
                <color>ff92312E</color>
                <colorMode>normal</colorMode>
                <width>4</width>
            </LineStyle>
        </Style>
        <Style id="17325">
            <LineStyle id="17326">
                <color>ff92312E</color>
                <colorMode>normal</colorMode>
                <width>4</width>
            </LineStyle>
        </Style>
        <Style id="17329">
            <LineStyle id="17330">
                <color>ff92312E</color>
                <colorMode>normal</colorMode>
                <width>4</width>
            </LineStyle>
        </Style>
        <Style id="17333">
            <LineStyle id="17334">
                <color>ff92312E</color>
                <colorMode>normal</colorMode>
                <width>4</width>
            </LineStyle>
        </Style>
        <Style id="17337">
            <LineStyle id="17338">
                <color>ff92312E</color>
                <colorMode>normal</colorMode>
                <width>4</width>
            </LineStyle>
        </Style>
        <Style id="17341">
            <LineStyle id="17342">
                <color>ff92312E</color>
                <colorMode>normal</colorMode>
                <width>4</width>
            </LineStyle>
        </Style>
        <Style id="17345">
            <LineStyle id="17346">
                <color>ff92312E</color>
                <colorMode>normal</colorMode>
                <width>4</width>
            </LineStyle>
        </Style>
        <Style id="17349">
            <LineStyle id="17350">
                <color>ff92312E</color>
                <colorMode>normal</colorMode>
                <width>4</width>
            </LineStyle>
        </Style>
        <Style id="17353">
            <LineStyle id="17354">
                <color>ff92312E</color>
                <colorMode>normal</colorMode>
                <width>4</width>
            </LineStyle>
        </Style>
        <Style id="17357">
            <LineStyle id="17358">
                <color>ff92312E</color>
                <colorMode>normal</colorMode>
                <width>4</width>
            </LineStyle>
        </Style>
        <Style id="17361">
            <LineStyle id="17362">
                <color>ff92312E</color>
                <colorMode>normal</colorMode>
                <width>4</width>
            </LineStyle>
        </Style>
        <Style id="17365">
            <LineStyle id="17366">
                <color>ff92312E</color>
                <colorMode>normal</colorMode>
                <width>4</width>
            </LineStyle>
        </Style>
        <Style id="17369">
            <LineStyle id="17370">
                <color>ff92312E</color>
                <colorMode>normal</colorMode>
                <width>4</width>
            </LineStyle>
        </Style>
        <Style id="17373">
            <LineStyle id="17374">
                <color>ff92312E</color>
                <colorMode>normal</colorMode>
                <width>4</width>
            </LineStyle>
        </Style>
        <Style id="17377">
            <LineStyle id="17378">
                <color>ff92312E</color>
                <colorMode>normal</colorMode>
                <width>4</width>
            </LineStyle>
        </Style>
        <Style id="17381">
            <LineStyle id="17382">
                <color>ff92312E</color>
                <colorMode>normal</colorMode>
                <width>4</width>
            </LineStyle>
        </Style>
        <Style id="17385">
            <LineStyle id="17386">
                <color>ff92312E</color>
                <colorMode>normal</colorMode>
                <width>4</width>
            </LineStyle>
        </Style>
        <Style id="17389">
            <LineStyle id="17390">
                <color>ff92312E</color>
                <colorMode>normal</colorMode>
                <width>4</width>
            </LineStyle>
        </Style>
        <Style id="17393">
            <LineStyle id="17394">
                <color>ff92312E</color>
                <colorMode>normal</colorMode>
                <width>4</width>
            </LineStyle>
        </Style>
        <Style id="17397">
            <LineStyle id="17398">
                <color>ff92312E</color>
                <colorMode>normal</colorMode>
                <width>4</width>
            </LineStyle>
        </Style>
        <Style id="17401">
            <LineStyle id="17402">
                <color>ff92312E</color>
                <colorMode>normal</colorMode>
                <width>4</width>
            </LineStyle>
        </Style>
        <Style id="17405">
            <LineStyle id="17406">
                <color>ff92312E</color>
                <colorMode>normal</colorMode>
                <width>4</width>
            </LineStyle>
        </Style>
        <Style id="17409">
            <LineStyle id="17410">
                <color>ff92312E</color>
                <colorMode>normal</colorMode>
                <width>4</width>
            </LineStyle>
        </Style>
        <Style id="17413">
            <LineStyle id="17414">
                <color>ff92312E</color>
                <colorMode>normal</colorMode>
                <width>4</width>
            </LineStyle>
        </Style>
        <Style id="17417">
            <LineStyle id="17418">
                <color>ff92312E</color>
                <colorMode>normal</colorMode>
                <width>4</width>
            </LineStyle>
        </Style>
        <Style id="17421">
            <LineStyle id="17422">
                <color>ff92312E</color>
                <colorMode>normal</colorMode>
                <width>4</width>
            </LineStyle>
        </Style>
        <Style id="17425">
            <LineStyle id="17426">
                <color>ff92312E</color>
                <colorMode>normal</colorMode>
                <width>4</width>
            </LineStyle>
        </Style>
        <Style id="17429">
            <LineStyle id="17430">
                <color>ff92312E</color>
                <colorMode>normal</colorMode>
                <width>4</width>
            </LineStyle>
        </Style>
        <ExtendedData>
            <Data name="route-name">
                <value>Koridor 2: Cicaheum → Cibeureum</value>
            </Data>
            <Data name="source">
                <value>Transport for Bandung</value>
            </Data>
        </ExtendedData>
        <Placemark id="16998">
            <name>Terminal Cicaheum</name>
            <styleUrl>#16999</styleUrl>
            <Point id="16997">
                <coordinates>107.6565637,-6.902329,0.0</coordinates>
            </Point>
        </Placemark>
        <Placemark id="17003">
            <name>Terminal Elang</name>
            <styleUrl>#17004</styleUrl>
            <Point id="17002">
                <coordinates>107.575723,-6.9133498,0.0</coordinates>
            </Point>
        </Placemark>
        <Placemark id="17008">
            <name>Jalan Jendral Sudirman</name>
            <styleUrl>#17009</styleUrl>
            <LineString id="17007">
                <coordinates>107.6041077,-6.920785,0.0 107.6038284,-6.9207532,0.0 107.6034762,-6.9207089,0.0 107.603136,-6.9206667,0.0 107.6022266,-6.9205616,0.0 107.6021366,-6.9205489,0.0</coordinates>
            </LineString>
        </Placemark>
        <Placemark id="17012">
            <name>Jalan Elang</name>
            <styleUrl>#17013</styleUrl>
            <LineString id="17011">
                <coordinates>107.5749738,-6.9155723,0.0 107.5750195,-6.915401,0.0 107.5751229,-6.9150685,0.0 107.5753136,-6.9144895,0.0</coordinates>
            </LineString>
        </Placemark>
        <Placemark id="17016">
            <name>Jalan Jendral Sudirman</name>
            <styleUrl>#17017</styleUrl>
            <LineString id="17015">
                <coordinates>107.5741991,-6.9172935,0.0 107.5741057,-6.9172433,0.0 107.5739928,-6.9171937,0.0 107.5739676,-6.9171826,0.0 107.5739351,-6.917172,0.0 107.5737577,-6.9170672,0.0 107.57361,-6.916953,0.0 107.5735023,-6.9168687,0.0 107.5731624,-6.916607,0.0 107.5730285,-6.9164995,0.0 107.5725721,-6.916133,0.0</coordinates>
            </LineString>
        </Placemark>
        <Placemark id="17020">
            <name>Jalan Jenderal Ahmad Yani</name>
            <styleUrl>#17021</styleUrl>
            <LineString id="17019">
                <coordinates>107.6562379,-6.9021633,0.0 107.6561678,-6.9021519,0.0 107.6560981,-6.9021454,0.0 107.6557174,-6.902134,0.0</coordinates>
            </LineString>
        </Placemark>
        <Placemark id="17024">
            <name>Jalan Jenderal Ahmad Yani</name>
            <styleUrl>#17025</styleUrl>
            <LineString id="17023">
                <coordinates>107.6445308,-6.9080265,0.0 107.644457,-6.9080919,0.0 107.6444319,-6.9081142,0.0 107.6437989,-6.9084471,0.0</coordinates>
            </LineString>
        </Placemark>
        <Placemark id="17028">
            <name>Jalan Jenderal Ahmad Yani</name>
            <styleUrl>#17029</styleUrl>
            <LineString id="17027">
                <coordinates>107.6445308,-6.9080265,0.0 107.6447525,-6.9079094,0.0 107.6449366,-6.9078121,0.0 107.64542,-6.9075568,0.0 107.6456577,-6.907431,0.0 107.645715,-6.9074007,0.0 107.6457789,-6.9073672,0.0 107.6458575,-6.9073247,0.0 107.6459395,-6.9072816,0.0 107.6462819,-6.9071016,0.0 107.6465653,-6.9069518,0.0 107.6469168,-6.9067662,0.0 107.6469532,-6.906747,0.0 107.6470598,-6.9066907,0.0 107.6473416,-6.906544,0.0 107.6473541,-6.9065376,0.0</coordinates>
            </LineString>
        </Placemark>
        <Placemark id="17032">
            <name>Jalan Elang</name>
            <styleUrl>#17033</styleUrl>
            <LineString id="17031">
                <coordinates>107.5755571,-6.9135373,0.0 107.5754392,-6.9138457,0.0 107.5752572,-6.9143562,0.0 107.5749328,-6.9153687,0.0 107.5748897,-6.9155407,0.0</coordinates>
            </LineString>
        </Placemark>
        <Placemark id="17036">
            <name>Jalan Jendral Sudirman</name>
            <styleUrl>#17037</styleUrl>
            <LineString id="17035">
                <coordinates>107.6021366,-6.9205489,0.0 107.6020691,-6.9205405,0.0 107.601895,-6.920521,0.0 107.6018084,-6.9205114,0.0 107.6012359,-6.9204443,0.0 107.6009589,-6.9204087,0.0 107.6006504,-6.9203693,0.0 107.6005045,-6.9203533,0.0 107.5998017,-6.9202729,0.0 107.5997457,-6.9202665,0.0 107.5985234,-6.9201237,0.0 107.5984985,-6.9201204,0.0 107.5983366,-6.920102,0.0</coordinates>
            </LineString>
        </Placemark>
        <Placemark id="17040">
            <name>Jalan Jendral Sudirman</name>
            <styleUrl>#17041</styleUrl>
            <LineString id="17039">
                <coordinates>107.5956582,-6.9197825,0.0 107.5954894,-6.9197632,0.0 107.5951361,-6.9197212,0.0 107.5949783,-6.9197019,0.0 107.5945327,-6.9196494,0.0 107.5938942,-6.9195727,0.0 107.5937471,-6.9195544,0.0 107.5936474,-6.9195417,0.0 107.5930371,-6.9194634,0.0 107.5929358,-6.9194498,0.0</coordinates>
            </LineString>
        </Placemark>
        <Placemark id="17044">
            <name>Jalan Jendral Sudirman</name>
            <styleUrl>#17045</styleUrl>
            <LineString id="17043">
                <coordinates>107.5766159,-6.9175515,0.0 107.5762592,-6.9175155,0.0 107.5760342,-6.9174893,0.0 107.5757932,-6.9174613,0.0 107.5756139,-6.9174409,0.0 107.5754537,-6.9174221,0.0 107.5751233,-6.9173833,0.0 107.5750142,-6.9173706,0.0 107.5747901,-6.9173287,0.0 107.5747047,-6.9173134,0.0 107.5746765,-6.9173067,0.0 107.5745601,-6.9172787,0.0</coordinates>
            </LineString>
        </Placemark>
        <Placemark id="17048">
            <name>Jalan Rajawali Barat</name>
            <styleUrl>#17049</styleUrl>
            <LineString id="17047">
                <coordinates>107.5693569,-6.9106219,0.0 107.5694743,-6.9106678,0.0 107.569668,-6.9107436,0.0 107.5697302,-6.910768,0.0 107.5699681,-6.910861,0.0 107.5701462,-6.9109306,0.0 107.5702926,-6.9109879,0.0 107.5704868,-6.9110639,0.0 107.5705813,-6.9111009,0.0 107.570662,-6.9111324,0.0 107.5710798,-6.9112958,0.0 107.5715519,-6.9114805,0.0 107.5717818,-6.9115704,0.0 107.5718363,-6.9115918,0.0 107.5720087,-6.9116592,0.0 107.5723261,-6.9117833,0.0 107.5725782,-6.9118819,0.0 107.5729282,-6.9120185,0.0</coordinates>
            </LineString>
        </Placemark>
        <Placemark id="17052">
            <name>Jalan H. Ibrahim Adjie</name>
            <styleUrl>#17053</styleUrl>
            <LineString id="17051">
                <coordinates>107.6435055,-6.9113592,0.0 107.6435255,-6.9115834,0.0 107.6435572,-6.9119253,0.0 107.6435846,-6.9122429,0.0 107.6436146,-6.9125869,0.0 107.6436356,-6.9128822,0.0 107.6436422,-6.9130175,0.0</coordinates>
            </LineString>
        </Placemark>
        <Placemark id="17056">
            <name>Jalan Jenderal Ahmad Yani</name>
            <styleUrl>#17057</styleUrl>
            <LineString id="17055">
                <coordinates>107.6194592,-6.9213499,0.0 107.6191038,-6.9215541,0.0 107.6187221,-6.9217512,0.0</coordinates>
            </LineString>
        </Placemark>
        <Placemark id="17060">
            <name>Jalan Jendral Sudirman</name>
            <styleUrl>#17061</styleUrl>
            <LineString id="17059">
                <coordinates>107.5901619,-6.9191118,0.0 107.5899941,-6.9190912,0.0 107.5890027,-6.9189756,0.0 107.588854,-6.9189576,0.0 107.5883961,-6.918904,0.0 107.5882748,-6.9188882,0.0 107.5879832,-6.9188506,0.0 107.5875374,-6.9188022,0.0 107.5874461,-6.9187925,0.0 107.5872972,-6.9187784,0.0 107.5871809,-6.9187671,0.0 107.5871599,-6.9187651,0.0 107.5869453,-6.9187438,0.0</coordinates>
            </LineString>
        </Placemark>
        <Placemark id="17064">
            <name>Jalan Asia Afrika</name>
            <styleUrl>#17065</styleUrl>
            <LineString id="17063">
                <coordinates>107.6064585,-6.9210512,0.0 107.6064357,-6.9210487,0.0 107.6059322,-6.9209936,0.0 107.605075,-6.9208966,0.0 107.6042658,-6.9208061,0.0 107.6042276,-6.9208008,0.0 107.6041077,-6.920785,0.0</coordinates>
            </LineString>
        </Placemark>
        <Placemark id="17068">
            <name>Jalan Asia Afrika</name>
            <styleUrl>#17069</styleUrl>
            <LineString id="17067">
                <coordinates>107.607195,-6.9211421,0.0 107.6071709,-6.9211388,0.0 107.6071309,-6.9211347,0.0</coordinates>
            </LineString>
        </Placemark>
        <Placemark id="17072">
            <name>Jalan Jenderal Ahmad Yani</name>
            <styleUrl>#17073</styleUrl>
            <LineString id="17071">
                <coordinates>107.6228594,-6.9195533,0.0 107.6224719,-6.9197548,0.0 107.6221779,-6.9199012,0.0 107.6221549,-6.9199123,0.0 107.6220264,-6.9199819,0.0 107.6218618,-6.9200705,0.0 107.621673,-6.9201723,0.0 107.6215708,-6.9202248,0.0 107.6213148,-6.9203613,0.0 107.6211338,-6.9204577,0.0 107.6206442,-6.9207187,0.0 107.6201383,-6.9209883,0.0 107.619912,-6.921109,0.0 107.619848,-6.921143,0.0 107.619832,-6.9211515,0.0 107.6194592,-6.9213499,0.0</coordinates>
            </LineString>
        </Placemark>
        <Placemark id="17076">
            <name>Jalan Jenderal Ahmad Yani</name>
            <styleUrl>#17077</styleUrl>
            <LineString id="17075">
                <coordinates>107.6557174,-6.902134,0.0 107.6549747,-6.9025328,0.0 107.6549328,-6.902555,0.0 107.6547053,-6.9026773,0.0</coordinates>
            </LineString>
        </Placemark>
        <Placemark id="17080">
            <name>Jalan Jakarta</name>
            <styleUrl>#17081</styleUrl>
            <LineString id="17079">
                <coordinates>107.6374221,-6.9145133,0.0 107.6374071,-6.9145151,0.0 107.6373588,-6.9145209,0.0</coordinates>
            </LineString>
        </Placemark>
        <Placemark id="17084">
            <name>Jalan Jakarta</name>
            <styleUrl>#17085</styleUrl>
            <LineString id="17083">
                <coordinates>107.6375505,-6.9144979,0.0 107.6374221,-6.9145133,0.0</coordinates>
            </LineString>
        </Placemark>
        <Placemark id="17088">
            <name>Jalan Jenderal Ahmad Yani</name>
            <styleUrl>#17089</styleUrl>
            <LineString id="17087">
                <coordinates>107.6311335,-6.9151604,0.0 107.6313219,-6.9150573,0.0 107.631392,-6.915019,0.0 107.6314854,-6.9149679,0.0 107.6316428,-6.9148818,0.0 107.6320747,-6.9146547,0.0 107.6322869,-6.9145432,0.0 107.6325601,-6.9143996,0.0 107.6327618,-6.9142935,0.0 107.6327884,-6.9142791,0.0 107.6328365,-6.9142566,0.0 107.6329881,-6.9141745,0.0 107.6332108,-6.9140574,0.0 107.6333413,-6.9139888,0.0</coordinates>
            </LineString>
        </Placemark>
        <Placemark id="17092">
            <name>Jalan Jakarta</name>
            <styleUrl>#17093</styleUrl>
            <LineString id="17091">
                <coordinates>107.6417884,-6.9139622,0.0 107.641697,-6.9139738,0.0 107.6414919,-6.9139937,0.0 107.641334,-6.9140119,0.0 107.6412274,-6.9140241,0.0 107.6410877,-6.9140393,0.0 107.6409956,-6.9140515,0.0 107.6405312,-6.9141105,0.0 107.6404431,-6.9141209,0.0 107.6403048,-6.9141385,0.0 107.6402144,-6.914148,0.0 107.6399554,-6.914178,0.0 107.6398939,-6.914186,0.0 107.6397497,-6.9142026,0.0 107.6394855,-6.9142369,0.0 107.6393217,-6.9142593,0.0 107.6391686,-6.914281,0.0 107.6390956,-6.9142912,0.0 107.6389363,-6.9143117,0.0 107.6388474,-6.9143228,0.0 107.6386441,-6.9143525,0.0 107.6385822,-6.9143614,0.0 107.6385215,-6.9143724,0.0 107.6384678,-6.9143807,0.0 107.6381956,-6.9144188,0.0 107.6379503,-6.9144499,0.0 107.6378321,-6.9144641,0.0 107.6377113,-6.9144786,0.0 107.6376149,-6.9144902,0.0 107.6375655,-6.9144961,0.0 107.6375505,-6.9144979,0.0</coordinates>
            </LineString>
        </Placemark>
        <Placemark id="17096">
            <name>Jalan Jakarta</name>
            <styleUrl>#17097</styleUrl>
            <LineString id="17095">
                <coordinates>107.6373588,-6.9145209,0.0 107.6371438,-6.9145467,0.0 107.6369043,-6.9145755,0.0 107.6368147,-6.9145887,0.0 107.636513,-6.914633,0.0 107.6362469,-6.9146627,0.0 107.6362076,-6.9146671,0.0 107.6361335,-6.9146647,0.0 107.6360082,-6.9146453,0.0 107.6357903,-6.914575,0.0</coordinates>
            </LineString>
        </Placemark>
        <Placemark id="17100">
            <name>Jalan Jenderal Ahmad Yani</name>
            <styleUrl>#17101</styleUrl>
            <LineString id="17099">
                <coordinates>107.6290208,-6.9162728,0.0 107.6289251,-6.9163216,0.0 107.6287077,-6.9164366,0.0 107.6286077,-6.9164897,0.0 107.6284319,-6.9165831,0.0 107.6281138,-6.9167518,0.0 107.6274434,-6.9171135,0.0</coordinates>
            </LineString>
        </Placemark>
        <Placemark id="17104">
            <name>Jalan H. Ibrahim Adjie</name>
            <styleUrl>#17105</styleUrl>
            <LineString id="17103">
                <coordinates>107.6433703,-6.9099716,0.0 107.6434142,-6.9104391,0.0 107.6434287,-6.9105814,0.0 107.6434818,-6.9111241,0.0 107.6434906,-6.9112086,0.0 107.6435055,-6.9113592,0.0</coordinates>
            </LineString>
        </Placemark>
        <Placemark id="17108">
            <name>Jalan Jendral Sudirman</name>
            <styleUrl>#17109</styleUrl>
            <LineString id="17107">
                <coordinates>107.5708773,-6.9135594,0.0 107.5707008,-6.9132508,0.0 107.5705747,-6.9130517,0.0 107.5703429,-6.9126894,0.0</coordinates>
            </LineString>
        </Placemark>
        <Placemark id="17112">
            <name>Jalan Jenderal Ahmad Yani</name>
            <styleUrl>#17113</styleUrl>
            <LineString id="17111">
                <coordinates>107.6504237,-6.9049308,0.0 107.6505268,-6.9048727,0.0</coordinates>
            </LineString>
        </Placemark>
        <Placemark id="17116">
            <name>Jalan Jenderal Ahmad Yani</name>
            <styleUrl>#17117</styleUrl>
            <LineString id="17115">
                <coordinates>107.6505268,-6.9048727,0.0 107.6509613,-6.904644,0.0 107.6510558,-6.9045991,0.0 107.6511156,-6.9045663,0.0 107.6512752,-6.9044817,0.0 107.6522601,-6.9039596,0.0 107.6523019,-6.9039374,0.0 107.6532521,-6.903436,0.0 107.6533029,-6.9034069,0.0 107.6537144,-6.9031904,0.0 107.6538132,-6.9031384,0.0 107.65401,-6.9030256,0.0</coordinates>
            </LineString>
        </Placemark>
        <Placemark id="17120">
            <name>Jalan Jendral Sudirman</name>
            <styleUrl>#17121</styleUrl>
            <LineString id="17119">
                <coordinates>107.5869453,-6.9187438,0.0 107.5868128,-6.9187411,0.0 107.5867487,-6.918738,0.0 107.5866461,-6.9187467,0.0 107.5865662,-6.9187469,0.0</coordinates>
            </LineString>
        </Placemark>
        <Placemark id="17124">
            <name>Jalan Asia Afrika</name>
            <styleUrl>#17125</styleUrl>
            <LineString id="17123">
                <coordinates>107.6120154,-6.9217245,0.0 107.6118219,-6.9217006,0.0</coordinates>
            </LineString>
        </Placemark>
        <Placemark id="17128">
            <name>Jalan Asia Afrika</name>
            <styleUrl>#17129</styleUrl>
            <LineString id="17127">
                <coordinates>107.6077961,-6.9212245,0.0 107.6076762,-6.9212089,0.0 107.6075753,-6.921193,0.0 107.6072432,-6.9211493,0.0 107.607195,-6.9211421,0.0</coordinates>
            </LineString>
        </Placemark>
        <Placemark id="17132">
            <name>Jalan Jendral Sudirman</name>
            <styleUrl>#17133</styleUrl>
            <LineString id="17131">
                <coordinates>107.5957158,-6.9197892,0.0 107.5956582,-6.9197825,0.0</coordinates>
            </LineString>
        </Placemark>
        <Placemark id="17136">
            <name>Jalan Jendral Sudirman</name>
            <styleUrl>#17137</styleUrl>
            <LineString id="17135">
                <coordinates>107.597885,-6.9200477,0.0 107.5976547,-6.9200188,0.0 107.5975181,-6.9200032,0.0 107.59729,-6.919975,0.0 107.5972483,-6.9199708,0.0 107.5964708,-6.9198754,0.0 107.595731,-6.9197916,0.0 107.5957158,-6.9197892,0.0</coordinates>
            </LineString>
        </Placemark>
        <Placemark id="17140">
            <name>Jalan Jenderal Ahmad Yani</name>
            <styleUrl>#17141</styleUrl>
            <LineString id="17139">
                <coordinates>107.6311335,-6.9151604,0.0 107.6310799,-6.915221,0.0 107.6310034,-6.9152615,0.0 107.6309708,-6.9152788,0.0 107.6308525,-6.9153415,0.0 107.6304185,-6.9155713,0.0 107.6303391,-6.9156149,0.0</coordinates>
            </LineString>
        </Placemark>
        <Placemark id="17144">
            <name>Jalan Jenderal Ahmad Yani</name>
            <styleUrl>#17145</styleUrl>
            <LineString id="17143">
                <coordinates>107.6303391,-6.9156149,0.0 107.6301221,-6.9157388,0.0 107.6300714,-6.9157678,0.0</coordinates>
            </LineString>
        </Placemark>
        <Placemark id="17148">
            <name>Jalan Jenderal Ahmad Yani</name>
            <styleUrl>#17149</styleUrl>
            <LineString id="17147">
                <coordinates>107.6299922,-6.9158161,0.0 107.6299136,-6.9158592,0.0 107.6298144,-6.9159137,0.0</coordinates>
            </LineString>
        </Placemark>
        <Placemark id="17152">
            <name>Jalan Jenderal Ahmad Yani</name>
            <styleUrl>#17153</styleUrl>
            <LineString id="17151">
                <coordinates>107.6298144,-6.9159137,0.0 107.6295503,-6.9160568,0.0 107.629412,-6.9161317,0.0 107.6291688,-6.9162635,0.0 107.6290984,-6.9162777,0.0 107.6290208,-6.9162728,0.0</coordinates>
            </LineString>
        </Placemark>
        <Placemark id="17156">
            <name>Jalan Jenderal Ahmad Yani</name>
            <styleUrl>#17157</styleUrl>
            <LineString id="17155">
                <coordinates>107.6273636,-6.9171968,0.0 107.6270889,-6.9173383,0.0 107.6268861,-6.9174463,0.0 107.6268076,-6.9174881,0.0 107.6266557,-6.917569,0.0 107.6266014,-6.9175983,0.0 107.6263141,-6.9177504,0.0</coordinates>
            </LineString>
        </Placemark>
        <Placemark id="17160">
            <name>Jalan Jakarta</name>
            <styleUrl>#17161</styleUrl>
            <LineString id="17159">
                <coordinates>107.6422876,-6.9139498,0.0 107.6421252,-6.9139589,0.0 107.6417884,-6.9139622,0.0</coordinates>
            </LineString>
        </Placemark>
        <Placemark id="17164">
            <name>Jalan Jenderal Ahmad Yani</name>
            <styleUrl>#17165</styleUrl>
            <LineString id="17163">
                <coordinates>107.6473937,-6.9065187,0.0 107.6474379,-6.9064956,0.0 107.6474992,-6.9064635,0.0 107.6475815,-6.9064204,0.0 107.6478731,-6.9062675,0.0 107.6481705,-6.9061111,0.0 107.6482371,-6.9060767,0.0 107.6483165,-6.9060351,0.0 107.6483897,-6.9059946,0.0 107.6484809,-6.905949,0.0 107.6485698,-6.9059024,0.0 107.6487588,-6.9058034,0.0 107.6488255,-6.9057684,0.0 107.6489439,-6.9057063,0.0 107.6492779,-6.9055313,0.0 107.6494311,-6.9054486,0.0 107.6495236,-6.9054025,0.0 107.6496473,-6.9053377,0.0 107.6496626,-6.9053297,0.0 107.6498165,-6.9052493,0.0 107.6498843,-6.9052135,0.0 107.650154,-6.9050722,0.0 107.650173,-6.9050622,0.0 107.6504237,-6.9049308,0.0</coordinates>
            </LineString>
        </Placemark>
        <Placemark id="17168">
            <name>Jalan Jenderal Ahmad Yani</name>
            <styleUrl>#17169</styleUrl>
            <LineString id="17167">
                <coordinates>107.6473541,-6.9065376,0.0 107.6473937,-6.9065187,0.0</coordinates>
            </LineString>
        </Placemark>
        <Placemark id="17172">
            <name>Jalan Jendral Sudirman</name>
            <styleUrl>#17173</styleUrl>
            <LineString id="17171">
                <coordinates>107.5715151,-6.9146659,0.0 107.5714243,-6.9145091,0.0 107.571384,-6.9144417,0.0 107.5710851,-6.913941,0.0 107.5709375,-6.9136862,0.0 107.5708773,-6.9135594,0.0</coordinates>
            </LineString>
        </Placemark>
        <Placemark id="17176">
            <name>Jalan Jenderal Ahmad Yani</name>
            <styleUrl>#17177</styleUrl>
            <LineString id="17175">
                <coordinates>107.6435428,-6.9085842,0.0 107.6434582,-6.9086288,0.0</coordinates>
            </LineString>
        </Placemark>
        <Placemark id="17180">
            <name>Jalan H. Ibrahim Adjie</name>
            <styleUrl>#17181</styleUrl>
            <LineString id="17179">
                <coordinates>107.6432718,-6.9087579,0.0 107.6432638,-6.9087792,0.0 107.6432665,-6.9088245,0.0 107.6432956,-6.9090069,0.0 107.6433233,-6.9092056,0.0 107.6433314,-6.9092874,0.0 107.6433372,-6.9093721,0.0 107.6433224,-6.9094595,0.0</coordinates>
            </LineString>
        </Placemark>
        <Placemark id="17184">
            <name>Jalan Jendral Sudirman</name>
            <styleUrl>#17185</styleUrl>
            <LineString id="17183">
                <coordinates>107.5865662,-6.9187469,0.0 107.586377,-6.9187222,0.0</coordinates>
            </LineString>
        </Placemark>
        <Placemark id="17188">
            <name>Jalan Jendral Sudirman</name>
            <styleUrl>#17189</styleUrl>
            <LineString id="17187">
                <coordinates>107.586377,-6.9187222,0.0 107.5863067,-6.9187088,0.0 107.5855207,-6.9186023,0.0 107.5853065,-6.918572,0.0 107.5850994,-6.9185436,0.0 107.5850179,-6.9185338,0.0</coordinates>
            </LineString>
        </Placemark>
        <Placemark id="17192">
            <name>Route Segment</name>
            <styleUrl>#17193</styleUrl>
            <LineString id="17191">
                <coordinates>107.6435161,-6.9136526,0.0 107.643488,-6.9136797,0.0 107.6434706,-6.9136988,0.0 107.6434637,-6.9137166,0.0 107.6434595,-6.9137474,0.0 107.6434586,-6.9137687,0.0 107.6434476,-6.9137912,0.0 107.6434317,-6.9138202,0.0</coordinates>
            </LineString>
        </Placemark>
        <Placemark id="17196">
            <name>Jalan Jenderal Ahmad Yani</name>
            <styleUrl>#17197</styleUrl>
            <LineString id="17195">
                <coordinates>107.6179492,-6.9221334,0.0 107.6177359,-6.9222343,0.0</coordinates>
            </LineString>
        </Placemark>
        <Placemark id="17200">
            <name>Jalan Jenderal Ahmad Yani</name>
            <styleUrl>#17201</styleUrl>
            <LineString id="17199">
                <coordinates>107.6177359,-6.9222343,0.0 107.6176409,-6.9222818,0.0</coordinates>
            </LineString>
        </Placemark>
        <Placemark id="17204">
            <name>Jalan Jenderal Ahmad Yani</name>
            <styleUrl>#17205</styleUrl>
            <LineString id="17203">
                <coordinates>107.6187221,-6.9217512,0.0 107.6179492,-6.9221334,0.0</coordinates>
            </LineString>
        </Placemark>
        <Placemark id="17208">
            <name>Jalan Asia Afrika</name>
            <styleUrl>#17209</styleUrl>
            <LineString id="17207">
                <coordinates>107.6172687,-6.9223662,0.0 107.6170922,-6.9223512,0.0 107.6170153,-6.9223417,0.0</coordinates>
            </LineString>
        </Placemark>
        <Placemark id="17212">
            <name>Jalan Jenderal Ahmad Yani</name>
            <styleUrl>#17213</styleUrl>
            <LineString id="17211">
                <coordinates>107.6176409,-6.9222818,0.0 107.6175406,-6.9223258,0.0 107.6174533,-6.9223446,0.0 107.6172687,-6.9223662,0.0</coordinates>
            </LineString>
        </Placemark>
        <Placemark id="17216">
            <name>Jalan Jendral Sudirman</name>
            <styleUrl>#17217</styleUrl>
            <LineString id="17215">
                <coordinates>107.5703429,-6.9126894,0.0 107.5701276,-6.9123274,0.0 107.5698951,-6.9119365,0.0</coordinates>
            </LineString>
        </Placemark>
        <Placemark id="17220">
            <name>Jalan H. Ibrahim Adjie</name>
            <styleUrl>#17221</styleUrl>
            <LineString id="17219">
                <coordinates>107.6436422,-6.9130175,0.0 107.6436086,-6.913104,0.0 107.6436418,-6.9133935,0.0</coordinates>
            </LineString>
        </Placemark>
        <Placemark id="17224">
            <name>Route Segment</name>
            <styleUrl>#17225</styleUrl>
            <LineString id="17223">
                <coordinates>107.6436418,-6.9133935,0.0 107.6436179,-6.9134822,0.0 107.64361,-6.9135135,0.0 107.6435938,-6.9135535,0.0 107.643568,-6.9135924,0.0 107.6435352,-6.9136306,0.0 107.6435161,-6.9136526,0.0</coordinates>
            </LineString>
        </Placemark>
        <Placemark id="17228">
            <name>Jalan Jakarta</name>
            <styleUrl>#17229</styleUrl>
            <LineString id="17227">
                <coordinates>107.6429791,-6.9138756,0.0 107.6422876,-6.9139498,0.0</coordinates>
            </LineString>
        </Placemark>
        <Placemark id="17232">
            <name>Jalan Jakarta</name>
            <styleUrl>#17233</styleUrl>
            <LineString id="17231">
                <coordinates>107.6357903,-6.914575,0.0 107.6357337,-6.9145811,0.0 107.6356898,-6.9145768,0.0 107.6356137,-6.9145582,0.0 107.6354322,-6.914512,0.0 107.6352266,-6.9144508,0.0 107.6348552,-6.9143329,0.0</coordinates>
            </LineString>
        </Placemark>
        <Placemark id="17236">
            <name>Jalan Asia Afrika</name>
            <styleUrl>#17237</styleUrl>
            <LineString id="17235">
                <coordinates>107.6094601,-6.9214117,0.0 107.6092801,-6.921392,0.0 107.6090723,-6.9213678,0.0 107.6088911,-6.921347,0.0 107.6087921,-6.9213346,0.0 107.6082723,-6.9212776,0.0 107.6080497,-6.9212529,0.0 107.6077961,-6.9212245,0.0</coordinates>
            </LineString>
        </Placemark>
        <Placemark id="17240">
            <name>Route Segment</name>
            <styleUrl>#17241</styleUrl>
            <LineString id="17239">
                <coordinates>107.5698951,-6.9119365,0.0 107.5699632,-6.911882,0.0</coordinates>
            </LineString>
        </Placemark>
        <Placemark id="17244">
            <name>Jalan Jenderal Ahmad Yani</name>
            <styleUrl>#17245</styleUrl>
            <LineString id="17243">
                <coordinates>107.6437989,-6.9084471,0.0 107.6435428,-6.9085842,0.0</coordinates>
            </LineString>
        </Placemark>
        <Placemark id="17248">
            <name>Jalan Jendral Sudirman</name>
            <styleUrl>#17249</styleUrl>
            <LineString id="17247">
                <coordinates>107.5699632,-6.911882,0.0 107.5697698,-6.9115795,0.0 107.5696944,-6.9114612,0.0 107.5694831,-6.9111036,0.0 107.569361,-6.9109035,0.0 107.5693348,-6.9108606,0.0 107.5692858,-6.9107802,0.0 107.5692724,-6.9107365,0.0 107.5692799,-6.9106869,0.0 107.5693001,-6.9106543,0.0 107.5693282,-6.9106302,0.0 107.5693569,-6.9106219,0.0</coordinates>
            </LineString>
        </Placemark>
        <Placemark id="17252">
            <name>Bunderan Cibeureum</name>
            <styleUrl>#17253</styleUrl>
            <LineString id="17251">
                <coordinates>107.5745601,-6.9172787,0.0 107.5745248,-6.9173306,0.0 107.5744751,-6.9173693,0.0 107.5744159,-6.9173911,0.0</coordinates>
            </LineString>
        </Placemark>
        <Placemark id="17256">
            <name>Jalan Jenderal Ahmad Yani</name>
            <styleUrl>#17257</styleUrl>
            <LineString id="17255">
                <coordinates>107.634283,-6.9135431,0.0 107.6342142,-6.913577,0.0 107.6335114,-6.9139346,0.0 107.633493,-6.913944,0.0</coordinates>
            </LineString>
        </Placemark>
        <Placemark id="17260">
            <name>Jalan Jenderal Ahmad Yani</name>
            <styleUrl>#17261</styleUrl>
            <LineString id="17259">
                <coordinates>107.633493,-6.913944,0.0 107.6334401,-6.9139699,0.0</coordinates>
            </LineString>
        </Placemark>
        <Placemark id="17264">
            <name>Jalan Jenderal Ahmad Yani</name>
            <styleUrl>#17265</styleUrl>
            <LineString id="17263">
                <coordinates>107.6334401,-6.9139699,0.0 107.6333917,-6.9139844,0.0 107.6333413,-6.9139888,0.0</coordinates>
            </LineString>
        </Placemark>
        <Placemark id="17268">
            <name>Jalan Jenderal Ahmad Yani</name>
            <styleUrl>#17269</styleUrl>
            <LineString id="17267">
                <coordinates>107.6547053,-6.9026773,0.0 107.654175,-6.9029752,0.0 107.65401,-6.9030256,0.0</coordinates>
            </LineString>
        </Placemark>
        <Placemark id="17272">
            <name>Jalan Jenderal Ahmad Yani</name>
            <styleUrl>#17273</styleUrl>
            <LineString id="17271">
                <coordinates>107.6434582,-6.9086288,0.0 107.6433268,-6.908699,0.0 107.6432893,-6.9087293,0.0 107.6432718,-6.9087579,0.0</coordinates>
            </LineString>
        </Placemark>
        <Placemark id="17276">
            <name>Jalan H. Ibrahim Adjie</name>
            <styleUrl>#17277</styleUrl>
            <LineString id="17275">
                <coordinates>107.6433224,-6.9094595,0.0 107.6433364,-6.9096111,0.0 107.6433703,-6.9099716,0.0</coordinates>
            </LineString>
        </Placemark>
        <Placemark id="17280">
            <name>Jalan Jendral Sudirman</name>
            <styleUrl>#17281</styleUrl>
            <LineString id="17279">
                <coordinates>107.5983366,-6.920102,0.0 107.5982051,-6.9200877,0.0 107.597885,-6.9200477,0.0</coordinates>
            </LineString>
        </Placemark>
        <Placemark id="17284">
            <name>Route Segment</name>
            <styleUrl>#17285</styleUrl>
            <LineString id="17283">
                <coordinates>107.5748897,-6.9155407,0.0 107.5749738,-6.9155723,0.0</coordinates>
            </LineString>
        </Placemark>
        <Placemark id="17288">
            <name>Jalan Jakarta</name>
            <styleUrl>#17289</styleUrl>
            <LineString id="17287">
                <coordinates>107.6348552,-6.9143329,0.0 107.6348107,-6.9143073,0.0 107.6347464,-6.9142618,0.0 107.634686,-6.9142,0.0 107.6346017,-6.9140806,0.0 107.6345438,-6.913975,0.0 107.6343335,-6.9135901,0.0 107.634324,-6.9135745,0.0 107.634307,-6.9135542,0.0 107.634283,-6.9135431,0.0</coordinates>
            </LineString>
        </Placemark>
        <Placemark id="17292">
            <name>Bunderan Cibeureum</name>
            <styleUrl>#17293</styleUrl>
            <LineString id="17291">
                <coordinates>107.5742937,-6.9173779,0.0 107.5742396,-6.9173432,0.0 107.5741991,-6.9172935,0.0</coordinates>
            </LineString>
        </Placemark>
        <Placemark id="17296">
            <name>Bunderan Cibeureum</name>
            <styleUrl>#17297</styleUrl>
            <LineString id="17295">
                <coordinates>107.5744159,-6.9173911,0.0 107.5743538,-6.9173939,0.0 107.5742937,-6.9173779,0.0</coordinates>
            </LineString>
        </Placemark>
        <Placemark id="17300">
            <name>Jalan Asia Afrika</name>
            <styleUrl>#17301</styleUrl>
            <LineString id="17299">
                <coordinates>107.6069008,-6.9211076,0.0 107.6066769,-6.9210774,0.0 107.6064585,-6.9210512,0.0</coordinates>
            </LineString>
        </Placemark>
        <Placemark id="17304">
            <name>Jalan Jenderal Ahmad Yani</name>
            <styleUrl>#17305</styleUrl>
            <LineString id="17303">
                <coordinates>107.6300714,-6.9157678,0.0 107.6299922,-6.9158161,0.0</coordinates>
            </LineString>
        </Placemark>
        <Placemark id="17308">
            <name>Route Segment</name>
            <styleUrl>#17309</styleUrl>
            <LineString id="17307">
                <coordinates>107.6563322,-6.9022588,0.0 107.6563227,-6.9021785,0.0</coordinates>
            </LineString>
        </Placemark>
        <Placemark id="17312">
            <name>Jalan Jenderal Ahmad Yani</name>
            <styleUrl>#17313</styleUrl>
            <LineString id="17311">
                <coordinates>107.6563227,-6.9021785,0.0 107.6562379,-6.9021633,0.0</coordinates>
            </LineString>
        </Placemark>
        <Placemark id="17316">
            <name>Jalan Jenderal Ahmad Yani</name>
            <styleUrl>#17317</styleUrl>
            <LineString id="17315">
                <coordinates>107.6242238,-6.9188675,0.0 107.6241356,-6.9188768,0.0</coordinates>
            </LineString>
        </Placemark>
        <Placemark id="17320">
            <name>Jalan Jendral Sudirman</name>
            <styleUrl>#17321</styleUrl>
            <LineString id="17319">
                <coordinates>107.5929358,-6.9194498,0.0 107.5925279,-6.9194043,0.0 107.5919663,-6.9193339,0.0 107.591735,-6.9193056,0.0 107.5915571,-6.9192832,0.0 107.5908497,-6.9191977,0.0 107.5901619,-6.9191118,0.0</coordinates>
            </LineString>
        </Placemark>
        <Placemark id="17324">
            <name>Jalan Jenderal Ahmad Yani</name>
            <styleUrl>#17325</styleUrl>
            <LineString id="17323">
                <coordinates>107.6247558,-6.9185827,0.0 107.6245415,-6.9186929,0.0 107.6242238,-6.9188675,0.0</coordinates>
            </LineString>
        </Placemark>
        <Placemark id="17328">
            <name>Jalan Rajawali Barat</name>
            <styleUrl>#17329</styleUrl>
            <LineString id="17327">
                <coordinates>107.5729282,-6.9120185,0.0 107.5729439,-6.9120247,0.0 107.573014,-6.9120524,0.0 107.5733246,-6.9121739,0.0 107.5735241,-6.9122519,0.0 107.5736798,-6.9123128,0.0 107.5737227,-6.9123296,0.0 107.5741069,-6.9124804,0.0 107.5746597,-6.9126961,0.0 107.5747971,-6.9127499,0.0 107.5748397,-6.9127665,0.0 107.575213,-6.9129126,0.0 107.5753191,-6.9129541,0.0 107.5753653,-6.9129722,0.0</coordinates>
            </LineString>
        </Placemark>
        <Placemark id="17332">
            <name>Jalan Jenderal Ahmad Yani</name>
            <styleUrl>#17333</styleUrl>
            <LineString id="17331">
                <coordinates>107.6250751,-6.9184012,0.0 107.6250224,-6.9184288,0.0 107.6249234,-6.9184833,0.0 107.6248833,-6.9185083,0.0 107.6247558,-6.9185827,0.0</coordinates>
            </LineString>
        </Placemark>
        <Placemark id="17336">
            <name>Jalan Jenderal Ahmad Yani</name>
            <styleUrl>#17337</styleUrl>
            <LineString id="17335">
                <coordinates>107.6241356,-6.9188768,0.0 107.6239481,-6.9189771,0.0 107.6236923,-6.9191175,0.0 107.6236089,-6.9191602,0.0 107.6235031,-6.9192144,0.0 107.6229041,-6.9195297,0.0 107.6228594,-6.9195533,0.0</coordinates>
            </LineString>
        </Placemark>
        <Placemark id="17340">
            <name>Jalan Asia Afrika</name>
            <styleUrl>#17341</styleUrl>
            <LineString id="17339">
                <coordinates>107.6158901,-6.9222052,0.0 107.6150223,-6.9220922,0.0 107.6149247,-6.9220785,0.0 107.6144857,-6.9220225,0.0 107.6143274,-6.9220013,0.0 107.6141864,-6.9219849,0.0 107.6139237,-6.921951,0.0 107.6137712,-6.9219312,0.0</coordinates>
            </LineString>
        </Placemark>
        <Placemark id="17344">
            <name>Jalan Asia Afrika</name>
            <styleUrl>#17345</styleUrl>
            <LineString id="17343">
                <coordinates>107.6137712,-6.9219312,0.0 107.6131156,-6.9218519,0.0 107.6130492,-6.9218436,0.0 107.6128352,-6.9218192,0.0 107.6127275,-6.9218073,0.0 107.6127048,-6.9218048,0.0 107.6124983,-6.9217818,0.0 107.6124061,-6.9217716,0.0 107.6121197,-6.9217395,0.0 107.6120154,-6.9217245,0.0</coordinates>
            </LineString>
        </Placemark>
        <Placemark id="17348">
            <name>Jalan Jenderal Ahmad Yani</name>
            <styleUrl>#17349</styleUrl>
            <LineString id="17347">
                <coordinates>107.6263141,-6.9177504,0.0 107.6261108,-6.9178534,0.0 107.6258818,-6.9179768,0.0 107.6258365,-6.9180004,0.0 107.6251028,-6.9183866,0.0 107.6250751,-6.9184012,0.0</coordinates>
            </LineString>
        </Placemark>
        <Placemark id="17352">
            <name>Jalan Jendral Sudirman</name>
            <styleUrl>#17353</styleUrl>
            <LineString id="17351">
                <coordinates>107.5781202,-6.9176523,0.0 107.5780899,-6.9176631,0.0 107.5780671,-6.9176734,0.0 107.5780304,-6.9176867,0.0 107.5779981,-6.9176886,0.0 107.5771136,-6.9176018,0.0 107.5770629,-6.9175968,0.0 107.5768354,-6.9175724,0.0 107.5767383,-6.9175655,0.0</coordinates>
            </LineString>
        </Placemark>
        <Placemark id="17356">
            <name>Jalan Jendral Sudirman</name>
            <styleUrl>#17357</styleUrl>
            <LineString id="17355">
                <coordinates>107.5850179,-6.9185338,0.0 107.584208,-6.9184389,0.0 107.5840139,-6.918418,0.0 107.5839721,-6.918413,0.0 107.583604,-6.9183703,0.0 107.5833368,-6.9183393,0.0 107.5829636,-6.9182959,0.0 107.5823326,-6.9182237,0.0 107.5819763,-6.9181852,0.0 107.5813282,-6.9181174,0.0 107.5812663,-6.9180975,0.0 107.5812049,-6.9180481,0.0</coordinates>
            </LineString>
        </Placemark>
        <Placemark id="17360">
            <name>Jalan Jendral Sudirman</name>
            <styleUrl>#17361</styleUrl>
            <LineString id="17359">
                <coordinates>107.5767383,-6.9175655,0.0 107.5766159,-6.9175515,0.0</coordinates>
            </LineString>
        </Placemark>
        <Placemark id="17364">
            <name>Route Segment</name>
            <styleUrl>#17365</styleUrl>
            <LineString id="17363">
                <coordinates>107.6563498,-6.9023352,0.0 107.6563322,-6.9022588,0.0</coordinates>
            </LineString>
        </Placemark>
        <Placemark id="17368">
            <name>Route Segment</name>
            <styleUrl>#17369</styleUrl>
            <LineString id="17367">
                <coordinates>107.6565637,-6.902329,0.0 107.6563498,-6.9023352,0.0</coordinates>
            </LineString>
        </Placemark>
        <Placemark id="17372">
            <name>Jalan Asia Afrika</name>
            <styleUrl>#17373</styleUrl>
            <LineString id="17371">
                <coordinates>107.6071309,-6.9211347,0.0 107.6069871,-6.9211172,0.0 107.6069008,-6.9211076,0.0</coordinates>
            </LineString>
        </Placemark>
        <Placemark id="17376">
            <name>Jalan Jenderal Ahmad Yani</name>
            <styleUrl>#17377</styleUrl>
            <LineString id="17375">
                <coordinates>107.6274434,-6.9171135,0.0 107.6274142,-6.9171591,0.0 107.6273636,-6.9171968,0.0</coordinates>
            </LineString>
        </Placemark>
        <Placemark id="17380">
            <name>Jalan Jakarta</name>
            <styleUrl>#17381</styleUrl>
            <LineString id="17379">
                <coordinates>107.6434317,-6.9138202,0.0 107.6429791,-6.9138756,0.0</coordinates>
            </LineString>
        </Placemark>
        <Placemark id="17384">
            <name>Jalan Elang</name>
            <styleUrl>#17385</styleUrl>
            <LineString id="17383">
                <coordinates>107.5753136,-6.9144895,0.0 107.5755245,-6.9138801,0.0 107.575723,-6.9133498,0.0</coordinates>
            </LineString>
        </Placemark>
        <Placemark id="17388">
            <name>Jalan Elang</name>
            <styleUrl>#17389</styleUrl>
            <LineString id="17387">
                <coordinates>107.575721,-6.9131092,0.0 107.5755571,-6.9135373,0.0</coordinates>
            </LineString>
        </Placemark>
        <Placemark id="17392">
            <name>Jalan Jendral Sudirman</name>
            <styleUrl>#17393</styleUrl>
            <LineString id="17391">
                <coordinates>107.5725721,-6.916133,0.0 107.5723979,-6.9159874,0.0 107.5723395,-6.9159333,0.0 107.5722759,-6.9158629,0.0 107.5722121,-6.9157842,0.0 107.5721531,-6.915707,0.0 107.5720994,-6.9156231,0.0 107.5720549,-6.9155598,0.0 107.5719123,-6.9153326,0.0 107.5718695,-6.9152634,0.0 107.5717819,-6.9151024,0.0 107.5717255,-6.9150035,0.0 107.5715151,-6.9146659,0.0</coordinates>
            </LineString>
        </Placemark>
        <Placemark id="17396">
            <name>Jalan Rajawali Barat</name>
            <styleUrl>#17397</styleUrl>
            <LineString id="17395">
                <coordinates>107.5753653,-6.9129722,0.0 107.5754115,-6.9129902,0.0 107.5755013,-6.9130253,0.0 107.575721,-6.9131092,0.0</coordinates>
            </LineString>
        </Placemark>
        <Placemark id="17400">
            <name>Jalan Asia Afrika</name>
            <styleUrl>#17401</styleUrl>
            <LineString id="17399">
                <coordinates>107.61692,-6.9223302,0.0 107.6168595,-6.9223254,0.0</coordinates>
            </LineString>
        </Placemark>
        <Placemark id="17404">
            <name>Jalan Asia Afrika</name>
            <styleUrl>#17405</styleUrl>
            <LineString id="17403">
                <coordinates>107.6168595,-6.9223254,0.0 107.6167788,-6.9223149,0.0 107.6164075,-6.9222701,0.0</coordinates>
            </LineString>
        </Placemark>
        <Placemark id="17408">
            <name>Jalan Asia Afrika</name>
            <styleUrl>#17409</styleUrl>
            <LineString id="17407">
                <coordinates>107.6164075,-6.9222701,0.0 107.6162578,-6.9222486,0.0 107.6162228,-6.9222435,0.0 107.6160411,-6.9222225,0.0</coordinates>
            </LineString>
        </Placemark>
        <Placemark id="17412">
            <name>Jalan Asia Afrika</name>
            <styleUrl>#17413</styleUrl>
            <LineString id="17411">
                <coordinates>107.6160411,-6.9222225,0.0 107.6158901,-6.9222052,0.0</coordinates>
            </LineString>
        </Placemark>
        <Placemark id="17416">
            <name>Jalan Asia Afrika</name>
            <styleUrl>#17417</styleUrl>
            <LineString id="17415">
                <coordinates>107.6170153,-6.9223417,0.0 107.61692,-6.9223302,0.0</coordinates>
            </LineString>
        </Placemark>
        <Placemark id="17420">
            <name>Jalan Asia Afrika</name>
            <styleUrl>#17421</styleUrl>
            <LineString id="17419">
                <coordinates>107.6098267,-6.921461,0.0 107.6097986,-6.9214572,0.0 107.6094601,-6.9214117,0.0</coordinates>
            </LineString>
        </Placemark>
        <Placemark id="17424">
            <name>Jalan Asia Afrika</name>
            <styleUrl>#17425</styleUrl>
            <LineString id="17423">
                <coordinates>107.6118219,-6.9217006,0.0 107.6115001,-6.9216626,0.0 107.6114214,-6.9216524,0.0 107.6112374,-6.9216318,0.0 107.6110246,-6.9216047,0.0 107.6108437,-6.9215848,0.0 107.6106307,-6.9215569,0.0 107.6104259,-6.9215335,0.0 107.610212,-6.9215095,0.0 107.6101463,-6.9215025,0.0 107.6099829,-6.9214819,0.0 107.6099373,-6.9214762,0.0 107.6098267,-6.921461,0.0</coordinates>
            </LineString>
        </Placemark>
        <Placemark id="17428">
            <name>Jalan Jendral Sudirman</name>
            <styleUrl>#17429</styleUrl>
            <LineString id="17427">
                <coordinates>107.5812049,-6.9180481,0.0 107.5805863,-6.9179704,0.0 107.5802279,-6.9179222,0.0 107.5798805,-6.9178766,0.0 107.5797208,-6.9178564,0.0 107.5794411,-6.9178197,0.0 107.579301,-6.9178011,0.0 107.5791821,-6.917785,0.0 107.5789586,-6.917756,0.0 107.578869,-6.9177435,0.0 107.5788207,-6.9177374,0.0 107.5787513,-6.9177277,0.0 107.5784389,-6.9176895,0.0 107.5783437,-6.9176779,0.0 107.5782936,-6.9176722,0.0 107.5781202,-6.9176523,0.0</coordinates>
            </LineString>
        </Placemark>
    </Document>
</kml>
