<?xml version="1.0" encoding="UTF-8"?>
<kml xmlns="http://www.opengis.net/kml/2.2" xmlns:gx="http://www.google.com/kml/ext/2.2">
    <Document id="16510">
        <Style id="16516">
            <IconStyle id="16517">
                <colorMode>normal</colorMode>
                <scale>1</scale>
                <heading>0</heading>
                <Icon id="16518">
                    <href>http://maps.google.com/mapfiles/kml/pushpin/ylw-pushpin.png</href>
                </Icon>
            </IconStyle>
        </Style>
        <Style id="16521">
            <IconStyle id="16522">
                <colorMode>normal</colorMode>
                <scale>1</scale>
                <heading>0</heading>
                <Icon id="16523">
                    <href>http://maps.google.com/mapfiles/kml/pushpin/ylw-pushpin.png</href>
                </Icon>
            </IconStyle>
        </Style>
        <Style id="16526">
            <LineStyle id="16527">
                <color>ff332AEF</color>
                <colorMode>normal</colorMode>
                <width>4</width>
            </LineStyle>
        </Style>
        <Style id="16530">
            <LineStyle id="16531">
                <color>ff332AEF</color>
                <colorMode>normal</colorMode>
                <width>4</width>
            </LineStyle>
        </Style>
        <Style id="16534">
            <LineStyle id="16535">
                <color>ff332AEF</color>
                <colorMode>normal</colorMode>
                <width>4</width>
            </LineStyle>
        </Style>
        <Style id="16538">
            <LineStyle id="16539">
                <color>ff332AEF</color>
                <colorMode>normal</colorMode>
                <width>4</width>
            </LineStyle>
        </Style>
        <Style id="16542">
            <LineStyle id="16543">
                <color>ff332AEF</color>
                <colorMode>normal</colorMode>
                <width>4</width>
            </LineStyle>
        </Style>
        <Style id="16546">
            <LineStyle id="16547">
                <color>ff332AEF</color>
                <colorMode>normal</colorMode>
                <width>4</width>
            </LineStyle>
        </Style>
        <Style id="16550">
            <LineStyle id="16551">
                <color>ff332AEF</color>
                <colorMode>normal</colorMode>
                <width>4</width>
            </LineStyle>
        </Style>
        <Style id="16554">
            <LineStyle id="16555">
                <color>ff332AEF</color>
                <colorMode>normal</colorMode>
                <width>4</width>
            </LineStyle>
        </Style>
        <Style id="16558">
            <LineStyle id="16559">
                <color>ff332AEF</color>
                <colorMode>normal</colorMode>
                <width>4</width>
            </LineStyle>
        </Style>
        <Style id="16562">
            <LineStyle id="16563">
                <color>ff332AEF</color>
                <colorMode>normal</colorMode>
                <width>4</width>
            </LineStyle>
        </Style>
        <Style id="16566">
            <LineStyle id="16567">
                <color>ff332AEF</color>
                <colorMode>normal</colorMode>
                <width>4</width>
            </LineStyle>
        </Style>
        <Style id="16570">
            <LineStyle id="16571">
                <color>ff332AEF</color>
                <colorMode>normal</colorMode>
                <width>4</width>
            </LineStyle>
        </Style>
        <Style id="16574">
            <LineStyle id="16575">
                <color>ff332AEF</color>
                <colorMode>normal</colorMode>
                <width>4</width>
            </LineStyle>
        </Style>
        <Style id="16578">
            <LineStyle id="16579">
                <color>ff332AEF</color>
                <colorMode>normal</colorMode>
                <width>4</width>
            </LineStyle>
        </Style>
        <Style id="16582">
            <LineStyle id="16583">
                <color>ff332AEF</color>
                <colorMode>normal</colorMode>
                <width>4</width>
            </LineStyle>
        </Style>
        <Style id="16586">
            <LineStyle id="16587">
                <color>ff332AEF</color>
                <colorMode>normal</colorMode>
                <width>4</width>
            </LineStyle>
        </Style>
        <Style id="16590">
            <LineStyle id="16591">
                <color>ff332AEF</color>
                <colorMode>normal</colorMode>
                <width>4</width>
            </LineStyle>
        </Style>
        <Style id="16594">
            <LineStyle id="16595">
                <color>ff332AEF</color>
                <colorMode>normal</colorMode>
                <width>4</width>
            </LineStyle>
        </Style>
        <Style id="16598">
            <LineStyle id="16599">
                <color>ff332AEF</color>
                <colorMode>normal</colorMode>
                <width>4</width>
            </LineStyle>
        </Style>
        <Style id="16602">
            <LineStyle id="16603">
                <color>ff332AEF</color>
                <colorMode>normal</colorMode>
                <width>4</width>
            </LineStyle>
        </Style>
        <Style id="16606">
            <LineStyle id="16607">
                <color>ff332AEF</color>
                <colorMode>normal</colorMode>
                <width>4</width>
            </LineStyle>
        </Style>
        <Style id="16610">
            <LineStyle id="16611">
                <color>ff332AEF</color>
                <colorMode>normal</colorMode>
                <width>4</width>
            </LineStyle>
        </Style>
        <Style id="16614">
            <LineStyle id="16615">
                <color>ff332AEF</color>
                <colorMode>normal</colorMode>
                <width>4</width>
            </LineStyle>
        </Style>
        <Style id="16618">
            <LineStyle id="16619">
                <color>ff332AEF</color>
                <colorMode>normal</colorMode>
                <width>4</width>
            </LineStyle>
        </Style>
        <Style id="16622">
            <LineStyle id="16623">
                <color>ff332AEF</color>
                <colorMode>normal</colorMode>
                <width>4</width>
            </LineStyle>
        </Style>
        <Style id="16626">
            <LineStyle id="16627">
                <color>ff332AEF</color>
                <colorMode>normal</colorMode>
                <width>4</width>
            </LineStyle>
        </Style>
        <Style id="16630">
            <LineStyle id="16631">
                <color>ff332AEF</color>
                <colorMode>normal</colorMode>
                <width>4</width>
            </LineStyle>
        </Style>
        <Style id="16634">
            <LineStyle id="16635">
                <color>ff332AEF</color>
                <colorMode>normal</colorMode>
                <width>4</width>
            </LineStyle>
        </Style>
        <Style id="16638">
            <LineStyle id="16639">
                <color>ff332AEF</color>
                <colorMode>normal</colorMode>
                <width>4</width>
            </LineStyle>
        </Style>
        <Style id="16642">
            <LineStyle id="16643">
                <color>ff332AEF</color>
                <colorMode>normal</colorMode>
                <width>4</width>
            </LineStyle>
        </Style>
        <Style id="16646">
            <LineStyle id="16647">
                <color>ff332AEF</color>
                <colorMode>normal</colorMode>
                <width>4</width>
            </LineStyle>
        </Style>
        <Style id="16650">
            <LineStyle id="16651">
                <color>ff332AEF</color>
                <colorMode>normal</colorMode>
                <width>4</width>
            </LineStyle>
        </Style>
        <Style id="16654">
            <LineStyle id="16655">
                <color>ff332AEF</color>
                <colorMode>normal</colorMode>
                <width>4</width>
            </LineStyle>
        </Style>
        <Style id="16658">
            <LineStyle id="16659">
                <color>ff332AEF</color>
                <colorMode>normal</colorMode>
                <width>4</width>
            </LineStyle>
        </Style>
        <Style id="16662">
            <LineStyle id="16663">
                <color>ff332AEF</color>
                <colorMode>normal</colorMode>
                <width>4</width>
            </LineStyle>
        </Style>
        <Style id="16666">
            <LineStyle id="16667">
                <color>ff332AEF</color>
                <colorMode>normal</colorMode>
                <width>4</width>
            </LineStyle>
        </Style>
        <Style id="16670">
            <LineStyle id="16671">
                <color>ff332AEF</color>
                <colorMode>normal</colorMode>
                <width>4</width>
            </LineStyle>
        </Style>
        <Style id="16674">
            <LineStyle id="16675">
                <color>ff332AEF</color>
                <colorMode>normal</colorMode>
                <width>4</width>
            </LineStyle>
        </Style>
        <Style id="16678">
            <LineStyle id="16679">
                <color>ff332AEF</color>
                <colorMode>normal</colorMode>
                <width>4</width>
            </LineStyle>
        </Style>
        <Style id="16682">
            <LineStyle id="16683">
                <color>ff332AEF</color>
                <colorMode>normal</colorMode>
                <width>4</width>
            </LineStyle>
        </Style>
        <Style id="16686">
            <LineStyle id="16687">
                <color>ff332AEF</color>
                <colorMode>normal</colorMode>
                <width>4</width>
            </LineStyle>
        </Style>
        <Style id="16690">
            <LineStyle id="16691">
                <color>ff332AEF</color>
                <colorMode>normal</colorMode>
                <width>4</width>
            </LineStyle>
        </Style>
        <Style id="16694">
            <LineStyle id="16695">
                <color>ff332AEF</color>
                <colorMode>normal</colorMode>
                <width>4</width>
            </LineStyle>
        </Style>
        <Style id="16698">
            <LineStyle id="16699">
                <color>ff332AEF</color>
                <colorMode>normal</colorMode>
                <width>4</width>
            </LineStyle>
        </Style>
        <Style id="16702">
            <LineStyle id="16703">
                <color>ff332AEF</color>
                <colorMode>normal</colorMode>
                <width>4</width>
            </LineStyle>
        </Style>
        <Style id="16706">
            <LineStyle id="16707">
                <color>ff332AEF</color>
                <colorMode>normal</colorMode>
                <width>4</width>
            </LineStyle>
        </Style>
        <Style id="16710">
            <LineStyle id="16711">
                <color>ff332AEF</color>
                <colorMode>normal</colorMode>
                <width>4</width>
            </LineStyle>
        </Style>
        <Style id="16714">
            <LineStyle id="16715">
                <color>ff332AEF</color>
                <colorMode>normal</colorMode>
                <width>4</width>
            </LineStyle>
        </Style>
        <Style id="16718">
            <LineStyle id="16719">
                <color>ff332AEF</color>
                <colorMode>normal</colorMode>
                <width>4</width>
            </LineStyle>
        </Style>
        <Style id="16722">
            <LineStyle id="16723">
                <color>ff332AEF</color>
                <colorMode>normal</colorMode>
                <width>4</width>
            </LineStyle>
        </Style>
        <Style id="16726">
            <LineStyle id="16727">
                <color>ff332AEF</color>
                <colorMode>normal</colorMode>
                <width>4</width>
            </LineStyle>
        </Style>
        <Style id="16730">
            <LineStyle id="16731">
                <color>ff332AEF</color>
                <colorMode>normal</colorMode>
                <width>4</width>
            </LineStyle>
        </Style>
        <Style id="16734">
            <LineStyle id="16735">
                <color>ff332AEF</color>
                <colorMode>normal</colorMode>
                <width>4</width>
            </LineStyle>
        </Style>
        <Style id="16738">
            <LineStyle id="16739">
                <color>ff332AEF</color>
                <colorMode>normal</colorMode>
                <width>4</width>
            </LineStyle>
        </Style>
        <Style id="16742">
            <LineStyle id="16743">
                <color>ff332AEF</color>
                <colorMode>normal</colorMode>
                <width>4</width>
            </LineStyle>
        </Style>
        <Style id="16746">
            <LineStyle id="16747">
                <color>ff332AEF</color>
                <colorMode>normal</colorMode>
                <width>4</width>
            </LineStyle>
        </Style>
        <Style id="16750">
            <LineStyle id="16751">
                <color>ff332AEF</color>
                <colorMode>normal</colorMode>
                <width>4</width>
            </LineStyle>
        </Style>
        <Style id="16754">
            <LineStyle id="16755">
                <color>ff332AEF</color>
                <colorMode>normal</colorMode>
                <width>4</width>
            </LineStyle>
        </Style>
        <Style id="16758">
            <LineStyle id="16759">
                <color>ff332AEF</color>
                <colorMode>normal</colorMode>
                <width>4</width>
            </LineStyle>
        </Style>
        <Style id="16762">
            <LineStyle id="16763">
                <color>ff332AEF</color>
                <colorMode>normal</colorMode>
                <width>4</width>
            </LineStyle>
        </Style>
        <Style id="16766">
            <LineStyle id="16767">
                <color>ff332AEF</color>
                <colorMode>normal</colorMode>
                <width>4</width>
            </LineStyle>
        </Style>
        <Style id="16770">
            <LineStyle id="16771">
                <color>ff332AEF</color>
                <colorMode>normal</colorMode>
                <width>4</width>
            </LineStyle>
        </Style>
        <Style id="16774">
            <LineStyle id="16775">
                <color>ff332AEF</color>
                <colorMode>normal</colorMode>
                <width>4</width>
            </LineStyle>
        </Style>
        <Style id="16778">
            <LineStyle id="16779">
                <color>ff332AEF</color>
                <colorMode>normal</colorMode>
                <width>4</width>
            </LineStyle>
        </Style>
        <Style id="16782">
            <LineStyle id="16783">
                <color>ff332AEF</color>
                <colorMode>normal</colorMode>
                <width>4</width>
            </LineStyle>
        </Style>
        <Style id="16786">
            <LineStyle id="16787">
                <color>ff332AEF</color>
                <colorMode>normal</colorMode>
                <width>4</width>
            </LineStyle>
        </Style>
        <Style id="16790">
            <LineStyle id="16791">
                <color>ff332AEF</color>
                <colorMode>normal</colorMode>
                <width>4</width>
            </LineStyle>
        </Style>
        <Style id="16794">
            <LineStyle id="16795">
                <color>ff332AEF</color>
                <colorMode>normal</colorMode>
                <width>4</width>
            </LineStyle>
        </Style>
        <Style id="16798">
            <LineStyle id="16799">
                <color>ff332AEF</color>
                <colorMode>normal</colorMode>
                <width>4</width>
            </LineStyle>
        </Style>
        <Style id="16802">
            <LineStyle id="16803">
                <color>ff332AEF</color>
                <colorMode>normal</colorMode>
                <width>4</width>
            </LineStyle>
        </Style>
        <Style id="16806">
            <LineStyle id="16807">
                <color>ff332AEF</color>
                <colorMode>normal</colorMode>
                <width>4</width>
            </LineStyle>
        </Style>
        <Style id="16810">
            <LineStyle id="16811">
                <color>ff332AEF</color>
                <colorMode>normal</colorMode>
                <width>4</width>
            </LineStyle>
        </Style>
        <Style id="16814">
            <LineStyle id="16815">
                <color>ff332AEF</color>
                <colorMode>normal</colorMode>
                <width>4</width>
            </LineStyle>
        </Style>
        <Style id="16818">
            <LineStyle id="16819">
                <color>ff332AEF</color>
                <colorMode>normal</colorMode>
                <width>4</width>
            </LineStyle>
        </Style>
        <Style id="16822">
            <LineStyle id="16823">
                <color>ff332AEF</color>
                <colorMode>normal</colorMode>
                <width>4</width>
            </LineStyle>
        </Style>
        <Style id="16826">
            <LineStyle id="16827">
                <color>ff332AEF</color>
                <colorMode>normal</colorMode>
                <width>4</width>
            </LineStyle>
        </Style>
        <Style id="16830">
            <LineStyle id="16831">
                <color>ff332AEF</color>
                <colorMode>normal</colorMode>
                <width>4</width>
            </LineStyle>
        </Style>
        <Style id="16834">
            <LineStyle id="16835">
                <color>ff332AEF</color>
                <colorMode>normal</colorMode>
                <width>4</width>
            </LineStyle>
        </Style>
        <Style id="16838">
            <LineStyle id="16839">
                <color>ff332AEF</color>
                <colorMode>normal</colorMode>
                <width>4</width>
            </LineStyle>
        </Style>
        <Style id="16842">
            <LineStyle id="16843">
                <color>ff332AEF</color>
                <colorMode>normal</colorMode>
                <width>4</width>
            </LineStyle>
        </Style>
        <Style id="16846">
            <LineStyle id="16847">
                <color>ff332AEF</color>
                <colorMode>normal</colorMode>
                <width>4</width>
            </LineStyle>
        </Style>
        <Style id="16850">
            <LineStyle id="16851">
                <color>ff332AEF</color>
                <colorMode>normal</colorMode>
                <width>4</width>
            </LineStyle>
        </Style>
        <Style id="16854">
            <LineStyle id="16855">
                <color>ff332AEF</color>
                <colorMode>normal</colorMode>
                <width>4</width>
            </LineStyle>
        </Style>
        <Style id="16858">
            <LineStyle id="16859">
                <color>ff332AEF</color>
                <colorMode>normal</colorMode>
                <width>4</width>
            </LineStyle>
        </Style>
        <Style id="16862">
            <LineStyle id="16863">
                <color>ff332AEF</color>
                <colorMode>normal</colorMode>
                <width>4</width>
            </LineStyle>
        </Style>
        <Style id="16866">
            <LineStyle id="16867">
                <color>ff332AEF</color>
                <colorMode>normal</colorMode>
                <width>4</width>
            </LineStyle>
        </Style>
        <Style id="16870">
            <LineStyle id="16871">
                <color>ff332AEF</color>
                <colorMode>normal</colorMode>
                <width>4</width>
            </LineStyle>
        </Style>
        <Style id="16874">
            <LineStyle id="16875">
                <color>ff332AEF</color>
                <colorMode>normal</colorMode>
                <width>4</width>
            </LineStyle>
        </Style>
        <Style id="16878">
            <LineStyle id="16879">
                <color>ff332AEF</color>
                <colorMode>normal</colorMode>
                <width>4</width>
            </LineStyle>
        </Style>
        <Style id="16882">
            <LineStyle id="16883">
                <color>ff332AEF</color>
                <colorMode>normal</colorMode>
                <width>4</width>
            </LineStyle>
        </Style>
        <Style id="16886">
            <LineStyle id="16887">
                <color>ff332AEF</color>
                <colorMode>normal</colorMode>
                <width>4</width>
            </LineStyle>
        </Style>
        <Style id="16890">
            <LineStyle id="16891">
                <color>ff332AEF</color>
                <colorMode>normal</colorMode>
                <width>4</width>
            </LineStyle>
        </Style>
        <Style id="16894">
            <LineStyle id="16895">
                <color>ff332AEF</color>
                <colorMode>normal</colorMode>
                <width>4</width>
            </LineStyle>
        </Style>
        <Style id="16898">
            <LineStyle id="16899">
                <color>ff332AEF</color>
                <colorMode>normal</colorMode>
                <width>4</width>
            </LineStyle>
        </Style>
        <Style id="16902">
            <LineStyle id="16903">
                <color>ff332AEF</color>
                <colorMode>normal</colorMode>
                <width>4</width>
            </LineStyle>
        </Style>
        <Style id="16906">
            <LineStyle id="16907">
                <color>ff332AEF</color>
                <colorMode>normal</colorMode>
                <width>4</width>
            </LineStyle>
        </Style>
        <Style id="16910">
            <LineStyle id="16911">
                <color>ff332AEF</color>
                <colorMode>normal</colorMode>
                <width>4</width>
            </LineStyle>
        </Style>
        <Style id="16914">
            <LineStyle id="16915">
                <color>ff332AEF</color>
                <colorMode>normal</colorMode>
                <width>4</width>
            </LineStyle>
        </Style>
        <Style id="16918">
            <LineStyle id="16919">
                <color>ff332AEF</color>
                <colorMode>normal</colorMode>
                <width>4</width>
            </LineStyle>
        </Style>
        <Style id="16922">
            <LineStyle id="16923">
                <color>ff332AEF</color>
                <colorMode>normal</colorMode>
                <width>4</width>
            </LineStyle>
        </Style>
        <Style id="16926">
            <LineStyle id="16927">
                <color>ff332AEF</color>
                <colorMode>normal</colorMode>
                <width>4</width>
            </LineStyle>
        </Style>
        <Style id="16930">
            <LineStyle id="16931">
                <color>ff332AEF</color>
                <colorMode>normal</colorMode>
                <width>4</width>
            </LineStyle>
        </Style>
        <Style id="16934">
            <LineStyle id="16935">
                <color>ff332AEF</color>
                <colorMode>normal</colorMode>
                <width>4</width>
            </LineStyle>
        </Style>
        <Style id="16938">
            <LineStyle id="16939">
                <color>ff332AEF</color>
                <colorMode>normal</colorMode>
                <width>4</width>
            </LineStyle>
        </Style>
        <Style id="16942">
            <LineStyle id="16943">
                <color>ff332AEF</color>
                <colorMode>normal</colorMode>
                <width>4</width>
            </LineStyle>
        </Style>
        <Style id="16946">
            <LineStyle id="16947">
                <color>ff332AEF</color>
                <colorMode>normal</colorMode>
                <width>4</width>
            </LineStyle>
        </Style>
        <Style id="16950">
            <LineStyle id="16951">
                <color>ff332AEF</color>
                <colorMode>normal</colorMode>
                <width>4</width>
            </LineStyle>
        </Style>
        <Style id="16954">
            <LineStyle id="16955">
                <color>ff332AEF</color>
                <colorMode>normal</colorMode>
                <width>4</width>
            </LineStyle>
        </Style>
        <Style id="16958">
            <LineStyle id="16959">
                <color>ff332AEF</color>
                <colorMode>normal</colorMode>
                <width>4</width>
            </LineStyle>
        </Style>
        <Style id="16962">
            <LineStyle id="16963">
                <color>ff332AEF</color>
                <colorMode>normal</colorMode>
                <width>4</width>
            </LineStyle>
        </Style>
        <Style id="16966">
            <LineStyle id="16967">
                <color>ff332AEF</color>
                <colorMode>normal</colorMode>
                <width>4</width>
            </LineStyle>
        </Style>
        <Style id="16970">
            <LineStyle id="16971">
                <color>ff332AEF</color>
                <colorMode>normal</colorMode>
                <width>4</width>
            </LineStyle>
        </Style>
        <Style id="16974">
            <LineStyle id="16975">
                <color>ff332AEF</color>
                <colorMode>normal</colorMode>
                <width>4</width>
            </LineStyle>
        </Style>
        <Style id="16978">
            <LineStyle id="16979">
                <color>ff332AEF</color>
                <colorMode>normal</colorMode>
                <width>4</width>
            </LineStyle>
        </Style>
        <Style id="16982">
            <LineStyle id="16983">
                <color>ff332AEF</color>
                <colorMode>normal</colorMode>
                <width>4</width>
            </LineStyle>
        </Style>
        <Style id="16986">
            <LineStyle id="16987">
                <color>ff332AEF</color>
                <colorMode>normal</colorMode>
                <width>4</width>
            </LineStyle>
        </Style>
        <Style id="16990">
            <LineStyle id="16991">
                <color>ff332AEF</color>
                <colorMode>normal</colorMode>
                <width>4</width>
            </LineStyle>
        </Style>
        <ExtendedData>
            <Data name="route-name">
                <value>Koridor 1: Cibeureum → Cibiru</value>
            </Data>
            <Data name="source">
                <value>Transport for Bandung</value>
            </Data>
        </ExtendedData>
        <Placemark id="16515">
            <name>Terminal Elang</name>
            <styleUrl>#16516</styleUrl>
            <Point id="16514">
                <coordinates>107.5755571,-6.9135373,0.0</coordinates>
            </Point>
        </Placemark>
        <Placemark id="16520">
            <name>Bundaran Cibiru</name>
            <styleUrl>#16521</styleUrl>
            <Point id="16519">
                <coordinates>107.7175908,-6.9352673,0.0</coordinates>
            </Point>
        </Placemark>
        <Placemark id="16525">
            <name>Jalan Soekarno-Hatta</name>
            <styleUrl>#16526</styleUrl>
            <LineString id="16524">
                <coordinates>107.5744266,-6.9194787,0.0 107.5744272,-6.9195208,0.0 107.5744343,-6.9196531,0.0 107.5744531,-6.9198794,0.0 107.5744799,-6.9200829,0.0 107.5745244,-6.9204204,0.0 107.5745632,-6.9206714,0.0 107.5745805,-6.9207727,0.0 107.574617,-6.9209716,0.0 107.5746819,-6.9214118,0.0 107.5748304,-6.9223874,0.0 107.5748829,-6.9227581,0.0 107.5749416,-6.92312,0.0 107.5749473,-6.9231553,0.0 107.575014,-6.9236585,0.0</coordinates>
            </LineString>
        </Placemark>
        <Placemark id="16529">
            <name>Jalan Elang</name>
            <styleUrl>#16530</styleUrl>
            <LineString id="16528">
                <coordinates>107.5755571,-6.9135373,0.0 107.5754392,-6.9138457,0.0 107.5752572,-6.9143562,0.0 107.5749328,-6.9153687,0.0 107.5748897,-6.9155407,0.0</coordinates>
            </LineString>
        </Placemark>
        <Placemark id="16533">
            <name>Jalan Soekarno-Hatta</name>
            <styleUrl>#16534</styleUrl>
            <LineString id="16532">
                <coordinates>107.6336406,-6.9478818,0.0 107.6337248,-6.9478543,0.0 107.6338763,-6.9478077,0.0 107.6340014,-6.9477692,0.0 107.6341745,-6.9477159,0.0 107.6348946,-6.9474943,0.0 107.6350137,-6.9474577,0.0 107.6350586,-6.9474439,0.0 107.6350976,-6.9474319,0.0 107.6352499,-6.947385,0.0 107.6355559,-6.9472909,0.0 107.6359684,-6.9471669,0.0 107.6359872,-6.9471621,0.0 107.6360687,-6.9471331,0.0 107.636143,-6.9471102,0.0 107.6363926,-6.9470334,0.0 107.636644,-6.9469561,0.0 107.6367049,-6.9469373,0.0 107.6370708,-6.9468247,0.0 107.6373665,-6.9467337,0.0 107.638253,-6.946461,0.0 107.638452,-6.9463942,0.0 107.6385798,-6.9463604,0.0 107.6390869,-6.9462044,0.0 107.6391553,-6.9461833,0.0 107.6395007,-6.946077,0.0 107.6395637,-6.9460577,0.0 107.639643,-6.9460333,0.0 107.6399381,-6.9459425,0.0 107.6400313,-6.9459138,0.0 107.6400988,-6.945893,0.0</coordinates>
            </LineString>
        </Placemark>
        <Placemark id="16537">
            <name>Jalan Soekarno-Hatta</name>
            <styleUrl>#16538</styleUrl>
            <LineString id="16536">
                <coordinates>107.621611,-6.9491677,0.0 107.6219888,-6.9491964,0.0</coordinates>
            </LineString>
        </Placemark>
        <Placemark id="16541">
            <name>Jalan Soekarno-Hatta</name>
            <styleUrl>#16542</styleUrl>
            <LineString id="16540">
                <coordinates>107.6219888,-6.9491964,0.0 107.6225159,-6.949235,0.0 107.6230228,-6.9492832,0.0 107.6232787,-6.9493075,0.0 107.6236074,-6.9493402,0.0 107.6244902,-6.949411,0.0 107.6248137,-6.9494301,0.0 107.6249026,-6.9494354,0.0</coordinates>
            </LineString>
        </Placemark>
        <Placemark id="16545">
            <name>Jalan Soekarno-Hatta</name>
            <styleUrl>#16546</styleUrl>
            <LineString id="16544">
                <coordinates>107.575014,-6.9236585,0.0 107.5750579,-6.9239839,0.0 107.5751102,-6.9243105,0.0 107.5751686,-6.9246901,0.0 107.5752003,-6.9248974,0.0 107.575247,-6.9252035,0.0 107.5752734,-6.9253766,0.0 107.5752867,-6.9254635,0.0 107.575321,-6.9256811,0.0 107.5753412,-6.9258096,0.0</coordinates>
            </LineString>
        </Placemark>
        <Placemark id="16549">
            <name>Jalan Soekarno-Hatta</name>
            <styleUrl>#16550</styleUrl>
            <LineString id="16548">
                <coordinates>107.5863956,-6.9441848,0.0 107.5868373,-6.9443439,0.0 107.5870102,-6.9443993,0.0 107.5876247,-6.9446579,0.0 107.5878344,-6.9447464,0.0 107.5880579,-6.9448406,0.0 107.5883073,-6.9449457,0.0 107.5888658,-6.9451811,0.0</coordinates>
            </LineString>
        </Placemark>
        <Placemark id="16553">
            <name>Jalan Soekarno-Hatta</name>
            <styleUrl>#16554</styleUrl>
            <LineString id="16552">
                <coordinates>107.5905372,-6.9458885,0.0 107.5906174,-6.9459184,0.0 107.5908186,-6.9459976,0.0 107.5909454,-6.9460471,0.0 107.5912869,-6.9461769,0.0 107.5915135,-6.946263,0.0 107.5919633,-6.946418,0.0 107.5920057,-6.9464327,0.0</coordinates>
            </LineString>
        </Placemark>
        <Placemark id="16557">
            <name>Jalan Soekarno-Hatta</name>
            <styleUrl>#16558</styleUrl>
            <LineString id="16556">
                <coordinates>107.5760593,-6.9304537,0.0 107.5760815,-6.9305419,0.0 107.5761295,-6.9307327,0.0</coordinates>
            </LineString>
        </Placemark>
        <Placemark id="16561">
            <name>Jalan Soekarno-Hatta</name>
            <styleUrl>#16562</styleUrl>
            <LineString id="16560">
                <coordinates>107.6124767,-6.9485183,0.0 107.6126412,-6.9485299,0.0 107.6133504,-6.9485797,0.0 107.6138166,-6.9486125,0.0 107.6139137,-6.9486193,0.0 107.6139666,-6.9486231,0.0 107.6149203,-6.9486901,0.0 107.617101,-6.9488435,0.0 107.6176781,-6.9488841,0.0 107.6184763,-6.9489402,0.0 107.6185979,-6.9489488,0.0 107.619152,-6.9489877,0.0 107.6192839,-6.948997,0.0 107.6196694,-6.9490241,0.0</coordinates>
            </LineString>
        </Placemark>
        <Placemark id="16565">
            <name>Jalan Soekarno-Hatta</name>
            <styleUrl>#16566</styleUrl>
            <LineString id="16564">
                <coordinates>107.6215191,-6.9491613,0.0 107.6215656,-6.9491645,0.0 107.621611,-6.9491677,0.0</coordinates>
            </LineString>
        </Placemark>
        <Placemark id="16569">
            <name>Jalan Soekarno-Hatta</name>
            <styleUrl>#16570</styleUrl>
            <LineString id="16568">
                <coordinates>107.6094101,-6.9482727,0.0 107.6097206,-6.9482923,0.0</coordinates>
            </LineString>
        </Placemark>
        <Placemark id="16573">
            <name>Jalan Soekarno-Hatta</name>
            <styleUrl>#16574</styleUrl>
            <LineString id="16572">
                <coordinates>107.6400988,-6.945893,0.0 107.6404015,-6.9458025,0.0</coordinates>
            </LineString>
        </Placemark>
        <Placemark id="16577">
            <name>Jalan Soekarno-Hatta</name>
            <styleUrl>#16578</styleUrl>
            <LineString id="16576">
                <coordinates>107.6526343,-6.9418642,0.0 107.6528244,-6.9418009,0.0</coordinates>
            </LineString>
        </Placemark>
        <Placemark id="16581">
            <name>Jalan Soekarno-Hatta</name>
            <styleUrl>#16582</styleUrl>
            <LineString id="16580">
                <coordinates>107.6608909,-6.9394147,0.0 107.6611257,-6.9393605,0.0 107.6612045,-6.9393467,0.0 107.6613726,-6.9393143,0.0 107.6619723,-6.9392196,0.0 107.6620066,-6.9392142,0.0 107.6624766,-6.9391418,0.0 107.6629081,-6.9390878,0.0 107.6630544,-6.9390727,0.0 107.6635594,-6.9390207,0.0 107.6638937,-6.9389862,0.0 107.6648393,-6.9388924,0.0 107.6650947,-6.9388715,0.0 107.6656399,-6.9388388,0.0 107.6659038,-6.9388221,0.0 107.6664215,-6.9387937,0.0 107.6665285,-6.9387859,0.0 107.6667061,-6.9387731,0.0 107.6669354,-6.9387522,0.0 107.6672726,-6.938728,0.0 107.6676974,-6.9386975,0.0 107.6677908,-6.938693,0.0 107.6679806,-6.9386798,0.0 107.6682067,-6.9386642,0.0 107.6686684,-6.9386322,0.0 107.6690273,-6.9386024,0.0</coordinates>
            </LineString>
        </Placemark>
        <Placemark id="16585">
            <name>Jalan Soekarno-Hatta</name>
            <styleUrl>#16586</styleUrl>
            <LineString id="16584">
                <coordinates>107.6820516,-6.9376753,0.0 107.6829267,-6.9376226,0.0 107.6830504,-6.9376098,0.0 107.6836806,-6.9375672,0.0 107.6844521,-6.937515,0.0 107.6845012,-6.9375117,0.0</coordinates>
            </LineString>
        </Placemark>
        <Placemark id="16589">
            <name>Jalan Soekarno-Hatta</name>
            <styleUrl>#16590</styleUrl>
            <LineString id="16588">
                <coordinates>107.6811571,-6.9377409,0.0 107.6816983,-6.9377012,0.0 107.6820516,-6.9376753,0.0</coordinates>
            </LineString>
        </Placemark>
        <Placemark id="16593">
            <name>Soekarno Hatta Frontage Boulevard</name>
            <styleUrl>#16594</styleUrl>
            <LineString id="16592">
                <coordinates>107.6773491,-6.9380105,0.0 107.6775994,-6.9379921,0.0 107.6778057,-6.9379781,0.0 107.6784424,-6.9379331,0.0 107.6787487,-6.9379114,0.0 107.6788956,-6.937901,0.0 107.679119,-6.9378852,0.0 107.6794352,-6.9378628,0.0 107.6796089,-6.9378505,0.0 107.6801479,-6.9378123,0.0 107.6803968,-6.9378003,0.0</coordinates>
            </LineString>
        </Placemark>
        <Placemark id="16597">
            <name>Jalan Soekarno-Hatta</name>
            <styleUrl>#16598</styleUrl>
            <LineString id="16596">
                <coordinates>107.6881164,-6.9372393,0.0 107.6883018,-6.9372253,0.0 107.6884215,-6.9372162,0.0 107.6885014,-6.9372102,0.0 107.688678,-6.9371968,0.0 107.6890078,-6.9371718,0.0 107.689552,-6.9371306,0.0 107.6897157,-6.9371182,0.0 107.6900244,-6.9370948,0.0 107.6902435,-6.9370783,0.0 107.6906621,-6.9370418,0.0 107.6907699,-6.9370384,0.0 107.690912,-6.9370277,0.0 107.6912038,-6.9370042,0.0 107.6916934,-6.9369685,0.0 107.6917566,-6.9369649,0.0 107.691802,-6.9369632,0.0 107.691841,-6.9369664,0.0 107.6919976,-6.9369777,0.0</coordinates>
            </LineString>
        </Placemark>
        <Placemark id="16601">
            <name>Jalan Soekarno-Hatta</name>
            <styleUrl>#16602</styleUrl>
            <LineString id="16600">
                <coordinates>107.5756277,-6.9276758,0.0 107.5756662,-6.9279277,0.0 107.575694,-6.9281099,0.0 107.5757563,-6.9285176,0.0 107.5758449,-6.9290977,0.0 107.5759894,-6.9300668,0.0</coordinates>
            </LineString>
        </Placemark>
        <Placemark id="16605">
            <name>Jalan Soekarno-Hatta</name>
            <styleUrl>#16606</styleUrl>
            <LineString id="16604">
                <coordinates>107.5761295,-6.9307327,0.0 107.5762615,-6.9311707,0.0 107.5763049,-6.9313117,0.0 107.5764914,-6.9319172,0.0 107.5765033,-6.9319558,0.0 107.5765867,-6.9321758,0.0 107.5766269,-6.9322818,0.0 107.576671,-6.9323901,0.0 107.5767329,-6.9325425,0.0 107.576819,-6.9327555,0.0 107.576953,-6.9330874,0.0 107.5770589,-6.933306,0.0 107.5771271,-6.9334469,0.0 107.5773591,-6.9339262,0.0 107.5774678,-6.9341351,0.0 107.577519,-6.9342396,0.0 107.5778296,-6.9347499,0.0 107.5783524,-6.9355244,0.0 107.578457,-6.9356736,0.0 107.5788041,-6.9361935,0.0 107.5788416,-6.9362517,0.0 107.5795763,-6.937339,0.0 107.5796223,-6.9374056,0.0 107.5796859,-6.937498,0.0 107.5797906,-6.9376502,0.0 107.579936,-6.937863,0.0 107.5802287,-6.9382866,0.0 107.5803153,-6.9384059,0.0 107.5803728,-6.9384851,0.0 107.5804612,-6.9386169,0.0 107.5805598,-6.9387753,0.0 107.5806433,-6.9388996,0.0 107.5807733,-6.9390932,0.0 107.5807999,-6.9391335,0.0 107.5808244,-6.9391671,0.0 107.580938,-6.9393311,0.0 107.5810191,-6.9394536,0.0 107.5812002,-6.9397265,0.0 107.5815443,-6.9401906,0.0 107.5815743,-6.9402311,0.0 107.5817044,-6.9404068,0.0 107.5818291,-6.9405652,0.0 107.5820397,-6.9408049,0.0 107.5823106,-6.941111,0.0</coordinates>
            </LineString>
        </Placemark>
        <Placemark id="16609">
            <name>Jalan Soekarno-Hatta</name>
            <styleUrl>#16610</styleUrl>
            <LineString id="16608">
                <coordinates>107.6404015,-6.9458025,0.0 107.6404102,-6.9458005,0.0 107.6404977,-6.9457738,0.0 107.6405916,-6.9457492,0.0 107.6406739,-6.9457264,0.0 107.6408783,-6.9456725,0.0 107.6410307,-6.9456323,0.0 107.6411836,-6.9455872,0.0 107.641371,-6.945532,0.0 107.6413988,-6.945524,0.0</coordinates>
            </LineString>
        </Placemark>
        <Placemark id="16613">
            <name>Bunderan Cibeureum</name>
            <styleUrl>#16614</styleUrl>
            <LineString id="16612">
                <coordinates>107.5745791,-6.9171828,0.0 107.5745698,-6.9171316,0.0 107.5745476,-6.9170844,0.0 107.5745269,-6.9170574,0.0 107.5744965,-6.917027,0.0 107.5744371,-6.9169959,0.0</coordinates>
            </LineString>
        </Placemark>
        <Placemark id="16617">
            <name>Jalan Soekarno-Hatta</name>
            <styleUrl>#16618</styleUrl>
            <LineString id="16616">
                <coordinates>107.6742862,-6.9382242,0.0 107.6744202,-6.9382178,0.0</coordinates>
            </LineString>
        </Placemark>
        <Placemark id="16621">
            <name>Jalan Soekarno-Hatta</name>
            <styleUrl>#16622</styleUrl>
            <LineString id="16620">
                <coordinates>107.6728746,-6.9383241,0.0 107.6735519,-6.9382758,0.0 107.673913,-6.9382504,0.0 107.6740809,-6.9382386,0.0 107.6742333,-6.9382279,0.0 107.6742862,-6.9382242,0.0</coordinates>
            </LineString>
        </Placemark>
        <Placemark id="16625">
            <name>Jalan Soekarno-Hatta</name>
            <styleUrl>#16626</styleUrl>
            <LineString id="16624">
                <coordinates>107.6696795,-6.9385517,0.0 107.6698031,-6.9385447,0.0</coordinates>
            </LineString>
        </Placemark>
        <Placemark id="16629">
            <name>Jalan Soekarno-Hatta</name>
            <styleUrl>#16630</styleUrl>
            <LineString id="16628">
                <coordinates>107.6698031,-6.9385447,0.0 107.6698055,-6.9385445,0.0 107.6706974,-6.9384772,0.0 107.6708415,-6.938467,0.0 107.6713626,-6.9384301,0.0 107.6717525,-6.9384018,0.0 107.6719529,-6.938388,0.0 107.6722412,-6.9383679,0.0 107.6725046,-6.9383493,0.0</coordinates>
            </LineString>
        </Placemark>
        <Placemark id="16633">
            <name>Jalan Soekarno-Hatta</name>
            <styleUrl>#16634</styleUrl>
            <LineString id="16632">
                <coordinates>107.6947974,-6.9367477,0.0 107.6951573,-6.936726,0.0</coordinates>
            </LineString>
        </Placemark>
        <Placemark id="16637">
            <name>Jalan Soekarno-Hatta</name>
            <styleUrl>#16638</styleUrl>
            <LineString id="16636">
                <coordinates>107.6973063,-6.9365674,0.0 107.6984942,-6.936486,0.0 107.6987917,-6.9364594,0.0 107.6991752,-6.936429,0.0 107.6992657,-6.936421,0.0 107.6995495,-6.9363973,0.0 107.6996008,-6.9363931,0.0</coordinates>
            </LineString>
        </Placemark>
        <Placemark id="16641">
            <name>Soekarno Hatta Frontage Boulevard</name>
            <styleUrl>#16642</styleUrl>
            <LineString id="16640">
                <coordinates>107.6845012,-6.9375117,0.0 107.6847668,-6.9374899,0.0</coordinates>
            </LineString>
        </Placemark>
        <Placemark id="16645">
            <name>Jalan Soekarno-Hatta</name>
            <styleUrl>#16646</styleUrl>
            <LineString id="16644">
                <coordinates>107.6865016,-6.9373601,0.0 107.6869969,-6.9373231,0.0 107.6875247,-6.9372836,0.0 107.6877514,-6.9372666,0.0 107.6881164,-6.9372393,0.0</coordinates>
            </LineString>
        </Placemark>
        <Placemark id="16649">
            <name>Jalan Soekarno-Hatta</name>
            <styleUrl>#16650</styleUrl>
            <LineString id="16648">
                <coordinates>107.6054387,-6.9480071,0.0 107.6057218,-6.9480258,0.0 107.6059845,-6.9480432,0.0 107.6061148,-6.9480518,0.0 107.6064402,-6.9480733,0.0 107.6065499,-6.9480806,0.0 107.6067107,-6.9480912,0.0 107.6070517,-6.9481138,0.0 107.6072302,-6.9481255,0.0 107.6072587,-6.9481274,0.0 107.6073396,-6.9481328,0.0 107.6077353,-6.9481589,0.0 107.6080187,-6.9481777,0.0 107.6086542,-6.9482197,0.0 107.6089854,-6.9482416,0.0</coordinates>
            </LineString>
        </Placemark>
        <Placemark id="16653">
            <name>Jalan Soekarno-Hatta</name>
            <styleUrl>#16654</styleUrl>
            <LineString id="16652">
                <coordinates>107.6039667,-6.9478945,0.0 107.6041277,-6.947905,0.0</coordinates>
            </LineString>
        </Placemark>
        <Placemark id="16657">
            <name>Jalan Soekarno-Hatta</name>
            <styleUrl>#16658</styleUrl>
            <LineString id="16656">
                <coordinates>107.5744159,-6.9173911,0.0 107.5744169,-6.9175402,0.0 107.5744188,-6.9178179,0.0 107.5744249,-6.9187278,0.0 107.574425,-6.9190065,0.0 107.5744251,-6.9191285,0.0 107.5744252,-6.9193435,0.0 107.5744259,-6.9194121,0.0 107.5744266,-6.9194787,0.0</coordinates>
            </LineString>
        </Placemark>
        <Placemark id="16661">
            <name>Jalan Soekarno-Hatta</name>
            <styleUrl>#16662</styleUrl>
            <LineString id="16660">
                <coordinates>107.5831212,-6.9419015,0.0 107.5831836,-6.9419591,0.0 107.5834599,-6.9422141,0.0 107.5835578,-6.942293,0.0 107.583608,-6.942339,0.0 107.5838985,-6.9425994,0.0 107.5842331,-6.9428621,0.0 107.5842817,-6.9429003,0.0 107.5844282,-6.9430135,0.0</coordinates>
            </LineString>
        </Placemark>
        <Placemark id="16665">
            <name>Jalan Soekarno-Hatta</name>
            <styleUrl>#16666</styleUrl>
            <LineString id="16664">
                <coordinates>107.6558473,-6.9408628,0.0 107.6561907,-6.9407508,0.0</coordinates>
            </LineString>
        </Placemark>
        <Placemark id="16669">
            <name>Jalan Soekarno-Hatta</name>
            <styleUrl>#16670</styleUrl>
            <LineString id="16668">
                <coordinates>107.6528244,-6.9418009,0.0 107.6528692,-6.941787,0.0 107.6529599,-6.9417588,0.0 107.6531033,-6.9417143,0.0 107.6536022,-6.9415595,0.0 107.6539108,-6.9414637,0.0 107.6546859,-6.9412232,0.0 107.6548123,-6.941184,0.0 107.6550822,-6.9411002,0.0 107.6555631,-6.940951,0.0 107.6558473,-6.9408628,0.0</coordinates>
            </LineString>
        </Placemark>
        <Placemark id="16673">
            <name>Jalan Soekarno-Hatta</name>
            <styleUrl>#16674</styleUrl>
            <LineString id="16672">
                <coordinates>107.69298,-6.9368731,0.0 107.6931326,-6.9368608,0.0 107.6934032,-6.9368437,0.0 107.6943211,-6.9367804,0.0</coordinates>
            </LineString>
        </Placemark>
        <Placemark id="16677">
            <name>Jalan Soekarno-Hatta</name>
            <styleUrl>#16678</styleUrl>
            <LineString id="16676">
                <coordinates>107.6249026,-6.9494354,0.0 107.625063,-6.9494435,0.0 107.6251736,-6.9494469,0.0 107.6254122,-6.949452,0.0 107.6255564,-6.949455,0.0 107.6257226,-6.9494585,0.0 107.6258124,-6.9494604,0.0 107.6258467,-6.9494612,0.0 107.6258629,-6.9494614,0.0 107.6259741,-6.9494625,0.0</coordinates>
            </LineString>
        </Placemark>
        <Placemark id="16681">
            <name>Jalan Soekarno-Hatta</name>
            <styleUrl>#16682</styleUrl>
            <LineString id="16680">
                <coordinates>107.6262747,-6.9494594,0.0 107.6263148,-6.9494581,0.0 107.626731,-6.9494396,0.0 107.6268727,-6.9494332,0.0 107.6269742,-6.9494286,0.0 107.6272227,-6.9494137,0.0 107.6274709,-6.9493974,0.0 107.6278794,-6.9493563,0.0 107.627934,-6.9493489,0.0 107.6280918,-6.9493306,0.0 107.6281318,-6.9493252,0.0 107.6282234,-6.9493154,0.0 107.6285395,-6.9492726,0.0 107.6287484,-6.9492381,0.0 107.6289154,-6.9492105,0.0 107.6291337,-6.9491745,0.0 107.6293745,-6.9491302,0.0 107.6294404,-6.9491179,0.0 107.6298246,-6.949046,0.0 107.6301232,-6.94899,0.0 107.6303157,-6.9489398,0.0 107.6307487,-6.9488067,0.0 107.6309791,-6.9487354,0.0</coordinates>
            </LineString>
        </Placemark>
        <Placemark id="16685">
            <name>Jalan Soekarno-Hatta</name>
            <styleUrl>#16686</styleUrl>
            <LineString id="16684">
                <coordinates>107.6097206,-6.9482923,0.0 107.610001,-6.9483188,0.0 107.6115641,-6.9484447,0.0 107.6121553,-6.9484924,0.0 107.6123363,-6.948507,0.0 107.6124434,-6.9485156,0.0 107.6124767,-6.9485183,0.0</coordinates>
            </LineString>
        </Placemark>
        <Placemark id="16689">
            <name>Jalan Soekarno-Hatta</name>
            <styleUrl>#16690</styleUrl>
            <LineString id="16688">
                <coordinates>107.6926303,-6.9369434,0.0 107.6927341,-6.9369416,0.0</coordinates>
            </LineString>
        </Placemark>
        <Placemark id="16693">
            <name>Jalan Soekarno-Hatta</name>
            <styleUrl>#16694</styleUrl>
            <LineString id="16692">
                <coordinates>107.6309791,-6.9487354,0.0 107.6315445,-6.948554,0.0 107.631909,-6.9484347,0.0 107.6321622,-6.9483559,0.0 107.6329015,-6.9481249,0.0 107.6330447,-6.9480758,0.0</coordinates>
            </LineString>
        </Placemark>
        <Placemark id="16697">
            <name>Jalan Soekarno-Hatta</name>
            <styleUrl>#16698</styleUrl>
            <LineString id="16696">
                <coordinates>107.6330447,-6.9480758,0.0 107.633231,-6.9480103,0.0 107.6332967,-6.9479888,0.0</coordinates>
            </LineString>
        </Placemark>
        <Placemark id="16701">
            <name>Jalan Soekarno-Hatta</name>
            <styleUrl>#16702</styleUrl>
            <LineString id="16700">
                <coordinates>107.6332967,-6.9479888,0.0 107.6333973,-6.9479551,0.0</coordinates>
            </LineString>
        </Placemark>
        <Placemark id="16705">
            <name>Jalan Soekarno-Hatta</name>
            <styleUrl>#16706</styleUrl>
            <LineString id="16704">
                <coordinates>107.6487109,-6.9431279,0.0 107.6489694,-6.9430456,0.0 107.6493101,-6.9429332,0.0 107.6495025,-6.9428706,0.0 107.6496409,-6.942824,0.0 107.6499821,-6.9427133,0.0 107.6505153,-6.9425403,0.0 107.6519647,-6.94207,0.0 107.6526343,-6.9418642,0.0</coordinates>
            </LineString>
        </Placemark>
        <Placemark id="16709">
            <name>Jalan Soekarno-Hatta</name>
            <styleUrl>#16710</styleUrl>
            <LineString id="16708">
                <coordinates>107.6413988,-6.945524,0.0 107.641692,-6.9454403,0.0 107.6417778,-6.9454077,0.0 107.641837,-6.9453875,0.0</coordinates>
            </LineString>
        </Placemark>
        <Placemark id="16713">
            <name>Jalan Soekarno-Hatta</name>
            <styleUrl>#16714</styleUrl>
            <LineString id="16712">
                <coordinates>107.6419307,-6.9453525,0.0 107.6419876,-6.9453267,0.0 107.6422973,-6.9452119,0.0</coordinates>
            </LineString>
        </Placemark>
        <Placemark id="16717">
            <name>Jalan Soekarno-Hatta</name>
            <styleUrl>#16718</styleUrl>
            <LineString id="16716">
                <coordinates>107.5753412,-6.9258096,0.0 107.5753962,-6.9261666,0.0 107.5754214,-6.9263298,0.0 107.5754361,-6.9264252,0.0 107.5754783,-6.926699,0.0 107.5754956,-6.9268114,0.0 107.5755137,-6.9269292,0.0</coordinates>
            </LineString>
        </Placemark>
        <Placemark id="16721">
            <name>Bunderan Cibeureum</name>
            <styleUrl>#16722</styleUrl>
            <LineString id="16720">
                <coordinates>107.5745601,-6.9172787,0.0 107.5745248,-6.9173306,0.0 107.5744751,-6.9173693,0.0 107.5744159,-6.9173911,0.0</coordinates>
            </LineString>
        </Placemark>
        <Placemark id="16725">
            <name>Jalan Soekarno-Hatta</name>
            <styleUrl>#16726</styleUrl>
            <LineString id="16724">
                <coordinates>107.5897693,-6.9455492,0.0 107.5898471,-6.9455853,0.0 107.5899638,-6.9456485,0.0</coordinates>
            </LineString>
        </Placemark>
        <Placemark id="16729">
            <name>Jalan Soekarno-Hatta</name>
            <styleUrl>#16730</styleUrl>
            <LineString id="16728">
                <coordinates>107.5760414,-6.9303848,0.0 107.5760593,-6.9304537,0.0</coordinates>
            </LineString>
        </Placemark>
        <Placemark id="16733">
            <name>Jalan Soekarno-Hatta</name>
            <styleUrl>#16734</styleUrl>
            <LineString id="16732">
                <coordinates>107.5894219,-6.9454078,0.0 107.5896531,-6.9454988,0.0 107.5897088,-6.945521,0.0</coordinates>
            </LineString>
        </Placemark>
        <Placemark id="16737">
            <name>Jalan Soekarno-Hatta</name>
            <styleUrl>#16738</styleUrl>
            <LineString id="16736">
                <coordinates>107.6041277,-6.947905,0.0 107.6041522,-6.9479059,0.0 107.6043426,-6.9479195,0.0 107.6047969,-6.9479564,0.0 107.6051067,-6.947983,0.0 107.6051379,-6.9479853,0.0 107.6053226,-6.947999,0.0 107.6054387,-6.9480071,0.0</coordinates>
            </LineString>
        </Placemark>
        <Placemark id="16741">
            <name>Jalan Soekarno-Hatta</name>
            <styleUrl>#16742</styleUrl>
            <LineString id="16740">
                <coordinates>107.6089854,-6.9482416,0.0 107.6094101,-6.9482727,0.0</coordinates>
            </LineString>
        </Placemark>
        <Placemark id="16745">
            <name>Jalan Soekarno-Hatta</name>
            <styleUrl>#16746</styleUrl>
            <LineString id="16744">
                <coordinates>107.5952745,-6.9472037,0.0 107.5954049,-6.9472261,0.0 107.5955093,-6.9472465,0.0</coordinates>
            </LineString>
        </Placemark>
        <Placemark id="16749">
            <name>Jalan Soekarno-Hatta</name>
            <styleUrl>#16750</styleUrl>
            <LineString id="16748">
                <coordinates>107.5849105,-6.9433545,0.0 107.5850407,-6.9434372,0.0 107.5853375,-6.9436258,0.0 107.58577,-6.9438614,0.0 107.5860174,-6.9439945,0.0 107.586299,-6.9441384,0.0 107.5863956,-6.9441848,0.0</coordinates>
            </LineString>
        </Placemark>
        <Placemark id="16753">
            <name>Jalan Soekarno-Hatta</name>
            <styleUrl>#16754</styleUrl>
            <LineString id="16752">
                <coordinates>107.5955093,-6.9472465,0.0 107.5960242,-6.9472981,0.0 107.5960901,-6.9473051,0.0 107.596192,-6.9473128,0.0 107.5964458,-6.9473347,0.0 107.5967222,-6.9473584,0.0 107.5968908,-6.9473718,0.0 107.5973744,-6.9474033,0.0 107.5975687,-6.9474199,0.0 107.5980357,-6.9474645,0.0 107.598288,-6.947504,0.0</coordinates>
            </LineString>
        </Placemark>
        <Placemark id="16757">
            <name>Jalan Soekarno-Hatta</name>
            <styleUrl>#16758</styleUrl>
            <LineString id="16756">
                <coordinates>107.598288,-6.947504,0.0 107.5983813,-6.9475112,0.0 107.59885,-6.9475473,0.0 107.5989661,-6.9475565,0.0 107.5990579,-6.9475634,0.0 107.5992219,-6.9475759,0.0 107.5992807,-6.9475804,0.0 107.5995536,-6.9476014,0.0 107.5996333,-6.9476076,0.0 107.5999206,-6.9476297,0.0 107.5999463,-6.9476316,0.0</coordinates>
            </LineString>
        </Placemark>
        <Placemark id="16761">
            <name>Jalan Soekarno-Hatta</name>
            <styleUrl>#16762</styleUrl>
            <LineString id="16760">
                <coordinates>107.6025818,-6.9478249,0.0 107.602694,-6.9478287,0.0 107.6028213,-6.947833,0.0 107.6029031,-6.9478358,0.0 107.6033305,-6.9478502,0.0 107.6039667,-6.9478945,0.0</coordinates>
            </LineString>
        </Placemark>
        <Placemark id="16765">
            <name>Jalan Elang</name>
            <styleUrl>#16766</styleUrl>
            <LineString id="16764">
                <coordinates>107.5748897,-6.9155407,0.0 107.5748405,-6.9157106,0.0 107.5747136,-6.9160776,0.0 107.5746349,-6.9162861,0.0 107.5745343,-6.9165393,0.0 107.5744542,-6.9167428,0.0 107.5744284,-6.9168081,0.0 107.574422,-6.9168274,0.0 107.5743886,-6.9169098,0.0 107.5743593,-6.9169831,0.0</coordinates>
            </LineString>
        </Placemark>
        <Placemark id="16769">
            <name>Bunderan Cibeureum</name>
            <styleUrl>#16770</styleUrl>
            <LineString id="16768">
                <coordinates>107.5745791,-6.9171828,0.0 107.5745756,-6.9172319,0.0 107.5745601,-6.9172787,0.0</coordinates>
            </LineString>
        </Placemark>
        <Placemark id="16773">
            <name>Jalan Soekarno-Hatta</name>
            <styleUrl>#16774</styleUrl>
            <LineString id="16772">
                <coordinates>107.6000414,-6.9476386,0.0 107.6004105,-6.9476656,0.0 107.6005617,-6.9476767,0.0 107.6008389,-6.9476971,0.0 107.6010847,-6.9477151,0.0 107.6012883,-6.94773,0.0 107.6013862,-6.9477372,0.0 107.6014937,-6.9477451,0.0 107.6016723,-6.9477582,0.0</coordinates>
            </LineString>
        </Placemark>
        <Placemark id="16777">
            <name>Jalan Soekarno-Hatta</name>
            <styleUrl>#16778</styleUrl>
            <LineString id="16776">
                <coordinates>107.5999463,-6.9476316,0.0 107.6000414,-6.9476386,0.0</coordinates>
            </LineString>
        </Placemark>
        <Placemark id="16781">
            <name>Jalan Soekarno-Hatta</name>
            <styleUrl>#16782</styleUrl>
            <LineString id="16780">
                <coordinates>107.6016723,-6.9477582,0.0 107.6022203,-6.9477997,0.0 107.6022466,-6.9478017,0.0 107.6024847,-6.9478198,0.0 107.6025818,-6.9478249,0.0</coordinates>
            </LineString>
        </Placemark>
        <Placemark id="16785">
            <name>Jalan Soekarno-Hatta</name>
            <styleUrl>#16786</styleUrl>
            <LineString id="16784">
                <coordinates>107.6927341,-6.9369416,0.0 107.6928626,-6.9369021,0.0 107.692899,-6.9368894,0.0 107.6929307,-6.9368811,0.0 107.69298,-6.9368731,0.0</coordinates>
            </LineString>
        </Placemark>
        <Placemark id="16789">
            <name>Jalan Soekarno-Hatta</name>
            <styleUrl>#16790</styleUrl>
            <LineString id="16788">
                <coordinates>107.6922068,-6.9369654,0.0 107.6922727,-6.9369622,0.0 107.6923069,-6.9369612,0.0 107.692375,-6.9369561,0.0 107.6925509,-6.9369475,0.0</coordinates>
            </LineString>
        </Placemark>
        <Placemark id="16793">
            <name>Jalan Soekarno-Hatta</name>
            <styleUrl>#16794</styleUrl>
            <LineString id="16792">
                <coordinates>107.6961144,-6.9366546,0.0 107.6971378,-6.936579,0.0</coordinates>
            </LineString>
        </Placemark>
        <Placemark id="16797">
            <name>Jalan Soekarno-Hatta</name>
            <styleUrl>#16798</styleUrl>
            <LineString id="16796">
                <coordinates>107.6951573,-6.936726,0.0 107.6951911,-6.9367244,0.0 107.6961144,-6.9366546,0.0</coordinates>
            </LineString>
        </Placemark>
        <Placemark id="16801">
            <name>Jalan Soekarno-Hatta</name>
            <styleUrl>#16802</styleUrl>
            <LineString id="16800">
                <coordinates>107.7108932,-6.935568,0.0 107.711057,-6.9355562,0.0 107.7114824,-6.9355257,0.0</coordinates>
            </LineString>
        </Placemark>
        <Placemark id="16805">
            <name>Jalan Soekarno-Hatta</name>
            <styleUrl>#16806</styleUrl>
            <LineString id="16804">
                <coordinates>107.706611,-6.935863,0.0 107.7090245,-6.9357014,0.0 107.7099558,-6.9356286,0.0 107.7103429,-6.9355981,0.0</coordinates>
            </LineString>
        </Placemark>
        <Placemark id="16809">
            <name>Bunderan Cibiru</name>
            <styleUrl>#16810</styleUrl>
            <LineString id="16808">
                <coordinates>107.7178073,-6.9347559,0.0 107.7178651,-6.9348009,0.0 107.7179086,-6.9348597,0.0 107.7179346,-6.9349279,0.0 107.7179412,-6.9350006,0.0 107.7179278,-6.9350723,0.0 107.7178955,-6.9351378,0.0 107.7178466,-6.9351923,0.0 107.7177873,-6.9352304,0.0 107.717711,-6.9352563,0.0</coordinates>
            </LineString>
        </Placemark>
        <Placemark id="16813">
            <name>Bunderan Cibiru</name>
            <styleUrl>#16814</styleUrl>
            <LineString id="16812">
                <coordinates>107.7174158,-6.9348982,0.0 107.7174372,-6.9348524,0.0 107.7174825,-6.9347951,0.0 107.7175415,-6.934752,0.0 107.7176101,-6.9347262,0.0 107.7176831,-6.9347196,0.0 107.7177552,-6.9347327,0.0</coordinates>
            </LineString>
        </Placemark>
        <Placemark id="16817">
            <name>Jalan Soekarno-Hatta</name>
            <styleUrl>#16818</styleUrl>
            <LineString id="16816">
                <coordinates>107.715834,-6.9352156,0.0 107.7159897,-6.9352025,0.0 107.7161058,-6.935197,0.0 107.716234,-6.9351888,0.0 107.7164073,-6.9351778,0.0 107.7167791,-6.9351522,0.0 107.7169834,-6.9351648,0.0</coordinates>
            </LineString>
        </Placemark>
        <Placemark id="16821">
            <name>Jalan Soekarno-Hatta</name>
            <styleUrl>#16822</styleUrl>
            <LineString id="16820">
                <coordinates>107.7169834,-6.9351648,0.0 107.7170378,-6.9351616,0.0 107.7170916,-6.9351523,0.0 107.7171439,-6.935137,0.0 107.7171942,-6.9351161,0.0 107.7172418,-6.9350896,0.0 107.7172947,-6.935051,0.0 107.7173419,-6.9350057,0.0 107.7173825,-6.9349544,0.0 107.7174158,-6.9348982,0.0</coordinates>
            </LineString>
        </Placemark>
        <Placemark id="16825">
            <name>Jalan Soekarno-Hatta</name>
            <styleUrl>#16826</styleUrl>
            <LineString id="16824">
                <coordinates>107.5888658,-6.9451811,0.0 107.5890571,-6.9452671,0.0 107.5891029,-6.9452877,0.0 107.5891731,-6.9453141,0.0 107.5893173,-6.9453679,0.0 107.5894219,-6.9454078,0.0</coordinates>
            </LineString>
        </Placemark>
        <Placemark id="16829">
            <name>Jalan Soekarno-Hatta</name>
            <styleUrl>#16830</styleUrl>
            <LineString id="16828">
                <coordinates>107.6744202,-6.9382178,0.0 107.6744746,-6.9382139,0.0 107.6747162,-6.9381971,0.0 107.6753034,-6.9381554,0.0 107.6758906,-6.9381137,0.0 107.6762965,-6.938085,0.0 107.6766901,-6.9380571,0.0 107.6773491,-6.9380105,0.0</coordinates>
            </LineString>
        </Placemark>
        <Placemark id="16833">
            <name>Soekarno Hatta Frontage Boulevard</name>
            <styleUrl>#16834</styleUrl>
            <LineString id="16832">
                <coordinates>107.6803968,-6.9378003,0.0 107.6811571,-6.9377409,0.0</coordinates>
            </LineString>
        </Placemark>
        <Placemark id="16837">
            <name>Soekarno Hatta Frontage Boulevard</name>
            <styleUrl>#16838</styleUrl>
            <LineString id="16836">
                <coordinates>107.6859393,-6.9374022,0.0 107.6862087,-6.937382,0.0 107.6865016,-6.9373601,0.0</coordinates>
            </LineString>
        </Placemark>
        <Placemark id="16841">
            <name>Jalan Soekarno-Hatta</name>
            <styleUrl>#16842</styleUrl>
            <LineString id="16840">
                <coordinates>107.6847668,-6.9374899,0.0 107.684843,-6.9374842,0.0 107.6852525,-6.9374536,0.0 107.6854404,-6.9374395,0.0 107.6857888,-6.9374134,0.0 107.6859053,-6.9374047,0.0 107.6859393,-6.9374022,0.0</coordinates>
            </LineString>
        </Placemark>
        <Placemark id="16845">
            <name>Jalan Soekarno-Hatta</name>
            <styleUrl>#16846</styleUrl>
            <LineString id="16844">
                <coordinates>107.6943211,-6.9367804,0.0 107.6947974,-6.9367477,0.0</coordinates>
            </LineString>
        </Placemark>
        <Placemark id="16849">
            <name>Jalan Soekarno-Hatta</name>
            <styleUrl>#16850</styleUrl>
            <LineString id="16848">
                <coordinates>107.5951948,-6.9471897,0.0 107.5952745,-6.9472037,0.0</coordinates>
            </LineString>
        </Placemark>
        <Placemark id="16853">
            <name>Jalan Soekarno-Hatta</name>
            <styleUrl>#16854</styleUrl>
            <LineString id="16852">
                <coordinates>107.5946801,-6.9470993,0.0 107.5949575,-6.9471456,0.0 107.5950703,-6.9471682,0.0 107.5951948,-6.9471897,0.0</coordinates>
            </LineString>
        </Placemark>
        <Placemark id="16857">
            <name>Jalan Soekarno-Hatta</name>
            <styleUrl>#16858</styleUrl>
            <LineString id="16856">
                <coordinates>107.5920057,-6.9464327,0.0 107.5922205,-6.9465024,0.0 107.5923591,-6.9465464,0.0 107.5924183,-6.9465651,0.0 107.5929217,-6.946706,0.0 107.5930626,-6.9467395,0.0 107.5934341,-6.9468277,0.0</coordinates>
            </LineString>
        </Placemark>
        <Placemark id="16861">
            <name>Jalan Soekarno-Hatta</name>
            <styleUrl>#16862</styleUrl>
            <LineString id="16860">
                <coordinates>107.5899638,-6.9456485,0.0 107.5902641,-6.9457816,0.0 107.5904302,-6.9458446,0.0 107.5905372,-6.9458885,0.0</coordinates>
            </LineString>
        </Placemark>
        <Placemark id="16865">
            <name>Jalan Soekarno-Hatta</name>
            <styleUrl>#16866</styleUrl>
            <LineString id="16864">
                <coordinates>107.6333973,-6.9479551,0.0 107.6334979,-6.9479251,0.0 107.6336406,-6.9478818,0.0</coordinates>
            </LineString>
        </Placemark>
        <Placemark id="16869">
            <name>Jalan Soekarno-Hatta</name>
            <styleUrl>#16870</styleUrl>
            <LineString id="16868">
                <coordinates>107.6690273,-6.9386024,0.0 107.6696239,-6.9385543,0.0 107.6696795,-6.9385517,0.0</coordinates>
            </LineString>
        </Placemark>
        <Placemark id="16873">
            <name>Jalan Soekarno-Hatta</name>
            <styleUrl>#16874</styleUrl>
            <LineString id="16872">
                <coordinates>107.6422973,-6.9452119,0.0 107.6424896,-6.9451552,0.0 107.6425544,-6.9451302,0.0</coordinates>
            </LineString>
        </Placemark>
        <Placemark id="16877">
            <name>Jalan Soekarno-Hatta</name>
            <styleUrl>#16878</styleUrl>
            <LineString id="16876">
                <coordinates>107.6725046,-6.9383493,0.0 107.6727325,-6.9383333,0.0 107.6728746,-6.9383241,0.0</coordinates>
            </LineString>
        </Placemark>
        <Placemark id="16881">
            <name>Jalan Soekarno-Hatta</name>
            <styleUrl>#16882</styleUrl>
            <LineString id="16880">
                <coordinates>107.6214527,-6.9491566,0.0 107.6215191,-6.9491613,0.0</coordinates>
            </LineString>
        </Placemark>
        <Placemark id="16885">
            <name>Jalan Soekarno-Hatta</name>
            <styleUrl>#16886</styleUrl>
            <LineString id="16884">
                <coordinates>107.6196694,-6.9490241,0.0 107.6201873,-6.9490626,0.0 107.6207586,-6.949105,0.0 107.6212731,-6.9491433,0.0 107.6214527,-6.9491566,0.0</coordinates>
            </LineString>
        </Placemark>
        <Placemark id="16889">
            <name>Bunderan Cibeureum</name>
            <styleUrl>#16890</styleUrl>
            <LineString id="16888">
                <coordinates>107.5744371,-6.9169959,0.0 107.5744233,-6.9169939,0.0 107.5743913,-6.9169845,0.0 107.5743593,-6.9169831,0.0</coordinates>
            </LineString>
        </Placemark>
        <Placemark id="16893">
            <name>Jalan Soekarno-Hatta</name>
            <styleUrl>#16894</styleUrl>
            <LineString id="16892">
                <coordinates>107.6469908,-6.9436739,0.0 107.6470631,-6.9436511,0.0 107.6472285,-6.9436003,0.0 107.647308,-6.9435737,0.0 107.6474499,-6.9435262,0.0 107.6477158,-6.9434372,0.0 107.6478935,-6.9433774,0.0 107.6479368,-6.9433624,0.0 107.6480159,-6.9433388,0.0 107.6482339,-6.9432732,0.0 107.6483747,-6.9432308,0.0 107.6486436,-6.9431498,0.0 107.6487109,-6.9431279,0.0</coordinates>
            </LineString>
        </Placemark>
        <Placemark id="16897">
            <name>Jalan Soekarno-Hatta</name>
            <styleUrl>#16898</styleUrl>
            <LineString id="16896">
                <coordinates>107.6450949,-6.9442703,0.0 107.6463553,-6.9438668,0.0 107.6464874,-6.9438278,0.0 107.6467219,-6.9437585,0.0 107.6467855,-6.9437385,0.0 107.6469908,-6.9436739,0.0</coordinates>
            </LineString>
        </Placemark>
        <Placemark id="16901">
            <name>Jalan Soekarno-Hatta</name>
            <styleUrl>#16902</styleUrl>
            <LineString id="16900">
                <coordinates>107.6425544,-6.9451302,0.0 107.6427153,-6.9450569,0.0 107.6428119,-6.9450226,0.0 107.6430412,-6.9449411,0.0 107.6431766,-6.9448945,0.0 107.6433657,-6.9448279,0.0 107.6437224,-6.9447161,0.0 107.6438888,-6.944662,0.0 107.6440102,-6.9446226,0.0 107.644326,-6.94452,0.0 107.6450949,-6.9442703,0.0</coordinates>
            </LineString>
        </Placemark>
        <Placemark id="16905">
            <name>Jalan Soekarno-Hatta</name>
            <styleUrl>#16906</styleUrl>
            <LineString id="16904">
                <coordinates>107.641837,-6.9453875,0.0 107.6419307,-6.9453525,0.0</coordinates>
            </LineString>
        </Placemark>
        <Placemark id="16909">
            <name>Jalan Soekarno-Hatta</name>
            <styleUrl>#16910</styleUrl>
            <LineString id="16908">
                <coordinates>107.5897088,-6.945521,0.0 107.5897693,-6.9455492,0.0</coordinates>
            </LineString>
        </Placemark>
        <Placemark id="16913">
            <name>Jalan Soekarno-Hatta</name>
            <styleUrl>#16914</styleUrl>
            <LineString id="16912">
                <coordinates>107.6593041,-6.939778,0.0 107.659399,-6.9397509,0.0 107.6600931,-6.9395844,0.0 107.6601512,-6.9395718,0.0 107.6605856,-6.9394777,0.0 107.6606611,-6.93946,0.0 107.6608909,-6.9394147,0.0</coordinates>
            </LineString>
        </Placemark>
        <Placemark id="16917">
            <name>Jalan Soekarno-Hatta</name>
            <styleUrl>#16918</styleUrl>
            <LineString id="16916">
                <coordinates>107.6583101,-6.9400779,0.0 107.6584574,-6.9400339,0.0 107.6585694,-6.9399972,0.0 107.6588883,-6.9398952,0.0 107.6589472,-6.9398788,0.0 107.659028,-6.9398534,0.0 107.6591135,-6.9398278,0.0 107.6593041,-6.939778,0.0</coordinates>
            </LineString>
        </Placemark>
        <Placemark id="16921">
            <name>Jalan Soekarno-Hatta</name>
            <styleUrl>#16922</styleUrl>
            <LineString id="16920">
                <coordinates>107.5844282,-6.9430135,0.0 107.584573,-6.9431186,0.0 107.584642,-6.9431671,0.0 107.5847245,-6.9432291,0.0 107.5848895,-6.9433396,0.0 107.5849105,-6.9433545,0.0</coordinates>
            </LineString>
        </Placemark>
        <Placemark id="16925">
            <name>Jalan Soekarno-Hatta</name>
            <styleUrl>#16926</styleUrl>
            <LineString id="16924">
                <coordinates>107.6561907,-6.9407508,0.0 107.6567851,-6.9405596,0.0</coordinates>
            </LineString>
        </Placemark>
        <Placemark id="16929">
            <name>Jalan Soekarno-Hatta</name>
            <styleUrl>#16930</styleUrl>
            <LineString id="16928">
                <coordinates>107.6567851,-6.9405596,0.0 107.6569119,-6.9405212,0.0 107.6569958,-6.9404958,0.0 107.6571017,-6.9404592,0.0 107.6573469,-6.9403813,0.0 107.6575958,-6.9403023,0.0 107.6579317,-6.940197,0.0 107.6582639,-6.9400924,0.0 107.6583101,-6.9400779,0.0</coordinates>
            </LineString>
        </Placemark>
        <Placemark id="16933">
            <name>Jalan Soekarno-Hatta</name>
            <styleUrl>#16934</styleUrl>
            <LineString id="16932">
                <coordinates>107.6259741,-6.9494625,0.0 107.6261145,-6.9494645,0.0 107.6262003,-6.9494625,0.0 107.6262747,-6.9494594,0.0</coordinates>
            </LineString>
        </Placemark>
        <Placemark id="16937">
            <name>Jalan Soekarno-Hatta</name>
            <styleUrl>#16938</styleUrl>
            <LineString id="16936">
                <coordinates>107.5755137,-6.9269292,0.0 107.5756277,-6.9276758,0.0</coordinates>
            </LineString>
        </Placemark>
        <Placemark id="16941">
            <name>Jalan Soekarno-Hatta</name>
            <styleUrl>#16942</styleUrl>
            <LineString id="16940">
                <coordinates>107.5759894,-6.9300668,0.0 107.5760161,-6.9302366,0.0 107.5760359,-6.9303526,0.0 107.5760414,-6.9303848,0.0</coordinates>
            </LineString>
        </Placemark>
        <Placemark id="16945">
            <name>Jalan Soekarno-Hatta</name>
            <styleUrl>#16946</styleUrl>
            <LineString id="16944">
                <coordinates>107.5934341,-6.9468277,0.0 107.5935172,-6.946847,0.0 107.5935575,-6.9468564,0.0 107.5936688,-6.9468823,0.0 107.593986,-6.9469544,0.0 107.5940785,-6.9469738,0.0 107.5941765,-6.9469938,0.0 107.5942182,-6.9470057,0.0 107.5946413,-6.947092,0.0 107.5946801,-6.9470993,0.0</coordinates>
            </LineString>
        </Placemark>
        <Placemark id="16949">
            <name>Jalan Soekarno-Hatta</name>
            <styleUrl>#16950</styleUrl>
            <LineString id="16948">
                <coordinates>107.6996008,-6.9363931,0.0 107.699966,-6.9363616,0.0 107.700517,-6.9363248,0.0 107.700693,-6.9363113,0.0 107.7012853,-6.9362612,0.0</coordinates>
            </LineString>
        </Placemark>
        <Placemark id="16953">
            <name>Jalan Soekarno-Hatta</name>
            <styleUrl>#16954</styleUrl>
            <LineString id="16952">
                <coordinates>107.7012853,-6.9362612,0.0 107.701469,-6.9362517,0.0 107.7016509,-6.9362368,0.0 107.702019,-6.9362066,0.0 107.7022514,-6.9361918,0.0 107.7026383,-6.9361626,0.0 107.7028012,-6.9361504,0.0 107.7028524,-6.9361465,0.0 107.7032813,-6.9361181,0.0 107.703828,-6.9360729,0.0 107.7041754,-6.9360441,0.0 107.7044273,-6.9360277,0.0 107.7048644,-6.9359947,0.0 107.7053936,-6.9359548,0.0 107.7056283,-6.9359371,0.0 107.706611,-6.935863,0.0</coordinates>
            </LineString>
        </Placemark>
        <Placemark id="16957">
            <name>Jalan Soekarno-Hatta</name>
            <styleUrl>#16958</styleUrl>
            <LineString id="16956">
                <coordinates>107.6919976,-6.9369777,0.0 107.6922068,-6.9369654,0.0</coordinates>
            </LineString>
        </Placemark>
        <Placemark id="16961">
            <name>Jalan Soekarno-Hatta</name>
            <styleUrl>#16962</styleUrl>
            <LineString id="16960">
                <coordinates>107.6925509,-6.9369475,0.0 107.6926303,-6.9369434,0.0</coordinates>
            </LineString>
        </Placemark>
        <Placemark id="16965">
            <name>Bunderan Cibiru</name>
            <styleUrl>#16966</styleUrl>
            <LineString id="16964">
                <coordinates>107.7177552,-6.9347327,0.0 107.7178073,-6.9347559,0.0</coordinates>
            </LineString>
        </Placemark>
        <Placemark id="16969">
            <name>Jalan Soekarno-Hatta</name>
            <styleUrl>#16970</styleUrl>
            <LineString id="16968">
                <coordinates>107.7135427,-6.9353696,0.0 107.7147759,-6.9352805,0.0 107.7149213,-6.9352741,0.0 107.7150287,-6.9352693,0.0 107.7154137,-6.9352434,0.0 107.7155024,-6.9352354,0.0 107.715834,-6.9352156,0.0</coordinates>
            </LineString>
        </Placemark>
        <Placemark id="16973">
            <name>Jalan Soekarno-Hatta</name>
            <styleUrl>#16974</styleUrl>
            <LineString id="16972">
                <coordinates>107.7114824,-6.9355257,0.0 107.7133258,-6.9353812,0.0 107.7135427,-6.9353696,0.0</coordinates>
            </LineString>
        </Placemark>
        <Placemark id="16977">
            <name>Jalan Soekarno-Hatta</name>
            <styleUrl>#16978</styleUrl>
            <LineString id="16976">
                <coordinates>107.5823106,-6.941111,0.0 107.582497,-6.9413067,0.0 107.5826593,-6.9414771,0.0 107.5828645,-6.9416649,0.0 107.5831212,-6.9419015,0.0</coordinates>
            </LineString>
        </Placemark>
        <Placemark id="16981">
            <name>Jalan Soekarno-Hatta</name>
            <styleUrl>#16982</styleUrl>
            <LineString id="16980">
                <coordinates>107.717711,-6.9352563,0.0 107.7175908,-6.9352673,0.0</coordinates>
            </LineString>
        </Placemark>
        <Placemark id="16985">
            <name>Jalan Soekarno-Hatta</name>
            <styleUrl>#16986</styleUrl>
            <LineString id="16984">
                <coordinates>107.6971378,-6.936579,0.0 107.6973063,-6.9365674,0.0</coordinates>
            </LineString>
        </Placemark>
        <Placemark id="16989">
            <name>Jalan Soekarno-Hatta</name>
            <styleUrl>#16990</styleUrl>
            <LineString id="16988">
                <coordinates>107.7103429,-6.9355981,0.0 107.7105349,-6.935584,0.0 107.7108932,-6.935568,0.0</coordinates>
            </LineString>
        </Placemark>
    </Document>
</kml>
