<?xml version="1.0" encoding="UTF-8"?>
<kml xmlns="http://www.opengis.net/kml/2.2" xmlns:gx="http://www.google.com/kml/ext/2.2">
    <Document id="69834">
        <Style id="69840">
            <IconStyle id="69841">
                <colorMode>normal</colorMode>
                <scale>1</scale>
                <heading>0</heading>
                <Icon id="69842">
                    <href>http://maps.google.com/mapfiles/kml/pushpin/ylw-pushpin.png</href>
                </Icon>
            </IconStyle>
        </Style>
        <Style id="69845">
            <IconStyle id="69846">
                <colorMode>normal</colorMode>
                <scale>1</scale>
                <heading>0</heading>
                <Icon id="69847">
                    <href>http://maps.google.com/mapfiles/kml/pushpin/ylw-pushpin.png</href>
                </Icon>
            </IconStyle>
        </Style>
        <Style id="69850">
            <LineStyle id="69851">
                <color>ff356615</color>
                <colorMode>normal</colorMode>
                <width>4</width>
            </LineStyle>
        </Style>
        <Style id="69854">
            <LineStyle id="69855">
                <color>ff356615</color>
                <colorMode>normal</colorMode>
                <width>4</width>
            </LineStyle>
        </Style>
        <Style id="69858">
            <LineStyle id="69859">
                <color>ff356615</color>
                <colorMode>normal</colorMode>
                <width>4</width>
            </LineStyle>
        </Style>
        <Style id="69862">
            <LineStyle id="69863">
                <color>ff356615</color>
                <colorMode>normal</colorMode>
                <width>4</width>
            </LineStyle>
        </Style>
        <Style id="69866">
            <LineStyle id="69867">
                <color>ff356615</color>
                <colorMode>normal</colorMode>
                <width>4</width>
            </LineStyle>
        </Style>
        <Style id="69870">
            <LineStyle id="69871">
                <color>ff356615</color>
                <colorMode>normal</colorMode>
                <width>4</width>
            </LineStyle>
        </Style>
        <Style id="69874">
            <LineStyle id="69875">
                <color>ff356615</color>
                <colorMode>normal</colorMode>
                <width>4</width>
            </LineStyle>
        </Style>
        <Style id="69878">
            <LineStyle id="69879">
                <color>ff356615</color>
                <colorMode>normal</colorMode>
                <width>4</width>
            </LineStyle>
        </Style>
        <Style id="69882">
            <LineStyle id="69883">
                <color>ff356615</color>
                <colorMode>normal</colorMode>
                <width>4</width>
            </LineStyle>
        </Style>
        <Style id="69886">
            <LineStyle id="69887">
                <color>ff356615</color>
                <colorMode>normal</colorMode>
                <width>4</width>
            </LineStyle>
        </Style>
        <Style id="69890">
            <LineStyle id="69891">
                <color>ff356615</color>
                <colorMode>normal</colorMode>
                <width>4</width>
            </LineStyle>
        </Style>
        <Style id="69894">
            <LineStyle id="69895">
                <color>ff356615</color>
                <colorMode>normal</colorMode>
                <width>4</width>
            </LineStyle>
        </Style>
        <Style id="69898">
            <LineStyle id="69899">
                <color>ff356615</color>
                <colorMode>normal</colorMode>
                <width>4</width>
            </LineStyle>
        </Style>
        <Style id="69902">
            <LineStyle id="69903">
                <color>ff356615</color>
                <colorMode>normal</colorMode>
                <width>4</width>
            </LineStyle>
        </Style>
        <Style id="69906">
            <LineStyle id="69907">
                <color>ff356615</color>
                <colorMode>normal</colorMode>
                <width>4</width>
            </LineStyle>
        </Style>
        <Style id="69910">
            <LineStyle id="69911">
                <color>ff356615</color>
                <colorMode>normal</colorMode>
                <width>4</width>
            </LineStyle>
        </Style>
        <Style id="69914">
            <LineStyle id="69915">
                <color>ff356615</color>
                <colorMode>normal</colorMode>
                <width>4</width>
            </LineStyle>
        </Style>
        <Style id="69918">
            <LineStyle id="69919">
                <color>ff356615</color>
                <colorMode>normal</colorMode>
                <width>4</width>
            </LineStyle>
        </Style>
        <Style id="69922">
            <LineStyle id="69923">
                <color>ff356615</color>
                <colorMode>normal</colorMode>
                <width>4</width>
            </LineStyle>
        </Style>
        <Style id="69926">
            <LineStyle id="69927">
                <color>ff356615</color>
                <colorMode>normal</colorMode>
                <width>4</width>
            </LineStyle>
        </Style>
        <Style id="69930">
            <LineStyle id="69931">
                <color>ff356615</color>
                <colorMode>normal</colorMode>
                <width>4</width>
            </LineStyle>
        </Style>
        <Style id="69934">
            <LineStyle id="69935">
                <color>ff356615</color>
                <colorMode>normal</colorMode>
                <width>4</width>
            </LineStyle>
        </Style>
        <Style id="69938">
            <LineStyle id="69939">
                <color>ff356615</color>
                <colorMode>normal</colorMode>
                <width>4</width>
            </LineStyle>
        </Style>
        <Style id="69942">
            <LineStyle id="69943">
                <color>ff356615</color>
                <colorMode>normal</colorMode>
                <width>4</width>
            </LineStyle>
        </Style>
        <Style id="69946">
            <LineStyle id="69947">
                <color>ff356615</color>
                <colorMode>normal</colorMode>
                <width>4</width>
            </LineStyle>
        </Style>
        <Style id="69950">
            <LineStyle id="69951">
                <color>ff356615</color>
                <colorMode>normal</colorMode>
                <width>4</width>
            </LineStyle>
        </Style>
        <Style id="69954">
            <LineStyle id="69955">
                <color>ff356615</color>
                <colorMode>normal</colorMode>
                <width>4</width>
            </LineStyle>
        </Style>
        <Style id="69958">
            <LineStyle id="69959">
                <color>ff356615</color>
                <colorMode>normal</colorMode>
                <width>4</width>
            </LineStyle>
        </Style>
        <Style id="69962">
            <LineStyle id="69963">
                <color>ff356615</color>
                <colorMode>normal</colorMode>
                <width>4</width>
            </LineStyle>
        </Style>
        <Style id="69966">
            <LineStyle id="69967">
                <color>ff356615</color>
                <colorMode>normal</colorMode>
                <width>4</width>
            </LineStyle>
        </Style>
        <Style id="69970">
            <LineStyle id="69971">
                <color>ff356615</color>
                <colorMode>normal</colorMode>
                <width>4</width>
            </LineStyle>
        </Style>
        <Style id="69974">
            <LineStyle id="69975">
                <color>ff356615</color>
                <colorMode>normal</colorMode>
                <width>4</width>
            </LineStyle>
        </Style>
        <Style id="69978">
            <LineStyle id="69979">
                <color>ff356615</color>
                <colorMode>normal</colorMode>
                <width>4</width>
            </LineStyle>
        </Style>
        <Style id="69982">
            <LineStyle id="69983">
                <color>ff356615</color>
                <colorMode>normal</colorMode>
                <width>4</width>
            </LineStyle>
        </Style>
        <Style id="69986">
            <LineStyle id="69987">
                <color>ff356615</color>
                <colorMode>normal</colorMode>
                <width>4</width>
            </LineStyle>
        </Style>
        <Style id="69990">
            <LineStyle id="69991">
                <color>ff356615</color>
                <colorMode>normal</colorMode>
                <width>4</width>
            </LineStyle>
        </Style>
        <Style id="69994">
            <LineStyle id="69995">
                <color>ff356615</color>
                <colorMode>normal</colorMode>
                <width>4</width>
            </LineStyle>
        </Style>
        <Style id="69998">
            <LineStyle id="69999">
                <color>ff356615</color>
                <colorMode>normal</colorMode>
                <width>4</width>
            </LineStyle>
        </Style>
        <Style id="70002">
            <LineStyle id="70003">
                <color>ff356615</color>
                <colorMode>normal</colorMode>
                <width>4</width>
            </LineStyle>
        </Style>
        <Style id="70006">
            <LineStyle id="70007">
                <color>ff356615</color>
                <colorMode>normal</colorMode>
                <width>4</width>
            </LineStyle>
        </Style>
        <Style id="70010">
            <LineStyle id="70011">
                <color>ff356615</color>
                <colorMode>normal</colorMode>
                <width>4</width>
            </LineStyle>
        </Style>
        <Style id="70014">
            <LineStyle id="70015">
                <color>ff356615</color>
                <colorMode>normal</colorMode>
                <width>4</width>
            </LineStyle>
        </Style>
        <Style id="70018">
            <LineStyle id="70019">
                <color>ff356615</color>
                <colorMode>normal</colorMode>
                <width>4</width>
            </LineStyle>
        </Style>
        <Style id="70022">
            <LineStyle id="70023">
                <color>ff356615</color>
                <colorMode>normal</colorMode>
                <width>4</width>
            </LineStyle>
        </Style>
        <Style id="70026">
            <LineStyle id="70027">
                <color>ff356615</color>
                <colorMode>normal</colorMode>
                <width>4</width>
            </LineStyle>
        </Style>
        <Style id="70030">
            <LineStyle id="70031">
                <color>ff356615</color>
                <colorMode>normal</colorMode>
                <width>4</width>
            </LineStyle>
        </Style>
        <Style id="70034">
            <LineStyle id="70035">
                <color>ff356615</color>
                <colorMode>normal</colorMode>
                <width>4</width>
            </LineStyle>
        </Style>
        <Style id="70038">
            <LineStyle id="70039">
                <color>ff356615</color>
                <colorMode>normal</colorMode>
                <width>4</width>
            </LineStyle>
        </Style>
        <Style id="70042">
            <LineStyle id="70043">
                <color>ff356615</color>
                <colorMode>normal</colorMode>
                <width>4</width>
            </LineStyle>
        </Style>
        <Style id="70046">
            <LineStyle id="70047">
                <color>ff356615</color>
                <colorMode>normal</colorMode>
                <width>4</width>
            </LineStyle>
        </Style>
        <Style id="70050">
            <LineStyle id="70051">
                <color>ff356615</color>
                <colorMode>normal</colorMode>
                <width>4</width>
            </LineStyle>
        </Style>
        <Style id="70054">
            <LineStyle id="70055">
                <color>ff356615</color>
                <colorMode>normal</colorMode>
                <width>4</width>
            </LineStyle>
        </Style>
        <Style id="70058">
            <LineStyle id="70059">
                <color>ff356615</color>
                <colorMode>normal</colorMode>
                <width>4</width>
            </LineStyle>
        </Style>
        <Style id="70062">
            <LineStyle id="70063">
                <color>ff356615</color>
                <colorMode>normal</colorMode>
                <width>4</width>
            </LineStyle>
        </Style>
        <Style id="70066">
            <LineStyle id="70067">
                <color>ff356615</color>
                <colorMode>normal</colorMode>
                <width>4</width>
            </LineStyle>
        </Style>
        <Style id="70070">
            <LineStyle id="70071">
                <color>ff356615</color>
                <colorMode>normal</colorMode>
                <width>4</width>
            </LineStyle>
        </Style>
        <Style id="70074">
            <LineStyle id="70075">
                <color>ff356615</color>
                <colorMode>normal</colorMode>
                <width>4</width>
            </LineStyle>
        </Style>
        <Style id="70078">
            <LineStyle id="70079">
                <color>ff356615</color>
                <colorMode>normal</colorMode>
                <width>4</width>
            </LineStyle>
        </Style>
        <Style id="70082">
            <LineStyle id="70083">
                <color>ff356615</color>
                <colorMode>normal</colorMode>
                <width>4</width>
            </LineStyle>
        </Style>
        <Style id="70086">
            <LineStyle id="70087">
                <color>ff356615</color>
                <colorMode>normal</colorMode>
                <width>4</width>
            </LineStyle>
        </Style>
        <Style id="70090">
            <LineStyle id="70091">
                <color>ff356615</color>
                <colorMode>normal</colorMode>
                <width>4</width>
            </LineStyle>
        </Style>
        <ExtendedData>
            <Data name="route-name">
                <value>Leuwipanjang → Cimahi</value>
            </Data>
            <Data name="source">
                <value>Transport for Bandung</value>
            </Data>
        </ExtendedData>
        <Placemark id="69839">
            <name>Seberang Terminal Leuwipanjang</name>
            <styleUrl>#69840</styleUrl>
            <Point id="69838">
                <coordinates>107.592997,-6.9469193,0.0</coordinates>
            </Point>
        </Placemark>
        <Placemark id="69844">
            <name>Pasar Antri</name>
            <styleUrl>#69845</styleUrl>
            <Point id="69843">
                <coordinates>107.5379919,-6.8807505,0.0</coordinates>
            </Point>
        </Placemark>
        <Placemark id="69849">
            <name>Jalan Jendral Sudirman</name>
            <styleUrl>#69850</styleUrl>
            <LineString id="69848">
                <coordinates>107.5741991,-6.9172935,0.0 107.5741057,-6.9172433,0.0 107.5739928,-6.9171937,0.0 107.5739676,-6.9171826,0.0 107.5739351,-6.917172,0.0 107.5737577,-6.9170672,0.0 107.57361,-6.916953,0.0 107.5735023,-6.9168687,0.0 107.5731624,-6.916607,0.0 107.5730285,-6.9164995,0.0 107.5725721,-6.916133,0.0</coordinates>
            </LineString>
        </Placemark>
        <Placemark id="69853">
            <name>Jalan Gedung Empat</name>
            <styleUrl>#69854</styleUrl>
            <LineString id="69852">
                <coordinates>107.5429927,-6.8805087,0.0 107.5427079,-6.880374,0.0 107.5426354,-6.8803397,0.0 107.542425,-6.8802474,0.0 107.5421995,-6.8801488,0.0 107.5420171,-6.8800697,0.0 107.5417036,-6.8799337,0.0 107.5411346,-6.8796867,0.0 107.54109,-6.8796691,0.0 107.5406962,-6.8794988,0.0 107.540645,-6.8794767,0.0 107.5405892,-6.8794522,0.0 107.540539,-6.8794301,0.0</coordinates>
            </LineString>
        </Placemark>
        <Placemark id="69857">
            <name>Jalan Gedung Empat</name>
            <styleUrl>#69858</styleUrl>
            <LineString id="69856">
                <coordinates>107.5432961,-6.8803887,0.0 107.5432343,-6.8804621,0.0 107.5432089,-6.8804808,0.0 107.5431878,-6.8804948,0.0 107.5431612,-6.8805057,0.0 107.5431246,-6.8805142,0.0 107.5430651,-6.8805146,0.0 107.5429927,-6.8805087,0.0</coordinates>
            </LineString>
        </Placemark>
        <Placemark id="69861">
            <name>Jalan Jend. H. Amir Machmud</name>
            <styleUrl>#69862</styleUrl>
            <LineString id="69860">
                <coordinates>107.5619186,-6.8987547,0.0 107.561722,-6.8984577,0.0 107.5612358,-6.8977129,0.0 107.5609323,-6.8972252,0.0</coordinates>
            </LineString>
        </Placemark>
        <Placemark id="69865">
            <name>Jalan Soekarno-Hatta</name>
            <styleUrl>#69866</styleUrl>
            <LineString id="69864">
                <coordinates>107.5895751,-6.9456911,0.0 107.5895172,-6.9456683,0.0 107.5893262,-6.9455913,0.0</coordinates>
            </LineString>
        </Placemark>
        <Placemark id="69869">
            <name>Jalan Soekarno-Hatta</name>
            <styleUrl>#69870</styleUrl>
            <LineString id="69868">
                <coordinates>107.5758965,-6.9300827,0.0 107.57589,-6.9300373,0.0 107.5757603,-6.9292592,0.0 107.5756547,-6.9286129,0.0 107.5755467,-6.92786,0.0 107.5754392,-6.9271079,0.0 107.5754153,-6.9269421,0.0</coordinates>
            </LineString>
        </Placemark>
        <Placemark id="69873">
            <name>Jalan Soekarno-Hatta</name>
            <styleUrl>#69874</styleUrl>
            <LineString id="69872">
                <coordinates>107.5829792,-6.9419021,0.0 107.5828343,-6.9417667,0.0 107.5826472,-6.9415943,0.0 107.5825191,-6.9414612,0.0 107.5823656,-6.9412994,0.0 107.5821517,-6.9410625,0.0 107.5821159,-6.9410208,0.0 107.5819058,-6.940788,0.0 107.5815376,-6.9403423,0.0 107.5813405,-6.9400788,0.0 107.5810992,-6.9397324,0.0 107.5810386,-6.9396466,0.0 107.5809044,-6.9394469,0.0 107.580767,-6.9392399,0.0 107.5806266,-6.9390277,0.0 107.5805732,-6.938947,0.0 107.5803271,-6.9385882,0.0 107.5800131,-6.9381376,0.0 107.5798993,-6.9379765,0.0 107.5795452,-6.9374607,0.0 107.5792435,-6.9370194,0.0 107.5790075,-6.9366526,0.0 107.5786923,-6.936176,0.0 107.5786225,-6.936076,0.0 107.5783816,-6.9357321,0.0 107.5779644,-6.9351167,0.0 107.5778937,-6.9350078,0.0 107.5776529,-6.9346197,0.0 107.5774359,-6.9342622,0.0 107.5773742,-6.9341407,0.0 107.5769381,-6.933311,0.0 107.5767071,-6.9327631,0.0 107.5766013,-6.9325102,0.0 107.576479,-6.932218,0.0</coordinates>
            </LineString>
        </Placemark>
        <Placemark id="69877">
            <name>Jalan Soekarno-Hatta</name>
            <styleUrl>#69878</styleUrl>
            <LineString id="69876">
                <coordinates>107.584417,-6.9431127,0.0 107.584274,-6.9430061,0.0</coordinates>
            </LineString>
        </Placemark>
        <Placemark id="69881">
            <name>Jalan Jendral Sudirman</name>
            <styleUrl>#69882</styleUrl>
            <LineString id="69880">
                <coordinates>107.5708773,-6.9135594,0.0 107.5707008,-6.9132508,0.0 107.5705747,-6.9130517,0.0 107.5703429,-6.9126894,0.0</coordinates>
            </LineString>
        </Placemark>
        <Placemark id="69885">
            <name>Jalan Soekarno-Hatta</name>
            <styleUrl>#69886</styleUrl>
            <LineString id="69884">
                <coordinates>107.5750151,-6.9243818,0.0 107.5749916,-6.9241397,0.0 107.5748665,-6.9233028,0.0 107.5748392,-6.9231236,0.0 107.5748317,-6.9230741,0.0 107.5748085,-6.9229569,0.0 107.5747796,-6.9227684,0.0 107.5746727,-6.922073,0.0 107.5745473,-6.9212569,0.0 107.5744906,-6.9209105,0.0 107.5744384,-6.9205542,0.0 107.5743932,-6.9201525,0.0 107.5743484,-6.9197542,0.0 107.5743377,-6.9196051,0.0 107.574331,-6.9194823,0.0</coordinates>
            </LineString>
        </Placemark>
        <Placemark id="69889">
            <name>Jalan Soekarno-Hatta</name>
            <styleUrl>#69890</styleUrl>
            <LineString id="69888">
                <coordinates>107.589865,-6.9458161,0.0 107.5897183,-6.9457513,0.0 107.5896397,-6.9457186,0.0</coordinates>
            </LineString>
        </Placemark>
        <Placemark id="69893">
            <name>Jalan Soekarno-Hatta</name>
            <styleUrl>#69894</styleUrl>
            <LineString id="69892">
                <coordinates>107.592997,-6.9469193,0.0 107.5924922,-6.9467783,0.0 107.5921516,-6.9466864,0.0 107.5920068,-6.9466455,0.0 107.5918917,-6.946617,0.0 107.5916708,-6.9465388,0.0 107.5913956,-6.9464414,0.0 107.5913385,-6.9464212,0.0 107.5911782,-6.9463589,0.0 107.5909136,-6.9462527,0.0 107.5906079,-6.9461252,0.0 107.5904505,-6.9460588,0.0</coordinates>
            </LineString>
        </Placemark>
        <Placemark id="69897">
            <name>Jalan Jend. H. Amir Machmud</name>
            <styleUrl>#69898</styleUrl>
            <LineString id="69896">
                <coordinates>107.5584996,-6.89319,0.0 107.5583845,-6.8929942,0.0 107.5582968,-6.8928484,0.0 107.5582471,-6.892759,0.0 107.558126,-6.8925411,0.0 107.5580399,-6.8924036,0.0 107.5580255,-6.8923792,0.0 107.5579997,-6.8923353,0.0 107.5578961,-6.8921589,0.0 107.557751,-6.8919043,0.0 107.5575682,-6.8915839,0.0 107.557194,-6.8909422,0.0 107.5571049,-6.8907999,0.0 107.5566781,-6.8901125,0.0 107.5566284,-6.8900246,0.0 107.556216,-6.8893169,0.0 107.5561597,-6.8892257,0.0 107.5561065,-6.8891389,0.0 107.5556898,-6.8884357,0.0 107.5556524,-6.888377,0.0</coordinates>
            </LineString>
        </Placemark>
        <Placemark id="69901">
            <name>Jalan Gedung Empat</name>
            <styleUrl>#69902</styleUrl>
            <LineString id="69900">
                <coordinates>107.540539,-6.8794301,0.0 107.5402889,-6.8793189,0.0 107.5401392,-6.8792514,0.0</coordinates>
            </LineString>
        </Placemark>
        <Placemark id="69905">
            <name>Jalan Gatot Subroto</name>
            <styleUrl>#69906</styleUrl>
            <LineString id="69904">
                <coordinates>107.5444652,-6.8783241,0.0 107.544451,-6.8783866,0.0 107.5443515,-6.8785233,0.0 107.5443133,-6.8785759,0.0 107.5441059,-6.8788685,0.0 107.5440248,-6.8789876,0.0 107.5439242,-6.8791339,0.0 107.5438905,-6.8791833,0.0 107.5438142,-6.8792937,0.0 107.5437554,-6.8793795,0.0 107.5437169,-6.8794368,0.0 107.543657,-6.8795243,0.0 107.5434841,-6.879778,0.0 107.5434454,-6.8798383,0.0 107.5433605,-6.8799929,0.0 107.5433193,-6.8801087,0.0 107.5432942,-6.8802472,0.0 107.5432923,-6.8803212,0.0 107.5432961,-6.8803887,0.0</coordinates>
            </LineString>
        </Placemark>
        <Placemark id="69909">
            <name>Jalan Sisingamangaraja</name>
            <styleUrl>#69910</styleUrl>
            <LineString id="69908">
                <coordinates>107.5398287,-6.8791606,0.0 107.5397533,-6.8791348,0.0 107.5395016,-6.8790697,0.0 107.5391401,-6.8789747,0.0 107.5391126,-6.8789597,0.0 107.5390937,-6.8789402,0.0</coordinates>
            </LineString>
        </Placemark>
        <Placemark id="69913">
            <name>Jalan Jend. H. Amir Machmud</name>
            <styleUrl>#69914</styleUrl>
            <LineString id="69912">
                <coordinates>107.5605385,-6.8965689,0.0 107.5604549,-6.8964301,0.0 107.5604095,-6.8963547,0.0</coordinates>
            </LineString>
        </Placemark>
        <Placemark id="69917">
            <name>Route Segment</name>
            <styleUrl>#69918</styleUrl>
            <LineString id="69916">
                <coordinates>107.5390937,-6.8789402,0.0 107.5390857,-6.8789467,0.0 107.5390744,-6.8789553,0.0 107.5390292,-6.8789871,0.0 107.5388206,-6.8790968,0.0 107.5385827,-6.8792246,0.0 107.5382603,-6.8794896,0.0 107.5381814,-6.8795544,0.0</coordinates>
            </LineString>
        </Placemark>
        <Placemark id="69921">
            <name>Jalan Jend. H. Amir Machmud</name>
            <styleUrl>#69922</styleUrl>
            <LineString id="69920">
                <coordinates>107.5600306,-6.895741,0.0 107.5598314,-6.8954093,0.0 107.5597806,-6.8953192,0.0 107.5597514,-6.895268,0.0 107.5597097,-6.8952017,0.0 107.5596795,-6.8951484,0.0 107.5595504,-6.8949421,0.0 107.5594638,-6.8948057,0.0 107.5592798,-6.8945128,0.0 107.5590928,-6.8942163,0.0 107.5589968,-6.8940554,0.0 107.5588448,-6.8937845,0.0 107.5586991,-6.8935235,0.0</coordinates>
            </LineString>
        </Placemark>
        <Placemark id="69925">
            <name>Jalan Soekarno-Hatta</name>
            <styleUrl>#69926</styleUrl>
            <LineString id="69924">
                <coordinates>107.5759595,-6.9304856,0.0 107.575943,-6.930415,0.0</coordinates>
            </LineString>
        </Placemark>
        <Placemark id="69929">
            <name>Jalan Jend. H. Amir Machmud</name>
            <styleUrl>#69930</styleUrl>
            <LineString id="69928">
                <coordinates>107.5470087,-6.8765884,0.0 107.5468201,-6.8764737,0.0 107.5462018,-6.8760976,0.0 107.5461771,-6.8760913,0.0 107.5461516,-6.8760916,0.0 107.546127,-6.8760985,0.0 107.5461059,-6.8761108,0.0 107.5460886,-6.8761279,0.0 107.546043,-6.8761965,0.0 107.5459671,-6.8762377,0.0</coordinates>
            </LineString>
        </Placemark>
        <Placemark id="69933">
            <name>Jalan Sisingamangaraja</name>
            <styleUrl>#69934</styleUrl>
            <LineString id="69932">
                <coordinates>107.5401392,-6.8792514,0.0 107.5400738,-6.8792366,0.0 107.5400159,-6.8792246,0.0</coordinates>
            </LineString>
        </Placemark>
        <Placemark id="69937">
            <name>Route Segment</name>
            <styleUrl>#69938</styleUrl>
            <LineString id="69936">
                <coordinates>107.5374857,-6.8801763,0.0 107.5379919,-6.8807505,0.0</coordinates>
            </LineString>
        </Placemark>
        <Placemark id="69941">
            <name>Jalan Jend. H. Amir Machmud</name>
            <styleUrl>#69942</styleUrl>
            <LineString id="69940">
                <coordinates>107.5471213,-6.876653,0.0 107.5470087,-6.8765884,0.0</coordinates>
            </LineString>
        </Placemark>
        <Placemark id="69945">
            <name>Jalan Jend. H. Amir Machmud</name>
            <styleUrl>#69946</styleUrl>
            <LineString id="69944">
                <coordinates>107.548903,-6.8778074,0.0 107.548341,-6.8774399,0.0 107.54804,-6.8772387,0.0 107.5479168,-6.8771586,0.0 107.5474888,-6.8768836,0.0 107.5471213,-6.876653,0.0</coordinates>
            </LineString>
        </Placemark>
        <Placemark id="69949">
            <name>Jalan Jendral Sudirman</name>
            <styleUrl>#69950</styleUrl>
            <LineString id="69948">
                <coordinates>107.5698951,-6.9119365,0.0 107.5697893,-6.9117669,0.0 107.569777,-6.9117459,0.0 107.5696479,-6.9115248,0.0 107.5696333,-6.9115004,0.0 107.569579,-6.9114097,0.0 107.5692741,-6.9108999,0.0 107.5691136,-6.9106315,0.0 107.5689887,-6.9104164,0.0</coordinates>
            </LineString>
        </Placemark>
        <Placemark id="69953">
            <name>Jalan Jend. H. Amir Machmud</name>
            <styleUrl>#69954</styleUrl>
            <LineString id="69952">
                <coordinates>107.5586991,-6.8935235,0.0 107.5586896,-6.8935077,0.0</coordinates>
            </LineString>
        </Placemark>
        <Placemark id="69957">
            <name>Jalan Jend. H. Amir Machmud</name>
            <styleUrl>#69958</styleUrl>
            <LineString id="69956">
                <coordinates>107.5586388,-6.8934232,0.0 107.5584996,-6.89319,0.0</coordinates>
            </LineString>
        </Placemark>
        <Placemark id="69961">
            <name>Jalan Jendral Sudirman</name>
            <styleUrl>#69962</styleUrl>
            <LineString id="69960">
                <coordinates>107.5715151,-6.9146659,0.0 107.5714243,-6.9145091,0.0 107.571384,-6.9144417,0.0 107.5710851,-6.913941,0.0 107.5709375,-6.9136862,0.0 107.5708773,-6.9135594,0.0</coordinates>
            </LineString>
        </Placemark>
        <Placemark id="69965">
            <name>Jalan Jend. H. Amir Machmud</name>
            <styleUrl>#69966</styleUrl>
            <LineString id="69964">
                <coordinates>107.5532991,-6.8845055,0.0 107.5532758,-6.8844655,0.0 107.5532307,-6.8843827,0.0 107.5531006,-6.8841655,0.0 107.5529605,-6.8839307,0.0 107.5529416,-6.883899,0.0 107.5528472,-6.8837408,0.0 107.5527794,-6.8836271,0.0 107.5527092,-6.8835093,0.0 107.5526121,-6.8833467,0.0 107.5525863,-6.8833033,0.0 107.5524109,-6.8830094,0.0 107.5522959,-6.8828167,0.0 107.5522386,-6.8827206,0.0 107.5521505,-6.8825808,0.0 107.5520864,-6.8824613,0.0 107.5519526,-6.8822389,0.0 107.5518285,-6.882035,0.0 107.5516065,-6.8816734,0.0 107.5515108,-6.8815261,0.0 107.5513286,-6.8812206,0.0 107.5513112,-6.8811893,0.0 107.5510818,-6.8808273,0.0 107.5510407,-6.8807588,0.0 107.5509549,-6.8806153,0.0 107.5507239,-6.8802572,0.0 107.550617,-6.8800913,0.0 107.5505345,-6.8799545,0.0 107.5504164,-6.8797669,0.0 107.5503819,-6.8797123,0.0 107.5503366,-6.8796404,0.0 107.5501318,-6.8792963,0.0 107.5500491,-6.8791569,0.0 107.5499778,-6.8790409,0.0 107.5498734,-6.8788724,0.0 107.5498308,-6.8788036,0.0 107.549812,-6.8787698,0.0</coordinates>
            </LineString>
        </Placemark>
        <Placemark id="69969">
            <name>Jalan Jend. H. Amir Machmud</name>
            <styleUrl>#69970</styleUrl>
            <LineString id="69968">
                <coordinates>107.549812,-6.8787698,0.0 107.5497459,-6.8787214,0.0 107.5497311,-6.8787014,0.0 107.5496078,-6.8784837,0.0 107.5495062,-6.8783419,0.0 107.5493651,-6.8781649,0.0 107.5493436,-6.8781455,0.0</coordinates>
            </LineString>
        </Placemark>
        <Placemark id="69973">
            <name>Jalan Jend. H. Amir Machmud</name>
            <styleUrl>#69974</styleUrl>
            <LineString id="69972">
                <coordinates>107.565673,-6.9049534,0.0 107.5653296,-6.9043922,0.0 107.5651363,-6.9040727,0.0 107.5647726,-6.9034716,0.0 107.5647281,-6.9033981,0.0 107.5646958,-6.9033447,0.0 107.5644297,-6.902905,0.0 107.5643428,-6.9027614,0.0 107.5642879,-6.9026706,0.0 107.5639096,-6.9020454,0.0 107.5636843,-6.9016737,0.0 107.5636389,-6.901598,0.0 107.5635866,-6.9015056,0.0 107.5635485,-6.901452,0.0 107.5635096,-6.9013988,0.0 107.5633165,-6.9010686,0.0 107.5632168,-6.9009003,0.0 107.562808,-6.9002247,0.0 107.5626899,-6.9000295,0.0 107.5625298,-6.8997648,0.0 107.5622867,-6.899363,0.0 107.5622663,-6.8993293,0.0 107.5619186,-6.8987547,0.0</coordinates>
            </LineString>
        </Placemark>
        <Placemark id="69977">
            <name>Jalan Soekarno-Hatta</name>
            <styleUrl>#69978</styleUrl>
            <LineString id="69976">
                <coordinates>107.574331,-6.9194823,0.0 107.574311,-6.919126,0.0 107.5743029,-6.9182666,0.0 107.5743009,-6.9181345,0.0 107.5742921,-6.9175385,0.0 107.5742914,-6.9174917,0.0 107.5742937,-6.9173779,0.0</coordinates>
            </LineString>
        </Placemark>
        <Placemark id="69981">
            <name>Jalan Soekarno-Hatta</name>
            <styleUrl>#69982</styleUrl>
            <LineString id="69980">
                <coordinates>107.584274,-6.9430061,0.0 107.5841772,-6.942931,0.0 107.5839709,-6.9427711,0.0 107.5834854,-6.9423721,0.0</coordinates>
            </LineString>
        </Placemark>
        <Placemark id="69985">
            <name>Jalan Jend. H. Amir Machmud</name>
            <styleUrl>#69986</styleUrl>
            <LineString id="69984">
                <coordinates>107.549261,-6.8780613,0.0 107.5491797,-6.8780009,0.0 107.5490452,-6.8779037,0.0 107.548903,-6.8778074,0.0</coordinates>
            </LineString>
        </Placemark>
        <Placemark id="69989">
            <name>Jalan Jendral Sudirman</name>
            <styleUrl>#69990</styleUrl>
            <LineString id="69988">
                <coordinates>107.5703429,-6.9126894,0.0 107.5701276,-6.9123274,0.0 107.5698951,-6.9119365,0.0</coordinates>
            </LineString>
        </Placemark>
        <Placemark id="69993">
            <name>Jalan Jend. H. Amir Machmud</name>
            <styleUrl>#69994</styleUrl>
            <LineString id="69992">
                <coordinates>107.5556524,-6.888377,0.0 107.5554234,-6.8880103,0.0 107.5552322,-6.8876864,0.0 107.5550315,-6.8873463,0.0 107.5548919,-6.8871098,0.0 107.5548167,-6.8869883,0.0 107.5546245,-6.8866774,0.0 107.5543949,-6.8863155,0.0 107.5541879,-6.8860004,0.0 107.5541319,-6.8859141,0.0 107.5540996,-6.8858644,0.0</coordinates>
            </LineString>
        </Placemark>
        <Placemark id="69997">
            <name>Jalan Jend. H. Amir Machmud</name>
            <styleUrl>#69998</styleUrl>
            <LineString id="69996">
                <coordinates>107.5540996,-6.8858644,0.0 107.5539786,-6.8856737,0.0 107.5538495,-6.8854676,0.0 107.5537567,-6.8853142,0.0 107.5536309,-6.8850994,0.0 107.5533096,-6.8845788,0.0 107.5532991,-6.8845055,0.0</coordinates>
            </LineString>
        </Placemark>
        <Placemark id="70001">
            <name>Jalan Jend. H. Amir Machmud</name>
            <styleUrl>#70002</styleUrl>
            <LineString id="70000">
                <coordinates>107.5493436,-6.8781455,0.0 107.549261,-6.8780613,0.0</coordinates>
            </LineString>
        </Placemark>
        <Placemark id="70005">
            <name>Jalan Soekarno-Hatta</name>
            <styleUrl>#70006</styleUrl>
            <LineString id="70004">
                <coordinates>107.5754153,-6.9269421,0.0 107.5753833,-6.9267408,0.0 107.5753762,-6.9266961,0.0 107.5753118,-6.9262905,0.0 107.5752379,-6.9258248,0.0 107.5750983,-6.9248687,0.0 107.5750637,-6.9246314,0.0</coordinates>
            </LineString>
        </Placemark>
        <Placemark id="70009">
            <name>Jalan Soekarno-Hatta</name>
            <styleUrl>#70010</styleUrl>
            <LineString id="70008">
                <coordinates>107.5750637,-6.9246314,0.0 107.5750151,-6.9243818,0.0</coordinates>
            </LineString>
        </Placemark>
        <Placemark id="70013">
            <name>Jalan Gatot Subroto</name>
            <styleUrl>#70014</styleUrl>
            <LineString id="70012">
                <coordinates>107.5459671,-6.8762377,0.0 107.5458574,-6.8763919,0.0 107.545628,-6.8767142,0.0 107.5453107,-6.8771677,0.0 107.5452289,-6.8772766,0.0 107.5451738,-6.8773525,0.0 107.545096,-6.8774617,0.0 107.5444652,-6.8783241,0.0</coordinates>
            </LineString>
        </Placemark>
        <Placemark id="70017">
            <name>Route Segment</name>
            <styleUrl>#70018</styleUrl>
            <LineString id="70016">
                <coordinates>107.5381814,-6.8795544,0.0 107.53814,-6.8795884,0.0 107.5377405,-6.8799427,0.0 107.5374857,-6.8801763,0.0</coordinates>
            </LineString>
        </Placemark>
        <Placemark id="70021">
            <name>Jalan Sisingamangaraja</name>
            <styleUrl>#70022</styleUrl>
            <LineString id="70020">
                <coordinates>107.5400159,-6.8792246,0.0 107.5398935,-6.8791827,0.0 107.5398287,-6.8791606,0.0</coordinates>
            </LineString>
        </Placemark>
        <Placemark id="70025">
            <name>Jalan Jend. H. Amir Machmud</name>
            <styleUrl>#70026</styleUrl>
            <LineString id="70024">
                <coordinates>107.5586896,-6.8935077,0.0 107.5586388,-6.8934232,0.0</coordinates>
            </LineString>
        </Placemark>
        <Placemark id="70029">
            <name>Jalan Soekarno-Hatta</name>
            <styleUrl>#70030</styleUrl>
            <LineString id="70028">
                <coordinates>107.5887948,-6.9453883,0.0 107.5885801,-6.945301,0.0 107.5879943,-6.9450641,0.0 107.587259,-6.9447649,0.0 107.5871849,-6.9447358,0.0 107.5870163,-6.9446608,0.0 107.5867864,-6.9445625,0.0 107.5867185,-6.9445286,0.0</coordinates>
            </LineString>
        </Placemark>
        <Placemark id="70033">
            <name>Jalan Soekarno-Hatta</name>
            <styleUrl>#70034</styleUrl>
            <LineString id="70032">
                <coordinates>107.5893262,-6.9455913,0.0 107.589053,-6.9454919,0.0 107.5887948,-6.9453883,0.0</coordinates>
            </LineString>
        </Placemark>
        <Placemark id="70037">
            <name>Bunderan Cibeureum</name>
            <styleUrl>#70038</styleUrl>
            <LineString id="70036">
                <coordinates>107.5742937,-6.9173779,0.0 107.5742396,-6.9173432,0.0 107.5741991,-6.9172935,0.0</coordinates>
            </LineString>
        </Placemark>
        <Placemark id="70041">
            <name>Jalan Soekarno-Hatta</name>
            <styleUrl>#70042</styleUrl>
            <LineString id="70040">
                <coordinates>107.5850394,-6.943526,0.0 107.5847447,-6.9433369,0.0 107.5845911,-6.9432329,0.0 107.5845615,-6.9432139,0.0 107.584417,-6.9431127,0.0</coordinates>
            </LineString>
        </Placemark>
        <Placemark id="70045">
            <name>Jalan Soekarno-Hatta</name>
            <styleUrl>#70046</styleUrl>
            <LineString id="70044">
                <coordinates>107.5904505,-6.9460588,0.0 107.5903535,-6.9460161,0.0 107.5901033,-6.9459059,0.0 107.589865,-6.9458161,0.0</coordinates>
            </LineString>
        </Placemark>
        <Placemark id="70049">
            <name>Jalan Soekarno-Hatta</name>
            <styleUrl>#70050</styleUrl>
            <LineString id="70048">
                <coordinates>107.5867185,-6.9445286,0.0 107.5861314,-6.9442147,0.0 107.5860309,-6.9441644,0.0 107.5855178,-6.9438847,0.0 107.5853222,-6.9437698,0.0 107.5851699,-6.9436711,0.0 107.5850394,-6.943526,0.0</coordinates>
            </LineString>
        </Placemark>
        <Placemark id="70053">
            <name>Jalan Soekarno-Hatta</name>
            <styleUrl>#70054</styleUrl>
            <LineString id="70052">
                <coordinates>107.5896397,-6.9457186,0.0 107.5895751,-6.9456911,0.0</coordinates>
            </LineString>
        </Placemark>
        <Placemark id="70057">
            <name>Jalan Soekarno-Hatta</name>
            <styleUrl>#70058</styleUrl>
            <LineString id="70056">
                <coordinates>107.576479,-6.932218,0.0 107.5764599,-6.9321597,0.0 107.576348,-6.931824,0.0 107.5762905,-6.9316298,0.0 107.5761656,-6.9312071,0.0 107.5760418,-6.9307684,0.0</coordinates>
            </LineString>
        </Placemark>
        <Placemark id="70061">
            <name>Jalan Soekarno-Hatta</name>
            <styleUrl>#70062</styleUrl>
            <LineString id="70060">
                <coordinates>107.5760418,-6.9307684,0.0 107.5759903,-6.9305942,0.0 107.5759805,-6.9305597,0.0 107.5759595,-6.9304856,0.0</coordinates>
            </LineString>
        </Placemark>
        <Placemark id="70065">
            <name>Jalan Soekarno-Hatta</name>
            <styleUrl>#70066</styleUrl>
            <LineString id="70064">
                <coordinates>107.575943,-6.930415,0.0 107.5759394,-6.9303894,0.0 107.5758965,-6.9300827,0.0</coordinates>
            </LineString>
        </Placemark>
        <Placemark id="70069">
            <name>Jalan Jendral Sudirman</name>
            <styleUrl>#70070</styleUrl>
            <LineString id="70068">
                <coordinates>107.5725721,-6.916133,0.0 107.5723979,-6.9159874,0.0 107.5723395,-6.9159333,0.0 107.5722759,-6.9158629,0.0 107.5722121,-6.9157842,0.0 107.5721531,-6.915707,0.0 107.5720994,-6.9156231,0.0 107.5720549,-6.9155598,0.0 107.5719123,-6.9153326,0.0 107.5718695,-6.9152634,0.0 107.5717819,-6.9151024,0.0 107.5717255,-6.9150035,0.0 107.5715151,-6.9146659,0.0</coordinates>
            </LineString>
        </Placemark>
        <Placemark id="70073">
            <name>Jalan Soekarno-Hatta</name>
            <styleUrl>#70074</styleUrl>
            <LineString id="70072">
                <coordinates>107.5834854,-6.9423721,0.0 107.5830509,-6.941969,0.0 107.5829792,-6.9419021,0.0</coordinates>
            </LineString>
        </Placemark>
        <Placemark id="70077">
            <name>Jalan Jend. H. Amir Machmud</name>
            <styleUrl>#70078</styleUrl>
            <LineString id="70076">
                <coordinates>107.5603175,-6.8962042,0.0 107.5602833,-6.896152,0.0 107.5600306,-6.895741,0.0</coordinates>
            </LineString>
        </Placemark>
        <Placemark id="70081">
            <name>Jalan Jend. H. Amir Machmud</name>
            <styleUrl>#70082</styleUrl>
            <LineString id="70080">
                <coordinates>107.5609323,-6.8972252,0.0 107.5607448,-6.8969157,0.0 107.5606211,-6.896708,0.0 107.5605385,-6.8965689,0.0</coordinates>
            </LineString>
        </Placemark>
        <Placemark id="70085">
            <name>Jalan Jend. H. Amir Machmud</name>
            <styleUrl>#70086</styleUrl>
            <LineString id="70084">
                <coordinates>107.5604095,-6.8963547,0.0 107.5603175,-6.8962042,0.0</coordinates>
            </LineString>
        </Placemark>
        <Placemark id="70089">
            <name>Jalan Jend. H. Amir Machmud</name>
            <styleUrl>#70090</styleUrl>
            <LineString id="70088">
                <coordinates>107.5689887,-6.9104164,0.0 107.5689617,-6.9103691,0.0 107.5688997,-6.9102637,0.0 107.5688731,-6.910217,0.0 107.5688157,-6.9101246,0.0 107.5686493,-6.9098587,0.0 107.5683186,-6.9093322,0.0 107.5676739,-6.9082679,0.0 107.5674722,-6.9079333,0.0 107.5673325,-6.9077024,0.0 107.5672438,-6.907556,0.0 107.5668478,-6.9069015,0.0 107.5666139,-6.9065148,0.0 107.5664877,-6.9063062,0.0 107.5663055,-6.9060051,0.0 107.5659443,-6.9054074,0.0 107.565924,-6.9053734,0.0 107.565673,-6.9049534,0.0</coordinates>
            </LineString>
        </Placemark>
    </Document>
</kml>
