<?xml version="1.0" encoding="UTF-8"?>
<kml xmlns="http://www.opengis.net/kml/2.2" xmlns:gx="http://www.google.com/kml/ext/2.2">
    <Document id="58537">
        <Style id="58543">
            <IconStyle id="58544">
                <colorMode>normal</colorMode>
                <scale>1</scale>
                <heading>0</heading>
                <Icon id="58545">
                    <href>http://maps.google.com/mapfiles/kml/pushpin/ylw-pushpin.png</href>
                </Icon>
            </IconStyle>
        </Style>
        <Style id="58548">
            <IconStyle id="58549">
                <colorMode>normal</colorMode>
                <scale>1</scale>
                <heading>0</heading>
                <Icon id="58550">
                    <href>http://maps.google.com/mapfiles/kml/pushpin/ylw-pushpin.png</href>
                </Icon>
            </IconStyle>
        </Style>
        <Style id="58553">
            <LineStyle id="58554">
                <color>ffEFAE00</color>
                <colorMode>normal</colorMode>
                <width>4</width>
            </LineStyle>
        </Style>
        <Style id="58557">
            <LineStyle id="58558">
                <color>ffEFAE00</color>
                <colorMode>normal</colorMode>
                <width>4</width>
            </LineStyle>
        </Style>
        <Style id="58561">
            <LineStyle id="58562">
                <color>ffEFAE00</color>
                <colorMode>normal</colorMode>
                <width>4</width>
            </LineStyle>
        </Style>
        <Style id="58565">
            <LineStyle id="58566">
                <color>ffEFAE00</color>
                <colorMode>normal</colorMode>
                <width>4</width>
            </LineStyle>
        </Style>
        <Style id="58569">
            <LineStyle id="58570">
                <color>ffEFAE00</color>
                <colorMode>normal</colorMode>
                <width>4</width>
            </LineStyle>
        </Style>
        <Style id="58573">
            <LineStyle id="58574">
                <color>ffEFAE00</color>
                <colorMode>normal</colorMode>
                <width>4</width>
            </LineStyle>
        </Style>
        <Style id="58577">
            <LineStyle id="58578">
                <color>ffEFAE00</color>
                <colorMode>normal</colorMode>
                <width>4</width>
            </LineStyle>
        </Style>
        <Style id="58581">
            <LineStyle id="58582">
                <color>ffEFAE00</color>
                <colorMode>normal</colorMode>
                <width>4</width>
            </LineStyle>
        </Style>
        <Style id="58585">
            <LineStyle id="58586">
                <color>ffEFAE00</color>
                <colorMode>normal</colorMode>
                <width>4</width>
            </LineStyle>
        </Style>
        <Style id="58589">
            <LineStyle id="58590">
                <color>ffEFAE00</color>
                <colorMode>normal</colorMode>
                <width>4</width>
            </LineStyle>
        </Style>
        <Style id="58593">
            <LineStyle id="58594">
                <color>ffEFAE00</color>
                <colorMode>normal</colorMode>
                <width>4</width>
            </LineStyle>
        </Style>
        <Style id="58597">
            <LineStyle id="58598">
                <color>ffEFAE00</color>
                <colorMode>normal</colorMode>
                <width>4</width>
            </LineStyle>
        </Style>
        <Style id="58601">
            <LineStyle id="58602">
                <color>ffEFAE00</color>
                <colorMode>normal</colorMode>
                <width>4</width>
            </LineStyle>
        </Style>
        <Style id="58605">
            <LineStyle id="58606">
                <color>ffEFAE00</color>
                <colorMode>normal</colorMode>
                <width>4</width>
            </LineStyle>
        </Style>
        <Style id="58609">
            <LineStyle id="58610">
                <color>ffEFAE00</color>
                <colorMode>normal</colorMode>
                <width>4</width>
            </LineStyle>
        </Style>
        <Style id="58613">
            <LineStyle id="58614">
                <color>ffEFAE00</color>
                <colorMode>normal</colorMode>
                <width>4</width>
            </LineStyle>
        </Style>
        <Style id="58617">
            <LineStyle id="58618">
                <color>ffEFAE00</color>
                <colorMode>normal</colorMode>
                <width>4</width>
            </LineStyle>
        </Style>
        <Style id="58621">
            <LineStyle id="58622">
                <color>ffEFAE00</color>
                <colorMode>normal</colorMode>
                <width>4</width>
            </LineStyle>
        </Style>
        <Style id="58625">
            <LineStyle id="58626">
                <color>ffEFAE00</color>
                <colorMode>normal</colorMode>
                <width>4</width>
            </LineStyle>
        </Style>
        <Style id="58629">
            <LineStyle id="58630">
                <color>ffEFAE00</color>
                <colorMode>normal</colorMode>
                <width>4</width>
            </LineStyle>
        </Style>
        <Style id="58633">
            <LineStyle id="58634">
                <color>ffEFAE00</color>
                <colorMode>normal</colorMode>
                <width>4</width>
            </LineStyle>
        </Style>
        <ExtendedData>
            <Data name="route-name">
                <value>Rancamanyar → Baleendah</value>
            </Data>
            <Data name="source">
                <value>Transport for Bandung</value>
            </Data>
        </ExtendedData>
        <Placemark id="58542">
            <name>Rancamanyar</name>
            <styleUrl>#58543</styleUrl>
            <Point id="58541">
                <coordinates>107.5963606,-6.9848701,0.0</coordinates>
            </Point>
        </Placemark>
        <Placemark id="58547">
            <name>Simpang Jembatan Dayeuhkolot</name>
            <styleUrl>#58548</styleUrl>
            <Point id="58546">
                <coordinates>107.625989,-6.9914234,0.0</coordinates>
            </Point>
        </Placemark>
        <Placemark id="58552">
            <name>Jalan Katapang Andir</name>
            <styleUrl>#58553</styleUrl>
            <LineString id="58551">
                <coordinates>107.624058,-6.9899162,0.0 107.6243094,-6.9901119,0.0</coordinates>
            </LineString>
        </Placemark>
        <Placemark id="58556">
            <name>Jalan Katapang Andir</name>
            <styleUrl>#58557</styleUrl>
            <LineString id="58555">
                <coordinates>107.6105064,-6.983197,0.0 107.6106872,-6.9832011,0.0 107.6108373,-6.983195,0.0 107.6108935,-6.9831969,0.0 107.6109269,-6.9831984,0.0 107.61097,-6.9832081,0.0 107.6111751,-6.9831981,0.0 107.6113683,-6.9831998,0.0 107.6115132,-6.9832011,0.0 107.6115627,-6.9832016,0.0 107.6116849,-6.9832026,0.0 107.6117806,-6.983206,0.0 107.6120156,-6.9832104,0.0 107.6121442,-6.9832118,0.0 107.6124519,-6.9832171,0.0 107.6125136,-6.983213,0.0 107.6128093,-6.9832116,0.0 107.6132324,-6.9832181,0.0 107.6133439,-6.9832186,0.0 107.6133781,-6.9832164,0.0 107.6134551,-6.9832183,0.0 107.6141034,-6.9832305,0.0 107.6141736,-6.9832352,0.0 107.6144457,-6.9832493,0.0</coordinates>
            </LineString>
        </Placemark>
        <Placemark id="58560">
            <name>Jalan Katapang Andir</name>
            <styleUrl>#58561</styleUrl>
            <LineString id="58559">
                <coordinates>107.6243094,-6.9901119,0.0 107.6244306,-6.9902134,0.0 107.6245824,-6.9903688,0.0 107.624652,-6.990433,0.0 107.6248329,-6.9905987,0.0 107.6249814,-6.9907206,0.0 107.6250927,-6.9907921,0.0 107.6253167,-6.9909335,0.0 107.62551,-6.9910557,0.0 107.6256329,-6.9911382,0.0 107.6257463,-6.9912107,0.0 107.625779,-6.9912304,0.0 107.6259101,-6.9913109,0.0 107.6259446,-6.9913404,0.0 107.6259761,-6.9913845,0.0 107.625989,-6.9914234,0.0</coordinates>
            </LineString>
        </Placemark>
        <Placemark id="58564">
            <name>Jalan Katapang Andir</name>
            <styleUrl>#58565</styleUrl>
            <LineString id="58563">
                <coordinates>107.6171451,-6.9883761,0.0 107.6172203,-6.9882181,0.0 107.6172667,-6.9881011,0.0 107.6173286,-6.9879628,0.0 107.6173811,-6.9878711,0.0 107.6174682,-6.9877684,0.0 107.6175063,-6.9877303,0.0 107.6176746,-6.9876673,0.0 107.6177351,-6.9876771,0.0 107.6178228,-6.9876913,0.0 107.617965,-6.9877204,0.0 107.618265,-6.9877818,0.0 107.6184336,-6.9878163,0.0 107.6186589,-6.9878776,0.0 107.6187207,-6.9879011,0.0 107.6187991,-6.987931,0.0 107.6189057,-6.9880027,0.0 107.6192732,-6.9882769,0.0 107.6194335,-6.9883938,0.0 107.6194747,-6.988423,0.0 107.6196407,-6.9884806,0.0 107.6197479,-6.9885139,0.0 107.619934,-6.9885512,0.0 107.6201207,-6.9885849,0.0 107.6203225,-6.9886304,0.0 107.6205567,-6.9886762,0.0 107.6206434,-6.9886986,0.0 107.6210921,-6.9888103,0.0 107.6214568,-6.9888987,0.0 107.6216583,-6.9889462,0.0 107.6218756,-6.9889889,0.0 107.6221743,-6.9890532,0.0 107.622221,-6.9890622,0.0 107.6224584,-6.9891124,0.0</coordinates>
            </LineString>
        </Placemark>
        <Placemark id="58568">
            <name>Jalan Katapang Andir</name>
            <styleUrl>#58569</styleUrl>
            <LineString id="58567">
                <coordinates>107.6014916,-6.9831774,0.0 107.601656,-6.9831892,0.0</coordinates>
            </LineString>
        </Placemark>
        <Placemark id="58572">
            <name>Jalan Katapang Andir</name>
            <styleUrl>#58573</styleUrl>
            <LineString id="58571">
                <coordinates>107.5963606,-6.9848701,0.0 107.5967066,-6.9848386,0.0 107.5971814,-6.9847628,0.0 107.597426,-6.9846894,0.0 107.5976529,-6.9846213,0.0 107.5977265,-6.9845929,0.0 107.598,-6.9844872,0.0 107.5981973,-6.9844021,0.0 107.5983105,-6.9843342,0.0 107.5986049,-6.9841651,0.0 107.5991325,-6.983849,0.0 107.5994264,-6.9836753,0.0 107.5994633,-6.9836513,0.0 107.5994928,-6.9836332,0.0 107.5997575,-6.983466,0.0 107.5998783,-6.9833922,0.0 107.5999562,-6.9833551,0.0 107.6000504,-6.9833145,0.0 107.6001799,-6.9833039,0.0 107.6003961,-6.9833059,0.0 107.6005794,-6.983293,0.0 107.6006788,-6.9832813,0.0 107.6008203,-6.9832591,0.0 107.6008952,-6.9832506,0.0 107.6010208,-6.9832296,0.0 107.6011049,-6.9832115,0.0 107.6012696,-6.9831927,0.0 107.6014916,-6.9831774,0.0</coordinates>
            </LineString>
        </Placemark>
        <Placemark id="58576">
            <name>Jalan Katapang Andir</name>
            <styleUrl>#58577</styleUrl>
            <LineString id="58575">
                <coordinates>107.6224584,-6.9891124,0.0 107.6226463,-6.9891567,0.0 107.6227089,-6.9891666,0.0 107.6228144,-6.9891867,0.0 107.6228837,-6.9892125,0.0 107.6229556,-6.9892487,0.0 107.6229726,-6.9892628,0.0 107.6230166,-6.9892993,0.0 107.6230651,-6.9893528,0.0 107.6231133,-6.9894079,0.0 107.6231687,-6.9894768,0.0 107.6232061,-6.9895294,0.0 107.6232576,-6.9895946,0.0 107.6233103,-6.9896442,0.0 107.6233691,-6.9896962,0.0 107.623481,-6.9897543,0.0 107.6235705,-6.9897766,0.0 107.6236583,-6.9897911,0.0 107.6237455,-6.9898138,0.0 107.6238314,-6.9898358,0.0 107.6239507,-6.989859,0.0 107.6240182,-6.989885,0.0 107.624058,-6.9899162,0.0</coordinates>
            </LineString>
        </Placemark>
        <Placemark id="58580">
            <name>Jalan Katapang Andir</name>
            <styleUrl>#58581</styleUrl>
            <LineString id="58579">
                <coordinates>107.6157041,-6.9842963,0.0 107.6157182,-6.9844407,0.0 107.61569,-6.9847722,0.0 107.6156873,-6.9849392,0.0 107.6156813,-6.9853519,0.0</coordinates>
            </LineString>
        </Placemark>
        <Placemark id="58584">
            <name>Jalan Katapang Andir</name>
            <styleUrl>#58585</styleUrl>
            <LineString id="58583">
                <coordinates>107.6145098,-6.9832483,0.0 107.6145398,-6.9832477,0.0 107.6146013,-6.9832437,0.0 107.6146985,-6.9832416,0.0 107.6148711,-6.983247,0.0 107.6149019,-6.9832472,0.0 107.6152312,-6.9832583,0.0 107.6153164,-6.9832557,0.0 107.6154406,-6.9832513,0.0 107.6156223,-6.9832563,0.0 107.6156451,-6.983259,0.0 107.6156675,-6.9832696,0.0 107.6158053,-6.9833731,0.0 107.6158801,-6.9834359,0.0 107.6158892,-6.9834989,0.0 107.6158878,-6.9836254,0.0 107.6158845,-6.9836893,0.0 107.6158188,-6.9838807,0.0 107.6158053,-6.9839156,0.0 107.6157718,-6.9840048,0.0 107.6157504,-6.9840773,0.0 107.6157376,-6.9841512,0.0 107.6157041,-6.9842963,0.0</coordinates>
            </LineString>
        </Placemark>
        <Placemark id="58588">
            <name>Jalan Katapang Andir</name>
            <styleUrl>#58589</styleUrl>
            <LineString id="58587">
                <coordinates>107.6053139,-6.9831649,0.0 107.6055872,-6.9831596,0.0 107.6059814,-6.9831417,0.0 107.6071211,-6.9831487,0.0 107.6075767,-6.9831503,0.0 107.6079484,-6.9831493,0.0 107.6081617,-6.9831494,0.0 107.6087689,-6.9831721,0.0 107.6089831,-6.9831801,0.0 107.6091541,-6.9831881,0.0 107.60945,-6.98319,0.0</coordinates>
            </LineString>
        </Placemark>
        <Placemark id="58592">
            <name>Jalan Katapang Andir</name>
            <styleUrl>#58593</styleUrl>
            <LineString id="58591">
                <coordinates>107.6022622,-6.983191,0.0 107.6024392,-6.9831915,0.0 107.6025811,-6.9831924,0.0</coordinates>
            </LineString>
        </Placemark>
        <Placemark id="58596">
            <name>Jalan Katapang Andir</name>
            <styleUrl>#58597</styleUrl>
            <LineString id="58595">
                <coordinates>107.6016842,-6.9831941,0.0 107.6019095,-6.983198,0.0 107.6020208,-6.9831974,0.0 107.6021415,-6.9831973,0.0 107.6022108,-6.9831946,0.0 107.6022622,-6.983191,0.0</coordinates>
            </LineString>
        </Placemark>
        <Placemark id="58600">
            <name>Jalan Katapang Andir</name>
            <styleUrl>#58601</styleUrl>
            <LineString id="58599">
                <coordinates>107.601656,-6.9831892,0.0 107.6016842,-6.9831941,0.0</coordinates>
            </LineString>
        </Placemark>
        <Placemark id="58604">
            <name>Jalan Katapang Andir</name>
            <styleUrl>#58605</styleUrl>
            <LineString id="58603">
                <coordinates>107.6102954,-6.9832023,0.0 107.6105064,-6.983197,0.0</coordinates>
            </LineString>
        </Placemark>
        <Placemark id="58608">
            <name>Jalan Katapang Andir</name>
            <styleUrl>#58609</styleUrl>
            <LineString id="58607">
                <coordinates>107.6098681,-6.9831938,0.0 107.6102954,-6.9832023,0.0</coordinates>
            </LineString>
        </Placemark>
        <Placemark id="58612">
            <name>Jalan Katapang Andir</name>
            <styleUrl>#58613</styleUrl>
            <LineString id="58611">
                <coordinates>107.6096569,-6.9831939,0.0 107.6098681,-6.9831938,0.0</coordinates>
            </LineString>
        </Placemark>
        <Placemark id="58616">
            <name>Jalan Katapang Andir</name>
            <styleUrl>#58617</styleUrl>
            <LineString id="58615">
                <coordinates>107.60945,-6.98319,0.0 107.6095993,-6.9831954,0.0 107.6096569,-6.9831939,0.0</coordinates>
            </LineString>
        </Placemark>
        <Placemark id="58620">
            <name>Jalan Katapang Andir</name>
            <styleUrl>#58621</styleUrl>
            <LineString id="58619">
                <coordinates>107.6025811,-6.9831924,0.0 107.6028943,-6.9831927,0.0 107.6031833,-6.983195,0.0 107.6032578,-6.9831958,0.0 107.6034357,-6.9831899,0.0 107.6039217,-6.9831833,0.0 107.6040434,-6.9831782,0.0 107.6042336,-6.9831843,0.0 107.6043032,-6.9831844,0.0 107.6045575,-6.9831623,0.0 107.6047286,-6.9831697,0.0 107.6049943,-6.9831707,0.0 107.6053139,-6.9831649,0.0</coordinates>
            </LineString>
        </Placemark>
        <Placemark id="58624">
            <name>Jalan Katapang Andir</name>
            <styleUrl>#58625</styleUrl>
            <LineString id="58623">
                <coordinates>107.6156813,-6.9853519,0.0 107.6156503,-6.9856059,0.0 107.6156378,-6.9857117,0.0 107.6155795,-6.9860473,0.0 107.6155587,-6.9862102,0.0 107.6155392,-6.9863416,0.0 107.61553,-6.9865635,0.0 107.6155199,-6.9866132,0.0 107.615461,-6.9869625,0.0 107.6154532,-6.9869976,0.0 107.6154281,-6.9871144,0.0 107.615396,-6.9872631,0.0 107.615292,-6.9877025,0.0 107.6152775,-6.9877738,0.0 107.6152749,-6.9878139,0.0 107.6152804,-6.9878391,0.0 107.615294,-6.9878551,0.0 107.6153205,-6.9878707,0.0 107.615393,-6.9879027,0.0 107.6154879,-6.9879254,0.0 107.6155416,-6.9879324,0.0 107.6156089,-6.9879481,0.0 107.6158905,-6.9880203,0.0 107.6160637,-6.9880841,0.0 107.6161558,-6.9881197,0.0 107.6162875,-6.9881707,0.0 107.616646,-6.9882856,0.0 107.6170597,-6.9883821,0.0 107.6171115,-6.9883848,0.0 107.6171451,-6.9883761,0.0</coordinates>
            </LineString>
        </Placemark>
        <Placemark id="58628">
            <name>Jalan Katapang Andir</name>
            <styleUrl>#58629</styleUrl>
            <LineString id="58627">
                <coordinates>107.6144555,-6.9832497,0.0 107.6145098,-6.9832483,0.0</coordinates>
            </LineString>
        </Placemark>
        <Placemark id="58632">
            <name>Jalan Katapang Andir</name>
            <styleUrl>#58633</styleUrl>
            <LineString id="58631">
                <coordinates>107.6144457,-6.9832493,0.0 107.6144555,-6.9832497,0.0</coordinates>
            </LineString>
        </Placemark>
    </Document>
</kml>
