<?xml version="1.0" encoding="UTF-8"?>
<kml xmlns="http://www.opengis.net/kml/2.2" xmlns:gx="http://www.google.com/kml/ext/2.2">
    <Document id="63419">
        <Style id="63425">
            <LineStyle id="63426">
                <color>ff353586</color>
                <colorMode>normal</colorMode>
                <width>4</width>
            </LineStyle>
        </Style>
        <Style id="63429">
            <LineStyle id="63430">
                <color>ff353586</color>
                <colorMode>normal</colorMode>
                <width>4</width>
            </LineStyle>
        </Style>
        <Style id="63433">
            <LineStyle id="63434">
                <color>ff353586</color>
                <colorMode>normal</colorMode>
                <width>4</width>
            </LineStyle>
        </Style>
        <Style id="63437">
            <LineStyle id="63438">
                <color>ff353586</color>
                <colorMode>normal</colorMode>
                <width>4</width>
            </LineStyle>
        </Style>
        <Style id="63441">
            <LineStyle id="63442">
                <color>ff353586</color>
                <colorMode>normal</colorMode>
                <width>4</width>
            </LineStyle>
        </Style>
        <Style id="63445">
            <LineStyle id="63446">
                <color>ff353586</color>
                <colorMode>normal</colorMode>
                <width>4</width>
            </LineStyle>
        </Style>
        <Style id="63449">
            <LineStyle id="63450">
                <color>ff353586</color>
                <colorMode>normal</colorMode>
                <width>4</width>
            </LineStyle>
        </Style>
        <Style id="63453">
            <LineStyle id="63454">
                <color>ff353586</color>
                <colorMode>normal</colorMode>
                <width>4</width>
            </LineStyle>
        </Style>
        <Style id="63457">
            <LineStyle id="63458">
                <color>ff353586</color>
                <colorMode>normal</colorMode>
                <width>4</width>
            </LineStyle>
        </Style>
        <Style id="63461">
            <LineStyle id="63462">
                <color>ff353586</color>
                <colorMode>normal</colorMode>
                <width>4</width>
            </LineStyle>
        </Style>
        <Style id="63465">
            <LineStyle id="63466">
                <color>ff353586</color>
                <colorMode>normal</colorMode>
                <width>4</width>
            </LineStyle>
        </Style>
        <Style id="63469">
            <LineStyle id="63470">
                <color>ff353586</color>
                <colorMode>normal</colorMode>
                <width>4</width>
            </LineStyle>
        </Style>
        <Style id="63473">
            <LineStyle id="63474">
                <color>ff353586</color>
                <colorMode>normal</colorMode>
                <width>4</width>
            </LineStyle>
        </Style>
        <Style id="63477">
            <LineStyle id="63478">
                <color>ff353586</color>
                <colorMode>normal</colorMode>
                <width>4</width>
            </LineStyle>
        </Style>
        <Style id="63481">
            <LineStyle id="63482">
                <color>ff353586</color>
                <colorMode>normal</colorMode>
                <width>4</width>
            </LineStyle>
        </Style>
        <Style id="63485">
            <LineStyle id="63486">
                <color>ff353586</color>
                <colorMode>normal</colorMode>
                <width>4</width>
            </LineStyle>
        </Style>
        <Style id="63489">
            <LineStyle id="63490">
                <color>ff353586</color>
                <colorMode>normal</colorMode>
                <width>4</width>
            </LineStyle>
        </Style>
        <Style id="63493">
            <LineStyle id="63494">
                <color>ff353586</color>
                <colorMode>normal</colorMode>
                <width>4</width>
            </LineStyle>
        </Style>
        <Style id="63497">
            <LineStyle id="63498">
                <color>ff353586</color>
                <colorMode>normal</colorMode>
                <width>4</width>
            </LineStyle>
        </Style>
        <Style id="63501">
            <LineStyle id="63502">
                <color>ff353586</color>
                <colorMode>normal</colorMode>
                <width>4</width>
            </LineStyle>
        </Style>
        <Style id="63505">
            <LineStyle id="63506">
                <color>ff353586</color>
                <colorMode>normal</colorMode>
                <width>4</width>
            </LineStyle>
        </Style>
        <Style id="63509">
            <LineStyle id="63510">
                <color>ff353586</color>
                <colorMode>normal</colorMode>
                <width>4</width>
            </LineStyle>
        </Style>
        <Style id="63513">
            <LineStyle id="63514">
                <color>ff353586</color>
                <colorMode>normal</colorMode>
                <width>4</width>
            </LineStyle>
        </Style>
        <Style id="63517">
            <LineStyle id="63518">
                <color>ff353586</color>
                <colorMode>normal</colorMode>
                <width>4</width>
            </LineStyle>
        </Style>
        <Style id="63521">
            <LineStyle id="63522">
                <color>ff353586</color>
                <colorMode>normal</colorMode>
                <width>4</width>
            </LineStyle>
        </Style>
        <Style id="63525">
            <LineStyle id="63526">
                <color>ff353586</color>
                <colorMode>normal</colorMode>
                <width>4</width>
            </LineStyle>
        </Style>
        <Style id="63529">
            <LineStyle id="63530">
                <color>ff353586</color>
                <colorMode>normal</colorMode>
                <width>4</width>
            </LineStyle>
        </Style>
        <Style id="63533">
            <LineStyle id="63534">
                <color>ff353586</color>
                <colorMode>normal</colorMode>
                <width>4</width>
            </LineStyle>
        </Style>
        <Style id="63537">
            <LineStyle id="63538">
                <color>ff353586</color>
                <colorMode>normal</colorMode>
                <width>4</width>
            </LineStyle>
        </Style>
        <Style id="63541">
            <LineStyle id="63542">
                <color>ff353586</color>
                <colorMode>normal</colorMode>
                <width>4</width>
            </LineStyle>
        </Style>
        <Style id="63545">
            <LineStyle id="63546">
                <color>ff353586</color>
                <colorMode>normal</colorMode>
                <width>4</width>
            </LineStyle>
        </Style>
        <Style id="63549">
            <LineStyle id="63550">
                <color>ff353586</color>
                <colorMode>normal</colorMode>
                <width>4</width>
            </LineStyle>
        </Style>
        <Style id="63553">
            <LineStyle id="63554">
                <color>ff353586</color>
                <colorMode>normal</colorMode>
                <width>4</width>
            </LineStyle>
        </Style>
        <Style id="63557">
            <LineStyle id="63558">
                <color>ff353586</color>
                <colorMode>normal</colorMode>
                <width>4</width>
            </LineStyle>
        </Style>
        <Style id="63561">
            <LineStyle id="63562">
                <color>ff353586</color>
                <colorMode>normal</colorMode>
                <width>4</width>
            </LineStyle>
        </Style>
        <Style id="63565">
            <LineStyle id="63566">
                <color>ff353586</color>
                <colorMode>normal</colorMode>
                <width>4</width>
            </LineStyle>
        </Style>
        <Style id="63569">
            <LineStyle id="63570">
                <color>ff353586</color>
                <colorMode>normal</colorMode>
                <width>4</width>
            </LineStyle>
        </Style>
        <Style id="63573">
            <LineStyle id="63574">
                <color>ff353586</color>
                <colorMode>normal</colorMode>
                <width>4</width>
            </LineStyle>
        </Style>
        <Style id="63577">
            <LineStyle id="63578">
                <color>ff353586</color>
                <colorMode>normal</colorMode>
                <width>4</width>
            </LineStyle>
        </Style>
        <Style id="63581">
            <LineStyle id="63582">
                <color>ff353586</color>
                <colorMode>normal</colorMode>
                <width>4</width>
            </LineStyle>
        </Style>
        <Style id="63585">
            <LineStyle id="63586">
                <color>ff353586</color>
                <colorMode>normal</colorMode>
                <width>4</width>
            </LineStyle>
        </Style>
        <Style id="63589">
            <LineStyle id="63590">
                <color>ff353586</color>
                <colorMode>normal</colorMode>
                <width>4</width>
            </LineStyle>
        </Style>
        <Style id="63593">
            <LineStyle id="63594">
                <color>ff353586</color>
                <colorMode>normal</colorMode>
                <width>4</width>
            </LineStyle>
        </Style>
        <Style id="63597">
            <LineStyle id="63598">
                <color>ff353586</color>
                <colorMode>normal</colorMode>
                <width>4</width>
            </LineStyle>
        </Style>
        <Style id="63601">
            <LineStyle id="63602">
                <color>ff353586</color>
                <colorMode>normal</colorMode>
                <width>4</width>
            </LineStyle>
        </Style>
        <Style id="63605">
            <LineStyle id="63606">
                <color>ff353586</color>
                <colorMode>normal</colorMode>
                <width>4</width>
            </LineStyle>
        </Style>
        <Style id="63609">
            <LineStyle id="63610">
                <color>ff353586</color>
                <colorMode>normal</colorMode>
                <width>4</width>
            </LineStyle>
        </Style>
        <Style id="63613">
            <LineStyle id="63614">
                <color>ff353586</color>
                <colorMode>normal</colorMode>
                <width>4</width>
            </LineStyle>
        </Style>
        <Style id="63617">
            <LineStyle id="63618">
                <color>ff353586</color>
                <colorMode>normal</colorMode>
                <width>4</width>
            </LineStyle>
        </Style>
        <Style id="63621">
            <LineStyle id="63622">
                <color>ff353586</color>
                <colorMode>normal</colorMode>
                <width>4</width>
            </LineStyle>
        </Style>
        <Style id="63625">
            <LineStyle id="63626">
                <color>ff353586</color>
                <colorMode>normal</colorMode>
                <width>4</width>
            </LineStyle>
        </Style>
        <Style id="63629">
            <LineStyle id="63630">
                <color>ff353586</color>
                <colorMode>normal</colorMode>
                <width>4</width>
            </LineStyle>
        </Style>
        <Style id="63633">
            <LineStyle id="63634">
                <color>ff353586</color>
                <colorMode>normal</colorMode>
                <width>4</width>
            </LineStyle>
        </Style>
        <Style id="63637">
            <LineStyle id="63638">
                <color>ff353586</color>
                <colorMode>normal</colorMode>
                <width>4</width>
            </LineStyle>
        </Style>
        <Style id="63641">
            <LineStyle id="63642">
                <color>ff353586</color>
                <colorMode>normal</colorMode>
                <width>4</width>
            </LineStyle>
        </Style>
        <Style id="63645">
            <LineStyle id="63646">
                <color>ff353586</color>
                <colorMode>normal</colorMode>
                <width>4</width>
            </LineStyle>
        </Style>
        <Style id="63649">
            <LineStyle id="63650">
                <color>ff353586</color>
                <colorMode>normal</colorMode>
                <width>4</width>
            </LineStyle>
        </Style>
        <Style id="63653">
            <LineStyle id="63654">
                <color>ff353586</color>
                <colorMode>normal</colorMode>
                <width>4</width>
            </LineStyle>
        </Style>
        <Style id="63657">
            <LineStyle id="63658">
                <color>ff353586</color>
                <colorMode>normal</colorMode>
                <width>4</width>
            </LineStyle>
        </Style>
        <Style id="63661">
            <LineStyle id="63662">
                <color>ff353586</color>
                <colorMode>normal</colorMode>
                <width>4</width>
            </LineStyle>
        </Style>
        <Style id="63665">
            <LineStyle id="63666">
                <color>ff353586</color>
                <colorMode>normal</colorMode>
                <width>4</width>
            </LineStyle>
        </Style>
        <Style id="63669">
            <LineStyle id="63670">
                <color>ff353586</color>
                <colorMode>normal</colorMode>
                <width>4</width>
            </LineStyle>
        </Style>
        <Style id="63673">
            <LineStyle id="63674">
                <color>ff353586</color>
                <colorMode>normal</colorMode>
                <width>4</width>
            </LineStyle>
        </Style>
        <Style id="63677">
            <LineStyle id="63678">
                <color>ff353586</color>
                <colorMode>normal</colorMode>
                <width>4</width>
            </LineStyle>
        </Style>
        <Style id="63681">
            <LineStyle id="63682">
                <color>ff353586</color>
                <colorMode>normal</colorMode>
                <width>4</width>
            </LineStyle>
        </Style>
        <Style id="63685">
            <LineStyle id="63686">
                <color>ff353586</color>
                <colorMode>normal</colorMode>
                <width>4</width>
            </LineStyle>
        </Style>
        <Style id="63689">
            <LineStyle id="63690">
                <color>ff353586</color>
                <colorMode>normal</colorMode>
                <width>4</width>
            </LineStyle>
        </Style>
        <Style id="63693">
            <LineStyle id="63694">
                <color>ff353586</color>
                <colorMode>normal</colorMode>
                <width>4</width>
            </LineStyle>
        </Style>
        <Style id="63697">
            <LineStyle id="63698">
                <color>ff353586</color>
                <colorMode>normal</colorMode>
                <width>4</width>
            </LineStyle>
        </Style>
        <Style id="63701">
            <LineStyle id="63702">
                <color>ff353586</color>
                <colorMode>normal</colorMode>
                <width>4</width>
            </LineStyle>
        </Style>
        <Style id="63705">
            <LineStyle id="63706">
                <color>ff353586</color>
                <colorMode>normal</colorMode>
                <width>4</width>
            </LineStyle>
        </Style>
        <Style id="63709">
            <LineStyle id="63710">
                <color>ff353586</color>
                <colorMode>normal</colorMode>
                <width>4</width>
            </LineStyle>
        </Style>
        <Style id="63713">
            <LineStyle id="63714">
                <color>ff353586</color>
                <colorMode>normal</colorMode>
                <width>4</width>
            </LineStyle>
        </Style>
        <Style id="63717">
            <LineStyle id="63718">
                <color>ff353586</color>
                <colorMode>normal</colorMode>
                <width>4</width>
            </LineStyle>
        </Style>
        <Style id="63721">
            <LineStyle id="63722">
                <color>ff353586</color>
                <colorMode>normal</colorMode>
                <width>4</width>
            </LineStyle>
        </Style>
        <Style id="63725">
            <LineStyle id="63726">
                <color>ff353586</color>
                <colorMode>normal</colorMode>
                <width>4</width>
            </LineStyle>
        </Style>
        <Style id="63729">
            <LineStyle id="63730">
                <color>ff353586</color>
                <colorMode>normal</colorMode>
                <width>4</width>
            </LineStyle>
        </Style>
        <Style id="63733">
            <LineStyle id="63734">
                <color>ff353586</color>
                <colorMode>normal</colorMode>
                <width>4</width>
            </LineStyle>
        </Style>
        <Style id="63737">
            <LineStyle id="63738">
                <color>ff353586</color>
                <colorMode>normal</colorMode>
                <width>4</width>
            </LineStyle>
        </Style>
        <Style id="63741">
            <LineStyle id="63742">
                <color>ff353586</color>
                <colorMode>normal</colorMode>
                <width>4</width>
            </LineStyle>
        </Style>
        <Style id="63745">
            <LineStyle id="63746">
                <color>ff353586</color>
                <colorMode>normal</colorMode>
                <width>4</width>
            </LineStyle>
        </Style>
        <Style id="63749">
            <LineStyle id="63750">
                <color>ff353586</color>
                <colorMode>normal</colorMode>
                <width>4</width>
            </LineStyle>
        </Style>
        <Style id="63753">
            <LineStyle id="63754">
                <color>ff353586</color>
                <colorMode>normal</colorMode>
                <width>4</width>
            </LineStyle>
        </Style>
        <Style id="63757">
            <LineStyle id="63758">
                <color>ff353586</color>
                <colorMode>normal</colorMode>
                <width>4</width>
            </LineStyle>
        </Style>
        <Style id="63761">
            <IconStyle id="63762">
                <colorMode>normal</colorMode>
                <scale>1</scale>
                <heading>0</heading>
                <Icon id="63763">
                    <href>http://maps.google.com/mapfiles/kml/pushpin/ylw-pushpin.png</href>
                </Icon>
            </IconStyle>
        </Style>
        <Style id="63766">
            <IconStyle id="63767">
                <colorMode>normal</colorMode>
                <scale>1</scale>
                <heading>0</heading>
                <Icon id="63768">
                    <href>http://maps.google.com/mapfiles/kml/pushpin/ylw-pushpin.png</href>
                </Icon>
            </IconStyle>
        </Style>
        <ExtendedData>
            <Data name="route-name">
                <value>Stasiun Hall → Lembang</value>
            </Data>
            <Data name="source">
                <value>Transport for Bandung</value>
            </Data>
        </ExtendedData>
        <Placemark id="63424">
            <name>Jalan Kebon Kawung</name>
            <styleUrl>#63425</styleUrl>
            <LineString id="63423">
                <coordinates>107.5982527,-6.912368,0.0 107.5981735,-6.9123668,0.0 107.5980964,-6.9123486,0.0 107.5980334,-6.9123085,0.0 107.5979805,-6.912262,0.0</coordinates>
            </LineString>
        </Placemark>
        <Placemark id="63428">
            <name>Jalan Kebon Kawung</name>
            <styleUrl>#63429</styleUrl>
            <LineString id="63427">
                <coordinates>107.6019305,-6.9125353,0.0 107.601745,-6.9125245,0.0</coordinates>
            </LineString>
        </Placemark>
        <Placemark id="63432">
            <name>Jalan Pasir Kaliki</name>
            <styleUrl>#63433</styleUrl>
            <LineString id="63431">
                <coordinates>107.597321,-6.898017,0.0 107.5973143,-6.897839,0.0 107.5973006,-6.8973077,0.0 107.5972936,-6.8969114,0.0 107.5972895,-6.8968371,0.0</coordinates>
            </LineString>
        </Placemark>
        <Placemark id="63436">
            <name>Jalan Sukajadi</name>
            <styleUrl>#63437</styleUrl>
            <LineString id="63435">
                <coordinates>107.5967323,-6.8873957,0.0 107.5967238,-6.8872476,0.0 107.5967027,-6.8868139,0.0 107.5967016,-6.8867916,0.0</coordinates>
            </LineString>
        </Placemark>
        <Placemark id="63440">
            <name>Jalan Sukajadi</name>
            <styleUrl>#63441</styleUrl>
            <LineString id="63439">
                <coordinates>107.5961957,-6.8768743,0.0 107.5961919,-6.8768247,0.0 107.5961498,-6.8762747,0.0 107.5961192,-6.8758667,0.0 107.5960887,-6.8756034,0.0 107.5960697,-6.8754397,0.0 107.5960058,-6.8749813,0.0 107.595994,-6.8749009,0.0 107.5959746,-6.8747745,0.0 107.5958725,-6.8743267,0.0 107.5958215,-6.8741565,0.0 107.5958267,-6.874066,0.0</coordinates>
            </LineString>
        </Placemark>
        <Placemark id="63444">
            <name>Jalan Stasiun Timur</name>
            <styleUrl>#63445</styleUrl>
            <LineString id="63443">
                <coordinates>107.6045889,-6.9148224,0.0 107.6045944,-6.9147921,0.0 107.6046031,-6.9147807,0.0 107.6046151,-6.914765,0.0 107.6046317,-6.9147543,0.0 107.6046427,-6.9147472,0.0 107.6046716,-6.9147379,0.0 107.6047205,-6.914736,0.0 107.6051298,-6.9147855,0.0 107.6064066,-6.9149399,0.0</coordinates>
            </LineString>
        </Placemark>
        <Placemark id="63448">
            <name>Jalan Otto Iskandardinata</name>
            <styleUrl>#63449</styleUrl>
            <LineString id="63447">
                <coordinates>107.604546,-6.9153572,0.0 107.6045814,-6.9149387,0.0 107.6045889,-6.9148224,0.0</coordinates>
            </LineString>
        </Placemark>
        <Placemark id="63452">
            <name>Jalan Sukajadi</name>
            <styleUrl>#63453</styleUrl>
            <LineString id="63451">
                <coordinates>107.5962548,-6.8783299,0.0 107.596246,-6.8780655,0.0 107.5962436,-6.8779934,0.0 107.5962315,-6.8776265,0.0 107.5962243,-6.8774107,0.0</coordinates>
            </LineString>
        </Placemark>
        <Placemark id="63456">
            <name>Jalan Sukajadi</name>
            <styleUrl>#63457</styleUrl>
            <LineString id="63455">
                <coordinates>107.5965234,-6.8840238,0.0 107.5965088,-6.8836453,0.0 107.5965062,-6.8835624,0.0 107.596503,-6.8834688,0.0 107.5964741,-6.8826331,0.0 107.5964702,-6.8825274,0.0 107.5964601,-6.8821498,0.0 107.5964542,-6.8820032,0.0 107.596444,-6.8817861,0.0 107.5964302,-6.8814833,0.0 107.5964257,-6.8813836,0.0 107.5964243,-6.8813611,0.0 107.5963984,-6.8809341,0.0</coordinates>
            </LineString>
        </Placemark>
        <Placemark id="63460">
            <name>Jalan Raya Lembang</name>
            <styleUrl>#63461</styleUrl>
            <LineString id="63459">
                <coordinates>107.6163789,-6.811649,0.0 107.6164088,-6.8116431,0.0 107.6164434,-6.8116425,0.0 107.6164785,-6.8116484,0.0 107.6172038,-6.8119627,0.0 107.6177233,-6.8121782,0.0 107.6178628,-6.8122361,0.0 107.6182268,-6.8123871,0.0 107.6184657,-6.8124862,0.0 107.6189765,-6.8126981,0.0 107.6192366,-6.812806,0.0 107.6193746,-6.8128633,0.0 107.6195757,-6.8129467,0.0 107.6198191,-6.8130587,0.0 107.6200483,-6.8131645,0.0 107.6202088,-6.8132387,0.0 107.620509,-6.8133695,0.0 107.6208577,-6.8135218,0.0 107.6210281,-6.8135974,0.0 107.6212826,-6.8137149,0.0 107.621693,-6.8139141,0.0 107.6217813,-6.8139572,0.0 107.6218897,-6.8140061,0.0 107.6221012,-6.8141122,0.0 107.6227241,-6.8144267,0.0</coordinates>
            </LineString>
        </Placemark>
        <Placemark id="63464">
            <name>Jalan Dr. Setiabudi</name>
            <styleUrl>#63465</styleUrl>
            <LineString id="63463">
                <coordinates>107.5972396,-6.8419928,0.0 107.597156,-6.8420758,0.0 107.597081,-6.8421518,0.0 107.5969999,-6.8422469,0.0 107.5969602,-6.8423081,0.0 107.5969394,-6.8424439,0.0 107.5969511,-6.8425874,0.0 107.5969929,-6.8426633,0.0 107.5971794,-6.8428168,0.0 107.5978666,-6.8432222,0.0 107.5981935,-6.8433919,0.0 107.598666,-6.8435544,0.0 107.598744,-6.8435766,0.0 107.5997463,-6.8438168,0.0 107.6000366,-6.8439169,0.0 107.6001199,-6.8439715,0.0 107.6001867,-6.8440302,0.0 107.6002462,-6.8441552,0.0 107.6002559,-6.8442642,0.0 107.60026,-6.8443082,0.0 107.6002148,-6.8444891,0.0 107.5999705,-6.8446804,0.0 107.5995304,-6.8450352,0.0 107.5994602,-6.845109,0.0 107.5994254,-6.8451695,0.0 107.5993993,-6.8452291,0.0 107.5993949,-6.8452988,0.0 107.5994286,-6.8453854,0.0 107.5995243,-6.8454503,0.0 107.5998737,-6.8455737,0.0 107.5999582,-6.845654,0.0 107.6000063,-6.8457635,0.0 107.5999948,-6.8458209,0.0 107.5999515,-6.8459037,0.0 107.5998321,-6.8460484,0.0 107.5997258,-6.846149,0.0 107.5996211,-6.8462516,0.0 107.5995217,-6.8463522,0.0 107.5993413,-6.8465837,0.0 107.5992419,-6.8469421,0.0 107.599237,-6.8469565,0.0 107.5991586,-6.8472048,0.0 107.5990993,-6.8473345,0.0 107.5990499,-6.8473821,0.0 107.5990174,-6.8474134,0.0 107.5986994,-6.8476219,0.0 107.5985564,-6.8477671,0.0 107.5985017,-6.8478487,0.0 107.5984428,-6.8480271,0.0 107.5984397,-6.8481078,0.0 107.5985003,-6.8486682,0.0 107.5985662,-6.8489421,0.0 107.5985646,-6.8490121,0.0 107.5985403,-6.8490787,0.0 107.5984722,-6.8491591,0.0 107.5984316,-6.8492017,0.0 107.5982937,-6.8492553,0.0 107.5980473,-6.8492358,0.0 107.5976884,-6.8490271,0.0 107.5975167,-6.8489499,0.0 107.5974137,-6.848939,0.0 107.5973128,-6.8489512,0.0 107.5972468,-6.8489841,0.0 107.5972415,-6.8489964,0.0 107.5967559,-6.8511386,0.0 107.5967189,-6.8513147,0.0 107.5965922,-6.8518507,0.0 107.5965542,-6.8520169,0.0 107.5963426,-6.8529191,0.0 107.5963079,-6.8530727,0.0 107.5962736,-6.8532377,0.0 107.595942,-6.8545577,0.0 107.5959267,-6.8546328,0.0 107.5959134,-6.8546967,0.0 107.5958416,-6.8550414,0.0 107.5956822,-6.8557062,0.0 107.5955687,-6.8562544,0.0 107.5955251,-6.8564315,0.0 107.5954205,-6.8568563,0.0 107.5952274,-6.8575969,0.0 107.5951563,-6.8578927,0.0 107.5950049,-6.8584744,0.0</coordinates>
            </LineString>
        </Placemark>
        <Placemark id="63468">
            <name>Jalan Raya Lembang</name>
            <styleUrl>#63469</styleUrl>
            <LineString id="63467">
                <coordinates>107.6142297,-6.8149459,0.0 107.6140036,-6.8153139,0.0 107.6139426,-6.815415,0.0 107.6139121,-6.8154637,0.0 107.6137926,-6.8156552,0.0 107.6137495,-6.8157241,0.0 107.613632,-6.8159073,0.0 107.6131206,-6.8167009,0.0 107.6124629,-6.8177003,0.0 107.6123,-6.8179503,0.0 107.6120431,-6.8183654,0.0 107.6115872,-6.8190806,0.0</coordinates>
            </LineString>
        </Placemark>
        <Placemark id="63472">
            <name>Jalan Panorama</name>
            <styleUrl>#63473</styleUrl>
            <LineString id="63471">
                <coordinates>107.6230265,-6.8147144,0.0 107.6229738,-6.814945,0.0 107.6229166,-6.8151622,0.0 107.6228705,-6.8153302,0.0 107.6228153,-6.8155311,0.0 107.6227602,-6.815749,0.0 107.6226951,-6.8160069,0.0 107.622677,-6.8160656,0.0 107.6226507,-6.8161824,0.0 107.6226326,-6.8162633,0.0 107.6225267,-6.8167108,0.0 107.6224837,-6.816892,0.0 107.6223753,-6.8173275,0.0</coordinates>
            </LineString>
        </Placemark>
        <Placemark id="63476">
            <name>Jalan HOS. Cokroaminoto</name>
            <styleUrl>#63477</styleUrl>
            <LineString id="63475">
                <coordinates>107.5976288,-6.9073749,0.0 107.5975909,-6.9072507,0.0 107.597581,-6.9071682,0.0 107.5975322,-6.9065723,0.0 107.5975328,-6.9064531,0.0</coordinates>
            </LineString>
        </Placemark>
        <Placemark id="63480">
            <name>Jalan HOS. Cokroaminoto</name>
            <styleUrl>#63481</styleUrl>
            <LineString id="63479">
                <coordinates>107.5975495,-6.9063779,0.0 107.5975567,-6.9063376,0.0 107.5975619,-6.9063034,0.0 107.59755,-6.9058209,0.0 107.5975392,-6.9055076,0.0 107.5975466,-6.9054505,0.0 107.5975702,-6.9053954,0.0</coordinates>
            </LineString>
        </Placemark>
        <Placemark id="63484">
            <name>Jalan Kebon Kawung</name>
            <styleUrl>#63485</styleUrl>
            <LineString id="63483">
                <coordinates>107.6041426,-6.9127091,0.0 107.603885,-6.9126611,0.0</coordinates>
            </LineString>
        </Placemark>
        <Placemark id="63488">
            <name>Jalan HOS. Cokroaminoto</name>
            <styleUrl>#63489</styleUrl>
            <LineString id="63487">
                <coordinates>107.5974073,-6.9013528,0.0 107.5973841,-6.9009013,0.0 107.597381,-6.9007859,0.0 107.5973772,-6.900662,0.0</coordinates>
            </LineString>
        </Placemark>
        <Placemark id="63492">
            <name>Jalan Pasir Kaliki</name>
            <styleUrl>#63493</styleUrl>
            <LineString id="63491">
                <coordinates>107.5973503,-6.8989275,0.0 107.5973395,-6.8985629,0.0 107.5973325,-6.8983576,0.0 107.5973274,-6.898195,0.0 107.5973223,-6.8980478,0.0 107.597321,-6.898017,0.0</coordinates>
            </LineString>
        </Placemark>
        <Placemark id="63496">
            <name>Jalan Raya Lembang</name>
            <styleUrl>#63497</styleUrl>
            <LineString id="63495">
                <coordinates>107.6227241,-6.8144267,0.0 107.6229742,-6.8145616,0.0 107.6230037,-6.814587,0.0 107.6230198,-6.8146203,0.0 107.6230212,-6.8146456,0.0 107.6230265,-6.8147144,0.0</coordinates>
            </LineString>
        </Placemark>
        <Placemark id="63500">
            <name>Jalan HOS. Cokroaminoto</name>
            <styleUrl>#63501</styleUrl>
            <LineString id="63499">
                <coordinates>107.5979469,-6.9117824,0.0 107.5979313,-6.9116207,0.0</coordinates>
            </LineString>
        </Placemark>
        <Placemark id="63504">
            <name>Jalan Dr. Setiabudi</name>
            <styleUrl>#63505</styleUrl>
            <LineString id="63503">
                <coordinates>107.5947487,-6.8601046,0.0 107.5947415,-6.8601534,0.0 107.5947299,-6.8602278,0.0 107.5946876,-6.860499,0.0 107.5946834,-6.8605895,0.0 107.594682,-6.8607123,0.0 107.594691,-6.8607829,0.0 107.5947113,-6.8608802,0.0 107.5947543,-6.8609845,0.0 107.5947885,-6.8610543,0.0 107.5948338,-6.861136,0.0 107.5948731,-6.8611888,0.0 107.5949141,-6.8612418,0.0 107.595009,-6.861346,0.0 107.5950885,-6.8614258,0.0 107.5951733,-6.8614881,0.0 107.595248,-6.861538,0.0 107.5954158,-6.8616512,0.0 107.5955484,-6.8617416,0.0 107.5958307,-6.8619379,0.0 107.5959866,-6.8620463,0.0 107.5961672,-6.8621719,0.0 107.5961991,-6.8622073,0.0 107.5962242,-6.8622608,0.0 107.5962237,-6.8623248,0.0 107.5962141,-6.862385,0.0 107.5961999,-6.8624213,0.0 107.5960469,-6.8627747,0.0 107.5959257,-6.8629855,0.0 107.5958359,-6.8630694,0.0 107.5957803,-6.8631238,0.0 107.5957352,-6.8631536,0.0 107.5956823,-6.8631776,0.0 107.5955819,-6.8632153,0.0 107.594751,-6.8634425,0.0</coordinates>
            </LineString>
        </Placemark>
        <Placemark id="63508">
            <name>Jalan Suniaraja</name>
            <styleUrl>#63509</styleUrl>
            <LineString id="63507">
                <coordinates>107.6027081,-6.91612,0.0 107.6031079,-6.9160834,0.0</coordinates>
            </LineString>
        </Placemark>
        <Placemark id="63512">
            <name>Jalan Suniaraja</name>
            <styleUrl>#63513</styleUrl>
            <LineString id="63511">
                <coordinates>107.6024325,-6.9161432,0.0 107.6025481,-6.9161309,0.0 107.6027081,-6.91612,0.0</coordinates>
            </LineString>
        </Placemark>
        <Placemark id="63516">
            <name>Jalan Sukajadi</name>
            <styleUrl>#63517</styleUrl>
            <LineString id="63515">
                <coordinates>107.5967016,-6.8867916,0.0 107.5964324,-6.88604,0.0 107.5964113,-6.8859394,0.0 107.5963989,-6.8858417,0.0 107.5964138,-6.8856254,0.0 107.5964457,-6.8854301,0.0 107.5965693,-6.8848932,0.0</coordinates>
            </LineString>
        </Placemark>
        <Placemark id="63520">
            <name>Jalan Sukajadi</name>
            <styleUrl>#63521</styleUrl>
            <LineString id="63519">
                <coordinates>107.5965291,-6.8842065,0.0 107.5965234,-6.8840238,0.0</coordinates>
            </LineString>
        </Placemark>
        <Placemark id="63524">
            <name>Jalan Pasir Kaliki</name>
            <styleUrl>#63525</styleUrl>
            <LineString id="63523">
                <coordinates>107.5973566,-6.9002078,0.0 107.5973521,-6.9001109,0.0 107.5973452,-6.8999212,0.0</coordinates>
            </LineString>
        </Placemark>
        <Placemark id="63528">
            <name>Jalan Perintis Kemerdekaan</name>
            <styleUrl>#63529</styleUrl>
            <LineString id="63527">
                <coordinates>107.6070945,-6.9151362,0.0 107.6071194,-6.9149776,0.0 107.6071865,-6.9145473,0.0 107.6071931,-6.9145156,0.0</coordinates>
            </LineString>
        </Placemark>
        <Placemark id="63532">
            <name>Jalan Raya Lembang</name>
            <styleUrl>#63533</styleUrl>
            <LineString id="63531">
                <coordinates>107.6115872,-6.8190806,0.0 107.6114096,-6.8193558,0.0 107.6110309,-6.8198952,0.0 107.6109037,-6.8200941,0.0 107.6108672,-6.820158,0.0 107.6107699,-6.8203002,0.0 107.6104246,-6.8206734,0.0 107.6102118,-6.8209096,0.0 107.6100393,-6.8210803,0.0 107.6099882,-6.8211292,0.0 107.6099572,-6.821161,0.0 107.6097639,-6.8213592,0.0 107.6097361,-6.8213877,0.0 107.6096276,-6.8215242,0.0 107.6095323,-6.8216821,0.0 107.609437,-6.8220692,0.0 107.609413,-6.8222279,0.0 107.609413,-6.8222911,0.0 107.6094362,-6.8223502,0.0 107.6095115,-6.8224749,0.0 107.6099843,-6.8227006,0.0 107.6103598,-6.822855,0.0 107.6105831,-6.8229955,0.0 107.610683,-6.8231241,0.0 107.6107098,-6.8232199,0.0 107.6107098,-6.8233318,0.0 107.6106676,-6.8235062,0.0 107.6105187,-6.8239024,0.0 107.6104148,-6.8241114,0.0 107.610225,-6.8243764,0.0 107.6097372,-6.8248788,0.0 107.6093506,-6.8251914,0.0 107.6092551,-6.8252496,0.0 107.6090495,-6.8253392,0.0 107.6089315,-6.8253645,0.0 107.6087061,-6.8253317,0.0 107.608583,-6.8252721,0.0 107.6085183,-6.8252592,0.0 107.6084246,-6.825244,0.0 107.6083615,-6.8252673,0.0 107.6083112,-6.8253157,0.0 107.6079714,-6.8260119,0.0 107.6078056,-6.8262617,0.0 107.6077716,-6.8263141,0.0 107.6077052,-6.8264162,0.0 107.6076321,-6.8265913,0.0 107.6075435,-6.826963,0.0 107.6074858,-6.8271202,0.0 107.6074322,-6.827248,0.0 107.6072347,-6.8275847,0.0 107.6071043,-6.8280074,0.0 107.606994,-6.8281946,0.0 107.6069161,-6.8282738,0.0 107.6068243,-6.828399,0.0 107.6068083,-6.8284496,0.0 107.6068219,-6.8285224,0.0 107.6068785,-6.8286259,0.0 107.6070126,-6.8287952,0.0 107.6070715,-6.8290123,0.0 107.6070647,-6.82932,0.0 107.6070168,-6.8299496,0.0 107.6069407,-6.8303313,0.0 107.6068861,-6.8304906,0.0 107.6067734,-6.8306527,0.0 107.6064686,-6.831018,0.0 107.6060275,-6.8315137,0.0 107.6058651,-6.8316961,0.0 107.6058212,-6.8317439,0.0 107.6056898,-6.8318898,0.0 107.6053932,-6.832226,0.0 107.6053419,-6.8322853,0.0 107.6047615,-6.8329566,0.0 107.6047301,-6.8329924,0.0 107.6046782,-6.8330604,0.0 107.604658,-6.8330869,0.0 107.6045758,-6.8331947,0.0 107.604445,-6.8333661,0.0 107.6042895,-6.8335443,0.0 107.6040805,-6.8337835,0.0 107.6039699,-6.8339229,0.0 107.6036533,-6.8341896,0.0 107.6035444,-6.8342606,0.0 107.6033887,-6.8343067,0.0 107.6033451,-6.8343043,0.0 107.6031829,-6.8342721,0.0 107.6030809,-6.8342235,0.0 107.6029735,-6.8341167,0.0 107.6027199,-6.8339236,0.0 107.602635,-6.8339046,0.0 107.6025344,-6.8339166,0.0 107.6024453,-6.8339772,0.0 107.6024044,-6.8340271,0.0 107.6023655,-6.8341776,0.0 107.6023507,-6.8343294,0.0 107.6023109,-6.8344584,0.0 107.6021388,-6.834593,0.0 107.6020007,-6.8346356,0.0 107.6019162,-6.8346276,0.0 107.6017539,-6.8345824,0.0 107.6016413,-6.8345904,0.0 107.6015876,-6.8346237,0.0 107.6015434,-6.8346756,0.0 107.6015058,-6.8347515,0.0 107.6014911,-6.8348327,0.0 107.6015125,-6.834898,0.0 107.6015528,-6.8349552,0.0 107.6015916,-6.8349978,0.0 107.6019457,-6.8352482,0.0 107.6020275,-6.8353254,0.0 107.602057,-6.8353906,0.0 107.6020476,-6.8355358,0.0 107.6019977,-6.8356196,0.0 107.6019293,-6.8356815,0.0 107.6018216,-6.8357251,0.0 107.6016658,-6.8357562,0.0 107.6010726,-6.8357928,0.0 107.6009372,-6.8358141,0.0 107.6008178,-6.835866,0.0 107.6006019,-6.8359885,0.0 107.6004919,-6.8360165,0.0 107.6002522,-6.8359712,0.0 107.6000212,-6.8359419,0.0 107.599863,-6.8359952,0.0 107.5994875,-6.836344,0.0 107.5991294,-6.8365331,0.0 107.5990529,-6.8366317,0.0 107.5990161,-6.8366947,0.0 107.5989296,-6.8368567,0.0 107.598888,-6.8369872,0.0 107.5988612,-6.8372082,0.0 107.5988772,-6.8373108,0.0 107.5989242,-6.8373947,0.0 107.5990268,-6.8375211,0.0 107.5992943,-6.8377901,0.0 107.5993359,-6.8378714,0.0 107.5993688,-6.8380052,0.0 107.599352,-6.838105,0.0 107.5993077,-6.8382329,0.0 107.5992568,-6.8383041,0.0 107.599185,-6.838356,0.0 107.599126,-6.838378,0.0 107.5990456,-6.8383913,0.0 107.5985668,-6.8384053,0.0 107.5984072,-6.838483,0.0 107.5983186,-6.8385315,0.0 107.5981993,-6.8386423,0.0 107.5981222,-6.8387622,0.0 107.5980927,-6.8388361,0.0 107.5980793,-6.8388979,0.0 107.5980833,-6.8390731,0.0 107.5981423,-6.8392602,0.0 107.5981691,-6.8393814,0.0 107.5981651,-6.8394712,0.0 107.5981443,-6.8395278,0.0 107.5980612,-6.8396017,0.0 107.5979747,-6.839633,0.0 107.5975093,-6.8396157,0.0 107.597398,-6.8396889,0.0 107.5973403,-6.8397489,0.0 107.5972975,-6.8398294,0.0 107.5972304,-6.8400578,0.0 107.5972116,-6.8402135,0.0 107.597225,-6.8404639,0.0 107.5973846,-6.8409206,0.0 107.5974342,-6.8410777,0.0 107.597516,-6.8414,0.0 107.5975065,-6.8415138,0.0 107.5974664,-6.8416516,0.0 107.5974222,-6.8417462,0.0 107.5973622,-6.8418432,0.0 107.5972396,-6.8419928,0.0</coordinates>
            </LineString>
        </Placemark>
        <Placemark id="63536">
            <name>Jalan HOS. Cokroaminoto</name>
            <styleUrl>#63537</styleUrl>
            <LineString id="63535">
                <coordinates>107.5975116,-6.9035067,0.0 107.5974908,-6.9034505,0.0 107.5974789,-6.9033926,0.0 107.5974727,-6.9033217,0.0 107.5974521,-6.9026867,0.0 107.5974311,-6.9019145,0.0 107.5974213,-6.9017168,0.0 107.597414,-6.9015643,0.0 107.5974073,-6.9013528,0.0</coordinates>
            </LineString>
        </Placemark>
        <Placemark id="63540">
            <name>Jalan HOS. Cokroaminoto</name>
            <styleUrl>#63541</styleUrl>
            <LineString id="63539">
                <coordinates>107.5979313,-6.9116207,0.0 107.5979188,-6.9114098,0.0 107.5978086,-6.909947,0.0 107.5978015,-6.9098566,0.0 107.5977774,-6.9094546,0.0 107.5977427,-6.9089045,0.0 107.5976909,-6.9082042,0.0 107.5976849,-6.9081059,0.0 107.5976772,-6.9080121,0.0 107.5976288,-6.9073749,0.0</coordinates>
            </LineString>
        </Placemark>
        <Placemark id="63544">
            <name>Jalan HOS. Cokroaminoto</name>
            <styleUrl>#63545</styleUrl>
            <LineString id="63543">
                <coordinates>107.5979805,-6.912262,0.0 107.5979469,-6.9117824,0.0</coordinates>
            </LineString>
        </Placemark>
        <Placemark id="63548">
            <name>Jalan HOS. Cokroaminoto</name>
            <styleUrl>#63549</styleUrl>
            <LineString id="63547">
                <coordinates>107.5975328,-6.9064531,0.0 107.5975429,-6.906405,0.0 107.5975495,-6.9063779,0.0</coordinates>
            </LineString>
        </Placemark>
        <Placemark id="63552">
            <name>Jalan Sukajadi</name>
            <styleUrl>#63553</styleUrl>
            <LineString id="63551">
                <coordinates>107.5972816,-6.8966817,0.0 107.5972787,-6.8966241,0.0 107.5972616,-6.8963456,0.0 107.5972601,-6.8962772,0.0 107.5972557,-6.8962319,0.0 107.597252,-6.8961231,0.0 107.5972487,-6.8960662,0.0 107.5972328,-6.8957942,0.0 107.5972172,-6.8955656,0.0 107.5971842,-6.8950939,0.0 107.5971773,-6.8950042,0.0 107.5971398,-6.8945401,0.0 107.5971049,-6.8940789,0.0 107.5970982,-6.8939774,0.0 107.5970769,-6.893622,0.0 107.5970644,-6.8934134,0.0 107.5970391,-6.8930157,0.0</coordinates>
            </LineString>
        </Placemark>
        <Placemark id="63556">
            <name>Jalan Sukajadi</name>
            <styleUrl>#63557</styleUrl>
            <LineString id="63555">
                <coordinates>107.5969097,-6.8902486,0.0 107.5969052,-6.8900717,0.0 107.5969028,-6.8899793,0.0 107.5969032,-6.8898955,0.0 107.596901,-6.8897159,0.0 107.5968858,-6.8894176,0.0 107.5968696,-6.889221,0.0 107.5968625,-6.8891028,0.0 107.5968398,-6.888674,0.0 107.5968348,-6.8885657,0.0 107.5968303,-6.8885035,0.0 107.5968078,-6.8882126,0.0 107.5967817,-6.8879179,0.0 107.5967633,-6.8877297,0.0 107.5967526,-6.887631,0.0</coordinates>
            </LineString>
        </Placemark>
        <Placemark id="63560">
            <name>Jalan HOS. Cokroaminoto</name>
            <styleUrl>#63561</styleUrl>
            <LineString id="63559">
                <coordinates>107.5975702,-6.9053954,0.0 107.5975685,-6.9053623,0.0 107.5975647,-6.9052979,0.0 107.5975641,-6.9052785,0.0 107.5975561,-6.9050098,0.0 107.5975537,-6.9049333,0.0</coordinates>
            </LineString>
        </Placemark>
        <Placemark id="63564">
            <name>Jalan Sukajadi</name>
            <styleUrl>#63565</styleUrl>
            <LineString id="63563">
                <coordinates>107.5965693,-6.8848932,0.0 107.5965291,-6.8842065,0.0</coordinates>
            </LineString>
        </Placemark>
        <Placemark id="63568">
            <name>Jalan Kebon Jukut</name>
            <styleUrl>#63569</styleUrl>
            <LineString id="63567">
                <coordinates>107.6046031,-6.9144539,0.0 107.6046132,-6.9144687,0.0 107.6046449,-6.9144848,0.0 107.606675,-6.9147337,0.0 107.606787,-6.9147395,0.0 107.6068501,-6.9147298,0.0 107.6069016,-6.9147011,0.0 107.6069388,-6.9146561,0.0 107.606975,-6.9145811,0.0</coordinates>
            </LineString>
        </Placemark>
        <Placemark id="63572">
            <name>Jalan HOS. Cokroaminoto</name>
            <styleUrl>#63573</styleUrl>
            <LineString id="63571">
                <coordinates>107.5973772,-6.900662,0.0 107.5973654,-6.9003949,0.0</coordinates>
            </LineString>
        </Placemark>
        <Placemark id="63576">
            <name>Jalan Aceh</name>
            <styleUrl>#63577</styleUrl>
            <LineString id="63575">
                <coordinates>107.6041426,-6.9127091,0.0 107.604692,-6.9127619,0.0</coordinates>
            </LineString>
        </Placemark>
        <Placemark id="63580">
            <name>Jalan Sukajadi</name>
            <styleUrl>#63581</styleUrl>
            <LineString id="63579">
                <coordinates>107.5970391,-6.8930157,0.0 107.5970212,-6.8924855,0.0 107.596988,-6.8919756,0.0 107.5969852,-6.8919419,0.0 107.5969612,-6.8915359,0.0 107.5969542,-6.8914244,0.0 107.5969493,-6.8913097,0.0 107.5969393,-6.8910002,0.0 107.5969258,-6.8906657,0.0 107.5969183,-6.8904777,0.0 107.5969097,-6.8902486,0.0</coordinates>
            </LineString>
        </Placemark>
        <Placemark id="63584">
            <name>Jalan HOS. Cokroaminoto</name>
            <styleUrl>#63585</styleUrl>
            <LineString id="63583">
                <coordinates>107.5975537,-6.9049333,0.0 107.5975448,-6.904529,0.0 107.5975406,-6.9043005,0.0 107.5975343,-6.9039924,0.0</coordinates>
            </LineString>
        </Placemark>
        <Placemark id="63588">
            <name>Jalan Stasiun Timur</name>
            <styleUrl>#63589</styleUrl>
            <LineString id="63587">
                <coordinates>107.606909,-6.9153005,0.0 107.6070035,-6.9152646,0.0 107.6070659,-6.9152151,0.0 107.6070945,-6.9151362,0.0</coordinates>
            </LineString>
        </Placemark>
        <Placemark id="63592">
            <name>Jalan Dr. Setiabudi</name>
            <styleUrl>#63593</styleUrl>
            <LineString id="63591">
                <coordinates>107.5940961,-6.8651081,0.0 107.5940723,-6.8653071,0.0 107.5940489,-6.8655021,0.0 107.5940436,-6.8655555,0.0 107.5939941,-6.866016,0.0 107.59398,-6.8661473,0.0 107.5939484,-6.8664124,0.0 107.5939402,-6.8664718,0.0 107.5939135,-6.8666897,0.0 107.593824,-6.8674042,0.0 107.5937888,-6.8677009,0.0 107.5937561,-6.8679333,0.0 107.5937127,-6.8682235,0.0 107.5937093,-6.8682462,0.0 107.593703,-6.868294,0.0 107.5936933,-6.8683616,0.0 107.5936592,-6.8686283,0.0 107.5936527,-6.8686846,0.0 107.5936366,-6.868816,0.0 107.5936184,-6.8689604,0.0 107.5936057,-6.869061,0.0 107.5935721,-6.8693613,0.0 107.5935632,-6.8694388,0.0 107.5935337,-6.8696955,0.0 107.5935252,-6.8697698,0.0 107.5935167,-6.8698675,0.0 107.5935096,-6.8699573,0.0 107.593506,-6.8701005,0.0 107.5935249,-6.8704256,0.0</coordinates>
            </LineString>
        </Placemark>
        <Placemark id="63596">
            <name>Jalan Sukajadi</name>
            <styleUrl>#63597</styleUrl>
            <LineString id="63595">
                <coordinates>107.5967526,-6.887631,0.0 107.5967323,-6.8873957,0.0</coordinates>
            </LineString>
        </Placemark>
        <Placemark id="63600">
            <name>Jalan Dr. Setiabudi</name>
            <styleUrl>#63601</styleUrl>
            <LineString id="63599">
                <coordinates>107.5950049,-6.8584744,0.0 107.5949549,-6.8587099,0.0 107.5949424,-6.8587619,0.0</coordinates>
            </LineString>
        </Placemark>
        <Placemark id="63604">
            <name>Jalan Dr. Setiabudi</name>
            <styleUrl>#63605</styleUrl>
            <LineString id="63603">
                <coordinates>107.5949424,-6.8587619,0.0 107.5949303,-6.8588435,0.0</coordinates>
            </LineString>
        </Placemark>
        <Placemark id="63608">
            <name>Jalan Dr. Setiabudi</name>
            <styleUrl>#63609</styleUrl>
            <LineString id="63607">
                <coordinates>107.594917,-6.8589109,0.0 107.5948727,-6.8591879,0.0 107.5948433,-6.8593552,0.0</coordinates>
            </LineString>
        </Placemark>
        <Placemark id="63612">
            <name>Jalan Dr. Setiabudi</name>
            <styleUrl>#63613</styleUrl>
            <LineString id="63611">
                <coordinates>107.594751,-6.8634425,0.0 107.5946342,-6.8634956,0.0</coordinates>
            </LineString>
        </Placemark>
        <Placemark id="63616">
            <name>Jalan Dr. Setiabudi</name>
            <styleUrl>#63617</styleUrl>
            <LineString id="63615">
                <coordinates>107.5941115,-6.864801,0.0 107.5941535,-6.8646065,0.0 107.5941832,-6.8644809,0.0 107.5942318,-6.8642799,0.0 107.5943139,-6.8639829,0.0 107.594348,-6.8639131,0.0 107.5943936,-6.8638479,0.0</coordinates>
            </LineString>
        </Placemark>
        <Placemark id="63620">
            <name>Jalan Suniaraja</name>
            <styleUrl>#63621</styleUrl>
            <LineString id="63619">
                <coordinates>107.6031079,-6.9160834,0.0 107.60326,-6.9160638,0.0 107.6043695,-6.9158689,0.0 107.6045054,-6.9158364,0.0</coordinates>
            </LineString>
        </Placemark>
        <Placemark id="63624">
            <name>Jalan Otto Iskandardinata</name>
            <styleUrl>#63625</styleUrl>
            <LineString id="63623">
                <coordinates>107.6045054,-6.9158364,0.0 107.6045124,-6.9157548,0.0 107.6045273,-6.915589,0.0 107.604546,-6.9153572,0.0</coordinates>
            </LineString>
        </Placemark>
        <Placemark id="63628">
            <name>Jalan HOS. Cokroaminoto</name>
            <styleUrl>#63629</styleUrl>
            <LineString id="63627">
                <coordinates>107.5973654,-6.9003949,0.0 107.5973566,-6.9002078,0.0</coordinates>
            </LineString>
        </Placemark>
        <Placemark id="63632">
            <name>Jalan Stasiun Timur</name>
            <styleUrl>#63633</styleUrl>
            <LineString id="63631">
                <coordinates>107.6064066,-6.9149399,0.0 107.6065239,-6.9149519,0.0 107.6066003,-6.9149924,0.0 107.6066521,-6.9150384,0.0 107.6067855,-6.9152656,0.0 107.6068306,-6.9152963,0.0 107.606909,-6.9153005,0.0</coordinates>
            </LineString>
        </Placemark>
        <Placemark id="63636">
            <name>Jalan Kebon Kawung</name>
            <styleUrl>#63637</styleUrl>
            <LineString id="63635">
                <coordinates>107.603885,-6.9126611,0.0 107.6038515,-6.9126567,0.0 107.6036069,-6.9126444,0.0 107.6032433,-6.9126176,0.0 107.6029824,-6.9125986,0.0 107.6029303,-6.9125954,0.0 107.6027169,-6.9125813,0.0 107.6024779,-6.9125651,0.0 107.6023535,-6.9125612,0.0 107.6022742,-6.9125566,0.0 107.6020122,-6.91254,0.0</coordinates>
            </LineString>
        </Placemark>
        <Placemark id="63640">
            <name>Jalan Kebon Kawung</name>
            <styleUrl>#63641</styleUrl>
            <LineString id="63639">
                <coordinates>107.6020122,-6.91254,0.0 107.6019305,-6.9125353,0.0</coordinates>
            </LineString>
        </Placemark>
        <Placemark id="63644">
            <name>Jalan HOS. Cokroaminoto</name>
            <styleUrl>#63645</styleUrl>
            <LineString id="63643">
                <coordinates>107.5975343,-6.9039924,0.0 107.5975116,-6.9035067,0.0</coordinates>
            </LineString>
        </Placemark>
        <Placemark id="63648">
            <name>Jalan Sukajadi</name>
            <styleUrl>#63649</styleUrl>
            <LineString id="63647">
                <coordinates>107.5963984,-6.8809341,0.0 107.5963847,-6.8806684,0.0 107.5963806,-6.8805716,0.0 107.596369,-6.8802996,0.0 107.5963356,-6.8796695,0.0 107.5963312,-6.8795732,0.0 107.5963111,-6.8792113,0.0 107.5962832,-6.8787501,0.0 107.5962548,-6.8783299,0.0</coordinates>
            </LineString>
        </Placemark>
        <Placemark id="63652">
            <name>Jalan Sukajadi</name>
            <styleUrl>#63653</styleUrl>
            <LineString id="63651">
                <coordinates>107.5962243,-6.8774107,0.0 107.5962202,-6.8773796,0.0 107.5962158,-6.8772881,0.0 107.5961957,-6.8768743,0.0</coordinates>
            </LineString>
        </Placemark>
        <Placemark id="63656">
            <name>Jalan Dr. Setiabudi</name>
            <styleUrl>#63657</styleUrl>
            <LineString id="63655">
                <coordinates>107.5936179,-6.8707823,0.0 107.5937463,-6.8711539,0.0 107.5937922,-6.8712782,0.0 107.593895,-6.8715029,0.0 107.5940693,-6.8717924,0.0 107.5944136,-6.8722322,0.0 107.5948065,-6.8727176,0.0 107.5949802,-6.8729249,0.0 107.5951113,-6.8730936,0.0 107.5955371,-6.8736221,0.0 107.5956623,-6.8737793,0.0 107.5956814,-6.8738055,0.0 107.5956912,-6.8738171,0.0 107.5957307,-6.8738828,0.0 107.5957592,-6.8739356,0.0 107.5957878,-6.8739884,0.0 107.5958267,-6.874066,0.0</coordinates>
            </LineString>
        </Placemark>
        <Placemark id="63660">
            <name>Jalan Kebon Jukut</name>
            <styleUrl>#63661</styleUrl>
            <LineString id="63659">
                <coordinates>107.6071931,-6.9145156,0.0 107.6071796,-6.9144917,0.0 107.6071622,-6.9144726,0.0 107.6071398,-6.9144595,0.0 107.6071185,-6.9144541,0.0 107.6070966,-6.9144542,0.0 107.6070754,-6.9144598,0.0 107.6070563,-6.9144706,0.0 107.606975,-6.9145811,0.0</coordinates>
            </LineString>
        </Placemark>
        <Placemark id="63664">
            <name>Jalan Pasir Kaliki</name>
            <styleUrl>#63665</styleUrl>
            <LineString id="63663">
                <coordinates>107.5972895,-6.8968371,0.0 107.5972816,-6.8966817,0.0</coordinates>
            </LineString>
        </Placemark>
        <Placemark id="63668">
            <name>Jalan Dr. Setiabudi</name>
            <styleUrl>#63669</styleUrl>
            <LineString id="63667">
                <coordinates>107.5935249,-6.8704256,0.0 107.5936179,-6.8707823,0.0</coordinates>
            </LineString>
        </Placemark>
        <Placemark id="63672">
            <name>Jalan Dr. Setiabudi</name>
            <styleUrl>#63673</styleUrl>
            <LineString id="63671">
                <coordinates>107.5948433,-6.8593552,0.0 107.5948312,-6.8594241,0.0 107.5948088,-6.859551,0.0</coordinates>
            </LineString>
        </Placemark>
        <Placemark id="63676">
            <name>Jalan Dr. Setiabudi</name>
            <styleUrl>#63677</styleUrl>
            <LineString id="63675">
                <coordinates>107.5948052,-6.8595708,0.0 107.594757,-6.8600369,0.0 107.5947527,-6.8600724,0.0 107.5947487,-6.8601046,0.0</coordinates>
            </LineString>
        </Placemark>
        <Placemark id="63680">
            <name>Jalan Dr. Setiabudi</name>
            <styleUrl>#63681</styleUrl>
            <LineString id="63679">
                <coordinates>107.5948088,-6.859551,0.0 107.5948052,-6.8595708,0.0</coordinates>
            </LineString>
        </Placemark>
        <Placemark id="63684">
            <name>Jalan Dr. Setiabudi</name>
            <styleUrl>#63685</styleUrl>
            <LineString id="63683">
                <coordinates>107.5949303,-6.8588435,0.0 107.594917,-6.8589109,0.0</coordinates>
            </LineString>
        </Placemark>
        <Placemark id="63688">
            <name>Jalan Otto Iskandardinata</name>
            <styleUrl>#63689</styleUrl>
            <LineString id="63687">
                <coordinates>107.604692,-6.9127619,0.0 107.6046653,-6.9131773,0.0 107.6046562,-6.9133158,0.0 107.6046487,-6.9134899,0.0 107.6046413,-6.9136374,0.0 107.6046392,-6.9136785,0.0 107.6046344,-6.913774,0.0 107.6046298,-6.9138408,0.0 107.604621,-6.913968,0.0 107.6045855,-6.9143581,0.0 107.6045878,-6.9143974,0.0 107.6045929,-6.9144391,0.0 107.6046031,-6.9144539,0.0</coordinates>
            </LineString>
        </Placemark>
        <Placemark id="63692">
            <name>Jalan Pasir Kaliki</name>
            <styleUrl>#63693</styleUrl>
            <LineString id="63691">
                <coordinates>107.5973572,-6.8990747,0.0 107.5973543,-6.8990234,0.0</coordinates>
            </LineString>
        </Placemark>
        <Placemark id="63696">
            <name>Jalan Pasir Kaliki</name>
            <styleUrl>#63697</styleUrl>
            <LineString id="63695">
                <coordinates>107.5973543,-6.8990234,0.0 107.5973503,-6.8989275,0.0</coordinates>
            </LineString>
        </Placemark>
        <Placemark id="63700">
            <name>Jalan Pasir Kaliki</name>
            <styleUrl>#63701</styleUrl>
            <LineString id="63699">
                <coordinates>107.5973452,-6.8999212,0.0 107.5973408,-6.8998291,0.0</coordinates>
            </LineString>
        </Placemark>
        <Placemark id="63704">
            <name>Jalan Pasir Kaliki</name>
            <styleUrl>#63705</styleUrl>
            <LineString id="63703">
                <coordinates>107.5973408,-6.8998291,0.0 107.5973293,-6.8994991,0.0 107.5973312,-6.8994022,0.0 107.5973423,-6.8991445,0.0 107.5973572,-6.8990747,0.0</coordinates>
            </LineString>
        </Placemark>
        <Placemark id="63708">
            <name>Jalan Raya Lembang</name>
            <styleUrl>#63709</styleUrl>
            <LineString id="63707">
                <coordinates>107.6142297,-6.8149459,0.0 107.6145547,-6.8144376,0.0 107.6145626,-6.8144258,0.0 107.6147043,-6.8141963,0.0 107.6147495,-6.8141269,0.0 107.6147783,-6.8140802,0.0 107.6150419,-6.8136622,0.0 107.6150919,-6.8135831,0.0 107.6151623,-6.8134735,0.0 107.615349,-6.8131827,0.0 107.6153978,-6.8131034,0.0 107.6157395,-6.8125659,0.0 107.615748,-6.8125526,0.0 107.6158578,-6.8123797,0.0 107.6162546,-6.811768,0.0 107.6162848,-6.81172,0.0 107.6163166,-6.8116894,0.0 107.6163532,-6.8116608,0.0 107.6163789,-6.811649,0.0</coordinates>
            </LineString>
        </Placemark>
        <Placemark id="63712">
            <name>Jalan Dr. Setiabudi</name>
            <styleUrl>#63713</styleUrl>
            <LineString id="63711">
                <coordinates>107.5946342,-6.8634956,0.0 107.594575,-6.8635338,0.0 107.5945119,-6.8636016,0.0 107.594469,-6.8636686,0.0 107.5943936,-6.8638479,0.0</coordinates>
            </LineString>
        </Placemark>
        <Placemark id="63716">
            <name>Jalan Dr. Setiabudi</name>
            <styleUrl>#63717</styleUrl>
            <LineString id="63715">
                <coordinates>107.5940961,-6.8651081,0.0 107.5940725,-6.8650563,0.0 107.594078,-6.8649955,0.0 107.5941115,-6.864801,0.0</coordinates>
            </LineString>
        </Placemark>
        <Placemark id="63720">
            <name>Jalan Kebon Kawung</name>
            <styleUrl>#63721</styleUrl>
            <LineString id="63719">
                <coordinates>107.6006435,-6.9124749,0.0 107.6002224,-6.9124495,0.0</coordinates>
            </LineString>
        </Placemark>
        <Placemark id="63724">
            <name>Jalan Kebon Kawung</name>
            <styleUrl>#63725</styleUrl>
            <LineString id="63723">
                <coordinates>107.6002224,-6.9124495,0.0 107.6000202,-6.912439,0.0</coordinates>
            </LineString>
        </Placemark>
        <Placemark id="63728">
            <name>Jalan Kebon Kawung</name>
            <styleUrl>#63729</styleUrl>
            <LineString id="63727">
                <coordinates>107.6000202,-6.912439,0.0 107.5993874,-6.9123994,0.0</coordinates>
            </LineString>
        </Placemark>
        <Placemark id="63732">
            <name>Jalan Kebon Kawung</name>
            <styleUrl>#63733</styleUrl>
            <LineString id="63731">
                <coordinates>107.5993874,-6.9123994,0.0 107.5990408,-6.912374,0.0 107.5990132,-6.912372,0.0</coordinates>
            </LineString>
        </Placemark>
        <Placemark id="63736">
            <name>Jalan Kebon Kawung</name>
            <styleUrl>#63737</styleUrl>
            <LineString id="63735">
                <coordinates>107.5990132,-6.912372,0.0 107.5982527,-6.912368,0.0</coordinates>
            </LineString>
        </Placemark>
        <Placemark id="63740">
            <name>Jalan Kebon Kawung</name>
            <styleUrl>#63741</styleUrl>
            <LineString id="63739">
                <coordinates>107.601745,-6.9125245,0.0 107.601624,-6.9125174,0.0</coordinates>
            </LineString>
        </Placemark>
        <Placemark id="63744">
            <name>Jalan Kebon Kawung</name>
            <styleUrl>#63745</styleUrl>
            <LineString id="63743">
                <coordinates>107.601624,-6.9125174,0.0 107.6015636,-6.9125139,0.0</coordinates>
            </LineString>
        </Placemark>
        <Placemark id="63748">
            <name>Jalan Kebon Kawung</name>
            <styleUrl>#63749</styleUrl>
            <LineString id="63747">
                <coordinates>107.6015636,-6.9125139,0.0 107.6010547,-6.9124917,0.0</coordinates>
            </LineString>
        </Placemark>
        <Placemark id="63752">
            <name>Jalan Kebon Kawung</name>
            <styleUrl>#63753</styleUrl>
            <LineString id="63751">
                <coordinates>107.6010547,-6.9124917,0.0 107.6009674,-6.9124878,0.0</coordinates>
            </LineString>
        </Placemark>
        <Placemark id="63756">
            <name>Jalan Kebon Kawung</name>
            <styleUrl>#63757</styleUrl>
            <LineString id="63755">
                <coordinates>107.6009674,-6.9124878,0.0 107.6007223,-6.9124771,0.0 107.6006435,-6.9124749,0.0</coordinates>
            </LineString>
        </Placemark>
        <Placemark id="63760">
            <name>Stasiun Hall</name>
            <styleUrl>#63761</styleUrl>
            <Point id="63759">
                <coordinates>107.6024325,-6.9161432,0.0</coordinates>
            </Point>
        </Placemark>
        <Placemark id="63765">
            <name>Pasar Panorama Lembang</name>
            <styleUrl>#63766</styleUrl>
            <Point id="63764">
                <coordinates>107.6223753,-6.8173275,0.0</coordinates>
            </Point>
        </Placemark>
    </Document>
</kml>
