<?xml version="1.0" encoding="UTF-8"?>
<kml xmlns="http://www.opengis.net/kml/2.2" xmlns:gx="http://www.google.com/kml/ext/2.2">
    <Document id="86589">
        <Style id="86595">
            <IconStyle id="86596">
                <colorMode>normal</colorMode>
                <scale>1</scale>
                <heading>0</heading>
                <Icon id="86597">
                    <href>http://maps.google.com/mapfiles/kml/pushpin/ylw-pushpin.png</href>
                </Icon>
            </IconStyle>
        </Style>
        <Style id="86600">
            <IconStyle id="86601">
                <colorMode>normal</colorMode>
                <scale>1</scale>
                <heading>0</heading>
                <Icon id="86602">
                    <href>http://maps.google.com/mapfiles/kml/pushpin/ylw-pushpin.png</href>
                </Icon>
            </IconStyle>
        </Style>
        <Style id="86605">
            <IconStyle id="86606">
                <colorMode>normal</colorMode>
                <scale>1</scale>
                <heading>0</heading>
                <Icon id="86607">
                    <href>http://maps.google.com/mapfiles/kml/pushpin/ylw-pushpin.png</href>
                </Icon>
            </IconStyle>
        </Style>
        <Style id="86610">
            <IconStyle id="86611">
                <colorMode>normal</colorMode>
                <scale>1</scale>
                <heading>0</heading>
                <Icon id="86612">
                    <href>http://maps.google.com/mapfiles/kml/pushpin/ylw-pushpin.png</href>
                </Icon>
            </IconStyle>
        </Style>
        <Style id="86615">
            <LineStyle id="86616">
                <color>ffa5492c</color>
                <colorMode>normal</colorMode>
                <width>4</width>
            </LineStyle>
        </Style>
        <Style id="86619">
            <LineStyle id="86620">
                <color>ffa5492c</color>
                <colorMode>normal</colorMode>
                <width>4</width>
            </LineStyle>
        </Style>
        <Style id="86623">
            <LineStyle id="86624">
                <color>ffa5492c</color>
                <colorMode>normal</colorMode>
                <width>4</width>
            </LineStyle>
        </Style>
        <Style id="86627">
            <LineStyle id="86628">
                <color>ffa5492c</color>
                <colorMode>normal</colorMode>
                <width>4</width>
            </LineStyle>
        </Style>
        <Style id="86631">
            <LineStyle id="86632">
                <color>ffa5492c</color>
                <colorMode>normal</colorMode>
                <width>4</width>
            </LineStyle>
        </Style>
        <Style id="86635">
            <LineStyle id="86636">
                <color>ffa5492c</color>
                <colorMode>normal</colorMode>
                <width>4</width>
            </LineStyle>
        </Style>
        <Style id="86639">
            <LineStyle id="86640">
                <color>ffa5492c</color>
                <colorMode>normal</colorMode>
                <width>4</width>
            </LineStyle>
        </Style>
        <Style id="86643">
            <LineStyle id="86644">
                <color>ffa5492c</color>
                <colorMode>normal</colorMode>
                <width>4</width>
            </LineStyle>
        </Style>
        <Style id="86647">
            <LineStyle id="86648">
                <color>ffa5492c</color>
                <colorMode>normal</colorMode>
                <width>4</width>
            </LineStyle>
        </Style>
        <Style id="86651">
            <LineStyle id="86652">
                <color>ffa5492c</color>
                <colorMode>normal</colorMode>
                <width>4</width>
            </LineStyle>
        </Style>
        <Style id="86655">
            <LineStyle id="86656">
                <color>ffa5492c</color>
                <colorMode>normal</colorMode>
                <width>4</width>
            </LineStyle>
        </Style>
        <Style id="86659">
            <LineStyle id="86660">
                <color>ffa5492c</color>
                <colorMode>normal</colorMode>
                <width>4</width>
            </LineStyle>
        </Style>
        <Style id="86663">
            <LineStyle id="86664">
                <color>ffa5492c</color>
                <colorMode>normal</colorMode>
                <width>4</width>
            </LineStyle>
        </Style>
        <Style id="86667">
            <LineStyle id="86668">
                <color>ffa5492c</color>
                <colorMode>normal</colorMode>
                <width>4</width>
            </LineStyle>
        </Style>
        <Style id="86671">
            <LineStyle id="86672">
                <color>ffa5492c</color>
                <colorMode>normal</colorMode>
                <width>4</width>
            </LineStyle>
        </Style>
        <Style id="86675">
            <LineStyle id="86676">
                <color>ffa5492c</color>
                <colorMode>normal</colorMode>
                <width>4</width>
            </LineStyle>
        </Style>
        <Style id="86679">
            <LineStyle id="86680">
                <color>ffa5492c</color>
                <colorMode>normal</colorMode>
                <width>4</width>
            </LineStyle>
        </Style>
        <Style id="86683">
            <LineStyle id="86684">
                <color>ffa5492c</color>
                <colorMode>normal</colorMode>
                <width>4</width>
            </LineStyle>
        </Style>
        <Style id="86687">
            <LineStyle id="86688">
                <color>ffa5492c</color>
                <colorMode>normal</colorMode>
                <width>4</width>
            </LineStyle>
        </Style>
        <Style id="86691">
            <LineStyle id="86692">
                <color>ffa5492c</color>
                <colorMode>normal</colorMode>
                <width>4</width>
            </LineStyle>
        </Style>
        <Style id="86695">
            <LineStyle id="86696">
                <color>ffa5492c</color>
                <colorMode>normal</colorMode>
                <width>4</width>
            </LineStyle>
        </Style>
        <Style id="86699">
            <LineStyle id="86700">
                <color>ffa5492c</color>
                <colorMode>normal</colorMode>
                <width>4</width>
            </LineStyle>
        </Style>
        <Style id="86703">
            <LineStyle id="86704">
                <color>ffa5492c</color>
                <colorMode>normal</colorMode>
                <width>4</width>
            </LineStyle>
        </Style>
        <Style id="86707">
            <LineStyle id="86708">
                <color>ffa5492c</color>
                <colorMode>normal</colorMode>
                <width>4</width>
            </LineStyle>
        </Style>
        <Style id="86711">
            <LineStyle id="86712">
                <color>ffa5492c</color>
                <colorMode>normal</colorMode>
                <width>4</width>
            </LineStyle>
        </Style>
        <Style id="86715">
            <LineStyle id="86716">
                <color>ffa5492c</color>
                <colorMode>normal</colorMode>
                <width>4</width>
            </LineStyle>
        </Style>
        <Style id="86719">
            <LineStyle id="86720">
                <color>ffa5492c</color>
                <colorMode>normal</colorMode>
                <width>4</width>
            </LineStyle>
        </Style>
        <Style id="86723">
            <LineStyle id="86724">
                <color>ffa5492c</color>
                <colorMode>normal</colorMode>
                <width>4</width>
            </LineStyle>
        </Style>
        <Style id="86727">
            <LineStyle id="86728">
                <color>ffa5492c</color>
                <colorMode>normal</colorMode>
                <width>4</width>
            </LineStyle>
        </Style>
        <Style id="86731">
            <LineStyle id="86732">
                <color>ffa5492c</color>
                <colorMode>normal</colorMode>
                <width>4</width>
            </LineStyle>
        </Style>
        <Style id="86735">
            <LineStyle id="86736">
                <color>ffa5492c</color>
                <colorMode>normal</colorMode>
                <width>4</width>
            </LineStyle>
        </Style>
        <Style id="86739">
            <LineStyle id="86740">
                <color>ffa5492c</color>
                <colorMode>normal</colorMode>
                <width>4</width>
            </LineStyle>
        </Style>
        <Style id="86743">
            <LineStyle id="86744">
                <color>ffa5492c</color>
                <colorMode>normal</colorMode>
                <width>4</width>
            </LineStyle>
        </Style>
        <Style id="86747">
            <LineStyle id="86748">
                <color>ffa5492c</color>
                <colorMode>normal</colorMode>
                <width>4</width>
            </LineStyle>
        </Style>
        <Style id="86751">
            <LineStyle id="86752">
                <color>ffa5492c</color>
                <colorMode>normal</colorMode>
                <width>4</width>
            </LineStyle>
        </Style>
        <Style id="86755">
            <LineStyle id="86756">
                <color>ffa5492c</color>
                <colorMode>normal</colorMode>
                <width>4</width>
            </LineStyle>
        </Style>
        <Style id="86759">
            <LineStyle id="86760">
                <color>ffa5492c</color>
                <colorMode>normal</colorMode>
                <width>4</width>
            </LineStyle>
        </Style>
        <Style id="86763">
            <LineStyle id="86764">
                <color>ffa5492c</color>
                <colorMode>normal</colorMode>
                <width>4</width>
            </LineStyle>
        </Style>
        <Style id="86767">
            <LineStyle id="86768">
                <color>ffa5492c</color>
                <colorMode>normal</colorMode>
                <width>4</width>
            </LineStyle>
        </Style>
        <Style id="86771">
            <LineStyle id="86772">
                <color>ffa5492c</color>
                <colorMode>normal</colorMode>
                <width>4</width>
            </LineStyle>
        </Style>
        <ExtendedData>
            <Data name="route-name">
                <value>Summarecon: Summarecon Mall Bandung → Stasiun Tegalluar</value>
            </Data>
            <Data name="source">
                <value>Transport for Bandung</value>
            </Data>
        </ExtendedData>
        <Placemark id="86594">
            <name>Shuttle Summarecon Mall Bandung</name>
            <styleUrl>#86595</styleUrl>
            <Point id="86593">
                <coordinates>107.6965642,-6.9553172,0.0</coordinates>
            </Point>
        </Placemark>
        <Placemark id="86599">
            <name>Stasiun Tegalluar</name>
            <styleUrl>#86600</styleUrl>
            <Point id="86598">
                <coordinates>107.715309,-6.964515,0.0</coordinates>
            </Point>
        </Placemark>
        <Placemark id="86604">
            <name>Shuttle Summarecon Mall Bandung</name>
            <styleUrl>#86605</styleUrl>
            <Point id="86603">
                <coordinates>107.6965642,-6.9553172,0.0</coordinates>
            </Point>
        </Placemark>
        <Placemark id="86609">
            <name>Stasiun Tegalluar</name>
            <styleUrl>#86610</styleUrl>
            <Point id="86608">
                <coordinates>107.715309,-6.964515,0.0</coordinates>
            </Point>
        </Placemark>
        <Placemark id="86614">
            <name>Route Segment</name>
            <styleUrl>#86615</styleUrl>
            <LineString id="86613">
                <coordinates>107.7047792,-6.9654075,0.0 107.7048755,-6.9655067,0.0 107.7049398,-6.9656259,0.0 107.7050492,-6.9658062,0.0 107.7051363,-6.9659074,0.0 107.7055501,-6.9662143,0.0</coordinates>
            </LineString>
        </Placemark>
        <Placemark id="86618">
            <name>Jalan Viking</name>
            <styleUrl>#86619</styleUrl>
            <LineString id="86617">
                <coordinates>107.709605,-6.9644782,0.0 107.7096456,-6.9644477,0.0 107.7096862,-6.9644179,0.0 107.7097278,-6.9643918,0.0 107.7097502,-6.9643785,0.0 107.7098708,-6.96432,0.0 107.7099469,-6.9642829,0.0 107.7100331,-6.9642455,0.0 107.710091,-6.9642251,0.0 107.710141,-6.9642067,0.0 107.7101839,-6.9641915,0.0 107.7102898,-6.9641536,0.0 107.7104448,-6.964092,0.0 107.7108324,-6.9639251,0.0 107.7110833,-6.9638034,0.0 107.711282,-6.9637075,0.0 107.7120381,-6.9633155,0.0 107.7128228,-6.9628785,0.0 107.7133938,-6.9625369,0.0 107.7137982,-6.9622638,0.0 107.7141753,-6.9620312,0.0 107.7145295,-6.961815,0.0 107.7148938,-6.9615758,0.0 107.71519,-6.9613186,0.0 107.7152949,-6.9612175,0.0</coordinates>
            </LineString>
        </Placemark>
        <Placemark id="86622">
            <name>Jembatan Cibiru Hilir</name>
            <styleUrl>#86623</styleUrl>
            <LineString id="86621">
                <coordinates>107.7167144,-6.9608899,0.0 107.717537,-6.962464,0.0 107.717579,-6.9625944,0.0 107.7176165,-6.9627331,0.0 107.7176289,-6.9628037,0.0 107.717635,-6.9629113,0.0 107.7176326,-6.9629922,0.0 107.7176204,-6.9630679,0.0 107.7176042,-6.9631376,0.0 107.7175591,-6.9632309,0.0 107.7174956,-6.9633235,0.0 107.7174227,-6.9634132,0.0 107.7173143,-6.9635054,0.0 107.7172024,-6.9635806,0.0 107.7168843,-6.9637584,0.0 107.7165497,-6.9639551,0.0</coordinates>
            </LineString>
        </Placemark>
        <Placemark id="86626">
            <name>Bunderan Grand Bulevar</name>
            <styleUrl>#86627</styleUrl>
            <LineString id="86625">
                <coordinates>107.7003724,-6.9550027,0.0 107.7004217,-6.9549566,0.0 107.7004814,-6.9549248,0.0 107.7005474,-6.9549096,0.0 107.7006152,-6.9549119,0.0 107.7006946,-6.9549388,0.0 107.7007612,-6.9549897,0.0 107.7008078,-6.9550591,0.0</coordinates>
            </LineString>
        </Placemark>
        <Placemark id="86630">
            <name>Jalan Pendamping SOR GBLA</name>
            <styleUrl>#86631</styleUrl>
            <LineString id="86629">
                <coordinates>107.7093423,-6.9647182,0.0 107.7094861,-6.964615,0.0</coordinates>
            </LineString>
        </Placemark>
        <Placemark id="86634">
            <name>Bulevar Raya</name>
            <styleUrl>#86635</styleUrl>
            <LineString id="86633">
                <coordinates>107.7029362,-6.9610505,0.0 107.7031132,-6.9613003,0.0 107.7033522,-6.9615558,0.0 107.7035036,-6.9616718,0.0 107.7036967,-6.9618012,0.0 107.703881,-6.9618755,0.0 107.7041353,-6.9618887,0.0 107.7043598,-6.961891,0.0 107.7045112,-6.9618994,0.0 107.704637,-6.9619259,0.0</coordinates>
            </LineString>
        </Placemark>
        <Placemark id="86638">
            <name>Route Segment</name>
            <styleUrl>#86639</styleUrl>
            <LineString id="86637">
                <coordinates>107.7156383,-6.9592519,0.0 107.7157272,-6.9592459,0.0 107.7158475,-6.959215,0.0 107.7162597,-6.9590776,0.0 107.7162865,-6.9590718,0.0 107.7163263,-6.959074,0.0</coordinates>
            </LineString>
        </Placemark>
        <Placemark id="86642">
            <name>Bulevar Raya</name>
            <styleUrl>#86643</styleUrl>
            <LineString id="86641">
                <coordinates>107.7007313,-6.9553665,0.0 107.7008411,-6.9556216,0.0 107.7009315,-6.9558453,0.0 107.701475,-6.957099,0.0 107.7015453,-6.9572604,0.0</coordinates>
            </LineString>
        </Placemark>
        <Placemark id="86646">
            <name>Jalan Viking</name>
            <styleUrl>#86647</styleUrl>
            <LineString id="86645">
                <coordinates>107.7094861,-6.964615,0.0 107.709605,-6.9644782,0.0</coordinates>
            </LineString>
        </Placemark>
        <Placemark id="86650">
            <name>Jalan Pendamping SOR GBLA</name>
            <styleUrl>#86651</styleUrl>
            <LineString id="86649">
                <coordinates>107.7060477,-6.9664528,0.0 107.7063966,-6.9662724,0.0 107.7082242,-6.9653352,0.0 107.7091496,-6.9648261,0.0 107.7093423,-6.9647182,0.0</coordinates>
            </LineString>
        </Placemark>
        <Placemark id="86654">
            <name>Route Segment</name>
            <styleUrl>#86655</styleUrl>
            <LineString id="86653">
                <coordinates>107.7163263,-6.959074,0.0 107.7163556,-6.9590959,0.0 107.7163982,-6.9591373,0.0 107.716473,-6.9592099,0.0 107.7165565,-6.9592972,0.0 107.7166041,-6.9593598,0.0 107.7166371,-6.9594734,0.0 107.7166497,-6.9595643,0.0 107.7166521,-6.9596405,0.0 107.7166472,-6.9597487,0.0 107.7166404,-6.959805,0.0 107.7165711,-6.9602465,0.0 107.7165586,-6.9603283,0.0</coordinates>
            </LineString>
        </Placemark>
        <Placemark id="86658">
            <name>Jalan Pintu Masuk GBLA</name>
            <styleUrl>#86659</styleUrl>
            <LineString id="86657">
                <coordinates>107.7156383,-6.9592519,0.0 107.71557,-6.9592523,0.0</coordinates>
            </LineString>
        </Placemark>
        <Placemark id="86662">
            <name>Route Segment</name>
            <styleUrl>#86663</styleUrl>
            <LineString id="86661">
                <coordinates>107.6963464,-6.9563861,0.0 107.6963752,-6.9562444,0.0 107.6964042,-6.9561022,0.0 107.696419,-6.9560214,0.0 107.6964342,-6.9559555,0.0 107.6964634,-6.9558118,0.0 107.696493,-6.9556665,0.0 107.696523,-6.9555198,0.0 107.6965532,-6.9553716,0.0 107.6965642,-6.9553172,0.0</coordinates>
            </LineString>
        </Placemark>
        <Placemark id="86666">
            <name>Route Segment</name>
            <styleUrl>#86667</styleUrl>
            <LineString id="86665">
                <coordinates>107.6963464,-6.9563861,0.0 107.6963954,-6.9564577,0.0 107.6964465,-6.9565196,0.0</coordinates>
            </LineString>
        </Placemark>
        <Placemark id="86670">
            <name>Route Segment</name>
            <styleUrl>#86671</styleUrl>
            <LineString id="86669">
                <coordinates>107.7165497,-6.9639551,0.0 107.716494,-6.9639782,0.0</coordinates>
            </LineString>
        </Placemark>
        <Placemark id="86674">
            <name>Route Segment</name>
            <styleUrl>#86675</styleUrl>
            <LineString id="86673">
                <coordinates>107.716494,-6.9639782,0.0 107.7164281,-6.963982,0.0 107.716389,-6.9639861,0.0 107.7163392,-6.9639986,0.0 107.7163021,-6.964014,0.0</coordinates>
            </LineString>
        </Placemark>
        <Placemark id="86678">
            <name>Route Segment</name>
            <styleUrl>#86679</styleUrl>
            <LineString id="86677">
                <coordinates>107.7050008,-6.9621192,0.0 107.705046,-6.9621436,0.0</coordinates>
            </LineString>
        </Placemark>
        <Placemark id="86682">
            <name>Route Segment</name>
            <styleUrl>#86683</styleUrl>
            <LineString id="86681">
                <coordinates>107.7048323,-6.9620034,0.0 107.7050008,-6.9621192,0.0</coordinates>
            </LineString>
        </Placemark>
        <Placemark id="86686">
            <name>Bulevar Raya</name>
            <styleUrl>#86687</styleUrl>
            <LineString id="86685">
                <coordinates>107.7024921,-6.9597647,0.0 107.7026306,-6.9602182,0.0 107.7027233,-6.960531,0.0 107.702778,-6.9606778,0.0 107.7029362,-6.9610505,0.0</coordinates>
            </LineString>
        </Placemark>
        <Placemark id="86690">
            <name>Bulevar Raya</name>
            <styleUrl>#86691</styleUrl>
            <LineString id="86689">
                <coordinates>107.704637,-6.9619259,0.0 107.7047233,-6.96194,0.0 107.7048323,-6.9620034,0.0</coordinates>
            </LineString>
        </Placemark>
        <Placemark id="86694">
            <name>Jalan Viking</name>
            <styleUrl>#86695</styleUrl>
            <LineString id="86693">
                <coordinates>107.7152949,-6.9612175,0.0 107.7153765,-6.9610903,0.0 107.7154194,-6.9609431,0.0 107.7155382,-6.9598909,0.0 107.7155632,-6.9596098,0.0 107.7155691,-6.9595253,0.0 107.71557,-6.9592523,0.0</coordinates>
            </LineString>
        </Placemark>
        <Placemark id="86698">
            <name>Jalan Rancanumpang</name>
            <styleUrl>#86699</styleUrl>
            <LineString id="86697">
                <coordinates>107.7047893,-6.9640891,0.0 107.7047856,-6.9641353,0.0 107.7047789,-6.9643526,0.0 107.7047731,-6.9644231,0.0 107.7047849,-6.9648757,0.0 107.7047865,-6.9651019,0.0 107.7047827,-6.965274,0.0 107.7047792,-6.9654075,0.0</coordinates>
            </LineString>
        </Placemark>
        <Placemark id="86702">
            <name>Route Segment</name>
            <styleUrl>#86703</styleUrl>
            <LineString id="86701">
                <coordinates>107.7055501,-6.9662143,0.0 107.7060477,-6.9664528,0.0</coordinates>
            </LineString>
        </Placemark>
        <Placemark id="86706">
            <name>Bunderan Grand Bulevar</name>
            <styleUrl>#86707</styleUrl>
            <LineString id="86705">
                <coordinates>107.7008078,-6.9550591,0.0 107.7008295,-6.9551412,0.0 107.7008231,-6.9552259,0.0 107.7007891,-6.9553039,0.0 107.7007313,-6.9553665,0.0</coordinates>
            </LineString>
        </Placemark>
        <Placemark id="86710">
            <name>Bunderan Grand Bulevar</name>
            <styleUrl>#86711</styleUrl>
            <LineString id="86709">
                <coordinates>107.7003144,-6.9551651,0.0 107.7003293,-6.9550789,0.0 107.7003724,-6.9550027,0.0</coordinates>
            </LineString>
        </Placemark>
        <Placemark id="86714">
            <name>Bulevar Raya</name>
            <styleUrl>#86715</styleUrl>
            <LineString id="86713">
                <coordinates>107.7015453,-6.9572604,0.0 107.7023176,-6.9590587,0.0 107.7023924,-6.959233,0.0</coordinates>
            </LineString>
        </Placemark>
        <Placemark id="86718">
            <name>Bulevar Raya</name>
            <styleUrl>#86719</styleUrl>
            <LineString id="86717">
                <coordinates>107.7023924,-6.959233,0.0 107.7024944,-6.9594899,0.0</coordinates>
            </LineString>
        </Placemark>
        <Placemark id="86722">
            <name>Route Segment</name>
            <styleUrl>#86723</styleUrl>
            <LineString id="86721">
                <coordinates>107.6993694,-6.9554042,0.0 107.6996132,-6.9553025,0.0 107.6999888,-6.9551459,0.0 107.7000586,-6.9551299,0.0 107.7001015,-6.9551379,0.0 107.7001538,-6.9551751,0.0 107.7002127,-6.9552171,0.0</coordinates>
            </LineString>
        </Placemark>
        <Placemark id="86726">
            <name>Route Segment</name>
            <styleUrl>#86727</styleUrl>
            <LineString id="86725">
                <coordinates>107.6972214,-6.956344,0.0 107.6970991,-6.956389,0.0 107.6969717,-6.956426,0.0 107.6967203,-6.9564879,0.0 107.6965578,-6.9565089,0.0</coordinates>
            </LineString>
        </Placemark>
        <Placemark id="86730">
            <name>Route Segment</name>
            <styleUrl>#86731</styleUrl>
            <LineString id="86729">
                <coordinates>107.6972214,-6.956344,0.0 107.6972879,-6.9563138,0.0 107.6973544,-6.9562717,0.0 107.6974179,-6.9562397,0.0 107.6974915,-6.956208,0.0 107.6975253,-6.9562005,0.0 107.6975347,-6.9561985,0.0 107.6976108,-6.9561985,0.0 107.6976647,-6.9561771,0.0 107.6978236,-6.9561083,0.0 107.697979,-6.956041,0.0 107.6981309,-6.9559747,0.0 107.6982742,-6.9559112,0.0 107.6984393,-6.9558375,0.0 107.69854,-6.9557926,0.0 107.698548,-6.955789,0.0 107.6986077,-6.9557611,0.0 107.6987795,-6.9556809,0.0 107.6988227,-6.9556544,0.0 107.6988564,-6.9556319,0.0</coordinates>
            </LineString>
        </Placemark>
        <Placemark id="86734">
            <name>Route Segment</name>
            <styleUrl>#86735</styleUrl>
            <LineString id="86733">
                <coordinates>107.6988564,-6.9556319,0.0 107.698945,-6.9555903,0.0 107.6993694,-6.9554042,0.0</coordinates>
            </LineString>
        </Placemark>
        <Placemark id="86738">
            <name>Route Segment</name>
            <styleUrl>#86739</styleUrl>
            <LineString id="86737">
                <coordinates>107.7165586,-6.9603283,0.0 107.7165557,-6.9603849,0.0 107.7165571,-6.9604579,0.0 107.7165714,-6.9605488,0.0 107.7165982,-6.9606317,0.0 107.7166535,-6.9607608,0.0 107.7167144,-6.9608899,0.0</coordinates>
            </LineString>
        </Placemark>
        <Placemark id="86742">
            <name>Bulevar Raya</name>
            <styleUrl>#86743</styleUrl>
            <LineString id="86741">
                <coordinates>107.7024944,-6.9594899,0.0 107.7024921,-6.9597647,0.0</coordinates>
            </LineString>
        </Placemark>
        <Placemark id="86746">
            <name>Route Segment</name>
            <styleUrl>#86747</styleUrl>
            <LineString id="86745">
                <coordinates>107.6965578,-6.9565089,0.0 107.6964465,-6.9565196,0.0</coordinates>
            </LineString>
        </Placemark>
        <Placemark id="86750">
            <name>Grand Bulevar</name>
            <styleUrl>#86751</styleUrl>
            <LineString id="86749">
                <coordinates>107.7002127,-6.9552171,0.0 107.7003144,-6.9551651,0.0</coordinates>
            </LineString>
        </Placemark>
        <Placemark id="86754">
            <name>Route Segment</name>
            <styleUrl>#86755</styleUrl>
            <LineString id="86753">
                <coordinates>107.715309,-6.964515,0.0 107.7154315,-6.9644473,0.0 107.7160157,-6.9641366,0.0 107.7162421,-6.9640181,0.0</coordinates>
            </LineString>
        </Placemark>
        <Placemark id="86758">
            <name>Jalan Rancanumpang</name>
            <styleUrl>#86759</styleUrl>
            <LineString id="86757">
                <coordinates>107.705046,-6.9621436,0.0 107.7050381,-6.9622345,0.0</coordinates>
            </LineString>
        </Placemark>
        <Placemark id="86762">
            <name>Jalan Rancanumpang</name>
            <styleUrl>#86763</styleUrl>
            <LineString id="86761">
                <coordinates>107.7050381,-6.9622345,0.0 107.7050131,-6.9624774,0.0 107.7049667,-6.9628317,0.0 107.7049458,-6.962995,0.0 107.7048355,-6.9636436,0.0</coordinates>
            </LineString>
        </Placemark>
        <Placemark id="86766">
            <name>Jalan Rancanumpang</name>
            <styleUrl>#86767</styleUrl>
            <LineString id="86765">
                <coordinates>107.7048355,-6.9636436,0.0 107.7047984,-6.9639702,0.0 107.7047893,-6.9640891,0.0</coordinates>
            </LineString>
        </Placemark>
        <Placemark id="86770">
            <name>Route Segment</name>
            <styleUrl>#86771</styleUrl>
            <LineString id="86769">
                <coordinates>107.7163021,-6.964014,0.0 107.7162854,-6.9640206,0.0 107.7162677,-6.9640231,0.0 107.7162498,-6.9640213,0.0 107.7162421,-6.9640181,0.0</coordinates>
            </LineString>
        </Placemark>
    </Document>
</kml>
