<?xml version="1.0" encoding="UTF-8"?>
<kml xmlns="http://www.opengis.net/kml/2.2" xmlns:gx="http://www.google.com/kml/ext/2.2">
    <Document id="86774">
        <Style id="86780">
            <IconStyle id="86781">
                <colorMode>normal</colorMode>
                <scale>1</scale>
                <heading>0</heading>
                <Icon id="86782">
                    <href>http://maps.google.com/mapfiles/kml/pushpin/ylw-pushpin.png</href>
                </Icon>
            </IconStyle>
        </Style>
        <Style id="86785">
            <IconStyle id="86786">
                <colorMode>normal</colorMode>
                <scale>1</scale>
                <heading>0</heading>
                <Icon id="86787">
                    <href>http://maps.google.com/mapfiles/kml/pushpin/ylw-pushpin.png</href>
                </Icon>
            </IconStyle>
        </Style>
        <Style id="86790">
            <IconStyle id="86791">
                <colorMode>normal</colorMode>
                <scale>1</scale>
                <heading>0</heading>
                <Icon id="86792">
                    <href>http://maps.google.com/mapfiles/kml/pushpin/ylw-pushpin.png</href>
                </Icon>
            </IconStyle>
        </Style>
        <Style id="86795">
            <IconStyle id="86796">
                <colorMode>normal</colorMode>
                <scale>1</scale>
                <heading>0</heading>
                <Icon id="86797">
                    <href>http://maps.google.com/mapfiles/kml/pushpin/ylw-pushpin.png</href>
                </Icon>
            </IconStyle>
        </Style>
        <Style id="86800">
            <LineStyle id="86801">
                <color>ffa5492c</color>
                <colorMode>normal</colorMode>
                <width>4</width>
            </LineStyle>
        </Style>
        <Style id="86804">
            <LineStyle id="86805">
                <color>ffa5492c</color>
                <colorMode>normal</colorMode>
                <width>4</width>
            </LineStyle>
        </Style>
        <Style id="86808">
            <LineStyle id="86809">
                <color>ffa5492c</color>
                <colorMode>normal</colorMode>
                <width>4</width>
            </LineStyle>
        </Style>
        <Style id="86812">
            <LineStyle id="86813">
                <color>ffa5492c</color>
                <colorMode>normal</colorMode>
                <width>4</width>
            </LineStyle>
        </Style>
        <Style id="86816">
            <LineStyle id="86817">
                <color>ffa5492c</color>
                <colorMode>normal</colorMode>
                <width>4</width>
            </LineStyle>
        </Style>
        <Style id="86820">
            <LineStyle id="86821">
                <color>ffa5492c</color>
                <colorMode>normal</colorMode>
                <width>4</width>
            </LineStyle>
        </Style>
        <Style id="86824">
            <LineStyle id="86825">
                <color>ffa5492c</color>
                <colorMode>normal</colorMode>
                <width>4</width>
            </LineStyle>
        </Style>
        <Style id="86828">
            <LineStyle id="86829">
                <color>ffa5492c</color>
                <colorMode>normal</colorMode>
                <width>4</width>
            </LineStyle>
        </Style>
        <Style id="86832">
            <LineStyle id="86833">
                <color>ffa5492c</color>
                <colorMode>normal</colorMode>
                <width>4</width>
            </LineStyle>
        </Style>
        <Style id="86836">
            <LineStyle id="86837">
                <color>ffa5492c</color>
                <colorMode>normal</colorMode>
                <width>4</width>
            </LineStyle>
        </Style>
        <Style id="86840">
            <LineStyle id="86841">
                <color>ffa5492c</color>
                <colorMode>normal</colorMode>
                <width>4</width>
            </LineStyle>
        </Style>
        <Style id="86844">
            <LineStyle id="86845">
                <color>ffa5492c</color>
                <colorMode>normal</colorMode>
                <width>4</width>
            </LineStyle>
        </Style>
        <Style id="86848">
            <LineStyle id="86849">
                <color>ffa5492c</color>
                <colorMode>normal</colorMode>
                <width>4</width>
            </LineStyle>
        </Style>
        <Style id="86852">
            <LineStyle id="86853">
                <color>ffa5492c</color>
                <colorMode>normal</colorMode>
                <width>4</width>
            </LineStyle>
        </Style>
        <Style id="86856">
            <LineStyle id="86857">
                <color>ffa5492c</color>
                <colorMode>normal</colorMode>
                <width>4</width>
            </LineStyle>
        </Style>
        <Style id="86860">
            <LineStyle id="86861">
                <color>ffa5492c</color>
                <colorMode>normal</colorMode>
                <width>4</width>
            </LineStyle>
        </Style>
        <Style id="86864">
            <LineStyle id="86865">
                <color>ffa5492c</color>
                <colorMode>normal</colorMode>
                <width>4</width>
            </LineStyle>
        </Style>
        <Style id="86868">
            <LineStyle id="86869">
                <color>ffa5492c</color>
                <colorMode>normal</colorMode>
                <width>4</width>
            </LineStyle>
        </Style>
        <Style id="86872">
            <LineStyle id="86873">
                <color>ffa5492c</color>
                <colorMode>normal</colorMode>
                <width>4</width>
            </LineStyle>
        </Style>
        <Style id="86876">
            <LineStyle id="86877">
                <color>ffa5492c</color>
                <colorMode>normal</colorMode>
                <width>4</width>
            </LineStyle>
        </Style>
        <Style id="86880">
            <LineStyle id="86881">
                <color>ffa5492c</color>
                <colorMode>normal</colorMode>
                <width>4</width>
            </LineStyle>
        </Style>
        <Style id="86884">
            <LineStyle id="86885">
                <color>ffa5492c</color>
                <colorMode>normal</colorMode>
                <width>4</width>
            </LineStyle>
        </Style>
        <Style id="86888">
            <LineStyle id="86889">
                <color>ffa5492c</color>
                <colorMode>normal</colorMode>
                <width>4</width>
            </LineStyle>
        </Style>
        <Style id="86892">
            <LineStyle id="86893">
                <color>ffa5492c</color>
                <colorMode>normal</colorMode>
                <width>4</width>
            </LineStyle>
        </Style>
        <Style id="86896">
            <LineStyle id="86897">
                <color>ffa5492c</color>
                <colorMode>normal</colorMode>
                <width>4</width>
            </LineStyle>
        </Style>
        <Style id="86900">
            <LineStyle id="86901">
                <color>ffa5492c</color>
                <colorMode>normal</colorMode>
                <width>4</width>
            </LineStyle>
        </Style>
        <Style id="86904">
            <LineStyle id="86905">
                <color>ffa5492c</color>
                <colorMode>normal</colorMode>
                <width>4</width>
            </LineStyle>
        </Style>
        <Style id="86908">
            <LineStyle id="86909">
                <color>ffa5492c</color>
                <colorMode>normal</colorMode>
                <width>4</width>
            </LineStyle>
        </Style>
        <Style id="86912">
            <LineStyle id="86913">
                <color>ffa5492c</color>
                <colorMode>normal</colorMode>
                <width>4</width>
            </LineStyle>
        </Style>
        <Style id="86916">
            <LineStyle id="86917">
                <color>ffa5492c</color>
                <colorMode>normal</colorMode>
                <width>4</width>
            </LineStyle>
        </Style>
        <Style id="86920">
            <LineStyle id="86921">
                <color>ffa5492c</color>
                <colorMode>normal</colorMode>
                <width>4</width>
            </LineStyle>
        </Style>
        <Style id="86924">
            <LineStyle id="86925">
                <color>ffa5492c</color>
                <colorMode>normal</colorMode>
                <width>4</width>
            </LineStyle>
        </Style>
        <Style id="86928">
            <LineStyle id="86929">
                <color>ffa5492c</color>
                <colorMode>normal</colorMode>
                <width>4</width>
            </LineStyle>
        </Style>
        <Style id="86932">
            <LineStyle id="86933">
                <color>ffa5492c</color>
                <colorMode>normal</colorMode>
                <width>4</width>
            </LineStyle>
        </Style>
        <Style id="86936">
            <LineStyle id="86937">
                <color>ffa5492c</color>
                <colorMode>normal</colorMode>
                <width>4</width>
            </LineStyle>
        </Style>
        <Style id="86940">
            <LineStyle id="86941">
                <color>ffa5492c</color>
                <colorMode>normal</colorMode>
                <width>4</width>
            </LineStyle>
        </Style>
        <Style id="86944">
            <LineStyle id="86945">
                <color>ffa5492c</color>
                <colorMode>normal</colorMode>
                <width>4</width>
            </LineStyle>
        </Style>
        <Style id="86948">
            <LineStyle id="86949">
                <color>ffa5492c</color>
                <colorMode>normal</colorMode>
                <width>4</width>
            </LineStyle>
        </Style>
        <Style id="86952">
            <LineStyle id="86953">
                <color>ffa5492c</color>
                <colorMode>normal</colorMode>
                <width>4</width>
            </LineStyle>
        </Style>
        <Style id="86956">
            <LineStyle id="86957">
                <color>ffa5492c</color>
                <colorMode>normal</colorMode>
                <width>4</width>
            </LineStyle>
        </Style>
        <Style id="86960">
            <LineStyle id="86961">
                <color>ffa5492c</color>
                <colorMode>normal</colorMode>
                <width>4</width>
            </LineStyle>
        </Style>
        <Style id="86964">
            <LineStyle id="86965">
                <color>ffa5492c</color>
                <colorMode>normal</colorMode>
                <width>4</width>
            </LineStyle>
        </Style>
        <Style id="86968">
            <LineStyle id="86969">
                <color>ffa5492c</color>
                <colorMode>normal</colorMode>
                <width>4</width>
            </LineStyle>
        </Style>
        <Style id="86972">
            <LineStyle id="86973">
                <color>ffa5492c</color>
                <colorMode>normal</colorMode>
                <width>4</width>
            </LineStyle>
        </Style>
        <Style id="86976">
            <LineStyle id="86977">
                <color>ffa5492c</color>
                <colorMode>normal</colorMode>
                <width>4</width>
            </LineStyle>
        </Style>
        <Style id="86980">
            <LineStyle id="86981">
                <color>ffa5492c</color>
                <colorMode>normal</colorMode>
                <width>4</width>
            </LineStyle>
        </Style>
        <Style id="86984">
            <LineStyle id="86985">
                <color>ffa5492c</color>
                <colorMode>normal</colorMode>
                <width>4</width>
            </LineStyle>
        </Style>
        <Style id="86988">
            <LineStyle id="86989">
                <color>ffa5492c</color>
                <colorMode>normal</colorMode>
                <width>4</width>
            </LineStyle>
        </Style>
        <Style id="86992">
            <LineStyle id="86993">
                <color>ffa5492c</color>
                <colorMode>normal</colorMode>
                <width>4</width>
            </LineStyle>
        </Style>
        <Style id="86996">
            <LineStyle id="86997">
                <color>ffa5492c</color>
                <colorMode>normal</colorMode>
                <width>4</width>
            </LineStyle>
        </Style>
        <Style id="87000">
            <LineStyle id="87001">
                <color>ffa5492c</color>
                <colorMode>normal</colorMode>
                <width>4</width>
            </LineStyle>
        </Style>
        <ExtendedData>
            <Data name="route-name">
                <value>Summarecon: Stasiun Tegalluar → Summarecon Mall Bandung</value>
            </Data>
            <Data name="source">
                <value>Transport for Bandung</value>
            </Data>
        </ExtendedData>
        <Placemark id="86779">
            <name>Stasiun Tegalluar</name>
            <styleUrl>#86780</styleUrl>
            <Point id="86778">
                <coordinates>107.715309,-6.964515,0.0</coordinates>
            </Point>
        </Placemark>
        <Placemark id="86784">
            <name>Shuttle Summarecon Mall Bandung</name>
            <styleUrl>#86785</styleUrl>
            <Point id="86783">
                <coordinates>107.6965642,-6.9553172,0.0</coordinates>
            </Point>
        </Placemark>
        <Placemark id="86789">
            <name>Stasiun Tegalluar</name>
            <styleUrl>#86790</styleUrl>
            <Point id="86788">
                <coordinates>107.715309,-6.964515,0.0</coordinates>
            </Point>
        </Placemark>
        <Placemark id="86794">
            <name>Shuttle Summarecon Mall Bandung</name>
            <styleUrl>#86795</styleUrl>
            <Point id="86793">
                <coordinates>107.6965642,-6.9553172,0.0</coordinates>
            </Point>
        </Placemark>
        <Placemark id="86799">
            <name>Route Segment</name>
            <styleUrl>#86800</styleUrl>
            <LineString id="86798">
                <coordinates>107.7054922,-6.9666558,0.0 107.7055871,-6.966554,0.0 107.7056128,-6.9664579,0.0 107.7056174,-6.9663673,0.0 107.7055957,-6.9662759,0.0 107.7055501,-6.9662143,0.0</coordinates>
            </LineString>
        </Placemark>
        <Placemark id="86803">
            <name>Route Segment</name>
            <styleUrl>#86804</styleUrl>
            <LineString id="86802">
                <coordinates>107.7047792,-6.9654075,0.0 107.7048755,-6.9655067,0.0 107.7049398,-6.9656259,0.0 107.7050492,-6.9658062,0.0 107.7051363,-6.9659074,0.0 107.7055501,-6.9662143,0.0</coordinates>
            </LineString>
        </Placemark>
        <Placemark id="86807">
            <name>Jalan Pendamping SOR GBLA</name>
            <styleUrl>#86808</styleUrl>
            <LineString id="86806">
                <coordinates>107.7048165,-6.9668852,0.0 107.7054922,-6.9666558,0.0</coordinates>
            </LineString>
        </Placemark>
        <Placemark id="86811">
            <name>Jalan Viking</name>
            <styleUrl>#86812</styleUrl>
            <LineString id="86810">
                <coordinates>107.7097078,-6.9644722,0.0 107.7096384,-6.9645248,0.0</coordinates>
            </LineString>
        </Placemark>
        <Placemark id="86815">
            <name>Jembatan Cibiru Hilir</name>
            <styleUrl>#86816</styleUrl>
            <LineString id="86814">
                <coordinates>107.7167144,-6.9608899,0.0 107.717537,-6.962464,0.0 107.717579,-6.9625944,0.0 107.7176165,-6.9627331,0.0 107.7176289,-6.9628037,0.0 107.717635,-6.9629113,0.0 107.7176326,-6.9629922,0.0 107.7176204,-6.9630679,0.0 107.7176042,-6.9631376,0.0 107.7175591,-6.9632309,0.0 107.7174956,-6.9633235,0.0 107.7174227,-6.9634132,0.0 107.7173143,-6.9635054,0.0 107.7172024,-6.9635806,0.0 107.7168843,-6.9637584,0.0 107.7165497,-6.9639551,0.0</coordinates>
            </LineString>
        </Placemark>
        <Placemark id="86819">
            <name>Jalan Viking</name>
            <styleUrl>#86820</styleUrl>
            <LineString id="86818">
                <coordinates>107.7156383,-6.9592519,0.0 107.7156274,-6.9595152,0.0 107.715616,-6.9596685,0.0 107.7155091,-6.9608643,0.0 107.7154845,-6.9610142,0.0 107.7154506,-6.9611151,0.0 107.7153951,-6.9612069,0.0 107.715161,-6.9614301,0.0 107.7149509,-6.9615999,0.0 107.7148359,-6.9616794,0.0 107.7145756,-6.9618491,0.0 107.713907,-6.9622742,0.0 107.7133709,-6.9626137,0.0 107.7128409,-6.9629287,0.0 107.7122833,-6.9632498,0.0 107.7113132,-6.9637659,0.0 107.7111001,-6.9638666,0.0 107.7108376,-6.9639854,0.0 107.7104766,-6.9641308,0.0 107.7102995,-6.9641977,0.0 107.7101172,-6.9642693,0.0 107.7100316,-6.9642994,0.0 107.7099642,-6.9643293,0.0 107.709882,-6.9643727,0.0 107.7098033,-6.9644116,0.0 107.7097078,-6.9644722,0.0</coordinates>
            </LineString>
        </Placemark>
        <Placemark id="86823">
            <name>Jalan Pendamping SOR GBLA</name>
            <styleUrl>#86824</styleUrl>
            <LineString id="86822">
                <coordinates>107.7096384,-6.9645248,0.0 107.7095189,-6.9646644,0.0</coordinates>
            </LineString>
        </Placemark>
        <Placemark id="86827">
            <name>Bulevar Raya</name>
            <styleUrl>#86828</styleUrl>
            <LineString id="86826">
                <coordinates>107.7029362,-6.9610505,0.0 107.7031132,-6.9613003,0.0 107.7033522,-6.9615558,0.0 107.7035036,-6.9616718,0.0 107.7036967,-6.9618012,0.0 107.703881,-6.9618755,0.0 107.7041353,-6.9618887,0.0 107.7043598,-6.961891,0.0 107.7045112,-6.9618994,0.0 107.704637,-6.9619259,0.0</coordinates>
            </LineString>
        </Placemark>
        <Placemark id="86831">
            <name>Bulevar Teknopolis</name>
            <styleUrl>#86832</styleUrl>
            <LineString id="86830">
                <coordinates>107.7003287,-6.9545981,0.0 107.7002512,-6.9544197,0.0 107.7000917,-6.9540522,0.0 107.700012,-6.9539291,0.0 107.6999165,-6.9538154,0.0 107.6998286,-6.9537383,0.0 107.6997652,-6.9536838,0.0 107.6996606,-6.9536249,0.0</coordinates>
            </LineString>
        </Placemark>
        <Placemark id="86835">
            <name>Route Segment</name>
            <styleUrl>#86836</styleUrl>
            <LineString id="86834">
                <coordinates>107.7156383,-6.9592519,0.0 107.7157272,-6.9592459,0.0 107.7158475,-6.959215,0.0 107.7162597,-6.9590776,0.0 107.7162865,-6.9590718,0.0 107.7163263,-6.959074,0.0</coordinates>
            </LineString>
        </Placemark>
        <Placemark id="86839">
            <name>Jalan Pendamping SOR GBLA</name>
            <styleUrl>#86840</styleUrl>
            <LineString id="86838">
                <coordinates>107.7093634,-6.9647728,0.0 107.7092286,-6.9648613,0.0 107.7081844,-6.9654287,0.0 107.7072384,-6.9659188,0.0 107.7061892,-6.9664623,0.0 107.7060735,-6.9665156,0.0</coordinates>
            </LineString>
        </Placemark>
        <Placemark id="86843">
            <name>Jalan Pendamping SOR GBLA</name>
            <styleUrl>#86844</styleUrl>
            <LineString id="86842">
                <coordinates>107.7048267,-6.9669504,0.0 107.7047451,-6.9669814,0.0</coordinates>
            </LineString>
        </Placemark>
        <Placemark id="86847">
            <name>Route Segment</name>
            <styleUrl>#86848</styleUrl>
            <LineString id="86846">
                <coordinates>107.7163263,-6.959074,0.0 107.7163556,-6.9590959,0.0 107.7163982,-6.9591373,0.0 107.716473,-6.9592099,0.0 107.7165565,-6.9592972,0.0 107.7166041,-6.9593598,0.0 107.7166371,-6.9594734,0.0 107.7166497,-6.9595643,0.0 107.7166521,-6.9596405,0.0 107.7166472,-6.9597487,0.0 107.7166404,-6.959805,0.0 107.7165711,-6.9602465,0.0 107.7165586,-6.9603283,0.0</coordinates>
            </LineString>
        </Placemark>
        <Placemark id="86851">
            <name>Bulevar Raya</name>
            <styleUrl>#86852</styleUrl>
            <LineString id="86850">
                <coordinates>107.7022597,-6.9592562,0.0 107.7021955,-6.9591065,0.0 107.7020591,-6.9587935,0.0 107.701425,-6.9573089,0.0</coordinates>
            </LineString>
        </Placemark>
        <Placemark id="86855">
            <name>Route Segment</name>
            <styleUrl>#86856</styleUrl>
            <LineString id="86854">
                <coordinates>107.6969959,-6.9544317,0.0 107.696962,-6.9545258,0.0 107.6969343,-6.954603,0.0 107.6969096,-6.9546235,0.0 107.6967818,-6.9546839,0.0 107.6967186,-6.9547151,0.0 107.6966963,-6.9547357,0.0 107.6966825,-6.9547612,0.0 107.6966599,-6.9548824,0.0 107.6966411,-6.954964,0.0</coordinates>
            </LineString>
        </Placemark>
        <Placemark id="86859">
            <name>Jalan Sentra Raya Selatan</name>
            <styleUrl>#86860</styleUrl>
            <LineString id="86858">
                <coordinates>107.6977367,-6.9541133,0.0 107.6972853,-6.9543105,0.0</coordinates>
            </LineString>
        </Placemark>
        <Placemark id="86863">
            <name>Route Segment</name>
            <styleUrl>#86864</styleUrl>
            <LineString id="86862">
                <coordinates>107.7165497,-6.9639551,0.0 107.716494,-6.9639782,0.0</coordinates>
            </LineString>
        </Placemark>
        <Placemark id="86867">
            <name>Route Segment</name>
            <styleUrl>#86868</styleUrl>
            <LineString id="86866">
                <coordinates>107.7162802,-6.9638765,0.0 107.7162988,-6.9638827,0.0 107.7163152,-6.9638934,0.0 107.7163281,-6.9639081,0.0</coordinates>
            </LineString>
        </Placemark>
        <Placemark id="86871">
            <name>Route Segment</name>
            <styleUrl>#86872</styleUrl>
            <LineString id="86870">
                <coordinates>107.7163281,-6.9639081,0.0 107.7163455,-6.9639273,0.0 107.7163709,-6.9639456,0.0 107.7164207,-6.9639642,0.0 107.716494,-6.9639782,0.0</coordinates>
            </LineString>
        </Placemark>
        <Placemark id="86875">
            <name>Bulevar Teknopolis</name>
            <styleUrl>#86876</styleUrl>
            <LineString id="86874">
                <coordinates>107.7003724,-6.9550027,0.0 107.7003766,-6.9549351,0.0 107.7003782,-6.9548372,0.0 107.7003582,-6.9547301,0.0 107.7003531,-6.9547076,0.0 107.7003287,-6.9545981,0.0</coordinates>
            </LineString>
        </Placemark>
        <Placemark id="86879">
            <name>Bulevar Raya</name>
            <styleUrl>#86880</styleUrl>
            <LineString id="86878">
                <coordinates>107.7050381,-6.9622345,0.0 107.7049897,-6.9621885,0.0</coordinates>
            </LineString>
        </Placemark>
        <Placemark id="86883">
            <name>Bulevar Raya</name>
            <styleUrl>#86884</styleUrl>
            <LineString id="86882">
                <coordinates>107.7047987,-6.9620604,0.0 107.7046867,-6.9619813,0.0 107.704637,-6.9619259,0.0</coordinates>
            </LineString>
        </Placemark>
        <Placemark id="86887">
            <name>Bulevar Raya</name>
            <styleUrl>#86888</styleUrl>
            <LineString id="86886">
                <coordinates>107.7049897,-6.9621885,0.0 107.7047987,-6.9620604,0.0</coordinates>
            </LineString>
        </Placemark>
        <Placemark id="86891">
            <name>Bulevar Raya</name>
            <styleUrl>#86892</styleUrl>
            <LineString id="86890">
                <coordinates>107.7024921,-6.9597647,0.0 107.7026306,-6.9602182,0.0 107.7027233,-6.960531,0.0 107.702778,-6.9606778,0.0 107.7029362,-6.9610505,0.0</coordinates>
            </LineString>
        </Placemark>
        <Placemark id="86895">
            <name>Jalan Pendamping SOR GBLA</name>
            <styleUrl>#86896</styleUrl>
            <LineString id="86894">
                <coordinates>107.7060735,-6.9665156,0.0 107.7048267,-6.9669504,0.0</coordinates>
            </LineString>
        </Placemark>
        <Placemark id="86899">
            <name>Jalan Rancanumpang</name>
            <styleUrl>#86900</styleUrl>
            <LineString id="86898">
                <coordinates>107.7047893,-6.9640891,0.0 107.7047856,-6.9641353,0.0 107.7047789,-6.9643526,0.0 107.7047731,-6.9644231,0.0 107.7047849,-6.9648757,0.0 107.7047865,-6.9651019,0.0 107.7047827,-6.965274,0.0 107.7047792,-6.9654075,0.0</coordinates>
            </LineString>
        </Placemark>
        <Placemark id="86903">
            <name>Bunderan Grand Bulevar</name>
            <styleUrl>#86904</styleUrl>
            <LineString id="86902">
                <coordinates>107.7003921,-6.9553478,0.0 107.7003501,-6.9552945,0.0 107.7003236,-6.9552322,0.0 107.7003144,-6.9551651,0.0</coordinates>
            </LineString>
        </Placemark>
        <Placemark id="86907">
            <name>Route Segment</name>
            <styleUrl>#86908</styleUrl>
            <LineString id="86906">
                <coordinates>107.7047451,-6.9669814,0.0 107.7047337,-6.9669179,0.0</coordinates>
            </LineString>
        </Placemark>
        <Placemark id="86911">
            <name>Bunderan Grand Bulevar</name>
            <styleUrl>#86912</styleUrl>
            <LineString id="86910">
                <coordinates>107.7003144,-6.9551651,0.0 107.7003293,-6.9550789,0.0 107.7003724,-6.9550027,0.0</coordinates>
            </LineString>
        </Placemark>
        <Placemark id="86915">
            <name>Bulevar Raya</name>
            <styleUrl>#86916</styleUrl>
            <LineString id="86914">
                <coordinates>107.701425,-6.9573089,0.0 107.7013563,-6.9571496,0.0 107.7007268,-6.9556713,0.0 107.7006183,-6.9554167,0.0</coordinates>
            </LineString>
        </Placemark>
        <Placemark id="86919">
            <name>Jalan Sentra Raya Selatan</name>
            <styleUrl>#86920</styleUrl>
            <LineString id="86918">
                <coordinates>107.6981316,-6.953939,0.0 107.6979452,-6.9540215,0.0 107.6978476,-6.9540636,0.0 107.6977367,-6.9541133,0.0</coordinates>
            </LineString>
        </Placemark>
        <Placemark id="86923">
            <name>Bulevar Raya</name>
            <styleUrl>#86924</styleUrl>
            <LineString id="86922">
                <coordinates>107.7023566,-6.9595125,0.0 107.7022597,-6.9592562,0.0</coordinates>
            </LineString>
        </Placemark>
        <Placemark id="86927">
            <name>Bulevar Raya</name>
            <styleUrl>#86928</styleUrl>
            <LineString id="86926">
                <coordinates>107.7024921,-6.9597647,0.0 107.7023566,-6.9595125,0.0</coordinates>
            </LineString>
        </Placemark>
        <Placemark id="86931">
            <name>Route Segment</name>
            <styleUrl>#86932</styleUrl>
            <LineString id="86930">
                <coordinates>107.6966324,-6.9549997,0.0 107.6966284,-6.9550232,0.0 107.6965854,-6.9552132,0.0</coordinates>
            </LineString>
        </Placemark>
        <Placemark id="86935">
            <name>Route Segment</name>
            <styleUrl>#86936</styleUrl>
            <LineString id="86934">
                <coordinates>107.7165586,-6.9603283,0.0 107.7165557,-6.9603849,0.0 107.7165571,-6.9604579,0.0 107.7165714,-6.9605488,0.0 107.7165982,-6.9606317,0.0 107.7166535,-6.9607608,0.0 107.7167144,-6.9608899,0.0</coordinates>
            </LineString>
        </Placemark>
        <Placemark id="86939">
            <name>Bulevar Teknopolis</name>
            <styleUrl>#86940</styleUrl>
            <LineString id="86938">
                <coordinates>107.6996606,-6.9536249,0.0 107.6995412,-6.9536068,0.0 107.6993897,-6.9535535,0.0 107.6991954,-6.9534875,0.0</coordinates>
            </LineString>
        </Placemark>
        <Placemark id="86943">
            <name>Jalan Pendamping SOR GBLA</name>
            <styleUrl>#86944</styleUrl>
            <LineString id="86942">
                <coordinates>107.7095189,-6.9646644,0.0 107.7093634,-6.9647728,0.0</coordinates>
            </LineString>
        </Placemark>
        <Placemark id="86947">
            <name>Route Segment</name>
            <styleUrl>#86948</styleUrl>
            <LineString id="86946">
                <coordinates>107.6965642,-6.9553172,0.0 107.6965698,-6.9552898,0.0 107.6965854,-6.9552132,0.0</coordinates>
            </LineString>
        </Placemark>
        <Placemark id="86951">
            <name>Route Segment</name>
            <styleUrl>#86952</styleUrl>
            <LineString id="86950">
                <coordinates>107.715309,-6.964515,0.0 107.7154315,-6.9644473,0.0 107.7160157,-6.9641366,0.0 107.7162421,-6.9640181,0.0</coordinates>
            </LineString>
        </Placemark>
        <Placemark id="86955">
            <name>Jalan Rancanumpang</name>
            <styleUrl>#86956</styleUrl>
            <LineString id="86954">
                <coordinates>107.7050381,-6.9622345,0.0 107.7050131,-6.9624774,0.0 107.7049667,-6.9628317,0.0 107.7049458,-6.962995,0.0 107.7048355,-6.9636436,0.0</coordinates>
            </LineString>
        </Placemark>
        <Placemark id="86959">
            <name>Jalan Rancanumpang</name>
            <styleUrl>#86960</styleUrl>
            <LineString id="86958">
                <coordinates>107.7048355,-6.9636436,0.0 107.7047984,-6.9639702,0.0 107.7047893,-6.9640891,0.0</coordinates>
            </LineString>
        </Placemark>
        <Placemark id="86963">
            <name>Route Segment</name>
            <styleUrl>#86964</styleUrl>
            <LineString id="86962">
                <coordinates>107.7162421,-6.9640181,0.0 107.7162261,-6.9640115,0.0 107.7162071,-6.9639941,0.0 107.7161952,-6.9639714,0.0 107.7161918,-6.9639461,0.0 107.7161973,-6.9639211,0.0 107.7162032,-6.9639097,0.0 107.716211,-6.9638995,0.0 107.7162204,-6.9638908,0.0</coordinates>
            </LineString>
        </Placemark>
        <Placemark id="86967">
            <name>Route Segment</name>
            <styleUrl>#86968</styleUrl>
            <LineString id="86966">
                <coordinates>107.7162204,-6.9638908,0.0 107.7162327,-6.9638831,0.0</coordinates>
            </LineString>
        </Placemark>
        <Placemark id="86971">
            <name>Route Segment</name>
            <styleUrl>#86972</styleUrl>
            <LineString id="86970">
                <coordinates>107.7162327,-6.9638831,0.0 107.7162463,-6.9638779,0.0 107.7162606,-6.9638754,0.0 107.7162802,-6.9638765,0.0</coordinates>
            </LineString>
        </Placemark>
        <Placemark id="86975">
            <name>Jalan Pendamping SOR GBLA</name>
            <styleUrl>#86976</styleUrl>
            <LineString id="86974">
                <coordinates>107.7047337,-6.9669179,0.0 107.7048165,-6.9668852,0.0</coordinates>
            </LineString>
        </Placemark>
        <Placemark id="86979">
            <name>Route Segment</name>
            <styleUrl>#86980</styleUrl>
            <LineString id="86978">
                <coordinates>107.6966411,-6.954964,0.0 107.6966385,-6.9549823,0.0 107.6966324,-6.9549997,0.0</coordinates>
            </LineString>
        </Placemark>
        <Placemark id="86983">
            <name>Jalan Sentra Raya Selatan</name>
            <styleUrl>#86984</styleUrl>
            <LineString id="86982">
                <coordinates>107.6972853,-6.9543105,0.0 107.6969959,-6.9544317,0.0</coordinates>
            </LineString>
        </Placemark>
        <Placemark id="86987">
            <name>Bunderan Grand Bulevar</name>
            <styleUrl>#86988</styleUrl>
            <LineString id="86986">
                <coordinates>107.7006183,-6.9554167,0.0 107.7005368,-6.9554183,0.0 107.7004588,-6.9553945,0.0 107.7003921,-6.9553478,0.0</coordinates>
            </LineString>
        </Placemark>
        <Placemark id="86991">
            <name>Jalan Sentra Raya Selatan</name>
            <styleUrl>#86992</styleUrl>
            <LineString id="86990">
                <coordinates>107.6991954,-6.9534875,0.0 107.6990174,-6.9535555,0.0 107.6986387,-6.9537205,0.0 107.698322,-6.9538565,0.0</coordinates>
            </LineString>
        </Placemark>
        <Placemark id="86995">
            <name>Jalan Sentra Raya Selatan</name>
            <styleUrl>#86996</styleUrl>
            <LineString id="86994">
                <coordinates>107.698322,-6.9538565,0.0 107.6982038,-6.9539077,0.0</coordinates>
            </LineString>
        </Placemark>
        <Placemark id="86999">
            <name>Jalan Sentra Raya Selatan</name>
            <styleUrl>#87000</styleUrl>
            <LineString id="86998">
                <coordinates>107.6982038,-6.9539077,0.0 107.6981316,-6.953939,0.0</coordinates>
            </LineString>
        </Placemark>
    </Document>
</kml>
